{"type":"FeatureCollection","features":[{"type":"Feature","geometry":{"type":"Polygon","coordinates":[[[115.245297,-8.722761],[115.245296,-8.722851],[115.245478,-8.722852],[115.245479,-8.722762],[115.245297,-8.722761]]]},"properties":{"id":"bali_2026-07-05_lgbm_0","region":"bali","date":"2026-07-05","area_m2":200.0,"mean_prob":0.9627,"max_prob":0.9725,"model":"lgbm","n_px":2,"px_area_m2":100.0,"confirmed":false,"confirmed_by":null,"lon":115.245388,"lat":-8.722806}},{"type":"Feature","geometry":{"type":"Polygon","coordinates":[[[115.280827,-8.722923],[115.280827,-8.723014],[115.281008,-8.723015],[115.281009,-8.722924],[115.280827,-8.722923]]]},"properties":{"id":"bali_2026-07-05_lgbm_1","region":"bali","date":"2026-07-05","area_m2":200.0,"mean_prob":0.8784,"max_prob":0.9373,"model":"lgbm","n_px":2,"px_area_m2":100.0,"confirmed":false,"confirmed_by":null,"lon":115.280918,"lat":-8.722969}},{"type":"Feature","geometry":{"type":"Polygon","coordinates":[[[115.247285,-8.72503],[115.247285,-8.725211],[115.247466,-8.725212],[115.247467,-8.725031],[115.247285,-8.72503]]]},"properties":{"id":"bali_2026-07-05_lgbm_2","region":"bali","date":"2026-07-05","area_m2":400.0,"mean_prob":0.9578,"max_prob":0.9843,"model":"lgbm","n_px":4,"px_area_m2":100.0,"confirmed":false,"confirmed_by":null,"lon":115.247376,"lat":-8.725121}},{"type":"Feature","geometry":{"type":"Polygon","coordinates":[[[115.240247,-8.772464],[115.240247,-8.772554],[115.240156,-8.772554],[115.240156,-8.772644],[115.240337,-8.772645],[115.240338,-8.772464],[115.240247,-8.772464]]]},"properties":{"id":"bali_2026-07-05_lgbm_3","region":"bali","date":"2026-07-05","area_m2":300.0,"mean_prob":0.9412,"max_prob":0.949,"model":"lgbm","n_px":3,"px_area_m2":100.0,"confirmed":false,"confirmed_by":null,"lon":115.240262,"lat":-8.772569}},{"type":"Feature","geometry":{"type":"Polygon","coordinates":[[[115.299488,-8.77599],[115.299487,-8.776171],[115.299578,-8.776171],[115.299579,-8.77599],[115.299488,-8.77599]]]},"properties":{"id":"bali_2026-07-05_lgbm_4","region":"bali","date":"2026-07-05","area_m2":200.0,"mean_prob":0.7765,"max_prob":0.8863,"model":"lgbm","n_px":2,"px_area_m2":100.0,"confirmed":false,"confirmed_by":null,"lon":115.299533,"lat":-8.776081}},{"type":"Feature","geometry":{"type":"Polygon","coordinates":[[[115.252849,-8.779032],[115.252849,-8.779122],[115.253031,-8.779123],[115.253031,-8.779033],[115.252849,-8.779032]]]},"properties":{"id":"bali_2026-07-05_lgbm_5","region":"bali","date":"2026-07-05","area_m2":200.0,"mean_prob":0.9882,"max_prob":0.9882,"model":"lgbm","n_px":2,"px_area_m2":100.0,"confirmed":false,"confirmed_by":null,"lon":115.25294,"lat":-8.779077}},{"type":"Feature","geometry":{"type":"Polygon","coordinates":[[[115.285459,-8.782979],[115.285458,-8.78316],[115.285549,-8.78316],[115.28555,-8.782979],[115.285459,-8.782979]]]},"properties":{"id":"bali_2026-07-05_lgbm_6","region":"bali","date":"2026-07-05","area_m2":200.0,"mean_prob":0.8804,"max_prob":0.9569,"model":"lgbm","n_px":2,"px_area_m2":100.0,"confirmed":false,"confirmed_by":null,"lon":115.285504,"lat":-8.783069}},{"type":"Feature","geometry":{"type":"Polygon","coordinates":[[[115.289639,-8.783179],[115.289638,-8.783359],[115.289729,-8.78336],[115.28973,-8.783269],[115.289821,-8.78327],[115.289821,-8.783179],[115.289639,-8.783179]]]},"properties":{"id":"bali_2026-07-05_lgbm_7","region":"bali","date":"2026-07-05","area_m2":300.0,"mean_prob":0.834,"max_prob":0.9216,"model":"lgbm","n_px":3,"px_area_m2":100.0,"confirmed":false,"confirmed_by":null,"lon":115.289715,"lat":-8.783254}},{"type":"Feature","geometry":{"type":"Polygon","coordinates":[[[115.300182,-8.783226],[115.300181,-8.783407],[115.300272,-8.783407],[115.300273,-8.783227],[115.300182,-8.783226]]]},"properties":{"id":"bali_2026-07-05_lgbm_8","region":"bali","date":"2026-07-05","area_m2":200.0,"mean_prob":0.9686,"max_prob":0.9961,"model":"lgbm","n_px":2,"px_area_m2":100.0,"confirmed":false,"confirmed_by":null,"lon":115.300227,"lat":-8.783317}},{"type":"Feature","geometry":{"type":"Polygon","coordinates":[[[115.286528,-8.787685],[115.286528,-8.787775],[115.28671,-8.787776],[115.28671,-8.787686],[115.286528,-8.787685]]]},"properties":{"id":"bali_2026-07-05_lgbm_9","region":"bali","date":"2026-07-05","area_m2":200.0,"mean_prob":0.9529,"max_prob":0.9765,"model":"lgbm","n_px":2,"px_area_m2":100.0,"confirmed":false,"confirmed_by":null,"lon":115.286619,"lat":-8.787731}},{"type":"Feature","geometry":{"type":"Polygon","coordinates":[[[115.34559,-8.791475],[115.34559,-8.791566],[115.345681,-8.791566],[115.34568,-8.791656],[115.345771,-8.791657],[115.345772,-8.791476],[115.34559,-8.791475]]]},"properties":{"id":"bali_2026-07-05_lgbm_10","region":"bali","date":"2026-07-05","area_m2":300.0,"mean_prob":0.783,"max_prob":0.8784,"model":"lgbm","n_px":3,"px_area_m2":100.0,"confirmed":false,"confirmed_by":null,"lon":115.345696,"lat":-8.791551}},{"type":"Feature","geometry":{"type":"Polygon","coordinates":[[[115.276968,-8.791348],[115.276968,-8.791439],[115.277149,-8.79144],[115.27715,-8.791349],[115.276968,-8.791348]]]},"properties":{"id":"bali_2026-07-05_lgbm_11","region":"bali","date":"2026-07-05","area_m2":200.0,"mean_prob":0.8725,"max_prob":0.9843,"model":"lgbm","n_px":2,"px_area_m2":100.0,"confirmed":false,"confirmed_by":null,"lon":115.277059,"lat":-8.791394}},{"type":"Feature","geometry":{"type":"Polygon","coordinates":[[[115.248511,-8.793297],[115.24851,-8.793477],[115.248601,-8.793478],[115.248602,-8.793297],[115.248511,-8.793297]]]},"properties":{"id":"bali_2026-07-05_lgbm_12","region":"bali","date":"2026-07-05","area_m2":200.0,"mean_prob":0.9255,"max_prob":0.9882,"model":"lgbm","n_px":2,"px_area_m2":100.0,"confirmed":false,"confirmed_by":null,"lon":115.248556,"lat":-8.793387}},{"type":"Feature","geometry":{"type":"Polygon","coordinates":[[[115.294098,-8.801824],[115.294098,-8.801914],[115.294189,-8.801915],[115.294188,-8.802005],[115.294279,-8.802006],[115.29428,-8.801915],[115.294189,-8.801915],[115.294189,-8.801824],[115.294098,-8.801824]]]},"properties":{"id":"bali_2026-07-05_lgbm_13","region":"bali","date":"2026-07-05","area_m2":200.0,"mean_prob":0.9118,"max_prob":0.9333,"model":"lgbm","n_px":2,"px_area_m2":100.0,"confirmed":false,"confirmed_by":null,"lon":115.294189,"lat":-8.801915}},{"type":"Feature","geometry":{"type":"Polygon","coordinates":[[[115.305001,-8.802687],[115.305001,-8.802868],[115.305092,-8.802868],[115.305092,-8.802687],[115.305001,-8.802687]]]},"properties":{"id":"bali_2026-07-05_lgbm_14","region":"bali","date":"2026-07-05","area_m2":200.0,"mean_prob":0.8451,"max_prob":0.9725,"model":"lgbm","n_px":2,"px_area_m2":100.0,"confirmed":false,"confirmed_by":null,"lon":115.305046,"lat":-8.802778}},{"type":"Feature","geometry":{"type":"Polygon","coordinates":[[[115.247917,-8.803601],[115.247917,-8.803691],[115.247826,-8.803691],[115.247825,-8.803781],[115.248007,-8.803782],[115.248008,-8.803601],[115.247917,-8.803601]]]},"properties":{"id":"bali_2026-07-05_lgbm_15","region":"bali","date":"2026-07-05","area_m2":300.0,"mean_prob":0.8105,"max_prob":0.8902,"model":"lgbm","n_px":3,"px_area_m2":100.0,"confirmed":false,"confirmed_by":null,"lon":115.247932,"lat":-8.803706}},{"type":"Feature","geometry":{"type":"Polygon","coordinates":[[[115.317145,-8.810607],[115.317145,-8.810788],[115.317235,-8.810789],[115.317236,-8.810608],[115.317145,-8.810607]]]},"properties":{"id":"bali_2026-07-05_lgbm_16","region":"bali","date":"2026-07-05","area_m2":200.0,"mean_prob":0.7157,"max_prob":0.7804,"model":"lgbm","n_px":2,"px_area_m2":100.0,"confirmed":false,"confirmed_by":null,"lon":115.31719,"lat":-8.810698}},{"type":"Feature","geometry":{"type":"Polygon","coordinates":[[[115.318049,-8.811877],[115.318048,-8.811968],[115.31823,-8.811969],[115.31823,-8.811878],[115.318049,-8.811877]]]},"properties":{"id":"bali_2026-07-05_lgbm_17","region":"bali","date":"2026-07-05","area_m2":200.0,"mean_prob":0.8,"max_prob":0.8549,"model":"lgbm","n_px":2,"px_area_m2":100.0,"confirmed":false,"confirmed_by":null,"lon":115.318139,"lat":-8.811923}},{"type":"Feature","geometry":{"type":"Polygon","coordinates":[[[115.322678,-8.813345],[115.322677,-8.813435],[115.322768,-8.813435],[115.322768,-8.813526],[115.322859,-8.813526],[115.322859,-8.813436],[115.322768,-8.813435],[115.322769,-8.813345],[115.322678,-8.813345]]]},"properties":{"id":"bali_2026-07-05_lgbm_18","region":"bali","date":"2026-07-05","area_m2":200.0,"mean_prob":0.7255,"max_prob":0.7569,"model":"lgbm","n_px":2,"px_area_m2":100.0,"confirmed":false,"confirmed_by":null,"lon":115.322768,"lat":-8.813435}},{"type":"Feature","geometry":{"type":"Polygon","coordinates":[[[115.339584,-8.81351],[115.339583,-8.813691],[115.339674,-8.813691],[115.339675,-8.81351],[115.339584,-8.81351]]]},"properties":{"id":"bali_2026-07-05_lgbm_19","region":"bali","date":"2026-07-05","area_m2":200.0,"mean_prob":0.702,"max_prob":0.7333,"model":"lgbm","n_px":2,"px_area_m2":100.0,"confirmed":false,"confirmed_by":null,"lon":115.339629,"lat":-8.813601}},{"type":"Feature","geometry":{"type":"Polygon","coordinates":[[[115.349204,-8.816988],[115.349203,-8.817079],[115.349385,-8.817079],[115.349385,-8.816989],[115.349204,-8.816988]]]},"properties":{"id":"bali_2026-07-05_lgbm_20","region":"bali","date":"2026-07-05","area_m2":200.0,"mean_prob":0.8569,"max_prob":0.9569,"model":"lgbm","n_px":2,"px_area_m2":100.0,"confirmed":false,"confirmed_by":null,"lon":115.349294,"lat":-8.817034}},{"type":"Feature","geometry":{"type":"Polygon","coordinates":[[[115.349006,-8.820423],[115.349006,-8.820514],[115.349188,-8.820514],[115.349188,-8.820424],[115.349006,-8.820423]]]},"properties":{"id":"bali_2026-07-05_lgbm_21","region":"bali","date":"2026-07-05","area_m2":200.0,"mean_prob":0.9294,"max_prob":0.9412,"model":"lgbm","n_px":2,"px_area_m2":100.0,"confirmed":false,"confirmed_by":null,"lon":115.349097,"lat":-8.820469}},{"type":"Feature","geometry":{"type":"Polygon","coordinates":[[[115.339,-8.822187],[115.338999,-8.822278],[115.339181,-8.822279],[115.339181,-8.822188],[115.339,-8.822187]]]},"properties":{"id":"bali_2026-07-05_lgbm_22","region":"bali","date":"2026-07-05","area_m2":200.0,"mean_prob":0.702,"max_prob":0.7098,"model":"lgbm","n_px":2,"px_area_m2":100.0,"confirmed":false,"confirmed_by":null,"lon":115.33909,"lat":-8.822233}},{"type":"Feature","geometry":{"type":"Polygon","coordinates":[[[115.355715,-8.824521],[115.355714,-8.824702],[115.355805,-8.824703],[115.355806,-8.824522],[115.355715,-8.824521]]]},"properties":{"id":"bali_2026-07-05_lgbm_23","region":"bali","date":"2026-07-05","area_m2":200.0,"mean_prob":0.8157,"max_prob":0.9804,"model":"lgbm","n_px":2,"px_area_m2":100.0,"confirmed":false,"confirmed_by":null,"lon":115.35576,"lat":-8.824612}},{"type":"Feature","geometry":{"type":"Polygon","coordinates":[[[115.361349,-8.824998],[115.361348,-8.825088],[115.361439,-8.825089],[115.361439,-8.825179],[115.36153,-8.82518],[115.36153,-8.825089],[115.361439,-8.825089],[115.36144,-8.824998],[115.361349,-8.824998]]]},"properties":{"id":"bali_2026-07-05_lgbm_24","region":"bali","date":"2026-07-05","area_m2":200.0,"mean_prob":0.7353,"max_prob":0.7412,"model":"lgbm","n_px":2,"px_area_m2":100.0,"confirmed":false,"confirmed_by":null,"lon":115.361439,"lat":-8.825089}},{"type":"Feature","geometry":{"type":"Polygon","coordinates":[[[115.36362,-8.825189],[115.36362,-8.825279],[115.363529,-8.825279],[115.363528,-8.82546],[115.363619,-8.82546],[115.36362,-8.825279],[115.363711,-8.82528],[115.363711,-8.825189],[115.36362,-8.825189]]]},"properties":{"id":"bali_2026-07-05_lgbm_25","region":"bali","date":"2026-07-05","area_m2":300.0,"mean_prob":0.8144,"max_prob":0.9137,"model":"lgbm","n_px":3,"px_area_m2":100.0,"confirmed":false,"confirmed_by":null,"lon":115.363605,"lat":-8.825324}},{"type":"Feature","geometry":{"type":"Polygon","coordinates":[[[115.354787,-8.828767],[115.354787,-8.828857],[115.354878,-8.828858],[115.354877,-8.828948],[115.354968,-8.828948],[115.354968,-8.828858],[115.354878,-8.828858],[115.354878,-8.828767],[115.354787,-8.828767]]]},"properties":{"id":"bali_2026-07-05_lgbm_26","region":"bali","date":"2026-07-05","area_m2":200.0,"mean_prob":0.8059,"max_prob":0.8902,"model":"lgbm","n_px":2,"px_area_m2":100.0,"confirmed":false,"confirmed_by":null,"lon":115.354878,"lat":-8.828858}},{"type":"Feature","geometry":{"type":"Polygon","coordinates":[[[115.339676,-8.853926],[115.339675,-8.854107],[115.339766,-8.854107],[115.339767,-8.853927],[115.339676,-8.853926]]]},"properties":{"id":"bali_2026-07-05_lgbm_27","region":"bali","date":"2026-07-05","area_m2":200.0,"mean_prob":0.7941,"max_prob":0.9255,"model":"lgbm","n_px":2,"px_area_m2":100.0,"confirmed":false,"confirmed_by":null,"lon":115.339721,"lat":-8.854017}},{"type":"Feature","geometry":{"type":"Polygon","coordinates":[[[115.348765,-8.854238],[115.348764,-8.854418],[115.348855,-8.854419],[115.348856,-8.854238],[115.348765,-8.854238]]]},"properties":{"id":"bali_2026-07-05_lgbm_28","region":"bali","date":"2026-07-05","area_m2":200.0,"mean_prob":0.8549,"max_prob":0.8824,"model":"lgbm","n_px":2,"px_area_m2":100.0,"confirmed":false,"confirmed_by":null,"lon":115.34881,"lat":-8.854328}},{"type":"Feature","geometry":{"type":"Polygon","coordinates":[[[115.25862,-8.866487],[115.258619,-8.866577],[115.258801,-8.866578],[115.258801,-8.866487],[115.25862,-8.866487]]]},"properties":{"id":"bali_2026-07-05_lgbm_29","region":"bali","date":"2026-07-05","area_m2":200.0,"mean_prob":0.8941,"max_prob":0.9333,"model":"lgbm","n_px":2,"px_area_m2":100.0,"confirmed":false,"confirmed_by":null,"lon":115.25871,"lat":-8.866532}},{"type":"Feature","geometry":{"type":"Polygon","coordinates":[[[115.253233,-8.871344],[115.253233,-8.871434],[115.253415,-8.871435],[115.253415,-8.871344],[115.253233,-8.871344]]]},"properties":{"id":"bali_2026-07-05_lgbm_30","region":"bali","date":"2026-07-05","area_m2":200.0,"mean_prob":0.849,"max_prob":0.9255,"model":"lgbm","n_px":2,"px_area_m2":100.0,"confirmed":false,"confirmed_by":null,"lon":115.253324,"lat":-8.871389}},{"type":"Feature","geometry":{"type":"Polygon","coordinates":[[[115.375923,-8.880396],[115.375922,-8.880577],[115.376013,-8.880578],[115.376014,-8.880397],[115.375923,-8.880396]]]},"properties":{"id":"bali_2026-07-05_lgbm_31","region":"bali","date":"2026-07-05","area_m2":200.0,"mean_prob":0.7451,"max_prob":0.7686,"model":"lgbm","n_px":2,"px_area_m2":100.0,"confirmed":false,"confirmed_by":null,"lon":115.375968,"lat":-8.880487}},{"type":"Feature","geometry":{"type":"Polygon","coordinates":[[[115.241895,-8.885123],[115.241895,-8.885214],[115.241985,-8.885214],[115.241985,-8.885304],[115.242076,-8.885305],[115.242076,-8.885214],[115.241985,-8.885214],[115.241986,-8.885124],[115.241895,-8.885123]]]},"properties":{"id":"bali_2026-07-05_lgbm_32","region":"bali","date":"2026-07-05","area_m2":200.0,"mean_prob":0.7353,"max_prob":0.7373,"model":"lgbm","n_px":2,"px_area_m2":100.0,"confirmed":false,"confirmed_by":null,"lon":115.241985,"lat":-8.885214}},{"type":"Feature","geometry":{"type":"Polygon","coordinates":[[[115.27279,-8.888251],[115.27279,-8.888342],[115.272972,-8.888342],[115.272972,-8.888252],[115.27279,-8.888251]]]},"properties":{"id":"bali_2026-07-05_lgbm_33","region":"bali","date":"2026-07-05","area_m2":200.0,"mean_prob":0.6941,"max_prob":0.7176,"model":"lgbm","n_px":2,"px_area_m2":100.0,"confirmed":false,"confirmed_by":null,"lon":115.272881,"lat":-8.888297}},{"type":"Feature","geometry":{"type":"Polygon","coordinates":[[[115.257502,-8.891435],[115.257501,-8.891525],[115.257683,-8.891526],[115.257684,-8.891436],[115.257502,-8.891435]]]},"properties":{"id":"bali_2026-07-05_lgbm_34","region":"bali","date":"2026-07-05","area_m2":200.0,"mean_prob":0.9078,"max_prob":0.9333,"model":"lgbm","n_px":2,"px_area_m2":100.0,"confirmed":false,"confirmed_by":null,"lon":115.257593,"lat":-8.89148}},{"type":"Feature","geometry":{"type":"Polygon","coordinates":[[[115.319686,-8.891811],[115.319685,-8.891992],[115.319776,-8.891992],[115.319776,-8.891811],[115.319686,-8.891811]]]},"properties":{"id":"bali_2026-07-05_lgbm_35","region":"bali","date":"2026-07-05","area_m2":200.0,"mean_prob":0.8392,"max_prob":0.9294,"model":"lgbm","n_px":2,"px_area_m2":100.0,"confirmed":false,"confirmed_by":null,"lon":115.319731,"lat":-8.891901}},{"type":"Feature","geometry":{"type":"Polygon","coordinates":[[[115.280221,-8.893349],[115.280221,-8.893439],[115.280403,-8.89344],[115.280403,-8.893349],[115.280221,-8.893349]]]},"properties":{"id":"bali_2026-07-05_lgbm_36","region":"bali","date":"2026-07-05","area_m2":200.0,"mean_prob":0.7431,"max_prob":0.749,"model":"lgbm","n_px":2,"px_area_m2":100.0,"confirmed":false,"confirmed_by":null,"lon":115.280312,"lat":-8.893394}},{"type":"Feature","geometry":{"type":"Polygon","coordinates":[[[115.341492,-8.894892],[115.341491,-8.895073],[115.341582,-8.895073],[115.341583,-8.894893],[115.341492,-8.894892]]]},"properties":{"id":"bali_2026-07-05_lgbm_37","region":"bali","date":"2026-07-05","area_m2":200.0,"mean_prob":0.8,"max_prob":0.9412,"model":"lgbm","n_px":2,"px_area_m2":100.0,"confirmed":false,"confirmed_by":null,"lon":115.341537,"lat":-8.894983}},{"type":"Feature","geometry":{"type":"Polygon","coordinates":[[[115.391271,-8.905056],[115.39127,-8.905237],[115.391361,-8.905238],[115.391362,-8.905057],[115.391271,-8.905056]]]},"properties":{"id":"bali_2026-07-05_lgbm_38","region":"bali","date":"2026-07-05","area_m2":200.0,"mean_prob":0.7549,"max_prob":0.7882,"model":"lgbm","n_px":2,"px_area_m2":100.0,"confirmed":false,"confirmed_by":null,"lon":115.391316,"lat":-8.905147}},{"type":"Feature","geometry":{"type":"Polygon","coordinates":[[[115.326615,-8.907393],[115.326614,-8.907574],[115.326705,-8.907575],[115.326706,-8.907394],[115.326615,-8.907393]]]},"properties":{"id":"bali_2026-07-05_lgbm_39","region":"bali","date":"2026-07-05","area_m2":200.0,"mean_prob":0.749,"max_prob":0.8471,"model":"lgbm","n_px":2,"px_area_m2":100.0,"confirmed":false,"confirmed_by":null,"lon":115.32666,"lat":-8.907484}},{"type":"Feature","geometry":{"type":"Polygon","coordinates":[[[115.371013,-8.921605],[115.371012,-8.921695],[115.371194,-8.921696],[115.371195,-8.921606],[115.371013,-8.921605]]]},"properties":{"id":"bali_2026-07-05_lgbm_40","region":"bali","date":"2026-07-05","area_m2":200.0,"mean_prob":0.7843,"max_prob":0.8431,"model":"lgbm","n_px":2,"px_area_m2":100.0,"confirmed":false,"confirmed_by":null,"lon":115.371103,"lat":-8.921651}},{"type":"Feature","geometry":{"type":"Polygon","coordinates":[[[115.293726,-8.921981],[115.293725,-8.922072],[115.293816,-8.922072],[115.293816,-8.922162],[115.293907,-8.922163],[115.293907,-8.922072],[115.293816,-8.922072],[115.293817,-8.921982],[115.293726,-8.921981]]]},"properties":{"id":"bali_2026-07-05_lgbm_41","region":"bali","date":"2026-07-05","area_m2":200.0,"mean_prob":0.8176,"max_prob":0.9412,"model":"lgbm","n_px":2,"px_area_m2":100.0,"confirmed":false,"confirmed_by":null,"lon":115.293816,"lat":-8.922072}},{"type":"Feature","geometry":{"type":"Polygon","coordinates":[[[115.319448,-8.923816],[115.319448,-8.923997],[115.319539,-8.923998],[115.319539,-8.923817],[115.319448,-8.923816]]]},"properties":{"id":"bali_2026-07-05_lgbm_42","region":"bali","date":"2026-07-05","area_m2":200.0,"mean_prob":0.751,"max_prob":0.7922,"model":"lgbm","n_px":2,"px_area_m2":100.0,"confirmed":false,"confirmed_by":null,"lon":115.319493,"lat":-8.923907}}]}