{"type": "FeatureCollection", "features": [{"type": "Feature", "id": "D-SZ-fresh-bali-2026-07-27-001-2", "geometry": {"type": "Polygon", "coordinates": [[[115.3613294, -8.7258111], [115.361329, -8.7259015], [115.3614199, -8.7259019], [115.3614203, -8.7258115], [115.3613294, -8.7258111]]]}, "properties": {"kind": "detection", "det_id": "D-SZ-fresh-bali-2026-07-27-001-2", "zone_id": "SZ-fresh-bali-2026-07-27-001", "scene_id": "S2A_MSIL2A_20260727T022131_R003_T50LLR_20260727T071608", "datetime": "2026-07-27T02:21:31.024000Z", "n_pixels": 1, "area_m2": 100, "prob_max": 0.7176, "prob_mean": 0.7176, "threshold": 0.63, "in_strip": true, "artifact": null}}, {"type": "Feature", "id": "D-SZ-fresh-bali-2026-07-27-001-3", "geometry": {"type": "Polygon", "coordinates": [[[115.3606846, -8.7277975], [115.3606838, -8.7279783], [115.3607747, -8.7279787], [115.3607754, -8.7277979], [115.3606846, -8.7277975]]]}, "properties": {"kind": "detection", "det_id": "D-SZ-fresh-bali-2026-07-27-001-3", "zone_id": "SZ-fresh-bali-2026-07-27-001", "scene_id": "S2A_MSIL2A_20260727T022131_R003_T50LLR_20260727T071608", "datetime": "2026-07-27T02:21:31.024000Z", "n_pixels": 2, "area_m2": 200, "prob_max": 0.7765, "prob_mean": 0.7373, "threshold": 0.63, "in_strip": true, "artifact": null}}, {"type": "Feature", "id": "D-SZ-fresh-bali-2026-07-27-001-4", "geometry": {"type": "Polygon", "coordinates": [[[115.3588592, -8.7295979], [115.3588588, -8.7296883], [115.3589496, -8.7296887], [115.35895, -8.7295983], [115.3588592, -8.7295979]]]}, "properties": {"kind": "detection", "det_id": "D-SZ-fresh-bali-2026-07-27-001-4", "zone_id": "SZ-fresh-bali-2026-07-27-001", "scene_id": "S2A_MSIL2A_20260727T022131_R003_T50LLR_20260727T071608", "datetime": "2026-07-27T02:21:31.024000Z", "n_pixels": 1, "area_m2": 100, "prob_max": 0.6863, "prob_mean": 0.6863, "threshold": 0.63, "in_strip": true, "artifact": null}}, {"type": "Feature", "id": "D-SZ-fresh-bali-2026-07-27-001-5", "geometry": {"type": "Polygon", "coordinates": [[[115.3583123, -8.7299572], [115.3583119, -8.7300476], [115.3584028, -8.730048], [115.3584032, -8.7299576], [115.3583123, -8.7299572]]]}, "properties": {"kind": "detection", "det_id": "D-SZ-fresh-bali-2026-07-27-001-5", "zone_id": "SZ-fresh-bali-2026-07-27-001", "scene_id": "S2A_MSIL2A_20260727T022131_R003_T50LLR_20260727T071608", "datetime": "2026-07-27T02:21:31.024000Z", "n_pixels": 1, "area_m2": 100, "prob_max": 0.7373, "prob_mean": 0.7373, "threshold": 0.63, "in_strip": true, "artifact": null}}, {"type": "Feature", "id": "D-SZ-fresh-bali-2026-07-27-002-25", "geometry": {"type": "Polygon", "coordinates": [[[115.3700802, -8.8238607], [115.3700798, -8.8239511], [115.3701707, -8.8239515], [115.3701711, -8.8238611], [115.3700802, -8.8238607]]]}, "properties": {"kind": "detection", "det_id": "D-SZ-fresh-bali-2026-07-27-002-25", "zone_id": "SZ-fresh-bali-2026-07-27-002", "scene_id": "S2A_MSIL2A_20260727T022131_R003_T50LLR_20260727T071608", "datetime": "2026-07-27T02:21:31.024000Z", "n_pixels": 1, "area_m2": 100, "prob_max": 0.7333, "prob_mean": 0.7333, "threshold": 0.63, "in_strip": true, "artifact": null}}, {"type": "Feature", "id": "D-SZ-fresh-bali-2026-07-27-002-27", "geometry": {"type": "Polygon", "coordinates": [[[115.3698027, -8.8249445], [115.3698023, -8.8250349], [115.3698932, -8.8250353], [115.3698936, -8.8249449], [115.3698027, -8.8249445]]]}, "properties": {"kind": "detection", "det_id": "D-SZ-fresh-bali-2026-07-27-002-27", "zone_id": "SZ-fresh-bali-2026-07-27-002", "scene_id": "S2A_MSIL2A_20260727T022131_R003_T50LLR_20260727T071608", "datetime": "2026-07-27T02:21:31.024000Z", "n_pixels": 1, "area_m2": 100, "prob_max": 0.6745, "prob_mean": 0.6745, "threshold": 0.63, "in_strip": true, "artifact": null}}, {"type": "Feature", "id": "D-SZ-fresh-bali-2026-07-27-002-28", "geometry": {"type": "Polygon", "coordinates": [[[115.3697106, -8.8252153], [115.3697102, -8.8253057], [115.3698011, -8.8253061], [115.3698015, -8.8252157], [115.3697106, -8.8252153]]]}, "properties": {"kind": "detection", "det_id": "D-SZ-fresh-bali-2026-07-27-002-28", "zone_id": "SZ-fresh-bali-2026-07-27-002", "scene_id": "S2A_MSIL2A_20260727T022131_R003_T50LLR_20260727T071608", "datetime": "2026-07-27T02:21:31.024000Z", "n_pixels": 1, "area_m2": 100, "prob_max": 0.9608, "prob_mean": 0.9608, "threshold": 0.63, "in_strip": true, "artifact": null}}, {"type": "Feature", "id": "D-SZ-fresh-bali-2026-07-27-002-30", "geometry": {"type": "Polygon", "coordinates": [[[115.36834, -8.8268369], [115.3683396, -8.8269273], [115.3684305, -8.8269277], [115.3684309, -8.8268373], [115.36834, -8.8268369]]]}, "properties": {"kind": "detection", "det_id": "D-SZ-fresh-bali-2026-07-27-002-30", "zone_id": "SZ-fresh-bali-2026-07-27-002", "scene_id": "S2A_MSIL2A_20260727T022131_R003_T50LLR_20260727T071608", "datetime": "2026-07-27T02:21:31.024000Z", "n_pixels": 1, "area_m2": 100, "prob_max": 0.6863, "prob_mean": 0.6863, "threshold": 0.63, "in_strip": true, "artifact": null}}, {"type": "Feature", "id": "D-SZ-fresh-bali-2026-07-27-002-31", "geometry": {"type": "Polygon", "coordinates": [[[115.3674254, -8.8280987], [115.367425, -8.8281891], [115.3675159, -8.8281895], [115.3675163, -8.8280991], [115.3674254, -8.8280987]]]}, "properties": {"kind": "detection", "det_id": "D-SZ-fresh-bali-2026-07-27-002-31", "zone_id": "SZ-fresh-bali-2026-07-27-002", "scene_id": "S2A_MSIL2A_20260727T022131_R003_T50LLR_20260727T071608", "datetime": "2026-07-27T02:21:31.024000Z", "n_pixels": 1, "area_m2": 100, "prob_max": 0.6706, "prob_mean": 0.6706, "threshold": 0.63, "in_strip": true, "artifact": null}}, {"type": "Feature", "id": "D-SZ-fresh-bali-2026-07-27-003-43", "geometry": {"type": "Polygon", "coordinates": [[[115.332072, -8.8869841], [115.3320712, -8.887165], [115.3321621, -8.8871654], [115.3321625, -8.8870749], [115.3322534, -8.8870754], [115.3322538, -8.8869849], [115.332072, -8.8869841]]]}, "properties": {"kind": "detection", "det_id": "D-SZ-fresh-bali-2026-07-27-003-43", "zone_id": "SZ-fresh-bali-2026-07-27-003", "scene_id": "S2A_MSIL2A_20260727T022131_R003_T50LLR_20260727T071608", "datetime": "2026-07-27T02:21:31.024000Z", "n_pixels": 3, "area_m2": 300, "prob_max": 0.9098, "prob_mean": 0.8314, "threshold": 0.63, "in_strip": true, "artifact": null}}, {"type": "Feature", "id": "D-SZ-fresh-bali-2026-07-27-003-44", "geometry": {"type": "Polygon", "coordinates": [[[115.3303381, -8.888423], [115.3303377, -8.8885134], [115.3304286, -8.8885138], [115.330429, -8.8884234], [115.3303381, -8.888423]]]}, "properties": {"kind": "detection", "det_id": "D-SZ-fresh-bali-2026-07-27-003-44", "zone_id": "SZ-fresh-bali-2026-07-27-003", "scene_id": "S2A_MSIL2A_20260727T022131_R003_T50LLR_20260727T071608", "datetime": "2026-07-27T02:21:31.024000Z", "n_pixels": 1, "area_m2": 100, "prob_max": 0.7569, "prob_mean": 0.7569, "threshold": 0.63, "in_strip": true, "artifact": null}}, {"type": "Feature", "id": "D-SZ-fresh-bali-2026-07-27-003-45", "geometry": {"type": "Polygon", "coordinates": [[[115.3332453, -8.8888881], [115.3332449, -8.8889785], [115.3333358, -8.8889789], [115.3333362, -8.8888885], [115.3332453, -8.8888881]]]}, "properties": {"kind": "detection", "det_id": "D-SZ-fresh-bali-2026-07-27-003-45", "zone_id": "SZ-fresh-bali-2026-07-27-003", "scene_id": "S2A_MSIL2A_20260727T022131_R003_T50LLR_20260727T071608", "datetime": "2026-07-27T02:21:31.024000Z", "n_pixels": 1, "area_m2": 100, "prob_max": 0.698, "prob_mean": 0.698, "threshold": 0.63, "in_strip": true, "artifact": null}}, {"type": "Feature", "id": "D-SZ-fresh-bali-2026-07-27-003-46", "geometry": {"type": "Polygon", "coordinates": [[[115.3291521, -8.8893218], [115.3291517, -8.8894122], [115.3292426, -8.8894127], [115.329243, -8.8893222], [115.3291521, -8.8893218]]]}, "properties": {"kind": "detection", "det_id": "D-SZ-fresh-bali-2026-07-27-003-46", "zone_id": "SZ-fresh-bali-2026-07-27-003", "scene_id": "S2A_MSIL2A_20260727T022131_R003_T50LLR_20260727T071608", "datetime": "2026-07-27T02:21:31.024000Z", "n_pixels": 1, "area_m2": 100, "prob_max": 0.7725, "prob_mean": 0.7725, "threshold": 0.63, "in_strip": true, "artifact": null}}]}