{"type": "FeatureCollection", "features": [{"type": "Feature", "id": "D-SZ-fresh-guanabara-2026-08-05-001-3", "geometry": {"type": "Polygon", "coordinates": [[[-43.1778961, -22.7252925], [-43.1778937, -22.7254731], [-43.1777964, -22.725472], [-43.1777988, -22.7252914], [-43.1778961, -22.7252925]]]}, "properties": {"kind": "detection", "det_id": "D-SZ-fresh-guanabara-2026-08-05-001-3", "zone_id": "SZ-fresh-guanabara-2026-08-05-001", "scene_id": "S2B_MSIL2A_20260805T130249_R095_T23KPQ_20260805T152151", "datetime": "2026-08-05T13:02:49.024000Z", "n_pixels": 2, "area_m2": 200, "prob_max": 0.9922, "prob_mean": 0.8569, "threshold": 0.63, "in_strip": true, "artifact": null}}, {"type": "Feature", "id": "D-SZ-fresh-guanabara-2026-08-05-001-4", "geometry": {"type": "Polygon", "coordinates": [[[-43.1785751, -22.7254809], [-43.1785739, -22.7255712], [-43.1784765, -22.72557], [-43.1784777, -22.7254798], [-43.1785751, -22.7254809]]]}, "properties": {"kind": "detection", "det_id": "D-SZ-fresh-guanabara-2026-08-05-001-4", "zone_id": "SZ-fresh-guanabara-2026-08-05-001", "scene_id": "S2B_MSIL2A_20260805T130249_R095_T23KPQ_20260805T152151", "datetime": "2026-08-05T13:02:49.024000Z", "n_pixels": 1, "area_m2": 100, "prob_max": 0.9647, "prob_mean": 0.9647, "threshold": 0.63, "in_strip": true, "artifact": "ship"}}, {"type": "Feature", "id": "D-SZ-fresh-guanabara-2026-08-05-001-5", "geometry": {"type": "Polygon", "coordinates": [[[-43.1790605, -22.7255767], [-43.1790593, -22.725667], [-43.1788647, -22.7256648], [-43.1788659, -22.7255745], [-43.1790605, -22.7255767]]]}, "properties": {"kind": "detection", "det_id": "D-SZ-fresh-guanabara-2026-08-05-001-5", "zone_id": "SZ-fresh-guanabara-2026-08-05-001", "scene_id": "S2B_MSIL2A_20260805T130249_R095_T23KPQ_20260805T152151", "datetime": "2026-08-05T13:02:49.024000Z", "n_pixels": 2, "area_m2": 200, "prob_max": 0.9255, "prob_mean": 0.8569, "threshold": 0.63, "in_strip": true, "artifact": null}}, {"type": "Feature", "id": "D-SZ-fresh-guanabara-2026-08-05-002-6", "geometry": {"type": "Polygon", "coordinates": [[[-43.2122304, -22.7275767], [-43.2122293, -22.727667], [-43.2121319, -22.7276659], [-43.2121331, -22.7275756], [-43.2122304, -22.7275767]]]}, "properties": {"kind": "detection", "det_id": "D-SZ-fresh-guanabara-2026-08-05-002-6", "zone_id": "SZ-fresh-guanabara-2026-08-05-002", "scene_id": "S2B_MSIL2A_20260805T130249_R095_T23KPQ_20260805T152151", "datetime": "2026-08-05T13:02:49.024000Z", "n_pixels": 1, "area_m2": 100, "prob_max": 0.8157, "prob_mean": 0.8157, "threshold": 0.63, "in_strip": true, "artifact": null}}, {"type": "Feature", "id": "D-SZ-fresh-guanabara-2026-08-05-002-7", "geometry": {"type": "Polygon", "coordinates": [[[-43.2119373, -22.7276637], [-43.2119349, -22.7278443], [-43.2120322, -22.7278454], [-43.2120311, -22.7279357], [-43.2116417, -22.7279313], [-43.2116429, -22.727841], [-43.2114482, -22.7278389], [-43.2114506, -22.7276583], [-43.2115479, -22.7276594], [-43.2115467, -22.7277497], [-43.2116441, -22.7277507], [-43.2116452, -22.7276604], [-43.2119373, -22.7276637]]]}, "properties": {"kind": "detection", "det_id": "D-SZ-fresh-guanabara-2026-08-05-002-7", "zone_id": "SZ-fresh-guanabara-2026-08-05-002", "scene_id": "S2B_MSIL2A_20260805T130249_R095_T23KPQ_20260805T152151", "datetime": "2026-08-05T13:02:49.024000Z", "n_pixels": 13, "area_m2": 1300, "prob_max": 0.9529, "prob_mean": 0.8145, "threshold": 0.63, "in_strip": true, "artifact": null}}, {"type": "Feature", "id": "D-SZ-fresh-guanabara-2026-08-05-002-8", "geometry": {"type": "Polygon", "coordinates": [[[-43.2103775, -22.7278269], [-43.2103763, -22.7279172], [-43.210279, -22.7279161], [-43.2102778, -22.7280064], [-43.2100832, -22.7280042], [-43.2100855, -22.7278236], [-43.2103775, -22.7278269]]]}, "properties": {"kind": "detection", "det_id": "D-SZ-fresh-guanabara-2026-08-05-002-8", "zone_id": "SZ-fresh-guanabara-2026-08-05-002", "scene_id": "S2B_MSIL2A_20260805T130249_R095_T23KPQ_20260805T152151", "datetime": "2026-08-05T13:02:49.024000Z", "n_pixels": 5, "area_m2": 500, "prob_max": 0.7529, "prob_mean": 0.7216, "threshold": 0.63, "in_strip": true, "artifact": null}}, {"type": "Feature", "id": "D-SZ-fresh-guanabara-2026-08-05-003-9", "geometry": {"type": "Polygon", "coordinates": [[[-43.1967279, -22.7293893], [-43.1967256, -22.7295698], [-43.1965309, -22.7295676], [-43.1965321, -22.7294773], [-43.1966294, -22.7294784], [-43.1966306, -22.7293882], [-43.1967279, -22.7293893]]]}, "properties": {"kind": "detection", "det_id": "D-SZ-fresh-guanabara-2026-08-05-003-9", "zone_id": "SZ-fresh-guanabara-2026-08-05-003", "scene_id": "S2B_MSIL2A_20260805T130249_R095_T23KPQ_20260805T152151", "datetime": "2026-08-05T13:02:49.024000Z", "n_pixels": 3, "area_m2": 300, "prob_max": 0.9843, "prob_mean": 0.9268, "threshold": 0.63, "in_strip": true, "artifact": null}}, {"type": "Feature", "id": "D-SZ-fresh-guanabara-2026-08-05-003-10", "geometry": {"type": "Polygon", "coordinates": [[[-43.1970176, -22.7295731], [-43.1970164, -22.7296634], [-43.1971137, -22.7296645], [-43.1971126, -22.7297548], [-43.1969179, -22.7297526], [-43.1969203, -22.729572], [-43.1970176, -22.7295731]]]}, "properties": {"kind": "detection", "det_id": "D-SZ-fresh-guanabara-2026-08-05-003-10", "zone_id": "SZ-fresh-guanabara-2026-08-05-003", "scene_id": "S2B_MSIL2A_20260805T130249_R095_T23KPQ_20260805T152151", "datetime": "2026-08-05T13:02:49.024000Z", "n_pixels": 3, "area_m2": 300, "prob_max": 0.9686, "prob_mean": 0.8863, "threshold": 0.63, "in_strip": true, "artifact": null}}, {"type": "Feature", "id": "D-SZ-fresh-guanabara-2026-08-05-003-11", "geometry": {"type": "Polygon", "coordinates": [[[-43.1967244, -22.7296601], [-43.196722, -22.7298407], [-43.1966247, -22.7298396], [-43.1966271, -22.729659], [-43.1967244, -22.7296601]]]}, "properties": {"kind": "detection", "det_id": "D-SZ-fresh-guanabara-2026-08-05-003-11", "zone_id": "SZ-fresh-guanabara-2026-08-05-003", "scene_id": "S2B_MSIL2A_20260805T130249_R095_T23KPQ_20260805T152151", "datetime": "2026-08-05T13:02:49.024000Z", "n_pixels": 2, "area_m2": 200, "prob_max": 0.9961, "prob_mean": 0.9235, "threshold": 0.63, "in_strip": true, "artifact": null}}, {"type": "Feature", "id": "D-SZ-fresh-guanabara-2026-08-05-004-35", "geometry": {"type": "Polygon", "coordinates": [[[-43.2725898, -22.7739365], [-43.2725876, -22.7741171], [-43.2722955, -22.7741139], [-43.2722943, -22.7742042], [-43.2725864, -22.7742074], [-43.2725842, -22.774388], [-43.2723894, -22.7743859], [-43.2723906, -22.7742956], [-43.2721958, -22.7742935], [-43.2721992, -22.7740226], [-43.272394, -22.7740247], [-43.2723951, -22.7739344], [-43.2725898, -22.7739365]]]}, "properties": {"kind": "detection", "det_id": "D-SZ-fresh-guanabara-2026-08-05-004-35", "zone_id": "SZ-fresh-guanabara-2026-08-05-004", "scene_id": "S2B_MSIL2A_20260805T130249_R095_T23KPQ_20260805T152151", "datetime": "2026-08-05T13:02:49.024000Z", "n_pixels": 13, "area_m2": 1300, "prob_max": 0.9412, "prob_mean": 0.7629, "threshold": 0.63, "in_strip": true, "artifact": "seam"}}, {"type": "Feature", "id": "D-SZ-fresh-guanabara-2026-08-05-005-52", "geometry": {"type": "Polygon", "coordinates": [[[-43.1650843, -22.8098515], [-43.1650831, -22.8099418], [-43.1649857, -22.8099407], [-43.1649869, -22.8098504], [-43.1650843, -22.8098515]]]}, "properties": {"kind": "detection", "det_id": "D-SZ-fresh-guanabara-2026-08-05-005-52", "zone_id": "SZ-fresh-guanabara-2026-08-05-005", "scene_id": "S2B_MSIL2A_20260805T130249_R095_T23KPQ_20260805T152151", "datetime": "2026-08-05T13:02:49.024000Z", "n_pixels": 1, "area_m2": 100, "prob_max": 0.9412, "prob_mean": 0.9412, "threshold": 0.63, "in_strip": true, "artifact": null}}, {"type": "Feature", "id": "D-SZ-fresh-guanabara-2026-08-05-005-55", "geometry": {"type": "Polygon", "coordinates": [[[-43.1654593, -22.8109395], [-43.1654581, -22.8110298], [-43.1652633, -22.8110275], [-43.1652646, -22.8109372], [-43.1654593, -22.8109395]]]}, "properties": {"kind": "detection", "det_id": "D-SZ-fresh-guanabara-2026-08-05-005-55", "zone_id": "SZ-fresh-guanabara-2026-08-05-005", "scene_id": "S2B_MSIL2A_20260805T130249_R095_T23KPQ_20260805T152151", "datetime": "2026-08-05T13:02:49.024000Z", "n_pixels": 2, "area_m2": 200, "prob_max": 0.9569, "prob_mean": 0.9333, "threshold": 0.63, "in_strip": true, "artifact": "ship"}}, {"type": "Feature", "id": "D-SZ-fresh-guanabara-2026-08-05-005-56", "geometry": {"type": "Polygon", "coordinates": [[[-43.1646802, -22.8109305], [-43.164679, -22.8110208], [-43.1645816, -22.8110197], [-43.1645828, -22.8109294], [-43.1646802, -22.8109305]]]}, "properties": {"kind": "detection", "det_id": "D-SZ-fresh-guanabara-2026-08-05-005-56", "zone_id": "SZ-fresh-guanabara-2026-08-05-005", "scene_id": "S2B_MSIL2A_20260805T130249_R095_T23KPQ_20260805T152151", "datetime": "2026-08-05T13:02:49.024000Z", "n_pixels": 1, "area_m2": 100, "prob_max": 0.6667, "prob_mean": 0.6667, "threshold": 0.63, "in_strip": true, "artifact": "ship"}}, {"type": "Feature", "id": "D-SZ-fresh-guanabara-2026-08-05-005-57", "geometry": {"type": "Polygon", "coordinates": [[[-43.1669142, -22.8114077], [-43.166913, -22.811498], [-43.1668156, -22.8114969], [-43.1668168, -22.8114066], [-43.1669142, -22.8114077]]]}, "properties": {"kind": "detection", "det_id": "D-SZ-fresh-guanabara-2026-08-05-005-57", "zone_id": "SZ-fresh-guanabara-2026-08-05-005", "scene_id": "S2B_MSIL2A_20260805T130249_R095_T23KPQ_20260805T152151", "datetime": "2026-08-05T13:02:49.024000Z", "n_pixels": 1, "area_m2": 100, "prob_max": 0.9294, "prob_mean": 0.9294, "threshold": 0.63, "in_strip": true, "artifact": null}}]}