{"type": "FeatureCollection", "features": [{"type": "Feature", "id": "SZ-fresh-guanabara-2026-08-05-001", "geometry": {"type": "Polygon", "coordinates": [[[-43.177914, -22.723938], [-43.179564, -22.724318], [-43.180239, -22.724777], [-43.180519, -22.725684], [-43.179921, -22.72676], [-43.178847, -22.727019], [-43.177293, -22.726731], [-43.176618, -22.726271], [-43.176336, -22.725455], [-43.176442, -22.724824], [-43.176937, -22.724198], [-43.177914, -22.723938]]]}, "properties": {"kind": "detection_zone", "layer_kind": "scene_zone", "zone_id": "SZ-fresh-guanabara-2026-08-05-001", "scene_key": "fresh-guanabara-2026-08-05", "scene_kind": "fresh_s2", "scene_id": "S2B_MSIL2A_20260805T130249_R095_T23KPQ_20260805T152151", "region": "guanabara", "title": "Залив Гуанабара (Рио-де-Жанейро) · зона 1", "mission": "Sentinel-2", "datetime": "2026-08-05T13:02:49.024000Z", "detection_status": "insufficient_data", "status": "insufficient_data", "concentration_status": "unavailable", "quantity": {"status": "not_confirmed", "label": "концентрация по снимку не подтверждена", "detail": "перевод площади в штуки не показываем: нет калибровочных пар (см. docs/QUANTITY.md)"}, "verification": "false_alarm_signs", "training_scene": null, "flags": ["ship"], "n_cozar_filaments": 0, "crop_file": "crops/SZ-fresh-guanabara-2026-08-05-001.jpg", "wind_high": false, "measured": {"zone_area_km2": 0.1109, "suspicious_area_m2": 500, "n_pixels": 5, "n_objects": 3, "water_km2": 0.1093, "lwd_m2_km2": 4574.6, "lwd_note": null, "quality": {"valid_water_fraction": 1.0, "cloud_fraction": 0.0, "glint_fraction": 0.0}, "model": {"weights": "weights/lgbm", "file": "weights/lgbm/model.txt", "sha256": "0eeebf43fcccd8c7c07f053b7ec723229d1a3c9b92d12eec1bdb269258c51470", "sha256_short": "0eeebf43fccc", "trained_at": "2026-09-25T01:36:30Z", "threshold": 0.63, "harmonize": "none", "class": "MARIDA Marine Debris (любой плавающий мусор, не только пластик)"}}, "probable": {"prob_max": 0.992, "prob_mean": 0.878, "signs": {"foam": {"flag": false, "white_ratio_b2_b8": 0.335, "wind10m_ms": 1.71, "rule": "прирост B2 над водой ≥ 0.8 прироста B8 («белый» спектр) или ветер ≥ 7.0 м/с"}, "glint": {"flag": false, "b11_water_median": 0.0026, "glint_share": 0.0, "rule": "медиана B11 воды зоны > 0.01 или ≥ 20 % пикселей зоны — блик (маска качества)"}, "ship": {"flag": true, "share": 0.2, "bright_target_px_within_500m": 23, "rule": "≥ 30 % пикселей — у яркой цели или кильватера (reports/artifacts.md) или яркая цель с откликом в SWIR (судно, лодка: B11 ≥ 0,015) ближе 500 м, или малый яркий объект (≤ 40 пикс.) с B11 ≥ 0,01 ближе 500 м (лодка с кильватером)"}, "coast": {"flag": false, "land_px_within_300m": 0, "rule": "суша (маска качества) ближе 300 м — прибой, кромка берега"}, "shallow": {"flag": false, "b3_water_zone": 0.0128, "b3_ratio_to_scene_water": 0.84, "rule": "медиана B3 воды зоны ≥ 2× медианы воды снимка и ≥ 0,03, или B4 воды зоны ≥ 0,02 и (≥ 2× воды снимка или B8 ≥ 0,013) — мелководье, яркое дно, илистая банка"}, "seam": {"flag": false, "share": 0, "rule": "≥ 30 % пикселей — прямая линия вдоль трека/границы яркости (шов)"}, "cloud": {"flag": false, "cloud_fraction": 0.0, "rule": "облака или тени облаков (маска качества) ≥ 20 % зоны"}, "diag": {"dist_land_m": 595, "dist_bright_m": 10, "n_bright_px_500m": 30, "b11_bright_max_500m": 0.1334, "b4_water_zone": 0.0107, "b8_water_zone": 0.0056, "b11_det_median": 0.0116, "b8_det_median": 0.0373, "water_scene_b3": 0.0152, "water_scene_b4": 0.0109, "n_det_px": 5, "n_obj": 3}, "note": "эвристики, не классификатор; на размеченных данных не проверены"}, "n_cozar_filaments": 0}, "field_nearby": {"items": [{"source": "ADIS (4TU.ResearchData, судовая камера)", "segment_id": 336436, "ship": "Bark Europa", "date": "2022-10-31", "days_from_scene": -1374, "distance_km": 347.4, "lon": -40.0369, "lat": -24.05508, "n_items": 0, "area_km2": 0.3704, "size_class": "> 5 см", "c_items_km2": 0.0, "ci95_lo": 0.0, "ci95_hi": 9.96, "ci95_method": "точный интервал Пуассона для N, делённый на A", "raw_10cm_items_km2": 0.0, "authors_cal_10cm_items_km2": 0.0, "authors_cal_10cm_lo95": null, "authors_cal_10cm_hi95": null}, {"source": "ADIS (4TU.ResearchData, судовая камера)", "segment_id": 336437, "ship": "Bark Europa", "date": "2022-10-31", "days_from_scene": -1374, "distance_km": 348.5, "lon": -40.06524, "lat": -24.14022, "n_items": 0, "area_km2": 0.3705, "size_class": "> 5 см", "c_items_km2": 0.0, "ci95_lo": 0.0, "ci95_hi": 9.96, "ci95_method": "точный интервал Пуассона для N, делённый на A", "raw_10cm_items_km2": 0.0, "authors_cal_10cm_items_km2": 0.0, "authors_cal_10cm_lo95": null, "authors_cal_10cm_hi95": null}, {"source": "ADIS (4TU.ResearchData, судовая камера)", "segment_id": 336438, "ship": "Bark Europa", "date": "2022-10-31", "days_from_scene": -1374, "distance_km": 349.7, "lon": -40.09594, "lat": -24.22453, "n_items": 0, "area_km2": 0.3702, "size_class": "> 5 см", "c_items_km2": 0.0, "ci95_lo": 0.0, "ci95_hi": 9.96, "ci95_method": "точный интервал Пуассона для N, делённый на A", "raw_10cm_items_km2": 0.0, "authors_cal_10cm_items_km2": 0.0, "authors_cal_10cm_lo95": null, "authors_cal_10cm_hi95": null}], "nearest_organizer_sample": {"sample_id": "MPL-0513", "source_id": "S2_SARGASSO_MSM41", "distance_km": 5301.6}, "note": "Измерение ≠ оценка: это независимые полевые счёты C = N/A в другое время и в другом месте; со сценой они не связаны и не калибруют её. Ближайший отрезок ADIS — за 347 км: только для порядка величин."}, "acquired_at": "2026-08-05T13:02:49.024000Z", "acquisition_date": "2026-08-05", "processed_at": "2026-09-26T20:03:45Z", "human_checked": false, "auto_label": "автоматически, не проверено человеком"}}, {"type": "Feature", "id": "SZ-fresh-guanabara-2026-08-05-002", "geometry": {"type": "Polygon", "coordinates": [[[-43.212248, -22.726222], [-43.213121, -22.726503], [-43.213599, -22.72714], [-43.213586, -22.728134], [-43.212893, -22.729029], [-43.212013, -22.72929], [-43.210945, -22.729098], [-43.210066, -22.729359], [-43.208905, -22.728804], [-43.208625, -22.727807], [-43.209224, -22.72673], [-43.212248, -22.726222]]]}, "properties": {"kind": "detection_zone", "layer_kind": "scene_zone", "zone_id": "SZ-fresh-guanabara-2026-08-05-002", "scene_key": "fresh-guanabara-2026-08-05", "scene_kind": "fresh_s2", "scene_id": "S2B_MSIL2A_20260805T130249_R095_T23KPQ_20260805T152151", "region": "guanabara", "title": "Залив Гуанабара (Рио-де-Жанейро) · зона 2", "mission": "Sentinel-2", "datetime": "2026-08-05T13:02:49.024000Z", "detection_status": "insufficient_data", "status": "insufficient_data", "concentration_status": "unavailable", "quantity": {"status": "not_confirmed", "label": "концентрация по снимку не подтверждена", "detail": "перевод площади в штуки не показываем: нет калибровочных пар (см. docs/QUANTITY.md)"}, "verification": "false_alarm_signs", "training_scene": null, "flags": ["ship", "coast"], "n_cozar_filaments": 0, "crop_file": "crops/SZ-fresh-guanabara-2026-08-05-002.jpg", "wind_high": false, "measured": {"zone_area_km2": 0.1382, "suspicious_area_m2": 1900, "n_pixels": 19, "n_objects": 3, "water_km2": 0.1198, "lwd_m2_km2": 15859.8, "lwd_note": null, "quality": {"valid_water_fraction": 0.854, "cloud_fraction": 0.0, "glint_fraction": 0.0}, "model": {"weights": "weights/lgbm", "file": "weights/lgbm/model.txt", "sha256": "0eeebf43fcccd8c7c07f053b7ec723229d1a3c9b92d12eec1bdb269258c51470", "sha256_short": "0eeebf43fccc", "trained_at": "2026-09-25T01:36:30Z", "threshold": 0.63, "harmonize": "none", "class": "MARIDA Marine Debris (любой плавающий мусор, не только пластик)"}}, "probable": {"prob_max": 0.953, "prob_mean": 0.79, "signs": {"foam": {"flag": false, "white_ratio_b2_b8": 0.426, "wind10m_ms": 1.71, "rule": "прирост B2 над водой ≥ 0.8 прироста B8 («белый» спектр) или ветер ≥ 7.0 м/с"}, "glint": {"flag": false, "b11_water_median": 0.0042, "glint_share": 0.0, "rule": "медиана B11 воды зоны > 0.01 или ≥ 20 % пикселей зоны — блик (маска качества)"}, "ship": {"flag": true, "share": 0, "bright_target_px_within_500m": 12, "rule": "≥ 30 % пикселей — у яркой цели или кильватера (reports/artifacts.md) или яркая цель с откликом в SWIR (судно, лодка: B11 ≥ 0,015) ближе 500 м, или малый яркий объект (≤ 40 пикс.) с B11 ≥ 0,01 ближе 500 м (лодка с кильватером)"}, "coast": {"flag": true, "land_px_within_300m": 1701, "rule": "суша (маска качества) ближе 300 м — прибой, кромка берега"}, "shallow": {"flag": false, "b3_water_zone": 0.0214, "b3_ratio_to_scene_water": 1.41, "rule": "медиана B3 воды зоны ≥ 2× медианы воды снимка и ≥ 0,03, или B4 воды зоны ≥ 0,02 и (≥ 2× воды снимка или B8 ≥ 0,013) — мелководье, яркое дно, илистая банка"}, "seam": {"flag": false, "share": 0, "rule": "≥ 30 % пикселей — прямая линия вдоль трека/границы яркости (шов)"}, "cloud": {"flag": false, "cloud_fraction": 0.0, "rule": "облака или тени облаков (маска качества) ≥ 20 % зоны"}, "diag": {"dist_land_m": 110, "dist_bright_m": 10, "n_bright_px_500m": 80, "b11_bright_max_500m": 0.0374, "b4_water_zone": 0.017, "b8_water_zone": 0.0131, "b11_det_median": 0.0048, "b8_det_median": 0.0303, "water_scene_b3": 0.0152, "water_scene_b4": 0.0109, "n_det_px": 19, "n_obj": 3}, "note": "эвристики, не классификатор; на размеченных данных не проверены"}, "n_cozar_filaments": 0}, "field_nearby": {"items": [{"source": "ADIS (4TU.ResearchData, судовая камера)", "segment_id": 336436, "ship": "Bark Europa", "date": "2022-10-31", "days_from_scene": -1374, "distance_km": 347.4, "lon": -40.0369, "lat": -24.05508, "n_items": 0, "area_km2": 0.3704, "size_class": "> 5 см", "c_items_km2": 0.0, "ci95_lo": 0.0, "ci95_hi": 9.96, "ci95_method": "точный интервал Пуассона для N, делённый на A", "raw_10cm_items_km2": 0.0, "authors_cal_10cm_items_km2": 0.0, "authors_cal_10cm_lo95": null, "authors_cal_10cm_hi95": null}, {"source": "ADIS (4TU.ResearchData, судовая камера)", "segment_id": 336437, "ship": "Bark Europa", "date": "2022-10-31", "days_from_scene": -1374, "distance_km": 348.5, "lon": -40.06524, "lat": -24.14022, "n_items": 0, "area_km2": 0.3705, "size_class": "> 5 см", "c_items_km2": 0.0, "ci95_lo": 0.0, "ci95_hi": 9.96, "ci95_method": "точный интервал Пуассона для N, делённый на A", "raw_10cm_items_km2": 0.0, "authors_cal_10cm_items_km2": 0.0, "authors_cal_10cm_lo95": null, "authors_cal_10cm_hi95": null}, {"source": "ADIS (4TU.ResearchData, судовая камера)", "segment_id": 336438, "ship": "Bark Europa", "date": "2022-10-31", "days_from_scene": -1374, "distance_km": 349.7, "lon": -40.09594, "lat": -24.22453, "n_items": 0, "area_km2": 0.3702, "size_class": "> 5 см", "c_items_km2": 0.0, "ci95_lo": 0.0, "ci95_hi": 9.96, "ci95_method": "точный интервал Пуассона для N, делённый на A", "raw_10cm_items_km2": 0.0, "authors_cal_10cm_items_km2": 0.0, "authors_cal_10cm_lo95": null, "authors_cal_10cm_hi95": null}], "nearest_organizer_sample": {"sample_id": "MPL-0513", "source_id": "S2_SARGASSO_MSM41", "distance_km": 5301.6}, "note": "Измерение ≠ оценка: это независимые полевые счёты C = N/A в другое время и в другом месте; со сценой они не связаны и не калибруют её. Ближайший отрезок ADIS — за 347 км: только для порядка величин."}, "acquired_at": "2026-08-05T13:02:49.024000Z", "acquisition_date": "2026-08-05", "processed_at": "2026-09-26T20:03:45Z", "human_checked": false, "auto_label": "автоматически, не проверено человеком"}}, {"type": "Feature", "id": "SZ-fresh-guanabara-2026-08-05-003", "geometry": {"type": "Polygon", "coordinates": [[[-43.196746, -22.728035], [-43.197908, -22.7285], [-43.198292, -22.728865], [-43.198573, -22.729771], [-43.197974, -22.730848], [-43.196607, -22.731194], [-43.195446, -22.730639], [-43.195072, -22.729461], [-43.195375, -22.728652], [-43.195769, -22.728295], [-43.196746, -22.728035]]]}, "properties": {"kind": "detection_zone", "layer_kind": "scene_zone", "zone_id": "SZ-fresh-guanabara-2026-08-05-003", "scene_key": "fresh-guanabara-2026-08-05", "scene_kind": "fresh_s2", "scene_id": "S2B_MSIL2A_20260805T130249_R095_T23KPQ_20260805T152151", "region": "guanabara", "title": "Залив Гуанабара (Рио-де-Жанейро) · зона 3", "mission": "Sentinel-2", "datetime": "2026-08-05T13:02:49.024000Z", "detection_status": "detected", "status": "detected", "concentration_status": "unavailable", "quantity": {"status": "not_confirmed", "label": "концентрация по снимку не подтверждена", "detail": "перевод площади в штуки не показываем: нет калибровочных пар (см. docs/QUANTITY.md)"}, "verification": "unverified", "training_scene": null, "flags": [], "n_cozar_filaments": 0, "crop_file": "crops/SZ-fresh-guanabara-2026-08-05-003.jpg", "wind_high": false, "measured": {"zone_area_km2": 0.0916, "suspicious_area_m2": 800, "n_pixels": 8, "n_objects": 3, "water_km2": 0.0926, "lwd_m2_km2": 8639.3, "lwd_note": null, "quality": {"valid_water_fraction": 1.0, "cloud_fraction": 0.0, "glint_fraction": 0.0}, "model": {"weights": "weights/lgbm", "file": "weights/lgbm/model.txt", "sha256": "0eeebf43fcccd8c7c07f053b7ec723229d1a3c9b92d12eec1bdb269258c51470", "sha256_short": "0eeebf43fccc", "trained_at": "2026-09-25T01:36:30Z", "threshold": 0.63, "harmonize": "none", "class": "MARIDA Marine Debris (любой плавающий мусор, не только пластик)"}}, "probable": {"prob_max": 0.996, "prob_mean": 0.911, "signs": {"foam": {"flag": false, "white_ratio_b2_b8": 0.695, "wind10m_ms": 1.71, "rule": "прирост B2 над водой ≥ 0.8 прироста B8 («белый» спектр) или ветер ≥ 7.0 м/с"}, "glint": {"flag": false, "b11_water_median": 0.0027, "glint_share": 0.0, "rule": "медиана B11 воды зоны > 0.01 или ≥ 20 % пикселей зоны — блик (маска качества)"}, "ship": {"flag": false, "share": 0, "bright_target_px_within_500m": 0, "rule": "≥ 30 % пикселей — у яркой цели или кильватера (reports/artifacts.md) или яркая цель с откликом в SWIR (судно, лодка: B11 ≥ 0,015) ближе 500 м, или малый яркий объект (≤ 40 пикс.) с B11 ≥ 0,01 ближе 500 м (лодка с кильватером)"}, "coast": {"flag": false, "land_px_within_300m": 0, "rule": "суша (маска качества) ближе 300 м — прибой, кромка берега"}, "shallow": {"flag": false, "b3_water_zone": 0.0194, "b3_ratio_to_scene_water": 1.28, "rule": "медиана B3 воды зоны ≥ 2× медианы воды снимка и ≥ 0,03, или B4 воды зоны ≥ 0,02 и (≥ 2× воды снимка или B8 ≥ 0,013) — мелководье, яркое дно, илистая банка"}, "seam": {"flag": false, "share": 0, "rule": "≥ 30 % пикселей — прямая линия вдоль трека/границы яркости (шов)"}, "cloud": {"flag": false, "cloud_fraction": 0.0, "rule": "облака или тени облаков (маска качества) ≥ 20 % зоны"}, "diag": {"dist_land_m": 555, "dist_bright_m": 585, "n_bright_px_500m": 0, "b11_bright_max_500m": null, "b4_water_zone": 0.0135, "b8_water_zone": 0.01, "b11_det_median": 0.0144, "b8_det_median": 0.038, "water_scene_b3": 0.0152, "water_scene_b4": 0.0109, "n_det_px": 8, "n_obj": 3}, "note": "эвристики, не классификатор; на размеченных данных не проверены"}, "n_cozar_filaments": 0}, "field_nearby": {"items": [{"source": "ADIS (4TU.ResearchData, судовая камера)", "segment_id": 336436, "ship": "Bark Europa", "date": "2022-10-31", "days_from_scene": -1374, "distance_km": 347.4, "lon": -40.0369, "lat": -24.05508, "n_items": 0, "area_km2": 0.3704, "size_class": "> 5 см", "c_items_km2": 0.0, "ci95_lo": 0.0, "ci95_hi": 9.96, "ci95_method": "точный интервал Пуассона для N, делённый на A", "raw_10cm_items_km2": 0.0, "authors_cal_10cm_items_km2": 0.0, "authors_cal_10cm_lo95": null, "authors_cal_10cm_hi95": null}, {"source": "ADIS (4TU.ResearchData, судовая камера)", "segment_id": 336437, "ship": "Bark Europa", "date": "2022-10-31", "days_from_scene": -1374, "distance_km": 348.5, "lon": -40.06524, "lat": -24.14022, "n_items": 0, "area_km2": 0.3705, "size_class": "> 5 см", "c_items_km2": 0.0, "ci95_lo": 0.0, "ci95_hi": 9.96, "ci95_method": "точный интервал Пуассона для N, делённый на A", "raw_10cm_items_km2": 0.0, "authors_cal_10cm_items_km2": 0.0, "authors_cal_10cm_lo95": null, "authors_cal_10cm_hi95": null}, {"source": "ADIS (4TU.ResearchData, судовая камера)", "segment_id": 336438, "ship": "Bark Europa", "date": "2022-10-31", "days_from_scene": -1374, "distance_km": 349.7, "lon": -40.09594, "lat": -24.22453, "n_items": 0, "area_km2": 0.3702, "size_class": "> 5 см", "c_items_km2": 0.0, "ci95_lo": 0.0, "ci95_hi": 9.96, "ci95_method": "точный интервал Пуассона для N, делённый на A", "raw_10cm_items_km2": 0.0, "authors_cal_10cm_items_km2": 0.0, "authors_cal_10cm_lo95": null, "authors_cal_10cm_hi95": null}], "nearest_organizer_sample": {"sample_id": "MPL-0513", "source_id": "S2_SARGASSO_MSM41", "distance_km": 5301.6}, "note": "Измерение ≠ оценка: это независимые полевые счёты C = N/A в другое время и в другом месте; со сценой они не связаны и не калибруют её. Ближайший отрезок ADIS — за 347 км: только для порядка величин."}, "acquired_at": "2026-08-05T13:02:49.024000Z", "acquisition_date": "2026-08-05", "processed_at": "2026-09-26T20:03:45Z", "human_checked": false, "auto_label": "автоматически, не проверено человеком"}}, {"type": "Feature", "id": "SZ-fresh-guanabara-2026-08-05-004", "geometry": {"type": "Polygon", "coordinates": [[[-43.272607, -22.772582], [-43.272567, -22.775742], [-43.272372, -22.77574], [-43.271017, -22.775093], [-43.270739, -22.774007], [-43.271337, -22.77293], [-43.272607, -22.772582]]]}, "properties": {"kind": "detection_zone", "layer_kind": "scene_zone", "zone_id": "SZ-fresh-guanabara-2026-08-05-004", "scene_key": "fresh-guanabara-2026-08-05", "scene_kind": "fresh_s2", "scene_id": "S2B_MSIL2A_20260805T130249_R095_T23KPQ_20260805T152151", "region": "guanabara", "title": "Залив Гуанабара (Рио-де-Жанейро) · зона 4", "mission": "Sentinel-2", "datetime": "2026-08-05T13:02:49.024000Z", "detection_status": "insufficient_data", "status": "insufficient_data", "concentration_status": "unavailable", "quantity": {"status": "not_confirmed", "label": "концентрация по снимку не подтверждена", "detail": "перевод площади в штуки не показываем: нет калибровочных пар (см. docs/QUANTITY.md)"}, "verification": "false_alarm_signs", "training_scene": null, "flags": ["ship", "coast", "shallow", "seam"], "n_cozar_filaments": 0, "crop_file": "crops/SZ-fresh-guanabara-2026-08-05-004.jpg", "wind_high": false, "measured": {"zone_area_km2": 0.0491, "suspicious_area_m2": 1300, "n_pixels": 13, "n_objects": 1, "water_km2": 0.0511, "lwd_m2_km2": 25440.3, "lwd_note": null, "quality": {"valid_water_fraction": 1.0, "cloud_fraction": 0.0, "glint_fraction": 0.0}, "model": {"weights": "weights/lgbm", "file": "weights/lgbm/model.txt", "sha256": "0eeebf43fcccd8c7c07f053b7ec723229d1a3c9b92d12eec1bdb269258c51470", "sha256_short": "0eeebf43fccc", "trained_at": "2026-09-25T01:36:30Z", "threshold": 0.63, "harmonize": "none", "class": "MARIDA Marine Debris (любой плавающий мусор, не только пластик)"}}, "probable": {"prob_max": 0.941, "prob_mean": 0.763, "signs": {"foam": {"flag": false, "white_ratio_b2_b8": 0.524, "wind10m_ms": 1.71, "rule": "прирост B2 над водой ≥ 0.8 прироста B8 («белый» спектр) или ветер ≥ 7.0 м/с"}, "glint": {"flag": false, "b11_water_median": 0.0044, "glint_share": 0.0, "rule": "медиана B11 воды зоны > 0.01 или ≥ 20 % пикселей зоны — блик (маска качества)"}, "ship": {"flag": true, "share": 0, "bright_target_px_within_500m": 10, "rule": "≥ 30 % пикселей — у яркой цели или кильватера (reports/artifacts.md) или яркая цель с откликом в SWIR (судно, лодка: B11 ≥ 0,015) ближе 500 м, или малый яркий объект (≤ 40 пикс.) с B11 ≥ 0,01 ближе 500 м (лодка с кильватером)"}, "coast": {"flag": true, "land_px_within_300m": 75, "rule": "суша (маска качества) ближе 300 м — прибой, кромка берега"}, "shallow": {"flag": true, "b3_water_zone": 0.0271, "b3_ratio_to_scene_water": 1.78, "rule": "медиана B3 воды зоны ≥ 2× медианы воды снимка и ≥ 0,03, или B4 воды зоны ≥ 0,02 и (≥ 2× воды снимка или B8 ≥ 0,013) — мелководье, яркое дно, илистая банка"}, "seam": {"flag": true, "share": 1.0, "rule": "≥ 30 % пикселей — прямая линия вдоль трека/границы яркости (шов)"}, "cloud": {"flag": false, "cloud_fraction": 0.0, "rule": "облака или тени облаков (маска качества) ≥ 20 % зоны"}, "diag": {"dist_land_m": 200, "dist_bright_m": 180, "n_bright_px_500m": 43, "b11_bright_max_500m": 0.0379, "b4_water_zone": 0.0205, "b8_water_zone": 0.014, "b11_det_median": 0.0045, "b8_det_median": 0.0281, "water_scene_b3": 0.0152, "water_scene_b4": 0.0109, "n_det_px": 13, "n_obj": 1}, "note": "эвристики, не классификатор; на размеченных данных не проверены"}, "n_cozar_filaments": 0}, "field_nearby": {"items": [{"source": "ADIS (4TU.ResearchData, судовая камера)", "segment_id": 336436, "ship": "Bark Europa", "date": "2022-10-31", "days_from_scene": -1374, "distance_km": 347.4, "lon": -40.0369, "lat": -24.05508, "n_items": 0, "area_km2": 0.3704, "size_class": "> 5 см", "c_items_km2": 0.0, "ci95_lo": 0.0, "ci95_hi": 9.96, "ci95_method": "точный интервал Пуассона для N, делённый на A", "raw_10cm_items_km2": 0.0, "authors_cal_10cm_items_km2": 0.0, "authors_cal_10cm_lo95": null, "authors_cal_10cm_hi95": null}, {"source": "ADIS (4TU.ResearchData, судовая камера)", "segment_id": 336437, "ship": "Bark Europa", "date": "2022-10-31", "days_from_scene": -1374, "distance_km": 348.5, "lon": -40.06524, "lat": -24.14022, "n_items": 0, "area_km2": 0.3705, "size_class": "> 5 см", "c_items_km2": 0.0, "ci95_lo": 0.0, "ci95_hi": 9.96, "ci95_method": "точный интервал Пуассона для N, делённый на A", "raw_10cm_items_km2": 0.0, "authors_cal_10cm_items_km2": 0.0, "authors_cal_10cm_lo95": null, "authors_cal_10cm_hi95": null}, {"source": "ADIS (4TU.ResearchData, судовая камера)", "segment_id": 336438, "ship": "Bark Europa", "date": "2022-10-31", "days_from_scene": -1374, "distance_km": 349.7, "lon": -40.09594, "lat": -24.22453, "n_items": 0, "area_km2": 0.3702, "size_class": "> 5 см", "c_items_km2": 0.0, "ci95_lo": 0.0, "ci95_hi": 9.96, "ci95_method": "точный интервал Пуассона для N, делённый на A", "raw_10cm_items_km2": 0.0, "authors_cal_10cm_items_km2": 0.0, "authors_cal_10cm_lo95": null, "authors_cal_10cm_hi95": null}], "nearest_organizer_sample": {"sample_id": "MPL-0513", "source_id": "S2_SARGASSO_MSM41", "distance_km": 5301.6}, "note": "Измерение ≠ оценка: это независимые полевые счёты C = N/A в другое время и в другом месте; со сценой они не связаны и не калибруют её. Ближайший отрезок ADIS — за 347 км: только для порядка величин."}, "acquired_at": "2026-08-05T13:02:49.024000Z", "acquisition_date": "2026-08-05", "processed_at": "2026-09-26T20:03:45Z", "human_checked": false, "auto_label": "автоматически, не проверено человеком"}}, {"type": "Feature", "id": "SZ-fresh-guanabara-2026-08-05-005", "geometry": {"type": "Polygon", "coordinates": [[[-43.165102, -22.808497], [-43.166264, -22.809052], [-43.166542, -22.810139], [-43.167418, -22.810149], [-43.168094, -22.810609], [-43.168374, -22.811515], [-43.167775, -22.812592], [-43.166797, -22.812851], [-43.165925, -22.81257], [-43.165733, -22.812297], [-43.164078, -22.812278], [-43.163402, -22.811819], [-43.163122, -22.810913], [-43.163621, -22.810015], [-43.163629, -22.809383], [-43.164125, -22.808757], [-43.165102, -22.808497]]]}, "properties": {"kind": "detection_zone", "layer_kind": "scene_zone", "zone_id": "SZ-fresh-guanabara-2026-08-05-005", "scene_key": "fresh-guanabara-2026-08-05", "scene_kind": "fresh_s2", "scene_id": "S2B_MSIL2A_20260805T130249_R095_T23KPQ_20260805T152151", "region": "guanabara", "title": "Залив Гуанабара (Рио-де-Жанейро) · зона 5", "mission": "Sentinel-2", "datetime": "2026-08-05T13:02:49.024000Z", "detection_status": "insufficient_data", "status": "insufficient_data", "concentration_status": "unavailable", "quantity": {"status": "not_confirmed", "label": "концентрация по снимку не подтверждена", "detail": "перевод площади в штуки не показываем: нет калибровочных пар (см. docs/QUANTITY.md)"}, "verification": "false_alarm_signs", "training_scene": null, "flags": ["coast", "ship"], "n_cozar_filaments": 0, "crop_file": "crops/SZ-fresh-guanabara-2026-08-05-005.jpg", "wind_high": false, "measured": {"zone_area_km2": 0.1672, "suspicious_area_m2": 500, "n_pixels": 5, "n_objects": 4, "water_km2": 0.1587, "lwd_m2_km2": 3150.6, "lwd_note": null, "quality": {"valid_water_fraction": 0.937, "cloud_fraction": 0.0, "glint_fraction": 0.0}, "model": {"weights": "weights/lgbm", "file": "weights/lgbm/model.txt", "sha256": "0eeebf43fcccd8c7c07f053b7ec723229d1a3c9b92d12eec1bdb269258c51470", "sha256_short": "0eeebf43fccc", "trained_at": "2026-09-25T01:36:30Z", "threshold": 0.63, "harmonize": "none", "class": "MARIDA Marine Debris (любой плавающий мусор, не только пластик)"}}, "probable": {"prob_max": 0.957, "prob_mean": 0.881, "signs": {"foam": {"flag": false, "white_ratio_b2_b8": 0.417, "wind10m_ms": 1.71, "rule": "прирост B2 над водой ≥ 0.8 прироста B8 («белый» спектр) или ветер ≥ 7.0 м/с"}, "glint": {"flag": false, "b11_water_median": 0.004, "glint_share": 0.0, "rule": "медиана B11 воды зоны > 0.01 или ≥ 20 % пикселей зоны — блик (маска качества)"}, "ship": {"flag": true, "share": 0.6, "bright_target_px_within_500m": 342, "rule": "≥ 30 % пикселей — у яркой цели или кильватера (reports/artifacts.md) или яркая цель с откликом в SWIR (судно, лодка: B11 ≥ 0,015) ближе 500 м, или малый яркий объект (≤ 40 пикс.) с B11 ≥ 0,01 ближе 500 м (лодка с кильватером)"}, "coast": {"flag": true, "land_px_within_300m": 488, "rule": "суша (маска качества) ближе 300 м — прибой, кромка берега"}, "shallow": {"flag": false, "b3_water_zone": 0.0137, "b3_ratio_to_scene_water": 0.9, "rule": "медиана B3 воды зоны ≥ 2× медианы воды снимка и ≥ 0,03, или B4 воды зоны ≥ 0,02 и (≥ 2× воды снимка или B8 ≥ 0,013) — мелководье, яркое дно, илистая банка"}, "seam": {"flag": false, "share": 0, "rule": "≥ 30 % пикселей — прямая линия вдоль трека/границы яркости (шов)"}, "cloud": {"flag": false, "cloud_fraction": 0.0, "rule": "облака или тени облаков (маска качества) ≥ 20 % зоны"}, "diag": {"dist_land_m": 100, "dist_bright_m": 10, "n_bright_px_500m": 51, "b11_bright_max_500m": 0.26, "b4_water_zone": 0.0092, "b8_water_zone": 0.0051, "b11_det_median": 0.0136, "b8_det_median": 0.0466, "water_scene_b3": 0.0152, "water_scene_b4": 0.0109, "n_det_px": 5, "n_obj": 4}, "note": "эвристики, не классификатор; на размеченных данных не проверены"}, "n_cozar_filaments": 0}, "field_nearby": {"items": [{"source": "ADIS (4TU.ResearchData, судовая камера)", "segment_id": 336436, "ship": "Bark Europa", "date": "2022-10-31", "days_from_scene": -1374, "distance_km": 347.4, "lon": -40.0369, "lat": -24.05508, "n_items": 0, "area_km2": 0.3704, "size_class": "> 5 см", "c_items_km2": 0.0, "ci95_lo": 0.0, "ci95_hi": 9.96, "ci95_method": "точный интервал Пуассона для N, делённый на A", "raw_10cm_items_km2": 0.0, "authors_cal_10cm_items_km2": 0.0, "authors_cal_10cm_lo95": null, "authors_cal_10cm_hi95": null}, {"source": "ADIS (4TU.ResearchData, судовая камера)", "segment_id": 336437, "ship": "Bark Europa", "date": "2022-10-31", "days_from_scene": -1374, "distance_km": 348.5, "lon": -40.06524, "lat": -24.14022, "n_items": 0, "area_km2": 0.3705, "size_class": "> 5 см", "c_items_km2": 0.0, "ci95_lo": 0.0, "ci95_hi": 9.96, "ci95_method": "точный интервал Пуассона для N, делённый на A", "raw_10cm_items_km2": 0.0, "authors_cal_10cm_items_km2": 0.0, "authors_cal_10cm_lo95": null, "authors_cal_10cm_hi95": null}, {"source": "ADIS (4TU.ResearchData, судовая камера)", "segment_id": 336438, "ship": "Bark Europa", "date": "2022-10-31", "days_from_scene": -1374, "distance_km": 349.7, "lon": -40.09594, "lat": -24.22453, "n_items": 0, "area_km2": 0.3702, "size_class": "> 5 см", "c_items_km2": 0.0, "ci95_lo": 0.0, "ci95_hi": 9.96, "ci95_method": "точный интервал Пуассона для N, делённый на A", "raw_10cm_items_km2": 0.0, "authors_cal_10cm_items_km2": 0.0, "authors_cal_10cm_lo95": null, "authors_cal_10cm_hi95": null}], "nearest_organizer_sample": {"sample_id": "MPL-0513", "source_id": "S2_SARGASSO_MSM41", "distance_km": 5301.6}, "note": "Измерение ≠ оценка: это независимые полевые счёты C = N/A в другое время и в другом месте; со сценой они не связаны и не калибруют её. Ближайший отрезок ADIS — за 347 км: только для порядка величин."}, "acquired_at": "2026-08-05T13:02:49.024000Z", "acquisition_date": "2026-08-05", "processed_at": "2026-09-26T20:03:45Z", "human_checked": false, "auto_label": "автоматически, не проверено человеком"}}]}