{"type": "FeatureCollection", "features": [{"type": "Feature", "id": "SZ-live-manila-2019-05-13-001", "geometry": {"type": "Polygon", "coordinates": [[[120.82779, 14.709753], [120.826681, 14.709201], [120.826411, 14.708385], [120.826509, 14.707844], [120.826979, 14.707215], [120.827351, 14.707129], [120.82708, 14.706403], [120.827367, 14.705502], [120.828115, 14.704967], [120.829137, 14.704977], [120.829964, 14.705798], [120.829953, 14.706882], [120.829483, 14.70751], [120.829111, 14.707597], [120.829382, 14.708322], [120.829095, 14.709223], [120.82844, 14.709669], [120.82779, 14.709753]]]}, "properties": {"kind": "detection_zone", "layer_kind": "scene_zone", "zone_id": "SZ-live-manila-2019-05-13-001", "scene_key": "live-manila-2019-05-13", "scene_kind": "live", "scene_id": "S2A_51PTS_20190513_0_L2A", "region": "manila", "title": "Манильский залив · зона 1", "mission": "Sentinel-2", "datetime": "2019-05-13T02:33:41.147000Z", "detection_status": "detected", "status": "detected", "concentration_status": "unavailable", "quantity": {"status": "not_confirmed", "label": "концентрация по снимку не подтверждена", "detail": "перевод площади в штуки не показываем: нет калибровочных пар (см. docs/QUANTITY.md)"}, "verification": "unverified", "training_scene": null, "flags": [], "n_cozar_filaments": 0, "crop_file": "crops/SZ-live-manila-2019-05-13-001.jpg", "wind_high": false, "measured": {"zone_area_km2": 0.1391, "suspicious_area_m2": 500, "n_pixels": 5, "n_objects": 2, "water_km2": 0.1401, "lwd_m2_km2": 3568.9, "lwd_note": null, "quality": {"valid_water_fraction": 1.0, "cloud_fraction": 0.0, "glint_fraction": 0.0}, "model": {"weights": "weights/lgbm", "file": "weights/lgbm/model.txt", "sha256": "0eeebf43fcccd8c7c07f053b7ec723229d1a3c9b92d12eec1bdb269258c51470", "sha256_short": "0eeebf43fccc", "trained_at": "2026-09-25T01:35:55Z", "threshold": 0.63, "harmonize": "none", "class": "MARIDA Marine Debris (любой плавающий мусор, не только пластик)"}}, "probable": {"prob_max": 0.996, "prob_mean": 0.912, "signs": {"foam": {"flag": false, "white_ratio_b2_b8": 0.134, "wind10m_ms": 1.7, "rule": "прирост B2 над водой ≥ 0.8 прироста B8 («белый» спектр) или ветер ≥ 7.0 м/с"}, "glint": {"flag": false, "b11_water_median": 0.0051, "glint_share": 0.0, "rule": "медиана B11 воды зоны > 0.01 или ≥ 20 % пикселей зоны — блик (маска качества)"}, "ship": {"flag": false, "share": 0, "bright_target_px_within_500m": 0, "rule": "≥ 30 % пикселей — у яркой цели или кильватера (reports/artifacts.md) или яркая цель с откликом в SWIR (судно, лодка: B11 ≥ 0,015) ближе 500 м"}, "coast": {"flag": false, "land_px_within_300m": 0, "rule": "суша (маска качества) ближе 300 м — прибой, кромка берега"}, "shallow": {"flag": false, "b3_water_zone": 0.0294, "b3_ratio_to_scene_water": 0.96, "rule": "медиана B3 воды зоны ≥ 2× медианы воды снимка и ≥ 0,03 — мелководье или мутная вода"}, "seam": {"flag": false, "share": 0, "rule": "≥ 30 % пикселей — прямая линия вдоль трека/границы яркости (шов)"}, "cloud": {"flag": false, "cloud_fraction": 0.0, "rule": "облака или тени облаков (маска качества) ≥ 20 % зоны"}, "note": "эвристики, не классификатор; на размеченных данных не проверены"}, "n_cozar_filaments": 0}, "field_nearby": {"items": [{"source": "ADIS (4TU.ResearchData, судовая камера)", "segment_id": 339924, "ship": "R/V Tinro", "date": "2022-02-07", "days_from_scene": 1001, "distance_km": 3554.1, "lon": 139.33376, "lat": 41.2048, "n_items": 0, "area_km2": 0.8103, "size_class": "> 5 см", "c_items_km2": 0.0, "ci95_lo": 0.0, "ci95_hi": 4.55, "ci95_method": "точный интервал Пуассона для N, делённый на A", "raw_10cm_items_km2": 0.0, "authors_cal_10cm_items_km2": 0.0, "authors_cal_10cm_lo95": null, "authors_cal_10cm_hi95": null}, {"source": "ADIS (4TU.ResearchData, судовая камера)", "segment_id": 339927, "ship": "R/V Tinro", "date": "2022-02-07", "days_from_scene": 1001, "distance_km": 3564.5, "lon": 139.59261, "lat": 41.14731, "n_items": 0, "area_km2": 0.8108, "size_class": "> 5 см", "c_items_km2": 0.0, "ci95_lo": 0.0, "ci95_hi": 4.55, "ci95_method": "точный интервал Пуассона для N, делённый на A", "raw_10cm_items_km2": 0.0, "authors_cal_10cm_items_km2": 0.0, "authors_cal_10cm_lo95": null, "authors_cal_10cm_hi95": null}, {"source": "ADIS (4TU.ResearchData, судовая камера)", "segment_id": 339928, "ship": "R/V Tinro", "date": "2022-02-07", "days_from_scene": 1001, "distance_km": 3569.3, "lon": 139.70705, "lat": 41.12296, "n_items": 0, "area_km2": 0.8112, "size_class": "> 5 см", "c_items_km2": 0.0, "ci95_lo": 0.0, "ci95_hi": 4.55, "ci95_method": "точный интервал Пуассона для N, делённый на A", "raw_10cm_items_km2": 0.0, "authors_cal_10cm_items_km2": 0.0, "authors_cal_10cm_lo95": null, "authors_cal_10cm_hi95": null}], "nearest_organizer_sample": {"sample_id": "MPL-0923", "source_id": "S4_BLACK_SEA_DOORS3", "distance_km": 9041.9}, "note": "Измерение ≠ оценка: это независимые полевые счёты C = N/A в другое время и в другом месте; со сценой они не связаны и не калибруют её. Ближайший отрезок ADIS — за 3554 км: только для порядка величин."}}}, {"type": "Feature", "id": "SZ-live-manila-2019-05-13-002", "geometry": {"type": "Polygon", "coordinates": [[[120.840915, 14.668311], [120.839807, 14.667758], [120.839536, 14.666943], [120.839634, 14.666401], [120.840105, 14.665773], [120.840477, 14.665686], [120.840949, 14.664878], [120.841787, 14.664614], [120.842343, 14.66471], [120.843262, 14.665622], [120.843252, 14.666616], [120.842782, 14.667244], [120.842316, 14.66742], [120.841939, 14.668049], [120.840915, 14.668311]]]}, "properties": {"kind": "detection_zone", "layer_kind": "scene_zone", "zone_id": "SZ-live-manila-2019-05-13-002", "scene_key": "live-manila-2019-05-13", "scene_kind": "live", "scene_id": "S2A_51PTS_20190513_0_L2A", "region": "manila", "title": "Манильский залив · зона 2", "mission": "Sentinel-2", "datetime": "2019-05-13T02:33:41.147000Z", "detection_status": "insufficient_data", "status": "insufficient_data", "concentration_status": "unavailable", "quantity": {"status": "not_confirmed", "label": "концентрация по снимку не подтверждена", "detail": "перевод площади в штуки не показываем: нет калибровочных пар (см. docs/QUANTITY.md)"}, "verification": "false_alarm_signs", "training_scene": null, "flags": ["ship"], "n_cozar_filaments": 0, "crop_file": "crops/SZ-live-manila-2019-05-13-002.jpg", "wind_high": false, "measured": {"zone_area_km2": 0.1127, "suspicious_area_m2": 500, "n_pixels": 5, "n_objects": 2, "water_km2": 0.1143, "lwd_m2_km2": 4374.5, "lwd_note": null, "quality": {"valid_water_fraction": 1.0, "cloud_fraction": 0.0, "glint_fraction": 0.0}, "model": {"weights": "weights/lgbm", "file": "weights/lgbm/model.txt", "sha256": "0eeebf43fcccd8c7c07f053b7ec723229d1a3c9b92d12eec1bdb269258c51470", "sha256_short": "0eeebf43fccc", "trained_at": "2026-09-25T01:35:55Z", "threshold": 0.63, "harmonize": "none", "class": "MARIDA Marine Debris (любой плавающий мусор, не только пластик)"}}, "probable": {"prob_max": 1.0, "prob_mean": 0.945, "signs": {"foam": {"flag": false, "white_ratio_b2_b8": 0.214, "wind10m_ms": 1.7, "rule": "прирост B2 над водой ≥ 0.8 прироста B8 («белый» спектр) или ветер ≥ 7.0 м/с"}, "glint": {"flag": false, "b11_water_median": 0.0039, "glint_share": 0.0, "rule": "медиана B11 воды зоны > 0.01 или ≥ 20 % пикселей зоны — блик (маска качества)"}, "ship": {"flag": true, "share": 0.6, "bright_target_px_within_500m": 2, "rule": "≥ 30 % пикселей — у яркой цели или кильватера (reports/artifacts.md) или яркая цель с откликом в SWIR (судно, лодка: B11 ≥ 0,015) ближе 500 м"}, "coast": {"flag": false, "land_px_within_300m": 0, "rule": "суша (маска качества) ближе 300 м — прибой, кромка берега"}, "shallow": {"flag": false, "b3_water_zone": 0.0234, "b3_ratio_to_scene_water": 0.76, "rule": "медиана B3 воды зоны ≥ 2× медианы воды снимка и ≥ 0,03 — мелководье или мутная вода"}, "seam": {"flag": false, "share": 0, "rule": "≥ 30 % пикселей — прямая линия вдоль трека/границы яркости (шов)"}, "cloud": {"flag": false, "cloud_fraction": 0.0, "rule": "облака или тени облаков (маска качества) ≥ 20 % зоны"}, "note": "эвристики, не классификатор; на размеченных данных не проверены"}, "n_cozar_filaments": 0}, "field_nearby": {"items": [{"source": "ADIS (4TU.ResearchData, судовая камера)", "segment_id": 339924, "ship": "R/V Tinro", "date": "2022-02-07", "days_from_scene": 1001, "distance_km": 3554.1, "lon": 139.33376, "lat": 41.2048, "n_items": 0, "area_km2": 0.8103, "size_class": "> 5 см", "c_items_km2": 0.0, "ci95_lo": 0.0, "ci95_hi": 4.55, "ci95_method": "точный интервал Пуассона для N, делённый на A", "raw_10cm_items_km2": 0.0, "authors_cal_10cm_items_km2": 0.0, "authors_cal_10cm_lo95": null, "authors_cal_10cm_hi95": null}, {"source": "ADIS (4TU.ResearchData, судовая камера)", "segment_id": 339927, "ship": "R/V Tinro", "date": "2022-02-07", "days_from_scene": 1001, "distance_km": 3564.5, "lon": 139.59261, "lat": 41.14731, "n_items": 0, "area_km2": 0.8108, "size_class": "> 5 см", "c_items_km2": 0.0, "ci95_lo": 0.0, "ci95_hi": 4.55, "ci95_method": "точный интервал Пуассона для N, делённый на A", "raw_10cm_items_km2": 0.0, "authors_cal_10cm_items_km2": 0.0, "authors_cal_10cm_lo95": null, "authors_cal_10cm_hi95": null}, {"source": "ADIS (4TU.ResearchData, судовая камера)", "segment_id": 339928, "ship": "R/V Tinro", "date": "2022-02-07", "days_from_scene": 1001, "distance_km": 3569.3, "lon": 139.70705, "lat": 41.12296, "n_items": 0, "area_km2": 0.8112, "size_class": "> 5 см", "c_items_km2": 0.0, "ci95_lo": 0.0, "ci95_hi": 4.55, "ci95_method": "точный интервал Пуассона для N, делённый на A", "raw_10cm_items_km2": 0.0, "authors_cal_10cm_items_km2": 0.0, "authors_cal_10cm_lo95": null, "authors_cal_10cm_hi95": null}], "nearest_organizer_sample": {"sample_id": "MPL-0923", "source_id": "S4_BLACK_SEA_DOORS3", "distance_km": 9041.9}, "note": "Измерение ≠ оценка: это независимые полевые счёты C = N/A в другое время и в другом месте; со сценой они не связаны и не калибруют её. Ближайший отрезок ADIS — за 3554 км: только для порядка величин."}}}, {"type": "Feature", "id": "SZ-live-manila-2019-05-13-003", "geometry": {"type": "Polygon", "coordinates": [[[120.841887, 14.663802], [120.841055, 14.663523], [120.840597, 14.662886], [120.840601, 14.662435], [120.839861, 14.662247], [120.839128, 14.661246], [120.839138, 14.660252], [120.839981, 14.659447], [120.840539, 14.659362], [120.841371, 14.659641], [120.841923, 14.660188], [120.8421, 14.661003], [120.84284, 14.661281], [120.843298, 14.661918], [120.843386, 14.662461], [120.843099, 14.663271], [120.842445, 14.663717], [120.841887, 14.663802]]]}, "properties": {"kind": "detection_zone", "layer_kind": "scene_zone", "zone_id": "SZ-live-manila-2019-05-13-003", "scene_key": "live-manila-2019-05-13", "scene_kind": "live", "scene_id": "S2A_51PTS_20190513_0_L2A", "region": "manila", "title": "Манильский залив · зона 3", "mission": "Sentinel-2", "datetime": "2019-05-13T02:33:41.147000Z", "detection_status": "insufficient_data", "status": "insufficient_data", "concentration_status": "unavailable", "quantity": {"status": "not_confirmed", "label": "концентрация по снимку не подтверждена", "detail": "перевод площади в штуки не показываем: нет калибровочных пар (см. docs/QUANTITY.md)"}, "verification": "false_alarm_signs", "training_scene": null, "flags": ["ship"], "n_cozar_filaments": 0, "crop_file": "crops/SZ-live-manila-2019-05-13-003.jpg", "wind_high": false, "measured": {"zone_area_km2": 0.1402, "suspicious_area_m2": 600, "n_pixels": 6, "n_objects": 3, "water_km2": 0.1392, "lwd_m2_km2": 4310.3, "lwd_note": null, "quality": {"valid_water_fraction": 0.994, "cloud_fraction": 0.0, "glint_fraction": 0.0}, "model": {"weights": "weights/lgbm", "file": "weights/lgbm/model.txt", "sha256": "0eeebf43fcccd8c7c07f053b7ec723229d1a3c9b92d12eec1bdb269258c51470", "sha256_short": "0eeebf43fccc", "trained_at": "2026-09-25T01:35:55Z", "threshold": 0.63, "harmonize": "none", "class": "MARIDA Marine Debris (любой плавающий мусор, не только пластик)"}}, "probable": {"prob_max": 0.988, "prob_mean": 0.866, "signs": {"foam": {"flag": false, "white_ratio_b2_b8": 0.381, "wind10m_ms": 1.7, "rule": "прирост B2 над водой ≥ 0.8 прироста B8 («белый» спектр) или ветер ≥ 7.0 м/с"}, "glint": {"flag": false, "b11_water_median": 0.0042, "glint_share": 0.0, "rule": "медиана B11 воды зоны > 0.01 или ≥ 20 % пикселей зоны — блик (маска качества)"}, "ship": {"flag": true, "share": 0, "bright_target_px_within_500m": 2, "rule": "≥ 30 % пикселей — у яркой цели или кильватера (reports/artifacts.md) или яркая цель с откликом в SWIR (судно, лодка: B11 ≥ 0,015) ближе 500 м"}, "coast": {"flag": false, "land_px_within_300m": 0, "rule": "суша (маска качества) ближе 300 м — прибой, кромка берега"}, "shallow": {"flag": false, "b3_water_zone": 0.0247, "b3_ratio_to_scene_water": 0.81, "rule": "медиана B3 воды зоны ≥ 2× медианы воды снимка и ≥ 0,03 — мелководье или мутная вода"}, "seam": {"flag": false, "share": 0, "rule": "≥ 30 % пикселей — прямая линия вдоль трека/границы яркости (шов)"}, "cloud": {"flag": false, "cloud_fraction": 0.0, "rule": "облака или тени облаков (маска качества) ≥ 20 % зоны"}, "note": "эвристики, не классификатор; на размеченных данных не проверены"}, "n_cozar_filaments": 0}, "field_nearby": {"items": [{"source": "ADIS (4TU.ResearchData, судовая камера)", "segment_id": 339924, "ship": "R/V Tinro", "date": "2022-02-07", "days_from_scene": 1001, "distance_km": 3554.1, "lon": 139.33376, "lat": 41.2048, "n_items": 0, "area_km2": 0.8103, "size_class": "> 5 см", "c_items_km2": 0.0, "ci95_lo": 0.0, "ci95_hi": 4.55, "ci95_method": "точный интервал Пуассона для N, делённый на A", "raw_10cm_items_km2": 0.0, "authors_cal_10cm_items_km2": 0.0, "authors_cal_10cm_lo95": null, "authors_cal_10cm_hi95": null}, {"source": "ADIS (4TU.ResearchData, судовая камера)", "segment_id": 339927, "ship": "R/V Tinro", "date": "2022-02-07", "days_from_scene": 1001, "distance_km": 3564.5, "lon": 139.59261, "lat": 41.14731, "n_items": 0, "area_km2": 0.8108, "size_class": "> 5 см", "c_items_km2": 0.0, "ci95_lo": 0.0, "ci95_hi": 4.55, "ci95_method": "точный интервал Пуассона для N, делённый на A", "raw_10cm_items_km2": 0.0, "authors_cal_10cm_items_km2": 0.0, "authors_cal_10cm_lo95": null, "authors_cal_10cm_hi95": null}, {"source": "ADIS (4TU.ResearchData, судовая камера)", "segment_id": 339928, "ship": "R/V Tinro", "date": "2022-02-07", "days_from_scene": 1001, "distance_km": 3569.3, "lon": 139.70705, "lat": 41.12296, "n_items": 0, "area_km2": 0.8112, "size_class": "> 5 см", "c_items_km2": 0.0, "ci95_lo": 0.0, "ci95_hi": 4.55, "ci95_method": "точный интервал Пуассона для N, делённый на A", "raw_10cm_items_km2": 0.0, "authors_cal_10cm_items_km2": 0.0, "authors_cal_10cm_lo95": null, "authors_cal_10cm_hi95": null}], "nearest_organizer_sample": {"sample_id": "MPL-0923", "source_id": "S4_BLACK_SEA_DOORS3", "distance_km": 9041.9}, "note": "Измерение ≠ оценка: это независимые полевые счёты C = N/A в другое время и в другом месте; со сценой они не связаны и не калибруют её. Ближайший отрезок ADIS — за 3554 км: только для порядка величин."}}}, {"type": "Feature", "id": "SZ-live-manila-2019-05-13-004", "geometry": {"type": "Polygon", "coordinates": [[[120.801809, 14.662071], [120.800701, 14.661518], [120.800431, 14.660612], [120.800823, 14.658538], [120.801477, 14.658092], [120.802035, 14.658007], [120.803143, 14.65856], [120.803495, 14.660461], [120.803113, 14.661541], [120.802459, 14.661987], [120.801809, 14.662071]]]}, "properties": {"kind": "detection_zone", "layer_kind": "scene_zone", "zone_id": "SZ-live-manila-2019-05-13-004", "scene_key": "live-manila-2019-05-13", "scene_kind": "live", "scene_id": "S2A_51PTS_20190513_0_L2A", "region": "manila", "title": "Манильский залив · зона 4", "mission": "Sentinel-2", "datetime": "2019-05-13T02:33:41.147000Z", "detection_status": "detected", "status": "detected", "concentration_status": "unavailable", "quantity": {"status": "not_confirmed", "label": "концентрация по снимку не подтверждена", "detail": "перевод площади в штуки не показываем: нет калибровочных пар (см. docs/QUANTITY.md)"}, "verification": "unverified", "training_scene": null, "flags": [], "n_cozar_filaments": 0, "crop_file": "crops/SZ-live-manila-2019-05-13-004.jpg", "wind_high": false, "measured": {"zone_area_km2": 0.114, "suspicious_area_m2": 1100, "n_pixels": 11, "n_objects": 3, "water_km2": 0.1157, "lwd_m2_km2": 9507.3, "lwd_note": null, "quality": {"valid_water_fraction": 1.0, "cloud_fraction": 0.0, "glint_fraction": 0.0}, "model": {"weights": "weights/lgbm", "file": "weights/lgbm/model.txt", "sha256": "0eeebf43fcccd8c7c07f053b7ec723229d1a3c9b92d12eec1bdb269258c51470", "sha256_short": "0eeebf43fccc", "trained_at": "2026-09-25T01:35:55Z", "threshold": 0.63, "harmonize": "none", "class": "MARIDA Marine Debris (любой плавающий мусор, не только пластик)"}}, "probable": {"prob_max": 0.992, "prob_mean": 0.893, "signs": {"foam": {"flag": false, "white_ratio_b2_b8": 0.617, "wind10m_ms": 1.7, "rule": "прирост B2 над водой ≥ 0.8 прироста B8 («белый» спектр) или ветер ≥ 7.0 м/с"}, "glint": {"flag": false, "b11_water_median": 0.0044, "glint_share": 0.0, "rule": "медиана B11 воды зоны > 0.01 или ≥ 20 % пикселей зоны — блик (маска качества)"}, "ship": {"flag": false, "share": 0, "bright_target_px_within_500m": 0, "rule": "≥ 30 % пикселей — у яркой цели или кильватера (reports/artifacts.md) или яркая цель с откликом в SWIR (судно, лодка: B11 ≥ 0,015) ближе 500 м"}, "coast": {"flag": false, "land_px_within_300m": 0, "rule": "суша (маска качества) ближе 300 м — прибой, кромка берега"}, "shallow": {"flag": false, "b3_water_zone": 0.0261, "b3_ratio_to_scene_water": 0.85, "rule": "медиана B3 воды зоны ≥ 2× медианы воды снимка и ≥ 0,03 — мелководье или мутная вода"}, "seam": {"flag": false, "share": 0, "rule": "≥ 30 % пикселей — прямая линия вдоль трека/границы яркости (шов)"}, "cloud": {"flag": false, "cloud_fraction": 0.0, "rule": "облака или тени облаков (маска качества) ≥ 20 % зоны"}, "note": "эвристики, не классификатор; на размеченных данных не проверены"}, "n_cozar_filaments": 0}, "field_nearby": {"items": [{"source": "ADIS (4TU.ResearchData, судовая камера)", "segment_id": 339924, "ship": "R/V Tinro", "date": "2022-02-07", "days_from_scene": 1001, "distance_km": 3554.1, "lon": 139.33376, "lat": 41.2048, "n_items": 0, "area_km2": 0.8103, "size_class": "> 5 см", "c_items_km2": 0.0, "ci95_lo": 0.0, "ci95_hi": 4.55, "ci95_method": "точный интервал Пуассона для N, делённый на A", "raw_10cm_items_km2": 0.0, "authors_cal_10cm_items_km2": 0.0, "authors_cal_10cm_lo95": null, "authors_cal_10cm_hi95": null}, {"source": "ADIS (4TU.ResearchData, судовая камера)", "segment_id": 339927, "ship": "R/V Tinro", "date": "2022-02-07", "days_from_scene": 1001, "distance_km": 3564.5, "lon": 139.59261, "lat": 41.14731, "n_items": 0, "area_km2": 0.8108, "size_class": "> 5 см", "c_items_km2": 0.0, "ci95_lo": 0.0, "ci95_hi": 4.55, "ci95_method": "точный интервал Пуассона для N, делённый на A", "raw_10cm_items_km2": 0.0, "authors_cal_10cm_items_km2": 0.0, "authors_cal_10cm_lo95": null, "authors_cal_10cm_hi95": null}, {"source": "ADIS (4TU.ResearchData, судовая камера)", "segment_id": 339928, "ship": "R/V Tinro", "date": "2022-02-07", "days_from_scene": 1001, "distance_km": 3569.3, "lon": 139.70705, "lat": 41.12296, "n_items": 0, "area_km2": 0.8112, "size_class": "> 5 см", "c_items_km2": 0.0, "ci95_lo": 0.0, "ci95_hi": 4.55, "ci95_method": "точный интервал Пуассона для N, делённый на A", "raw_10cm_items_km2": 0.0, "authors_cal_10cm_items_km2": 0.0, "authors_cal_10cm_lo95": null, "authors_cal_10cm_hi95": null}], "nearest_organizer_sample": {"sample_id": "MPL-0923", "source_id": "S4_BLACK_SEA_DOORS3", "distance_km": 9041.9}, "note": "Измерение ≠ оценка: это независимые полевые счёты C = N/A в другое время и в другом месте; со сценой они не связаны и не калибруют её. Ближайший отрезок ADIS — за 3554 км: только для порядка величин."}}}, {"type": "Feature", "id": "SZ-live-manila-2019-05-13-005", "geometry": {"type": "Polygon", "coordinates": [[[120.865832, 14.654445], [120.864723, 14.653893], [120.864453, 14.653077], [120.864551, 14.652536], [120.865587, 14.650919], [120.866425, 14.650655], [120.867074, 14.650752], [120.867901, 14.651572], [120.867891, 14.652657], [120.867235, 14.653283], [120.866762, 14.654182], [120.865832, 14.654445]]]}, "properties": {"kind": "detection_zone", "layer_kind": "scene_zone", "zone_id": "SZ-live-manila-2019-05-13-005", "scene_key": "live-manila-2019-05-13", "scene_kind": "live", "scene_id": "S2A_51PTS_20190513_0_L2A", "region": "manila", "title": "Манильский залив · зона 5", "mission": "Sentinel-2", "datetime": "2019-05-13T02:33:41.147000Z", "detection_status": "detected", "status": "detected", "concentration_status": "unavailable", "quantity": {"status": "not_confirmed", "label": "концентрация по снимку не подтверждена", "detail": "перевод площади в штуки не показываем: нет калибровочных пар (см. docs/QUANTITY.md)"}, "verification": "unverified", "training_scene": null, "flags": [], "n_cozar_filaments": 0, "crop_file": "crops/SZ-live-manila-2019-05-13-005.jpg", "wind_high": false, "measured": {"zone_area_km2": 0.1093, "suspicious_area_m2": 500, "n_pixels": 5, "n_objects": 2, "water_km2": 0.1112, "lwd_m2_km2": 4496.4, "lwd_note": null, "quality": {"valid_water_fraction": 1.0, "cloud_fraction": 0.0, "glint_fraction": 0.0}, "model": {"weights": "weights/lgbm", "file": "weights/lgbm/model.txt", "sha256": "0eeebf43fcccd8c7c07f053b7ec723229d1a3c9b92d12eec1bdb269258c51470", "sha256_short": "0eeebf43fccc", "trained_at": "2026-09-25T01:35:55Z", "threshold": 0.63, "harmonize": "none", "class": "MARIDA Marine Debris (любой плавающий мусор, не только пластик)"}}, "probable": {"prob_max": 1.0, "prob_mean": 0.993, "signs": {"foam": {"flag": false, "white_ratio_b2_b8": 0.352, "wind10m_ms": 1.7, "rule": "прирост B2 над водой ≥ 0.8 прироста B8 («белый» спектр) или ветер ≥ 7.0 м/с"}, "glint": {"flag": false, "b11_water_median": 0.006, "glint_share": 0.0, "rule": "медиана B11 воды зоны > 0.01 или ≥ 20 % пикселей зоны — блик (маска качества)"}, "ship": {"flag": false, "share": 0, "bright_target_px_within_500m": 0, "rule": "≥ 30 % пикселей — у яркой цели или кильватера (reports/artifacts.md) или яркая цель с откликом в SWIR (судно, лодка: B11 ≥ 0,015) ближе 500 м"}, "coast": {"flag": false, "land_px_within_300m": 0, "rule": "суша (маска качества) ближе 300 м — прибой, кромка берега"}, "shallow": {"flag": false, "b3_water_zone": 0.0313, "b3_ratio_to_scene_water": 1.02, "rule": "медиана B3 воды зоны ≥ 2× медианы воды снимка и ≥ 0,03 — мелководье или мутная вода"}, "seam": {"flag": false, "share": 0, "rule": "≥ 30 % пикселей — прямая линия вдоль трека/границы яркости (шов)"}, "cloud": {"flag": false, "cloud_fraction": 0.0, "rule": "облака или тени облаков (маска качества) ≥ 20 % зоны"}, "note": "эвристики, не классификатор; на размеченных данных не проверены"}, "n_cozar_filaments": 0}, "field_nearby": {"items": [{"source": "ADIS (4TU.ResearchData, судовая камера)", "segment_id": 339924, "ship": "R/V Tinro", "date": "2022-02-07", "days_from_scene": 1001, "distance_km": 3554.1, "lon": 139.33376, "lat": 41.2048, "n_items": 0, "area_km2": 0.8103, "size_class": "> 5 см", "c_items_km2": 0.0, "ci95_lo": 0.0, "ci95_hi": 4.55, "ci95_method": "точный интервал Пуассона для N, делённый на A", "raw_10cm_items_km2": 0.0, "authors_cal_10cm_items_km2": 0.0, "authors_cal_10cm_lo95": null, "authors_cal_10cm_hi95": null}, {"source": "ADIS (4TU.ResearchData, судовая камера)", "segment_id": 339927, "ship": "R/V Tinro", "date": "2022-02-07", "days_from_scene": 1001, "distance_km": 3564.5, "lon": 139.59261, "lat": 41.14731, "n_items": 0, "area_km2": 0.8108, "size_class": "> 5 см", "c_items_km2": 0.0, "ci95_lo": 0.0, "ci95_hi": 4.55, "ci95_method": "точный интервал Пуассона для N, делённый на A", "raw_10cm_items_km2": 0.0, "authors_cal_10cm_items_km2": 0.0, "authors_cal_10cm_lo95": null, "authors_cal_10cm_hi95": null}, {"source": "ADIS (4TU.ResearchData, судовая камера)", "segment_id": 339928, "ship": "R/V Tinro", "date": "2022-02-07", "days_from_scene": 1001, "distance_km": 3569.3, "lon": 139.70705, "lat": 41.12296, "n_items": 0, "area_km2": 0.8112, "size_class": "> 5 см", "c_items_km2": 0.0, "ci95_lo": 0.0, "ci95_hi": 4.55, "ci95_method": "точный интервал Пуассона для N, делённый на A", "raw_10cm_items_km2": 0.0, "authors_cal_10cm_items_km2": 0.0, "authors_cal_10cm_lo95": null, "authors_cal_10cm_hi95": null}], "nearest_organizer_sample": {"sample_id": "MPL-0923", "source_id": "S4_BLACK_SEA_DOORS3", "distance_km": 9041.9}, "note": "Измерение ≠ оценка: это независимые полевые счёты C = N/A в другое время и в другом месте; со сценой они не связаны и не калибруют её. Ближайший отрезок ADIS — за 3554 км: только для порядка величин."}}}, {"type": "Feature", "id": "SZ-live-manila-2019-05-13-006", "geometry": {"type": "Polygon", "coordinates": [[[120.880213, 14.645269], [120.879105, 14.644717], [120.878834, 14.643901], [120.878932, 14.64336], [120.879682, 14.642644], [120.879685, 14.642283], [120.880249, 14.641565], [120.881087, 14.641301], [120.881643, 14.641397], [120.88247, 14.642218], [120.882364, 14.643572], [120.881144, 14.645007], [120.880213, 14.645269]]]}, "properties": {"kind": "detection_zone", "layer_kind": "scene_zone", "zone_id": "SZ-live-manila-2019-05-13-006", "scene_key": "live-manila-2019-05-13", "scene_kind": "live", "scene_id": "S2A_51PTS_20190513_0_L2A", "region": "manila", "title": "Манильский залив · зона 6", "mission": "Sentinel-2", "datetime": "2019-05-13T02:33:41.147000Z", "detection_status": "insufficient_data", "status": "insufficient_data", "concentration_status": "unavailable", "quantity": {"status": "not_confirmed", "label": "концентрация по снимку не подтверждена", "detail": "перевод площади в штуки не показываем: нет калибровочных пар (см. docs/QUANTITY.md)"}, "verification": "false_alarm_signs", "training_scene": null, "flags": ["ship"], "n_cozar_filaments": 0, "crop_file": "crops/SZ-live-manila-2019-05-13-006.jpg", "wind_high": false, "measured": {"zone_area_km2": 0.1177, "suspicious_area_m2": 500, "n_pixels": 5, "n_objects": 3, "water_km2": 0.1194, "lwd_m2_km2": 4187.6, "lwd_note": null, "quality": {"valid_water_fraction": 1.0, "cloud_fraction": 0.0, "glint_fraction": 0.0}, "model": {"weights": "weights/lgbm", "file": "weights/lgbm/model.txt", "sha256": "0eeebf43fcccd8c7c07f053b7ec723229d1a3c9b92d12eec1bdb269258c51470", "sha256_short": "0eeebf43fccc", "trained_at": "2026-09-25T01:35:55Z", "threshold": 0.63, "harmonize": "none", "class": "MARIDA Marine Debris (любой плавающий мусор, не только пластик)"}}, "probable": {"prob_max": 1.0, "prob_mean": 0.958, "signs": {"foam": {"flag": false, "white_ratio_b2_b8": 0.354, "wind10m_ms": 1.7, "rule": "прирост B2 над водой ≥ 0.8 прироста B8 («белый» спектр) или ветер ≥ 7.0 м/с"}, "glint": {"flag": false, "b11_water_median": 0.0082, "glint_share": 0.0, "rule": "медиана B11 воды зоны > 0.01 или ≥ 20 % пикселей зоны — блик (маска качества)"}, "ship": {"flag": true, "share": 0.8, "bright_target_px_within_500m": 2, "rule": "≥ 30 % пикселей — у яркой цели или кильватера (reports/artifacts.md) или яркая цель с откликом в SWIR (судно, лодка: B11 ≥ 0,015) ближе 500 м"}, "coast": {"flag": false, "land_px_within_300m": 0, "rule": "суша (маска качества) ближе 300 м — прибой, кромка берега"}, "shallow": {"flag": false, "b3_water_zone": 0.0365, "b3_ratio_to_scene_water": 1.19, "rule": "медиана B3 воды зоны ≥ 2× медианы воды снимка и ≥ 0,03 — мелководье или мутная вода"}, "seam": {"flag": false, "share": 0, "rule": "≥ 30 % пикселей — прямая линия вдоль трека/границы яркости (шов)"}, "cloud": {"flag": false, "cloud_fraction": 0.0, "rule": "облака или тени облаков (маска качества) ≥ 20 % зоны"}, "note": "эвристики, не классификатор; на размеченных данных не проверены"}, "n_cozar_filaments": 0}, "field_nearby": {"items": [{"source": "ADIS (4TU.ResearchData, судовая камера)", "segment_id": 339924, "ship": "R/V Tinro", "date": "2022-02-07", "days_from_scene": 1001, "distance_km": 3554.1, "lon": 139.33376, "lat": 41.2048, "n_items": 0, "area_km2": 0.8103, "size_class": "> 5 см", "c_items_km2": 0.0, "ci95_lo": 0.0, "ci95_hi": 4.55, "ci95_method": "точный интервал Пуассона для N, делённый на A", "raw_10cm_items_km2": 0.0, "authors_cal_10cm_items_km2": 0.0, "authors_cal_10cm_lo95": null, "authors_cal_10cm_hi95": null}, {"source": "ADIS (4TU.ResearchData, судовая камера)", "segment_id": 339927, "ship": "R/V Tinro", "date": "2022-02-07", "days_from_scene": 1001, "distance_km": 3564.5, "lon": 139.59261, "lat": 41.14731, "n_items": 0, "area_km2": 0.8108, "size_class": "> 5 см", "c_items_km2": 0.0, "ci95_lo": 0.0, "ci95_hi": 4.55, "ci95_method": "точный интервал Пуассона для N, делённый на A", "raw_10cm_items_km2": 0.0, "authors_cal_10cm_items_km2": 0.0, "authors_cal_10cm_lo95": null, "authors_cal_10cm_hi95": null}, {"source": "ADIS (4TU.ResearchData, судовая камера)", "segment_id": 339928, "ship": "R/V Tinro", "date": "2022-02-07", "days_from_scene": 1001, "distance_km": 3569.3, "lon": 139.70705, "lat": 41.12296, "n_items": 0, "area_km2": 0.8112, "size_class": "> 5 см", "c_items_km2": 0.0, "ci95_lo": 0.0, "ci95_hi": 4.55, "ci95_method": "точный интервал Пуассона для N, делённый на A", "raw_10cm_items_km2": 0.0, "authors_cal_10cm_items_km2": 0.0, "authors_cal_10cm_lo95": null, "authors_cal_10cm_hi95": null}], "nearest_organizer_sample": {"sample_id": "MPL-0923", "source_id": "S4_BLACK_SEA_DOORS3", "distance_km": 9041.9}, "note": "Измерение ≠ оценка: это независимые полевые счёты C = N/A в другое время и в другом месте; со сценой они не связаны и не калибруют её. Ближайший отрезок ADIS — за 3554 км: только для порядка величин."}}}, {"type": "Feature", "id": "SZ-live-manila-2019-05-13-007", "geometry": {"type": "Polygon", "coordinates": [[[120.845755, 14.619381], [120.844923, 14.619102], [120.844465, 14.618466], [120.844675, 14.616028], [120.845708, 14.614682], [120.84636, 14.614507], [120.846368, 14.613694], [120.846931, 14.612977], [120.847769, 14.612713], [120.848694, 14.612993], [120.84889, 14.61191], [120.849543, 14.611555], [120.84864, 14.609017], [120.848927, 14.608116], [120.849581, 14.60767], [120.850509, 14.607678], [120.850697, 14.607409], [120.851535, 14.607146], [120.852276, 14.607243], [120.852829, 14.6077], [120.854227, 14.60708], [120.855152, 14.60736], [120.855698, 14.608449], [120.855411, 14.60935], [120.854382, 14.610154], [120.853545, 14.610417], [120.852989, 14.610322], [120.852613, 14.61077], [120.852241, 14.610857], [120.852233, 14.61167], [120.851578, 14.612297], [120.851569, 14.6132], [120.850911, 14.614007], [120.850074, 14.614271], [120.849149, 14.613991], [120.848952, 14.615074], [120.84802, 14.615517], [120.848012, 14.61633], [120.847166, 14.617497], [120.847253, 14.61804], [120.846967, 14.61885], [120.846313, 14.619296], [120.845755, 14.619381]]]}, "properties": {"kind": "detection_zone", "layer_kind": "scene_zone", "zone_id": "SZ-live-manila-2019-05-13-007", "scene_key": "live-manila-2019-05-13", "scene_kind": "live", "scene_id": "S2A_51PTS_20190513_0_L2A", "region": "manila", "title": "Манильский залив · зона 7", "mission": "Sentinel-2", "datetime": "2019-05-13T02:33:41.147000Z", "detection_status": "insufficient_data", "status": "insufficient_data", "concentration_status": "unavailable", "quantity": {"status": "not_confirmed", "label": "концентрация по снимку не подтверждена", "detail": "перевод площади в штуки не показываем: нет калибровочных пар (см. docs/QUANTITY.md)"}, "verification": "false_alarm_signs", "training_scene": null, "flags": ["ship"], "n_cozar_filaments": 0, "crop_file": "crops/SZ-live-manila-2019-05-13-007.jpg", "wind_high": false, "measured": {"zone_area_km2": 0.559, "suspicious_area_m2": 3700, "n_pixels": 37, "n_objects": 13, "water_km2": 0.562, "lwd_m2_km2": 6583.6, "lwd_note": null, "quality": {"valid_water_fraction": 1.0, "cloud_fraction": 0.0, "glint_fraction": 0.0}, "model": {"weights": "weights/lgbm", "file": "weights/lgbm/model.txt", "sha256": "0eeebf43fcccd8c7c07f053b7ec723229d1a3c9b92d12eec1bdb269258c51470", "sha256_short": "0eeebf43fccc", "trained_at": "2026-09-25T01:35:55Z", "threshold": 0.63, "harmonize": "none", "class": "MARIDA Marine Debris (любой плавающий мусор, не только пластик)"}}, "probable": {"prob_max": 0.996, "prob_mean": 0.864, "signs": {"foam": {"flag": false, "white_ratio_b2_b8": 0.679, "wind10m_ms": 1.7, "rule": "прирост B2 над водой ≥ 0.8 прироста B8 («белый» спектр) или ветер ≥ 7.0 м/с"}, "glint": {"flag": false, "b11_water_median": 0.0042, "glint_share": 0.0, "rule": "медиана B11 воды зоны > 0.01 или ≥ 20 % пикселей зоны — блик (маска качества)"}, "ship": {"flag": true, "share": 0.189, "bright_target_px_within_500m": 66, "rule": "≥ 30 % пикселей — у яркой цели или кильватера (reports/artifacts.md) или яркая цель с откликом в SWIR (судно, лодка: B11 ≥ 0,015) ближе 500 м"}, "coast": {"flag": false, "land_px_within_300m": 0, "rule": "суша (маска качества) ближе 300 м — прибой, кромка берега"}, "shallow": {"flag": false, "b3_water_zone": 0.0253, "b3_ratio_to_scene_water": 0.83, "rule": "медиана B3 воды зоны ≥ 2× медианы воды снимка и ≥ 0,03 — мелководье или мутная вода"}, "seam": {"flag": false, "share": 0, "rule": "≥ 30 % пикселей — прямая линия вдоль трека/границы яркости (шов)"}, "cloud": {"flag": false, "cloud_fraction": 0.0, "rule": "облака или тени облаков (маска качества) ≥ 20 % зоны"}, "note": "эвристики, не классификатор; на размеченных данных не проверены"}, "n_cozar_filaments": 0}, "field_nearby": {"items": [{"source": "ADIS (4TU.ResearchData, судовая камера)", "segment_id": 339924, "ship": "R/V Tinro", "date": "2022-02-07", "days_from_scene": 1001, "distance_km": 3554.1, "lon": 139.33376, "lat": 41.2048, "n_items": 0, "area_km2": 0.8103, "size_class": "> 5 см", "c_items_km2": 0.0, "ci95_lo": 0.0, "ci95_hi": 4.55, "ci95_method": "точный интервал Пуассона для N, делённый на A", "raw_10cm_items_km2": 0.0, "authors_cal_10cm_items_km2": 0.0, "authors_cal_10cm_lo95": null, "authors_cal_10cm_hi95": null}, {"source": "ADIS (4TU.ResearchData, судовая камера)", "segment_id": 339927, "ship": "R/V Tinro", "date": "2022-02-07", "days_from_scene": 1001, "distance_km": 3564.5, "lon": 139.59261, "lat": 41.14731, "n_items": 0, "area_km2": 0.8108, "size_class": "> 5 см", "c_items_km2": 0.0, "ci95_lo": 0.0, "ci95_hi": 4.55, "ci95_method": "точный интервал Пуассона для N, делённый на A", "raw_10cm_items_km2": 0.0, "authors_cal_10cm_items_km2": 0.0, "authors_cal_10cm_lo95": null, "authors_cal_10cm_hi95": null}, {"source": "ADIS (4TU.ResearchData, судовая камера)", "segment_id": 339928, "ship": "R/V Tinro", "date": "2022-02-07", "days_from_scene": 1001, "distance_km": 3569.3, "lon": 139.70705, "lat": 41.12296, "n_items": 0, "area_km2": 0.8112, "size_class": "> 5 см", "c_items_km2": 0.0, "ci95_lo": 0.0, "ci95_hi": 4.55, "ci95_method": "точный интервал Пуассона для N, делённый на A", "raw_10cm_items_km2": 0.0, "authors_cal_10cm_items_km2": 0.0, "authors_cal_10cm_lo95": null, "authors_cal_10cm_hi95": null}], "nearest_organizer_sample": {"sample_id": "MPL-0923", "source_id": "S4_BLACK_SEA_DOORS3", "distance_km": 9041.9}, "note": "Измерение ≠ оценка: это независимые полевые счёты C = N/A в другое время и в другом месте; со сценой они не связаны и не калибруют её. Ближайший отрезок ADIS — за 3554 км: только для порядка величин."}}}, {"type": "Feature", "id": "SZ-live-manila-2019-05-13-008", "geometry": {"type": "Polygon", "coordinates": [[[120.840123, 14.568909], [120.839291, 14.56863], [120.838833, 14.567993], [120.838747, 14.56736], [120.839033, 14.566549], [120.838291, 14.566543], [120.837648, 14.565904], [120.836813, 14.565896], [120.836168, 14.565439], [120.835899, 14.564442], [120.836466, 14.563363], [120.837304, 14.5631], [120.837952, 14.563196], [120.838596, 14.563835], [120.839431, 14.563842], [120.840075, 14.5643], [120.840345, 14.565206], [120.839965, 14.566106], [120.841077, 14.566297], [120.841623, 14.567387], [120.841335, 14.568378], [120.840681, 14.568824], [120.840123, 14.568909]]]}, "properties": {"kind": "detection_zone", "layer_kind": "scene_zone", "zone_id": "SZ-live-manila-2019-05-13-008", "scene_key": "live-manila-2019-05-13", "scene_kind": "live", "scene_id": "S2A_51PTS_20190513_0_L2A", "region": "manila", "title": "Манильский залив · зона 8", "mission": "Sentinel-2", "datetime": "2019-05-13T02:33:41.147000Z", "detection_status": "detected", "status": "detected", "concentration_status": "unavailable", "quantity": {"status": "not_confirmed", "label": "концентрация по снимку не подтверждена", "detail": "перевод площади в штуки не показываем: нет калибровочных пар (см. docs/QUANTITY.md)"}, "verification": "unverified", "training_scene": null, "flags": [], "n_cozar_filaments": 0, "crop_file": "crops/SZ-live-manila-2019-05-13-008.jpg", "wind_high": false, "measured": {"zone_area_km2": 0.1975, "suspicious_area_m2": 900, "n_pixels": 9, "n_objects": 3, "water_km2": 0.1863, "lwd_m2_km2": 4830.9, "lwd_note": null, "quality": {"valid_water_fraction": 0.929, "cloud_fraction": 0.0, "glint_fraction": 0.0}, "model": {"weights": "weights/lgbm", "file": "weights/lgbm/model.txt", "sha256": "0eeebf43fcccd8c7c07f053b7ec723229d1a3c9b92d12eec1bdb269258c51470", "sha256_short": "0eeebf43fccc", "trained_at": "2026-09-25T01:35:55Z", "threshold": 0.63, "harmonize": "none", "class": "MARIDA Marine Debris (любой плавающий мусор, не только пластик)"}}, "probable": {"prob_max": 1.0, "prob_mean": 0.958, "signs": {"foam": {"flag": false, "white_ratio_b2_b8": -0.187, "wind10m_ms": 1.7, "rule": "прирост B2 над водой ≥ 0.8 прироста B8 («белый» спектр) или ветер ≥ 7.0 м/с"}, "glint": {"flag": false, "b11_water_median": 0.0023, "glint_share": 0.0, "rule": "медиана B11 воды зоны > 0.01 или ≥ 20 % пикселей зоны — блик (маска качества)"}, "ship": {"flag": false, "share": 0, "bright_target_px_within_500m": 0, "rule": "≥ 30 % пикселей — у яркой цели или кильватера (reports/artifacts.md) или яркая цель с откликом в SWIR (судно, лодка: B11 ≥ 0,015) ближе 500 м"}, "coast": {"flag": false, "land_px_within_300m": 0, "rule": "суша (маска качества) ближе 300 м — прибой, кромка берега"}, "shallow": {"flag": false, "b3_water_zone": 0.0222, "b3_ratio_to_scene_water": 0.73, "rule": "медиана B3 воды зоны ≥ 2× медианы воды снимка и ≥ 0,03 — мелководье или мутная вода"}, "seam": {"flag": false, "share": 0, "rule": "≥ 30 % пикселей — прямая линия вдоль трека/границы яркости (шов)"}, "cloud": {"flag": false, "cloud_fraction": 0.0, "rule": "облака или тени облаков (маска качества) ≥ 20 % зоны"}, "note": "эвристики, не классификатор; на размеченных данных не проверены"}, "n_cozar_filaments": 0}, "field_nearby": {"items": [{"source": "ADIS (4TU.ResearchData, судовая камера)", "segment_id": 339924, "ship": "R/V Tinro", "date": "2022-02-07", "days_from_scene": 1001, "distance_km": 3554.1, "lon": 139.33376, "lat": 41.2048, "n_items": 0, "area_km2": 0.8103, "size_class": "> 5 см", "c_items_km2": 0.0, "ci95_lo": 0.0, "ci95_hi": 4.55, "ci95_method": "точный интервал Пуассона для N, делённый на A", "raw_10cm_items_km2": 0.0, "authors_cal_10cm_items_km2": 0.0, "authors_cal_10cm_lo95": null, "authors_cal_10cm_hi95": null}, {"source": "ADIS (4TU.ResearchData, судовая камера)", "segment_id": 339927, "ship": "R/V Tinro", "date": "2022-02-07", "days_from_scene": 1001, "distance_km": 3564.5, "lon": 139.59261, "lat": 41.14731, "n_items": 0, "area_km2": 0.8108, "size_class": "> 5 см", "c_items_km2": 0.0, "ci95_lo": 0.0, "ci95_hi": 4.55, "ci95_method": "точный интервал Пуассона для N, делённый на A", "raw_10cm_items_km2": 0.0, "authors_cal_10cm_items_km2": 0.0, "authors_cal_10cm_lo95": null, "authors_cal_10cm_hi95": null}, {"source": "ADIS (4TU.ResearchData, судовая камера)", "segment_id": 339928, "ship": "R/V Tinro", "date": "2022-02-07", "days_from_scene": 1001, "distance_km": 3569.3, "lon": 139.70705, "lat": 41.12296, "n_items": 0, "area_km2": 0.8112, "size_class": "> 5 см", "c_items_km2": 0.0, "ci95_lo": 0.0, "ci95_hi": 4.55, "ci95_method": "точный интервал Пуассона для N, делённый на A", "raw_10cm_items_km2": 0.0, "authors_cal_10cm_items_km2": 0.0, "authors_cal_10cm_lo95": null, "authors_cal_10cm_hi95": null}], "nearest_organizer_sample": {"sample_id": "MPL-0923", "source_id": "S4_BLACK_SEA_DOORS3", "distance_km": 9041.9}, "note": "Измерение ≠ оценка: это независимые полевые счёты C = N/A в другое время и в другом месте; со сценой они не связаны и не калибруют её. Ближайший отрезок ADIS — за 3554 км: только для порядка величин."}}}, {"type": "Feature", "id": "SZ-live-manila-2019-05-13-009", "geometry": {"type": "Polygon", "coordinates": [[[120.83499, 14.562536], [120.833882, 14.561984], [120.833249, 14.560351], [120.833538, 14.55927], [120.834656, 14.558738], [120.835212, 14.558834], [120.835857, 14.559291], [120.836581, 14.561105], [120.836483, 14.561646], [120.836013, 14.562275], [120.83499, 14.562536]]]}, "properties": {"kind": "detection_zone", "layer_kind": "scene_zone", "zone_id": "SZ-live-manila-2019-05-13-009", "scene_key": "live-manila-2019-05-13", "scene_kind": "live", "scene_id": "S2A_51PTS_20190513_0_L2A", "region": "manila", "title": "Манильский залив · зона 9", "mission": "Sentinel-2", "datetime": "2019-05-13T02:33:41.147000Z", "detection_status": "detected", "status": "detected", "concentration_status": "unavailable", "quantity": {"status": "not_confirmed", "label": "концентрация по снимку не подтверждена", "detail": "перевод площади в штуки не показываем: нет калибровочных пар (см. docs/QUANTITY.md)"}, "verification": "unverified", "training_scene": null, "flags": [], "n_cozar_filaments": 0, "crop_file": "crops/SZ-live-manila-2019-05-13-009.jpg", "wind_high": false, "measured": {"zone_area_km2": 0.1081, "suspicious_area_m2": 600, "n_pixels": 6, "n_objects": 2, "water_km2": 0.1087, "lwd_m2_km2": 5519.8, "lwd_note": null, "quality": {"valid_water_fraction": 1.0, "cloud_fraction": 0.0, "glint_fraction": 0.0}, "model": {"weights": "weights/lgbm", "file": "weights/lgbm/model.txt", "sha256": "0eeebf43fcccd8c7c07f053b7ec723229d1a3c9b92d12eec1bdb269258c51470", "sha256_short": "0eeebf43fccc", "trained_at": "2026-09-25T01:35:55Z", "threshold": 0.63, "harmonize": "none", "class": "MARIDA Marine Debris (любой плавающий мусор, не только пластик)"}}, "probable": {"prob_max": 0.976, "prob_mean": 0.897, "signs": {"foam": {"flag": false, "white_ratio_b2_b8": 0.15, "wind10m_ms": 1.7, "rule": "прирост B2 над водой ≥ 0.8 прироста B8 («белый» спектр) или ветер ≥ 7.0 м/с"}, "glint": {"flag": false, "b11_water_median": 0.0025, "glint_share": 0.0, "rule": "медиана B11 воды зоны > 0.01 или ≥ 20 % пикселей зоны — блик (маска качества)"}, "ship": {"flag": false, "share": 0, "bright_target_px_within_500m": 0, "rule": "≥ 30 % пикселей — у яркой цели или кильватера (reports/artifacts.md) или яркая цель с откликом в SWIR (судно, лодка: B11 ≥ 0,015) ближе 500 м"}, "coast": {"flag": false, "land_px_within_300m": 0, "rule": "суша (маска качества) ближе 300 м — прибой, кромка берега"}, "shallow": {"flag": false, "b3_water_zone": 0.0224, "b3_ratio_to_scene_water": 0.73, "rule": "медиана B3 воды зоны ≥ 2× медианы воды снимка и ≥ 0,03 — мелководье или мутная вода"}, "seam": {"flag": false, "share": 0, "rule": "≥ 30 % пикселей — прямая линия вдоль трека/границы яркости (шов)"}, "cloud": {"flag": false, "cloud_fraction": 0.0, "rule": "облака или тени облаков (маска качества) ≥ 20 % зоны"}, "note": "эвристики, не классификатор; на размеченных данных не проверены"}, "n_cozar_filaments": 0}, "field_nearby": {"items": [{"source": "ADIS (4TU.ResearchData, судовая камера)", "segment_id": 339924, "ship": "R/V Tinro", "date": "2022-02-07", "days_from_scene": 1001, "distance_km": 3554.1, "lon": 139.33376, "lat": 41.2048, "n_items": 0, "area_km2": 0.8103, "size_class": "> 5 см", "c_items_km2": 0.0, "ci95_lo": 0.0, "ci95_hi": 4.55, "ci95_method": "точный интервал Пуассона для N, делённый на A", "raw_10cm_items_km2": 0.0, "authors_cal_10cm_items_km2": 0.0, "authors_cal_10cm_lo95": null, "authors_cal_10cm_hi95": null}, {"source": "ADIS (4TU.ResearchData, судовая камера)", "segment_id": 339927, "ship": "R/V Tinro", "date": "2022-02-07", "days_from_scene": 1001, "distance_km": 3564.5, "lon": 139.59261, "lat": 41.14731, "n_items": 0, "area_km2": 0.8108, "size_class": "> 5 см", "c_items_km2": 0.0, "ci95_lo": 0.0, "ci95_hi": 4.55, "ci95_method": "точный интервал Пуассона для N, делённый на A", "raw_10cm_items_km2": 0.0, "authors_cal_10cm_items_km2": 0.0, "authors_cal_10cm_lo95": null, "authors_cal_10cm_hi95": null}, {"source": "ADIS (4TU.ResearchData, судовая камера)", "segment_id": 339928, "ship": "R/V Tinro", "date": "2022-02-07", "days_from_scene": 1001, "distance_km": 3569.3, "lon": 139.70705, "lat": 41.12296, "n_items": 0, "area_km2": 0.8112, "size_class": "> 5 см", "c_items_km2": 0.0, "ci95_lo": 0.0, "ci95_hi": 4.55, "ci95_method": "точный интервал Пуассона для N, делённый на A", "raw_10cm_items_km2": 0.0, "authors_cal_10cm_items_km2": 0.0, "authors_cal_10cm_lo95": null, "authors_cal_10cm_hi95": null}], "nearest_organizer_sample": {"sample_id": "MPL-0923", "source_id": "S4_BLACK_SEA_DOORS3", "distance_km": 9041.9}, "note": "Измерение ≠ оценка: это независимые полевые счёты C = N/A в другое время и в другом месте; со сценой они не связаны и не калибруют её. Ближайший отрезок ADIS — за 3554 км: только для порядка величин."}}}, {"type": "Feature", "id": "SZ-live-manila-2019-05-13-010", "geometry": {"type": "Polygon", "coordinates": [[[120.832428, 14.558898], [120.831596, 14.558619], [120.831228, 14.558254], [120.830961, 14.557168], [120.830499, 14.556892], [120.83032, 14.556258], [120.82949, 14.555799], [120.829219, 14.554983], [120.829506, 14.554172], [120.828948, 14.554258], [120.828116, 14.553979], [120.827658, 14.553342], [120.827763, 14.552168], [120.826928, 14.552161], [120.826283, 14.551703], [120.825922, 14.550615], [120.82649, 14.549536], [120.827327, 14.549273], [120.828252, 14.549552], [120.828801, 14.550371], [120.828696, 14.551544], [120.829531, 14.551552], [120.830358, 14.552373], [120.830446, 14.552916], [120.83016, 14.553636], [120.830718, 14.553551], [120.83155, 14.55383], [120.832005, 14.554738], [120.832835, 14.555197], [120.833014, 14.555922], [120.83375, 14.556561], [120.83402, 14.557377], [120.833733, 14.558278], [120.833358, 14.558636], [120.832428, 14.558898]]]}, "properties": {"kind": "detection_zone", "layer_kind": "scene_zone", "zone_id": "SZ-live-manila-2019-05-13-010", "scene_key": "live-manila-2019-05-13", "scene_kind": "live", "scene_id": "S2A_51PTS_20190513_0_L2A", "region": "manila", "title": "Манильский залив · зона 10", "mission": "Sentinel-2", "datetime": "2019-05-13T02:33:41.147000Z", "detection_status": "insufficient_data", "status": "insufficient_data", "concentration_status": "unavailable", "quantity": {"status": "not_confirmed", "label": "концентрация по снимку не подтверждена", "detail": "перевод площади в штуки не показываем: нет калибровочных пар (см. docs/QUANTITY.md)"}, "verification": "false_alarm_signs", "training_scene": null, "flags": ["ship"], "n_cozar_filaments": 0, "crop_file": "crops/SZ-live-manila-2019-05-13-010.jpg", "wind_high": false, "measured": {"zone_area_km2": 0.3163, "suspicious_area_m2": 1100, "n_pixels": 11, "n_objects": 7, "water_km2": 0.3201, "lwd_m2_km2": 3436.4, "lwd_note": null, "quality": {"valid_water_fraction": 1.0, "cloud_fraction": 0.0, "glint_fraction": 0.0}, "model": {"weights": "weights/lgbm", "file": "weights/lgbm/model.txt", "sha256": "0eeebf43fcccd8c7c07f053b7ec723229d1a3c9b92d12eec1bdb269258c51470", "sha256_short": "0eeebf43fccc", "trained_at": "2026-09-25T01:35:55Z", "threshold": 0.63, "harmonize": "none", "class": "MARIDA Marine Debris (любой плавающий мусор, не только пластик)"}}, "probable": {"prob_max": 0.996, "prob_mean": 0.821, "signs": {"foam": {"flag": false, "white_ratio_b2_b8": -0.293, "wind10m_ms": 1.7, "rule": "прирост B2 над водой ≥ 0.8 прироста B8 («белый» спектр) или ветер ≥ 7.0 м/с"}, "glint": {"flag": false, "b11_water_median": 0.0025, "glint_share": 0.0, "rule": "медиана B11 воды зоны > 0.01 или ≥ 20 % пикселей зоны — блик (маска качества)"}, "ship": {"flag": true, "share": 0, "bright_target_px_within_500m": 12, "rule": "≥ 30 % пикселей — у яркой цели или кильватера (reports/artifacts.md) или яркая цель с откликом в SWIR (судно, лодка: B11 ≥ 0,015) ближе 500 м"}, "coast": {"flag": false, "land_px_within_300m": 0, "rule": "суша (маска качества) ближе 300 м — прибой, кромка берега"}, "shallow": {"flag": false, "b3_water_zone": 0.0226, "b3_ratio_to_scene_water": 0.74, "rule": "медиана B3 воды зоны ≥ 2× медианы воды снимка и ≥ 0,03 — мелководье или мутная вода"}, "seam": {"flag": false, "share": 0, "rule": "≥ 30 % пикселей — прямая линия вдоль трека/границы яркости (шов)"}, "cloud": {"flag": false, "cloud_fraction": 0.0, "rule": "облака или тени облаков (маска качества) ≥ 20 % зоны"}, "note": "эвристики, не классификатор; на размеченных данных не проверены"}, "n_cozar_filaments": 0}, "field_nearby": {"items": [{"source": "ADIS (4TU.ResearchData, судовая камера)", "segment_id": 339924, "ship": "R/V Tinro", "date": "2022-02-07", "days_from_scene": 1001, "distance_km": 3554.1, "lon": 139.33376, "lat": 41.2048, "n_items": 0, "area_km2": 0.8103, "size_class": "> 5 см", "c_items_km2": 0.0, "ci95_lo": 0.0, "ci95_hi": 4.55, "ci95_method": "точный интервал Пуассона для N, делённый на A", "raw_10cm_items_km2": 0.0, "authors_cal_10cm_items_km2": 0.0, "authors_cal_10cm_lo95": null, "authors_cal_10cm_hi95": null}, {"source": "ADIS (4TU.ResearchData, судовая камера)", "segment_id": 339927, "ship": "R/V Tinro", "date": "2022-02-07", "days_from_scene": 1001, "distance_km": 3564.5, "lon": 139.59261, "lat": 41.14731, "n_items": 0, "area_km2": 0.8108, "size_class": "> 5 см", "c_items_km2": 0.0, "ci95_lo": 0.0, "ci95_hi": 4.55, "ci95_method": "точный интервал Пуассона для N, делённый на A", "raw_10cm_items_km2": 0.0, "authors_cal_10cm_items_km2": 0.0, "authors_cal_10cm_lo95": null, "authors_cal_10cm_hi95": null}, {"source": "ADIS (4TU.ResearchData, судовая камера)", "segment_id": 339928, "ship": "R/V Tinro", "date": "2022-02-07", "days_from_scene": 1001, "distance_km": 3569.3, "lon": 139.70705, "lat": 41.12296, "n_items": 0, "area_km2": 0.8112, "size_class": "> 5 см", "c_items_km2": 0.0, "ci95_lo": 0.0, "ci95_hi": 4.55, "ci95_method": "точный интервал Пуассона для N, делённый на A", "raw_10cm_items_km2": 0.0, "authors_cal_10cm_items_km2": 0.0, "authors_cal_10cm_lo95": null, "authors_cal_10cm_hi95": null}], "nearest_organizer_sample": {"sample_id": "MPL-0923", "source_id": "S4_BLACK_SEA_DOORS3", "distance_km": 9041.9}, "note": "Измерение ≠ оценка: это независимые полевые счёты C = N/A в другое время и в другом месте; со сценой они не связаны и не калибруют её. Ближайший отрезок ADIS — за 3554 км: только для порядка величин."}}}]}