{"type": "FeatureCollection", "features": [{"type": "Feature", "id": "SZ-fresh-accra-2026-08-10-001", "geometry": {"type": "Polygon", "coordinates": [[[-0.183723, 5.40766], [-0.184535, 5.407392], [-0.184808, 5.406942], [-0.185528, 5.407126], [-0.186613, 5.406589], [-0.186887, 5.405686], [-0.186351, 5.4046], [-0.185541, 5.404325], [-0.185, 5.404413], [-0.184366, 5.405042], [-0.183556, 5.404767], [-0.182743, 5.405035], [-0.182381, 5.405394], [-0.182106, 5.406206], [-0.182373, 5.407111], [-0.183002, 5.407566], [-0.183723, 5.40766]]]}, "properties": {"kind": "detection_zone", "layer_kind": "scene_zone", "zone_id": "SZ-fresh-accra-2026-08-10-001", "scene_key": "fresh-accra-2026-08-10", "scene_kind": "fresh_s2", "scene_id": "S2B_MSIL2A_20260810T101019_R022_T30NZM_20260810T153802", "region": "accra", "title": "Аккра (лагуна Корле, порт Тема) · зона 1", "mission": "Sentinel-2", "datetime": "2026-08-10T10:10:19.024000Z", "detection_status": "insufficient_data", "status": "insufficient_data", "concentration_status": "unavailable", "quantity": {"status": "not_confirmed", "label": "концентрация по снимку не подтверждена", "detail": "перевод площади в штуки не показываем: нет калибровочных пар (см. docs/QUANTITY.md)"}, "verification": "false_alarm_signs", "training_scene": null, "flags": ["glint"], "n_cozar_filaments": 0, "crop_file": "crops/SZ-fresh-accra-2026-08-10-001.jpg", "wind_high": false, "measured": {"zone_area_km2": 0.1344, "suspicious_area_m2": 500, "n_pixels": 5, "n_objects": 2, "water_km2": 0.1355, "lwd_m2_km2": 3690.0, "lwd_note": null, "quality": {"valid_water_fraction": 1.0, "cloud_fraction": 0.0, "glint_fraction": 0.0}, "model": {"weights": "weights/lgbm", "file": "weights/lgbm/model.txt", "sha256": "0eeebf43fcccd8c7c07f053b7ec723229d1a3c9b92d12eec1bdb269258c51470", "sha256_short": "0eeebf43fccc", "trained_at": "2026-09-25T01:36:30Z", "threshold": 0.63, "harmonize": "none", "class": "MARIDA Marine Debris (любой плавающий мусор, не только пластик)"}}, "probable": {"prob_max": 1.0, "prob_mean": 0.769, "signs": {"foam": {"flag": false, "white_ratio_b2_b8": -1.265, "wind10m_ms": 3.66, "rule": "прирост B2 над водой ≥ 0.8 прироста B8 («белый» спектр) или ветер ≥ 7.0 м/с"}, "glint": {"flag": true, "b11_water_median": 0.0118, "glint_share": 0.0, "rule": "медиана B11 воды зоны > 0.01 или ≥ 20 % пикселей зоны — блик (маска качества)"}, "ship": {"flag": false, "share": 0, "bright_target_px_within_500m": 0, "rule": "≥ 30 % пикселей — у яркой цели или кильватера (reports/artifacts.md) или яркая цель с откликом в SWIR (судно, лодка: B11 ≥ 0,015) ближе 500 м, или малый яркий объект (≤ 40 пикс.) с B11 ≥ 0,01 ближе 500 м (лодка с кильватером)"}, "coast": {"flag": false, "land_px_within_300m": 0, "rule": "суша (маска качества) ближе 300 м — прибой, кромка берега"}, "shallow": {"flag": false, "b3_water_zone": 0.0207, "b3_ratio_to_scene_water": 0.78, "rule": "медиана B3 воды зоны ≥ 2× медианы воды снимка и ≥ 0,03, или B4 воды зоны ≥ 0,02 и (≥ 2× воды снимка или B8 ≥ 0,013) — мелководье, яркое дно, илистая банка"}, "seam": {"flag": false, "share": 0, "rule": "≥ 30 % пикселей — прямая линия вдоль трека/границы яркости (шов)"}, "cloud": {"flag": false, "cloud_fraction": 0.0, "rule": "облака или тени облаков (маска качества) ≥ 20 % зоны"}, "diag": {"dist_land_m": null, "dist_bright_m": null, "n_bright_px_500m": 0, "b11_bright_max_500m": null, "b4_water_zone": 0.0166, "b8_water_zone": 0.0132, "b11_det_median": 0.0114, "b8_det_median": 0.0211, "water_scene_b3": 0.0266, "water_scene_b4": 0.0199, "n_det_px": 5, "n_obj": 2}, "note": "эвристики, не классификатор; на размеченных данных не проверены"}, "n_cozar_filaments": 0}, "field_nearby": {"items": [{"source": "ADIS (4TU.ResearchData, судовая камера)", "segment_id": 337065, "ship": "Bark Europa", "date": "2022-10-07", "days_from_scene": -1403, "distance_km": 2721.9, "lon": -21.48811, "lat": 17.6784, "n_items": 0, "area_km2": 0.3604, "size_class": "> 5 см", "c_items_km2": 0.0, "ci95_lo": 0.0, "ci95_hi": 10.23, "ci95_method": "точный интервал Пуассона для N, делённый на A", "raw_10cm_items_km2": 0.0, "authors_cal_10cm_items_km2": 0.0, "authors_cal_10cm_lo95": null, "authors_cal_10cm_hi95": null}, {"source": "ADIS (4TU.ResearchData, судовая камера)", "segment_id": 337354, "ship": "Bark Europa", "date": "2022-10-07", "days_from_scene": -1403, "distance_km": 2722.0, "lon": -21.50922, "lat": 17.64136, "n_items": 0, "area_km2": 0.3604, "size_class": "> 5 см", "c_items_km2": 0.0, "ci95_lo": 0.0, "ci95_hi": 10.23, "ci95_method": "точный интервал Пуассона для N, делённый на A", "raw_10cm_items_km2": 0.0, "authors_cal_10cm_items_km2": 0.0, "authors_cal_10cm_lo95": null, "authors_cal_10cm_hi95": null}, {"source": "ADIS (4TU.ResearchData, судовая камера)", "segment_id": 337471, "ship": "Bark Europa", "date": "2022-10-10", "days_from_scene": -1400, "distance_km": 2722.7, "lon": -23.60592, "lat": 12.8015, "n_items": 0, "area_km2": 0.1989, "size_class": "> 5 см", "c_items_km2": 0.0, "ci95_lo": 0.0, "ci95_hi": 18.55, "ci95_method": "точный интервал Пуассона для N, делённый на A", "raw_10cm_items_km2": 0.0, "authors_cal_10cm_items_km2": 0.0, "authors_cal_10cm_lo95": null, "authors_cal_10cm_hi95": null}], "nearest_organizer_sample": {"sample_id": "MPL-0935", "source_id": "S4_BLACK_SEA_DOORS3", "distance_km": 5301.0}, "note": "Измерение ≠ оценка: это независимые полевые счёты C = N/A в другое время и в другом месте; со сценой они не связаны и не калибруют её. Ближайший отрезок ADIS — за 2722 км: только для порядка величин."}, "acquired_at": "2026-08-10T10:10:19.024000Z", "acquisition_date": "2026-08-10", "processed_at": "2026-09-26T19:44:56Z", "human_checked": false, "auto_label": "автоматически, не проверено человеком"}}]}