{"type":"FeatureCollection","features":[{"type":"Feature","geometry":{"type":"Polygon","coordinates":[[[-88.175096,15.892431],[-88.175095,15.89225],[-88.174909,15.892251],[-88.17491,15.892432],[-88.175096,15.892431]]]},"properties":{"id":"honduras_2025-01-30_lgbm_0","region":"honduras","date":"2025-01-30","area_m2":400.0,"mean_prob":0.9245,"max_prob":0.9765,"model":"lgbm","n_px":4,"px_area_m2":100.0,"confirmed":false,"confirmed_by":null,"lon":-88.175002,"lat":15.892341}},{"type":"Feature","geometry":{"type":"Polygon","coordinates":[[[-88.174146,15.889543],[-88.174145,15.889363],[-88.173958,15.889364],[-88.173959,15.889544],[-88.174146,15.889543]]]},"properties":{"id":"honduras_2025-01-30_lgbm_1","region":"honduras","date":"2025-01-30","area_m2":400.0,"mean_prob":0.998,"max_prob":1.0,"model":"lgbm","n_px":4,"px_area_m2":100.0,"confirmed":false,"confirmed_by":null,"lon":-88.174052,"lat":15.889453}},{"type":"Feature","geometry":{"type":"Polygon","coordinates":[[[-88.173199,15.887379],[-88.173198,15.887198],[-88.173011,15.887199],[-88.173012,15.88738],[-88.173199,15.887379]]]},"properties":{"id":"honduras_2025-01-30_lgbm_2","region":"honduras","date":"2025-01-30","area_m2":400.0,"mean_prob":0.9971,"max_prob":1.0,"model":"lgbm","n_px":4,"px_area_m2":100.0,"confirmed":false,"confirmed_by":null,"lon":-88.173105,"lat":15.887289}},{"type":"Feature","geometry":{"type":"Polygon","coordinates":[[[-88.17338,15.886384],[-88.17338,15.886294],[-88.173193,15.886295],[-88.173193,15.886385],[-88.17338,15.886384]]]},"properties":{"id":"honduras_2025-01-30_lgbm_3","region":"honduras","date":"2025-01-30","area_m2":200.0,"mean_prob":0.8941,"max_prob":0.9843,"model":"lgbm","n_px":2,"px_area_m2":100.0,"confirmed":false,"confirmed_by":null,"lon":-88.173287,"lat":15.886339}},{"type":"Feature","geometry":{"type":"Polygon","coordinates":[[[-88.173093,15.88512],[-88.173092,15.88503],[-88.173186,15.885029],[-88.173185,15.884939],[-88.173092,15.884939],[-88.173091,15.884758],[-88.172997,15.884759],[-88.172999,15.885121],[-88.173093,15.88512]]]},"properties":{"id":"honduras_2025-01-30_lgbm_4","region":"honduras","date":"2025-01-30","area_m2":500.0,"mean_prob":0.9216,"max_prob":1.0,"model":"lgbm","n_px":5,"px_area_m2":100.0,"confirmed":false,"confirmed_by":null,"lon":-88.173064,"lat":15.884948}},{"type":"Feature","geometry":{"type":"Polygon","coordinates":[[[-88.172996,15.884488],[-88.172995,15.884307],[-88.172901,15.884308],[-88.172902,15.884398],[-88.172808,15.884398],[-88.172809,15.884489],[-88.172996,15.884488]]]},"properties":{"id":"honduras_2025-01-30_lgbm_5","region":"honduras","date":"2025-01-30","area_m2":300.0,"mean_prob":0.9856,"max_prob":0.9961,"model":"lgbm","n_px":3,"px_area_m2":100.0,"confirmed":false,"confirmed_by":null,"lon":-88.172917,"lat":15.884413}},{"type":"Feature","geometry":{"type":"Polygon","coordinates":[[[-88.172705,15.882772],[-88.172704,15.882591],[-88.172611,15.882592],[-88.172611,15.882501],[-88.172517,15.882502],[-88.172518,15.882683],[-88.172612,15.882682],[-88.172612,15.882773],[-88.172705,15.882772]]]},"properties":{"id":"honduras_2025-01-30_lgbm_6","region":"honduras","date":"2025-01-30","area_m2":400.0,"mean_prob":0.9657,"max_prob":0.9922,"model":"lgbm","n_px":4,"px_area_m2":100.0,"confirmed":false,"confirmed_by":null,"lon":-88.172611,"lat":15.882637}},{"type":"Feature","geometry":{"type":"Polygon","coordinates":[[[-88.17307,15.881143],[-88.173068,15.880872],[-88.172975,15.880872],[-88.172976,15.881144],[-88.17307,15.881143]]]},"properties":{"id":"honduras_2025-01-30_lgbm_7","region":"honduras","date":"2025-01-30","area_m2":300.0,"mean_prob":0.9935,"max_prob":1.0,"model":"lgbm","n_px":3,"px_area_m2":100.0,"confirmed":true,"confirmed_by":"mdd","lon":-88.173022,"lat":15.881008}},{"type":"Feature","geometry":{"type":"Polygon","coordinates":[[[-88.172779,15.879337],[-88.172777,15.879066],[-88.172871,15.879065],[-88.17287,15.878975],[-88.172777,15.878975],[-88.172777,15.879066],[-88.172684,15.879066],[-88.172686,15.879337],[-88.172779,15.879337]]]},"properties":{"id":"honduras_2025-01-30_lgbm_8","region":"honduras","date":"2025-01-30","area_m2":400.0,"mean_prob":0.999,"max_prob":1.0,"model":"lgbm","n_px":4,"px_area_m2":100.0,"confirmed":false,"confirmed_by":null,"lon":-88.172755,"lat":15.879156}},{"type":"Feature","geometry":{"type":"Polygon","coordinates":[[[-88.17277,15.8778],[-88.17277,15.87771],[-88.172583,15.877711],[-88.172583,15.877801],[-88.17277,15.8778]]]},"properties":{"id":"honduras_2025-01-30_lgbm_9","region":"honduras","date":"2025-01-30","area_m2":200.0,"mean_prob":0.8882,"max_prob":0.9961,"model":"lgbm","n_px":2,"px_area_m2":100.0,"confirmed":false,"confirmed_by":null,"lon":-88.172676,"lat":15.877756}},{"type":"Feature","geometry":{"type":"Polygon","coordinates":[[[-88.172669,15.876535],[-88.172668,15.876264],[-88.172574,15.876265],[-88.172575,15.876355],[-88.172482,15.876356],[-88.172482,15.876446],[-88.172575,15.876445],[-88.172576,15.876536],[-88.172669,15.876535]]]},"properties":{"id":"honduras_2025-01-30_lgbm_10","region":"honduras","date":"2025-01-30","area_m2":400.0,"mean_prob":0.9,"max_prob":0.9961,"model":"lgbm","n_px":4,"px_area_m2":100.0,"confirmed":false,"confirmed_by":null,"lon":-88.172599,"lat":15.8764}},{"type":"Feature","geometry":{"type":"Polygon","coordinates":[[[-88.171909,15.874189],[-88.171908,15.874099],[-88.172002,15.874098],[-88.171999,15.873647],[-88.171906,15.873647],[-88.171908,15.874009],[-88.171814,15.874009],[-88.171815,15.87419],[-88.171909,15.874189]]]},"properties":{"id":"honduras_2025-01-30_lgbm_11","region":"honduras","date":"2025-01-30","area_m2":700.0,"mean_prob":0.9529,"max_prob":1.0,"model":"lgbm","n_px":7,"px_area_m2":100.0,"confirmed":false,"confirmed_by":null,"lon":-88.171927,"lat":15.873937}},{"type":"Feature","geometry":{"type":"Polygon","coordinates":[[[-88.170311,15.872481],[-88.17031,15.8723],[-88.170217,15.8723],[-88.170216,15.87221],[-88.170123,15.87221],[-88.170124,15.872482],[-88.170311,15.872481]]]},"properties":{"id":"honduras_2025-01-30_lgbm_12","region":"honduras","date":"2025-01-30","area_m2":500.0,"mean_prob":0.9953,"max_prob":1.0,"model":"lgbm","n_px":5,"px_area_m2":100.0,"confirmed":false,"confirmed_by":null,"lon":-88.170208,"lat":15.872364}},{"type":"Feature","geometry":{"type":"Polygon","coordinates":[[[-88.169277,15.871311],[-88.169276,15.87113],[-88.169183,15.871131],[-88.169182,15.871041],[-88.169089,15.871041],[-88.16909,15.871222],[-88.169183,15.871221],[-88.169184,15.871312],[-88.169277,15.871311]]]},"properties":{"id":"honduras_2025-01-30_lgbm_13","region":"honduras","date":"2025-01-30","area_m2":400.0,"mean_prob":1.0,"max_prob":1.0,"model":"lgbm","n_px":4,"px_area_m2":100.0,"confirmed":false,"confirmed_by":null,"lon":-88.169183,"lat":15.871176}},{"type":"Feature","geometry":{"type":"Polygon","coordinates":[[[-88.168994,15.87077],[-88.168993,15.87059],[-88.168806,15.870591],[-88.168807,15.870771],[-88.168994,15.87077]]]},"properties":{"id":"honduras_2025-01-30_lgbm_14","region":"honduras","date":"2025-01-30","area_m2":400.0,"mean_prob":0.9941,"max_prob":1.0,"model":"lgbm","n_px":4,"px_area_m2":100.0,"confirmed":false,"confirmed_by":null,"lon":-88.1689,"lat":15.87068}},{"type":"Feature","geometry":{"type":"Polygon","coordinates":[[[-88.167773,15.869511],[-88.167772,15.869331],[-88.167585,15.869332],[-88.167585,15.869422],[-88.167679,15.869422],[-88.167679,15.869512],[-88.167773,15.869511]]]},"properties":{"id":"honduras_2025-01-30_lgbm_15","region":"honduras","date":"2025-01-30","area_m2":300.0,"mean_prob":1.0,"max_prob":1.0,"model":"lgbm","n_px":3,"px_area_m2":100.0,"confirmed":false,"confirmed_by":null,"lon":-88.167694,"lat":15.869406}},{"type":"Feature","geometry":{"type":"Polygon","coordinates":[[[-88.167304,15.869152],[-88.167303,15.869062],[-88.167396,15.869062],[-88.167396,15.868971],[-88.167209,15.868972],[-88.167209,15.868882],[-88.167022,15.868883],[-88.167023,15.869154],[-88.167304,15.869152]]]},"properties":{"id":"honduras_2025-01-30_lgbm_16","region":"honduras","date":"2025-01-30","area_m2":900.0,"mean_prob":0.9634,"max_prob":1.0,"model":"lgbm","n_px":9,"px_area_m2":100.0,"confirmed":false,"confirmed_by":null,"lon":-88.167173,"lat":15.869028}},{"type":"Feature","geometry":{"type":"Polygon","coordinates":[[[-88.160287,15.867021],[-88.160287,15.86693],[-88.16038,15.86693],[-88.16038,15.86684],[-88.160193,15.866841],[-88.160194,15.867021],[-88.160287,15.867021]]]},"properties":{"id":"honduras_2025-01-30_lgbm_17","region":"honduras","date":"2025-01-30","area_m2":300.0,"mean_prob":0.9961,"max_prob":1.0,"model":"lgbm","n_px":3,"px_area_m2":100.0,"confirmed":false,"confirmed_by":null,"lon":-88.160271,"lat":15.866915}},{"type":"Feature","geometry":{"type":"Polygon","coordinates":[[[-88.160844,15.866476],[-88.160844,15.866385],[-88.160937,15.866385],[-88.160937,15.866294],[-88.160657,15.866296],[-88.160658,15.866477],[-88.160844,15.866476]]]},"properties":{"id":"honduras_2025-01-30_lgbm_18","region":"honduras","date":"2025-01-30","area_m2":500.0,"mean_prob":0.9545,"max_prob":1.0,"model":"lgbm","n_px":5,"px_area_m2":100.0,"confirmed":false,"confirmed_by":null,"lon":-88.160779,"lat":15.866376}},{"type":"Feature","geometry":{"type":"Polygon","coordinates":[[[-88.157102,15.86532],[-88.157101,15.86514],[-88.157195,15.865139],[-88.157194,15.864958],[-88.1571,15.864959],[-88.157101,15.865049],[-88.157007,15.86505],[-88.157009,15.865321],[-88.157102,15.86532]]]},"properties":{"id":"honduras_2025-01-30_lgbm_19","region":"honduras","date":"2025-01-30","area_m2":500.0,"mean_prob":0.8847,"max_prob":0.9961,"model":"lgbm","n_px":5,"px_area_m2":100.0,"confirmed":false,"confirmed_by":null,"lon":-88.157092,"lat":15.865131}},{"type":"Feature","geometry":{"type":"Polygon","coordinates":[[[-88.157005,15.864688],[-88.157005,15.864598],[-88.157098,15.864597],[-88.157097,15.864417],[-88.15691,15.864418],[-88.156912,15.864689],[-88.157005,15.864688]]]},"properties":{"id":"honduras_2025-01-30_lgbm_20","region":"honduras","date":"2025-01-30","area_m2":500.0,"mean_prob":0.8988,"max_prob":1.0,"model":"lgbm","n_px":5,"px_area_m2":100.0,"confirmed":false,"confirmed_by":null,"lon":-88.156995,"lat":15.864535}},{"type":"Feature","geometry":{"type":"Polygon","coordinates":[[[-88.151198,15.861556],[-88.151197,15.861465],[-88.151291,15.861465],[-88.151289,15.861284],[-88.151196,15.861284],[-88.151197,15.861375],[-88.150823,15.861377],[-88.150824,15.861467],[-88.15101,15.861466],[-88.151011,15.861557],[-88.151198,15.861556]]]},"properties":{"id":"honduras_2025-01-30_lgbm_21","region":"honduras","date":"2025-01-30","area_m2":800.0,"mean_prob":0.9529,"max_prob":1.0,"model":"lgbm","n_px":8,"px_area_m2":100.0,"confirmed":false,"confirmed_by":null,"lon":-88.151092,"lat":15.861432}},{"type":"Feature","geometry":{"type":"Polygon","coordinates":[[[-88.148951,15.860573],[-88.14895,15.860483],[-88.149044,15.860482],[-88.149043,15.860392],[-88.149137,15.860391],[-88.149136,15.860301],[-88.148949,15.860302],[-88.14895,15.860392],[-88.148856,15.860393],[-88.148857,15.860483],[-88.148764,15.860484],[-88.148764,15.860574],[-88.148951,15.860573]]]},"properties":{"id":"honduras_2025-01-30_lgbm_22","region":"honduras","date":"2025-01-30","area_m2":600.0,"mean_prob":0.9242,"max_prob":1.0,"model":"lgbm","n_px":6,"px_area_m2":100.0,"confirmed":false,"confirmed_by":null,"lon":-88.14895,"lat":15.860438}},{"type":"Feature","geometry":{"type":"Polygon","coordinates":[[[-88.144089,15.859514],[-88.144088,15.859424],[-88.143902,15.859425],[-88.143902,15.859515],[-88.144089,15.859514]]]},"properties":{"id":"honduras_2025-01-30_lgbm_23","region":"honduras","date":"2025-01-30","area_m2":200.0,"mean_prob":0.9902,"max_prob":0.9961,"model":"lgbm","n_px":2,"px_area_m2":100.0,"confirmed":false,"confirmed_by":null,"lon":-88.143995,"lat":15.85947}},{"type":"Feature","geometry":{"type":"Polygon","coordinates":[[[-88.143335,15.858343],[-88.143334,15.858162],[-88.143147,15.858163],[-88.143148,15.858344],[-88.143335,15.858343]]]},"properties":{"id":"honduras_2025-01-30_lgbm_24","region":"honduras","date":"2025-01-30","area_m2":400.0,"mean_prob":0.9892,"max_prob":1.0,"model":"lgbm","n_px":4,"px_area_m2":100.0,"confirmed":false,"confirmed_by":null,"lon":-88.143241,"lat":15.858253}},{"type":"Feature","geometry":{"type":"Polygon","coordinates":[[[-88.141821,15.854736],[-88.14182,15.854555],[-88.141633,15.854556],[-88.141634,15.854737],[-88.141821,15.854736]]]},"properties":{"id":"honduras_2025-01-30_lgbm_25","region":"honduras","date":"2025-01-30","area_m2":400.0,"mean_prob":0.9951,"max_prob":1.0,"model":"lgbm","n_px":4,"px_area_m2":100.0,"confirmed":false,"confirmed_by":null,"lon":-88.141727,"lat":15.854646}},{"type":"Feature","geometry":{"type":"Polygon","coordinates":[[[-88.139765,15.854475],[-88.139764,15.854385],[-88.139578,15.854386],[-88.139578,15.854476],[-88.139765,15.854475]]]},"properties":{"id":"honduras_2025-01-30_lgbm_26","region":"honduras","date":"2025-01-30","area_m2":200.0,"mean_prob":0.9255,"max_prob":0.9686,"model":"lgbm","n_px":2,"px_area_m2":100.0,"confirmed":false,"confirmed_by":null,"lon":-88.139671,"lat":15.854431}},{"type":"Feature","geometry":{"type":"Polygon","coordinates":[[[-88.137134,15.851597],[-88.137133,15.851416],[-88.136946,15.851417],[-88.136947,15.851598],[-88.137134,15.851597]]]},"properties":{"id":"honduras_2025-01-30_lgbm_27","region":"honduras","date":"2025-01-30","area_m2":400.0,"mean_prob":0.9961,"max_prob":1.0,"model":"lgbm","n_px":4,"px_area_m2":100.0,"confirmed":false,"confirmed_by":null,"lon":-88.13704,"lat":15.851507}},{"type":"Feature","geometry":{"type":"Polygon","coordinates":[[[-88.13526,15.850431],[-88.135259,15.850341],[-88.135166,15.850341],[-88.135166,15.850251],[-88.135072,15.850252],[-88.135073,15.850342],[-88.134979,15.850342],[-88.13498,15.850433],[-88.13526,15.850431]]]},"properties":{"id":"honduras_2025-01-30_lgbm_28","region":"honduras","date":"2025-01-30","area_m2":400.0,"mean_prob":0.9608,"max_prob":1.0,"model":"lgbm","n_px":4,"px_area_m2":100.0,"confirmed":false,"confirmed_by":null,"lon":-88.135119,"lat":15.850364}},{"type":"Feature","geometry":{"type":"Polygon","coordinates":[[[-88.134415,15.849713],[-88.134414,15.849532],[-88.134228,15.849533],[-88.134228,15.849623],[-88.134322,15.849623],[-88.134322,15.849713],[-88.134415,15.849713]]]},"properties":{"id":"honduras_2025-01-30_lgbm_29","region":"honduras","date":"2025-01-30","area_m2":300.0,"mean_prob":0.881,"max_prob":0.9451,"model":"lgbm","n_px":3,"px_area_m2":100.0,"confirmed":false,"confirmed_by":null,"lon":-88.134337,"lat":15.849608}},{"type":"Feature","geometry":{"type":"Polygon","coordinates":[[[-88.132442,15.847463],[-88.132441,15.847282],[-88.132348,15.847283],[-88.132349,15.847464],[-88.132442,15.847463]]]},"properties":{"id":"honduras_2025-01-30_lgbm_30","region":"honduras","date":"2025-01-30","area_m2":200.0,"mean_prob":0.8216,"max_prob":0.9765,"model":"lgbm","n_px":2,"px_area_m2":100.0,"confirmed":false,"confirmed_by":null,"lon":-88.132395,"lat":15.847373}},{"type":"Feature","geometry":{"type":"Polygon","coordinates":[[[-88.131598,15.846745],[-88.131597,15.846654],[-88.13141,15.846655],[-88.131411,15.846746],[-88.131598,15.846745]]]},"properties":{"id":"honduras_2025-01-30_lgbm_31","region":"honduras","date":"2025-01-30","area_m2":200.0,"mean_prob":0.9863,"max_prob":1.0,"model":"lgbm","n_px":2,"px_area_m2":100.0,"confirmed":false,"confirmed_by":null,"lon":-88.131504,"lat":15.8467}},{"type":"Feature","geometry":{"type":"Polygon","coordinates":[[[-88.131216,15.845391],[-88.131215,15.84521],[-88.131122,15.84521],[-88.131123,15.845391],[-88.131216,15.845391]]]},"properties":{"id":"honduras_2025-01-30_lgbm_32","region":"honduras","date":"2025-01-30","area_m2":200.0,"mean_prob":0.8549,"max_prob":0.8549,"model":"lgbm","n_px":2,"px_area_m2":100.0,"confirmed":false,"confirmed_by":null,"lon":-88.131169,"lat":15.845301}},{"type":"Feature","geometry":{"type":"Polygon","coordinates":[[[-88.130556,15.844129],[-88.130555,15.843948],[-88.130461,15.843948],[-88.130462,15.844129],[-88.130556,15.844129]]]},"properties":{"id":"honduras_2025-01-30_lgbm_33","region":"honduras","date":"2025-01-30","area_m2":200.0,"mean_prob":0.9353,"max_prob":0.9843,"model":"lgbm","n_px":2,"px_area_m2":100.0,"confirmed":false,"confirmed_by":null,"lon":-88.130509,"lat":15.844039}},{"type":"Feature","geometry":{"type":"Polygon","coordinates":[[[-88.129899,15.843499],[-88.129898,15.843409],[-88.129805,15.843409],[-88.129804,15.843319],[-88.129711,15.84332],[-88.129712,15.8435],[-88.129899,15.843499]]]},"properties":{"id":"honduras_2025-01-30_lgbm_34","region":"honduras","date":"2025-01-30","area_m2":300.0,"mean_prob":0.9346,"max_prob":1.0,"model":"lgbm","n_px":3,"px_area_m2":100.0,"confirmed":false,"confirmed_by":null,"lon":-88.129789,"lat":15.843425}},{"type":"Feature","geometry":{"type":"Polygon","coordinates":[[[-88.128026,15.842515],[-88.128025,15.842334],[-88.127931,15.842335],[-88.127931,15.842244],[-88.127837,15.842245],[-88.127838,15.842425],[-88.127932,15.842425],[-88.127932,15.842515],[-88.128026,15.842515]]]},"properties":{"id":"honduras_2025-01-30_lgbm_35","region":"honduras","date":"2025-01-30","area_m2":400.0,"mean_prob":0.8294,"max_prob":0.9098,"model":"lgbm","n_px":4,"px_area_m2":100.0,"confirmed":false,"confirmed_by":null,"lon":-88.127932,"lat":15.84238}},{"type":"Feature","geometry":{"type":"Polygon","coordinates":[[[-88.127455,15.84062],[-88.127454,15.840439],[-88.127267,15.84044],[-88.127268,15.84053],[-88.127361,15.84053],[-88.127361,15.84062],[-88.127455,15.84062]]]},"properties":{"id":"honduras_2025-01-30_lgbm_36","region":"honduras","date":"2025-01-30","area_m2":300.0,"mean_prob":0.9438,"max_prob":0.9961,"model":"lgbm","n_px":3,"px_area_m2":100.0,"confirmed":false,"confirmed_by":null,"lon":-88.127376,"lat":15.840515}},{"type":"Feature","geometry":{"type":"Polygon","coordinates":[[[-88.126886,15.839086],[-88.126885,15.838905],[-88.126792,15.838906],[-88.126792,15.838996],[-88.126699,15.838996],[-88.126699,15.839087],[-88.126886,15.839086]]]},"properties":{"id":"honduras_2025-01-30_lgbm_37","region":"honduras","date":"2025-01-30","area_m2":300.0,"mean_prob":0.8915,"max_prob":1.0,"model":"lgbm","n_px":3,"px_area_m2":100.0,"confirmed":false,"confirmed_by":null,"lon":-88.126808,"lat":15.839011}},{"type":"Feature","geometry":{"type":"Polygon","coordinates":[[[-88.12679,15.838544],[-88.126789,15.838363],[-88.126695,15.838364],[-88.126696,15.838545],[-88.12679,15.838544]]]},"properties":{"id":"honduras_2025-01-30_lgbm_38","region":"honduras","date":"2025-01-30","area_m2":200.0,"mean_prob":0.998,"max_prob":1.0,"model":"lgbm","n_px":2,"px_area_m2":100.0,"confirmed":false,"confirmed_by":null,"lon":-88.126743,"lat":15.838454}},{"type":"Feature","geometry":{"type":"Polygon","coordinates":[[[-88.126407,15.836829],[-88.126406,15.836648],[-88.126312,15.836648],[-88.126313,15.836829],[-88.126407,15.836829]]]},"properties":{"id":"honduras_2025-01-30_lgbm_39","region":"honduras","date":"2025-01-30","area_m2":200.0,"mean_prob":0.998,"max_prob":1.0,"model":"lgbm","n_px":2,"px_area_m2":100.0,"confirmed":false,"confirmed_by":null,"lon":-88.12636,"lat":15.836738}},{"type":"Feature","geometry":{"type":"Polygon","coordinates":[[[-88.126307,15.835744],[-88.126306,15.835564],[-88.12612,15.835565],[-88.12612,15.835655],[-88.126213,15.835655],[-88.126214,15.835745],[-88.126307,15.835744]]]},"properties":{"id":"honduras_2025-01-30_lgbm_40","region":"honduras","date":"2025-01-30","area_m2":300.0,"mean_prob":0.9974,"max_prob":1.0,"model":"lgbm","n_px":3,"px_area_m2":100.0,"confirmed":false,"confirmed_by":null,"lon":-88.126229,"lat":15.835639}},{"type":"Feature","geometry":{"type":"Polygon","coordinates":[[[-88.125273,15.834394],[-88.125271,15.834123],[-88.125084,15.834124],[-88.125085,15.834305],[-88.125179,15.834304],[-88.125179,15.834394],[-88.125273,15.834394]]]},"properties":{"id":"honduras_2025-01-30_lgbm_41","region":"honduras","date":"2025-01-30","area_m2":500.0,"mean_prob":0.9702,"max_prob":1.0,"model":"lgbm","n_px":5,"px_area_m2":100.0,"confirmed":false,"confirmed_by":null,"lon":-88.125188,"lat":15.834241}},{"type":"Feature","geometry":{"type":"Polygon","coordinates":[[[-88.124331,15.832953],[-88.12433,15.832772],[-88.124143,15.832773],[-88.124144,15.832863],[-88.124237,15.832863],[-88.124238,15.832953],[-88.124331,15.832953]]]},"properties":{"id":"honduras_2025-01-30_lgbm_42","region":"honduras","date":"2025-01-30","area_m2":300.0,"mean_prob":0.9621,"max_prob":0.9922,"model":"lgbm","n_px":3,"px_area_m2":100.0,"confirmed":false,"confirmed_by":null,"lon":-88.124253,"lat":15.832848}},{"type":"Feature","geometry":{"type":"Polygon","coordinates":[[[-88.124043,15.831508],[-88.124042,15.831417],[-88.124229,15.831416],[-88.124229,15.831326],[-88.124042,15.831327],[-88.124042,15.831417],[-88.123949,15.831418],[-88.12395,15.831508],[-88.124043,15.831508]]]},"properties":{"id":"honduras_2025-01-30_lgbm_43","region":"honduras","date":"2025-01-30","area_m2":300.0,"mean_prob":0.9307,"max_prob":1.0,"model":"lgbm","n_px":3,"px_area_m2":100.0,"confirmed":false,"confirmed_by":null,"lon":-88.124089,"lat":15.831402}},{"type":"Feature","geometry":{"type":"Polygon","coordinates":[[[-88.123568,15.830064],[-88.123567,15.829793],[-88.123473,15.829793],[-88.123474,15.829884],[-88.12338,15.829884],[-88.123381,15.829975],[-88.123474,15.829974],[-88.123475,15.830065],[-88.123568,15.830064]]]},"properties":{"id":"honduras_2025-01-30_lgbm_44","region":"honduras","date":"2025-01-30","area_m2":400.0,"mean_prob":0.9402,"max_prob":1.0,"model":"lgbm","n_px":4,"px_area_m2":100.0,"confirmed":false,"confirmed_by":null,"lon":-88.123497,"lat":15.829929}},{"type":"Feature","geometry":{"type":"Polygon","coordinates":[[[-88.123,15.828621],[-88.122999,15.82844],[-88.122906,15.82844],[-88.122907,15.828621],[-88.123,15.828621]]]},"properties":{"id":"honduras_2025-01-30_lgbm_45","region":"honduras","date":"2025-01-30","area_m2":200.0,"mean_prob":0.9922,"max_prob":0.9922,"model":"lgbm","n_px":2,"px_area_m2":100.0,"confirmed":false,"confirmed_by":null,"lon":-88.122953,"lat":15.828531}},{"type":"Feature","geometry":{"type":"Polygon","coordinates":[[[-88.123165,15.824643],[-88.123164,15.824552],[-88.123258,15.824552],[-88.123257,15.824371],[-88.123163,15.824372],[-88.123164,15.824462],[-88.12307,15.824462],[-88.123071,15.824643],[-88.123165,15.824643]]]},"properties":{"id":"honduras_2025-01-30_lgbm_46","region":"honduras","date":"2025-01-30","area_m2":400.0,"mean_prob":0.9618,"max_prob":0.9961,"model":"lgbm","n_px":4,"px_area_m2":100.0,"confirmed":true,"confirmed_by":"mdd","lon":-88.123164,"lat":15.824507}},{"type":"Feature","geometry":{"type":"Polygon","coordinates":[[[-88.123256,15.82419],[-88.123255,15.824009],[-88.123161,15.82401],[-88.123162,15.824191],[-88.123256,15.82419]]]},"properties":{"id":"honduras_2025-01-30_lgbm_47","region":"honduras","date":"2025-01-30","area_m2":200.0,"mean_prob":0.951,"max_prob":0.9686,"model":"lgbm","n_px":2,"px_area_m2":100.0,"confirmed":false,"confirmed_by":null,"lon":-88.123208,"lat":15.8241}},{"type":"Feature","geometry":{"type":"Polygon","coordinates":[[[-88.122679,15.82121],[-88.122677,15.820939],[-88.122584,15.82094],[-88.122585,15.821211],[-88.122679,15.82121]]]},"properties":{"id":"honduras_2025-01-30_lgbm_48","region":"honduras","date":"2025-01-30","area_m2":300.0,"mean_prob":0.8824,"max_prob":1.0,"model":"lgbm","n_px":3,"px_area_m2":100.0,"confirmed":true,"confirmed_by":"mdd","lon":-88.122631,"lat":15.821075}},{"type":"Feature","geometry":{"type":"Polygon","coordinates":[[[-88.122863,15.820667],[-88.122862,15.820577],[-88.122955,15.820576],[-88.122954,15.820305],[-88.122861,15.820306],[-88.122862,15.820486],[-88.122768,15.820487],[-88.122769,15.820668],[-88.122863,15.820667]]]},"properties":{"id":"honduras_2025-01-30_lgbm_49","region":"honduras","date":"2025-01-30","area_m2":500.0,"mean_prob":0.9867,"max_prob":1.0,"model":"lgbm","n_px":5,"px_area_m2":100.0,"confirmed":true,"confirmed_by":"mdd","lon":-88.122871,"lat":15.820495}},{"type":"Feature","geometry":{"type":"Polygon","coordinates":[[[-88.122383,15.818319],[-88.122382,15.818229],[-88.122476,15.818229],[-88.122475,15.818138],[-88.122288,15.818139],[-88.122289,15.81832],[-88.122383,15.818319]]]},"properties":{"id":"honduras_2025-01-30_lgbm_50","region":"honduras","date":"2025-01-30","area_m2":300.0,"mean_prob":0.9673,"max_prob":0.9922,"model":"lgbm","n_px":3,"px_area_m2":100.0,"confirmed":true,"confirmed_by":"mdd","lon":-88.122367,"lat":15.818214}},{"type":"Feature","geometry":{"type":"Polygon","coordinates":[[[-88.122182,15.815789],[-88.122181,15.815609],[-88.122088,15.815609],[-88.122088,15.8157],[-88.121995,15.8157],[-88.121995,15.81579],[-88.122182,15.815789]]]},"properties":{"id":"honduras_2025-01-30_lgbm_51","region":"honduras","date":"2025-01-30","area_m2":300.0,"mean_prob":0.9869,"max_prob":0.9922,"model":"lgbm","n_px":3,"px_area_m2":100.0,"confirmed":false,"confirmed_by":null,"lon":-88.122104,"lat":15.815715}},{"type":"Feature","geometry":{"type":"Polygon","coordinates":[[[-88.124115,15.810808],[-88.124115,15.810718],[-88.124301,15.810717],[-88.124301,15.810626],[-88.124394,15.810626],[-88.124394,15.810535],[-88.1243,15.810536],[-88.124301,15.810626],[-88.123928,15.810628],[-88.123929,15.810809],[-88.124115,15.810808]]]},"properties":{"id":"honduras_2025-01-30_lgbm_52","region":"honduras","date":"2025-01-30","area_m2":700.0,"mean_prob":0.9725,"max_prob":1.0,"model":"lgbm","n_px":7,"px_area_m2":100.0,"confirmed":false,"confirmed_by":null,"lon":-88.124121,"lat":15.810685}},{"type":"Feature","geometry":{"type":"Polygon","coordinates":[[[-88.127425,15.801481],[-88.127424,15.8013],[-88.12733,15.8013],[-88.127331,15.801391],[-88.127237,15.801391],[-88.127238,15.801482],[-88.127425,15.801481]]]},"properties":{"id":"honduras_2025-01-30_lgbm_53","region":"honduras","date":"2025-01-30","area_m2":300.0,"mean_prob":0.8719,"max_prob":1.0,"model":"lgbm","n_px":3,"px_area_m2":100.0,"confirmed":false,"confirmed_by":null,"lon":-88.127346,"lat":15.801406}},{"type":"Feature","geometry":{"type":"Polygon","coordinates":[[[-88.127704,15.801298],[-88.127703,15.801208],[-88.127797,15.801207],[-88.127796,15.801117],[-88.128076,15.801116],[-88.128076,15.801025],[-88.127982,15.801026],[-88.127982,15.800935],[-88.127795,15.800936],[-88.127796,15.801027],[-88.127702,15.801027],[-88.127703,15.801118],[-88.127609,15.801118],[-88.12761,15.801208],[-88.127517,15.801209],[-88.127517,15.801299],[-88.127704,15.801298]]]},"properties":{"id":"honduras_2025-01-30_lgbm_54","region":"honduras","date":"2025-01-30","area_m2":1000.0,"mean_prob":0.9078,"max_prob":1.0,"model":"lgbm","n_px":10,"px_area_m2":100.0,"confirmed":false,"confirmed_by":null,"lon":-88.127796,"lat":15.801108}},{"type":"Feature","geometry":{"type":"Polygon","coordinates":[[[-88.13084,15.794503],[-88.13084,15.794412],[-88.130933,15.794412],[-88.130933,15.794321],[-88.130746,15.794322],[-88.130747,15.794503],[-88.13084,15.794503]]]},"properties":{"id":"honduras_2025-01-30_lgbm_55","region":"honduras","date":"2025-01-30","area_m2":300.0,"mean_prob":0.9935,"max_prob":0.9961,"model":"lgbm","n_px":3,"px_area_m2":100.0,"confirmed":false,"confirmed_by":null,"lon":-88.130824,"lat":15.794397}},{"type":"Feature","geometry":{"type":"Polygon","coordinates":[[[-88.133068,15.792231],[-88.133068,15.792141],[-88.132881,15.792142],[-88.132881,15.792232],[-88.133068,15.792231]]]},"properties":{"id":"honduras_2025-01-30_lgbm_56","region":"honduras","date":"2025-01-30","area_m2":200.0,"mean_prob":0.9922,"max_prob":1.0,"model":"lgbm","n_px":2,"px_area_m2":100.0,"confirmed":false,"confirmed_by":null,"lon":-88.132974,"lat":15.792187}},{"type":"Feature","geometry":{"type":"Polygon","coordinates":[[[-88.133347,15.792049],[-88.133347,15.791959],[-88.13344,15.791958],[-88.133439,15.791777],[-88.133532,15.791777],[-88.133532,15.791687],[-88.133438,15.791687],[-88.133439,15.791777],[-88.133252,15.791778],[-88.133253,15.791869],[-88.133159,15.791869],[-88.13316,15.79205],[-88.133347,15.792049]]]},"properties":{"id":"honduras_2025-01-30_lgbm_57","region":"honduras","date":"2025-01-30","area_m2":800.0,"mean_prob":0.9534,"max_prob":1.0,"model":"lgbm","n_px":8,"px_area_m2":100.0,"confirmed":false,"confirmed_by":null,"lon":-88.133323,"lat":15.791891}},{"type":"Feature","geometry":{"type":"Polygon","coordinates":[[[-88.133811,15.791595],[-88.133811,15.791504],[-88.133998,15.791503],[-88.133997,15.791413],[-88.13381,15.791414],[-88.133811,15.791504],[-88.133718,15.791505],[-88.133718,15.791595],[-88.133811,15.791595]]]},"properties":{"id":"honduras_2025-01-30_lgbm_58","region":"honduras","date":"2025-01-30","area_m2":300.0,"mean_prob":0.8797,"max_prob":0.9922,"model":"lgbm","n_px":3,"px_area_m2":100.0,"confirmed":false,"confirmed_by":null,"lon":-88.133857,"lat":15.791489}},{"type":"Feature","geometry":{"type":"Polygon","coordinates":[[[-88.239163,15.784602],[-88.239163,15.784512],[-88.239349,15.784511],[-88.239349,15.78442],[-88.239162,15.784422],[-88.239163,15.784512],[-88.238976,15.784513],[-88.238977,15.784603],[-88.239163,15.784602]]]},"properties":{"id":"honduras_2025-01-30_lgbm_59","region":"honduras","date":"2025-01-30","area_m2":400.0,"mean_prob":0.9569,"max_prob":0.9922,"model":"lgbm","n_px":4,"px_area_m2":100.0,"confirmed":false,"confirmed_by":null,"lon":-88.239163,"lat":15.784512}},{"type":"Feature","geometry":{"type":"Polygon","coordinates":[[[-88.138535,15.784881],[-88.138534,15.7847],[-88.138347,15.784701],[-88.138348,15.784792],[-88.138254,15.784792],[-88.138255,15.784883],[-88.138535,15.784881]]]},"properties":{"id":"honduras_2025-01-30_lgbm_60","region":"honduras","date":"2025-01-30","area_m2":500.0,"mean_prob":0.9867,"max_prob":1.0,"model":"lgbm","n_px":5,"px_area_m2":100.0,"confirmed":false,"confirmed_by":null,"lon":-88.138413,"lat":15.7848}},{"type":"Feature","geometry":{"type":"Polygon","coordinates":[[[-88.138907,15.784698],[-88.138906,15.784518],[-88.13872,15.784519],[-88.13872,15.784609],[-88.138627,15.78461],[-88.138627,15.7847],[-88.138907,15.784698]]]},"properties":{"id":"honduras_2025-01-30_lgbm_61","region":"honduras","date":"2025-01-30","area_m2":500.0,"mean_prob":0.9827,"max_prob":1.0,"model":"lgbm","n_px":5,"px_area_m2":100.0,"confirmed":false,"confirmed_by":null,"lon":-88.138785,"lat":15.784618}},{"type":"Feature","geometry":{"type":"Polygon","coordinates":[[[-88.244276,15.781138],[-88.244276,15.781048],[-88.244369,15.781047],[-88.244368,15.780957],[-88.244182,15.780958],[-88.244182,15.781049],[-88.244089,15.781049],[-88.24409,15.781139],[-88.244276,15.781138]]]},"properties":{"id":"honduras_2025-01-30_lgbm_62","region":"honduras","date":"2025-01-30","area_m2":400.0,"mean_prob":0.9069,"max_prob":0.9922,"model":"lgbm","n_px":4,"px_area_m2":100.0,"confirmed":false,"confirmed_by":null,"lon":-88.244229,"lat":15.781048}},{"type":"Feature","geometry":{"type":"Polygon","coordinates":[[[-88.14206,15.780976],[-88.14206,15.780886],[-88.142153,15.780885],[-88.142153,15.780795],[-88.141966,15.780796],[-88.141967,15.780976],[-88.14206,15.780976]]]},"properties":{"id":"honduras_2025-01-30_lgbm_63","region":"honduras","date":"2025-01-30","area_m2":300.0,"mean_prob":0.9542,"max_prob":0.9922,"model":"lgbm","n_px":3,"px_area_m2":100.0,"confirmed":false,"confirmed_by":null,"lon":-88.142044,"lat":15.780871}},{"type":"Feature","geometry":{"type":"Polygon","coordinates":[[[-88.246044,15.780134],[-88.246043,15.780044],[-88.245856,15.780045],[-88.245857,15.780135],[-88.246044,15.780134]]]},"properties":{"id":"honduras_2025-01-30_lgbm_64","region":"honduras","date":"2025-01-30","area_m2":200.0,"mean_prob":0.9706,"max_prob":0.9765,"model":"lgbm","n_px":2,"px_area_m2":100.0,"confirmed":false,"confirmed_by":null,"lon":-88.24595,"lat":15.780089}},{"type":"Feature","geometry":{"type":"Polygon","coordinates":[[[-88.142897,15.780429],[-88.142897,15.780339],[-88.143084,15.780338],[-88.143083,15.780247],[-88.143176,15.780247],[-88.143176,15.780157],[-88.143083,15.780157],[-88.143083,15.780247],[-88.142896,15.780248],[-88.142897,15.780339],[-88.142804,15.780339],[-88.142804,15.78043],[-88.142897,15.780429]]]},"properties":{"id":"honduras_2025-01-30_lgbm_65","region":"honduras","date":"2025-01-30","area_m2":400.0,"mean_prob":0.9245,"max_prob":0.9843,"model":"lgbm","n_px":4,"px_area_m2":100.0,"confirmed":false,"confirmed_by":null,"lon":-88.14299,"lat":15.780293}},{"type":"Feature","geometry":{"type":"Polygon","coordinates":[[[-88.144479,15.779517],[-88.144479,15.779427],[-88.144572,15.779426],[-88.144572,15.779336],[-88.144665,15.779335],[-88.144664,15.779245],[-88.144758,15.779244],[-88.144757,15.779154],[-88.144851,15.779153],[-88.14485,15.779063],[-88.144757,15.779064],[-88.144757,15.779154],[-88.144664,15.779154],[-88.144664,15.779245],[-88.144571,15.779245],[-88.144572,15.779336],[-88.144385,15.779337],[-88.144385,15.779427],[-88.144292,15.779428],[-88.144293,15.779518],[-88.144479,15.779517]]]},"properties":{"id":"honduras_2025-01-30_lgbm_66","region":"honduras","date":"2025-01-30","area_m2":700.0,"mean_prob":0.9961,"max_prob":1.0,"model":"lgbm","n_px":7,"px_area_m2":100.0,"confirmed":false,"confirmed_by":null,"lon":-88.144552,"lat":15.779329}},{"type":"Feature","geometry":{"type":"Polygon","coordinates":[[[-88.146334,15.777428],[-88.146333,15.777247],[-88.14624,15.777248],[-88.146241,15.777338],[-88.146147,15.777339],[-88.146148,15.777429],[-88.146334,15.777428]]]},"properties":{"id":"honduras_2025-01-30_lgbm_67","region":"honduras","date":"2025-01-30","area_m2":300.0,"mean_prob":0.9948,"max_prob":1.0,"model":"lgbm","n_px":3,"px_area_m2":100.0,"confirmed":false,"confirmed_by":null,"lon":-88.146256,"lat":15.777353}},{"type":"Feature","geometry":{"type":"Polygon","coordinates":[[[-88.183576,15.776867],[-88.183575,15.776686],[-88.183482,15.776687],[-88.183483,15.776868],[-88.183576,15.776867]]]},"properties":{"id":"honduras_2025-01-30_lgbm_68","region":"honduras","date":"2025-01-30","area_m2":200.0,"mean_prob":0.7471,"max_prob":0.851,"model":"lgbm","n_px":2,"px_area_m2":100.0,"confirmed":false,"confirmed_by":null,"lon":-88.183529,"lat":15.776777}},{"type":"Feature","geometry":{"type":"Polygon","coordinates":[[[-88.147076,15.77652],[-88.147075,15.77634],[-88.146888,15.776341],[-88.146889,15.776431],[-88.146796,15.776431],[-88.146796,15.776522],[-88.147076,15.77652]]]},"properties":{"id":"honduras_2025-01-30_lgbm_69","region":"honduras","date":"2025-01-30","area_m2":500.0,"mean_prob":0.9216,"max_prob":0.9961,"model":"lgbm","n_px":5,"px_area_m2":100.0,"confirmed":false,"confirmed_by":null,"lon":-88.146954,"lat":15.77644}},{"type":"Feature","geometry":{"type":"Polygon","coordinates":[[[-88.25068,15.775136],[-88.250679,15.774955],[-88.250772,15.774955],[-88.250772,15.774864],[-88.250679,15.774865],[-88.250679,15.774955],[-88.250586,15.774956],[-88.250587,15.775137],[-88.25068,15.775136]]]},"properties":{"id":"honduras_2025-01-30_lgbm_70","region":"honduras","date":"2025-01-30","area_m2":300.0,"mean_prob":0.9621,"max_prob":0.9922,"model":"lgbm","n_px":3,"px_area_m2":100.0,"confirmed":false,"confirmed_by":null,"lon":-88.250664,"lat":15.775001}},{"type":"Feature","geometry":{"type":"Polygon","coordinates":[[[-88.14986,15.773523],[-88.149859,15.773342],[-88.149672,15.773343],[-88.149673,15.773524],[-88.14986,15.773523]]]},"properties":{"id":"honduras_2025-01-30_lgbm_71","region":"honduras","date":"2025-01-30","area_m2":400.0,"mean_prob":1.0,"max_prob":1.0,"model":"lgbm","n_px":4,"px_area_m2":100.0,"confirmed":false,"confirmed_by":null,"lon":-88.149766,"lat":15.773433}},{"type":"Feature","geometry":{"type":"Polygon","coordinates":[[[-88.253181,15.771958],[-88.25318,15.771868],[-88.252994,15.771869],[-88.252994,15.771959],[-88.253181,15.771958]]]},"properties":{"id":"honduras_2025-01-30_lgbm_72","region":"honduras","date":"2025-01-30","area_m2":200.0,"mean_prob":0.7255,"max_prob":0.7725,"model":"lgbm","n_px":2,"px_area_m2":100.0,"confirmed":false,"confirmed_by":null,"lon":-88.253087,"lat":15.771913}},{"type":"Feature","geometry":{"type":"Polygon","coordinates":[[[-88.150881,15.772523],[-88.15088,15.772433],[-88.150974,15.772432],[-88.150973,15.772342],[-88.15088,15.772342],[-88.15088,15.772433],[-88.150787,15.772433],[-88.150787,15.772524],[-88.150881,15.772523]]]},"properties":{"id":"honduras_2025-01-30_lgbm_73","region":"honduras","date":"2025-01-30","area_m2":200.0,"mean_prob":0.9804,"max_prob":0.9922,"model":"lgbm","n_px":2,"px_area_m2":100.0,"confirmed":false,"confirmed_by":null,"lon":-88.15088,"lat":15.772433}},{"type":"Feature","geometry":{"type":"Polygon","coordinates":[[[-88.15283,15.770524],[-88.152829,15.770343],[-88.152549,15.770345],[-88.152549,15.770435],[-88.152456,15.770436],[-88.152456,15.770526],[-88.15283,15.770524]]]},"properties":{"id":"honduras_2025-01-30_lgbm_74","region":"honduras","date":"2025-01-30","area_m2":700.0,"mean_prob":0.9714,"max_prob":0.9961,"model":"lgbm","n_px":7,"px_area_m2":100.0,"confirmed":false,"confirmed_by":null,"lon":-88.152663,"lat":15.770441}},{"type":"Feature","geometry":{"type":"Polygon","coordinates":[[[-88.154036,15.769343],[-88.154035,15.769162],[-88.153849,15.769163],[-88.15385,15.769344],[-88.154036,15.769343]]]},"properties":{"id":"honduras_2025-01-30_lgbm_75","region":"honduras","date":"2025-01-30","area_m2":400.0,"mean_prob":0.9912,"max_prob":1.0,"model":"lgbm","n_px":4,"px_area_m2":100.0,"confirmed":false,"confirmed_by":null,"lon":-88.153943,"lat":15.769253}},{"type":"Feature","geometry":{"type":"Polygon","coordinates":[[[-88.155057,15.768253],[-88.155057,15.768162],[-88.15515,15.768162],[-88.155149,15.768071],[-88.154963,15.768072],[-88.154964,15.768253],[-88.155057,15.768253]]]},"properties":{"id":"honduras_2025-01-30_lgbm_76","region":"honduras","date":"2025-01-30","area_m2":300.0,"mean_prob":0.9908,"max_prob":0.9961,"model":"lgbm","n_px":3,"px_area_m2":100.0,"confirmed":false,"confirmed_by":null,"lon":-88.155041,"lat":15.768147}},{"type":"Feature","geometry":{"type":"Polygon","coordinates":[[[-88.15728,15.765258],[-88.15728,15.765168],[-88.157373,15.765167],[-88.157373,15.765077],[-88.157093,15.765078],[-88.157094,15.765259],[-88.15728,15.765258]]]},"properties":{"id":"honduras_2025-01-30_lgbm_77","region":"honduras","date":"2025-01-30","area_m2":500.0,"mean_prob":0.9263,"max_prob":1.0,"model":"lgbm","n_px":5,"px_area_m2":100.0,"confirmed":false,"confirmed_by":null,"lon":-88.157214,"lat":15.765159}},{"type":"Feature","geometry":{"type":"Polygon","coordinates":[[[-88.158395,15.764258],[-88.158394,15.764077],[-88.1583,15.764077],[-88.158301,15.764168],[-88.158208,15.764168],[-88.158208,15.764259],[-88.158395,15.764258]]]},"properties":{"id":"honduras_2025-01-30_lgbm_78","region":"honduras","date":"2025-01-30","area_m2":300.0,"mean_prob":0.9974,"max_prob":1.0,"model":"lgbm","n_px":3,"px_area_m2":100.0,"confirmed":false,"confirmed_by":null,"lon":-88.158317,"lat":15.764183}},{"type":"Feature","geometry":{"type":"Polygon","coordinates":[[[-88.159694,15.762985],[-88.159693,15.762805],[-88.159507,15.762806],[-88.159507,15.762896],[-88.159414,15.762896],[-88.159414,15.762987],[-88.159694,15.762985]]]},"properties":{"id":"honduras_2025-01-30_lgbm_79","region":"honduras","date":"2025-01-30","area_m2":500.0,"mean_prob":0.9914,"max_prob":1.0,"model":"lgbm","n_px":5,"px_area_m2":100.0,"confirmed":false,"confirmed_by":null,"lon":-88.159572,"lat":15.762905}},{"type":"Feature","geometry":{"type":"Polygon","coordinates":[[[-88.160439,15.76271],[-88.160438,15.762529],[-88.160345,15.76253],[-88.160346,15.76262],[-88.160159,15.762621],[-88.160159,15.762712],[-88.160439,15.76271]]]},"properties":{"id":"honduras_2025-01-30_lgbm_80","region":"honduras","date":"2025-01-30","area_m2":400.0,"mean_prob":0.9931,"max_prob":0.9961,"model":"lgbm","n_px":4,"px_area_m2":100.0,"confirmed":false,"confirmed_by":null,"lon":-88.160322,"lat":15.762643}},{"type":"Feature","geometry":{"type":"Polygon","coordinates":[[[-88.161642,15.760806],[-88.161641,15.760625],[-88.161548,15.760625],[-88.161548,15.760716],[-88.161455,15.760716],[-88.161455,15.760807],[-88.161642,15.760806]]]},"properties":{"id":"honduras_2025-01-30_lgbm_81","region":"honduras","date":"2025-01-30","area_m2":300.0,"mean_prob":0.9621,"max_prob":0.9843,"model":"lgbm","n_px":3,"px_area_m2":100.0,"confirmed":false,"confirmed_by":null,"lon":-88.161564,"lat":15.760731}},{"type":"Feature","geometry":{"type":"Polygon","coordinates":[[[-88.162475,15.759626],[-88.162474,15.759445],[-88.162381,15.759446],[-88.162382,15.759627],[-88.162475,15.759626]]]},"properties":{"id":"honduras_2025-01-30_lgbm_82","region":"honduras","date":"2025-01-30","area_m2":200.0,"mean_prob":0.9471,"max_prob":1.0,"model":"lgbm","n_px":2,"px_area_m2":100.0,"confirmed":false,"confirmed_by":null,"lon":-88.162428,"lat":15.759536}},{"type":"Feature","geometry":{"type":"Polygon","coordinates":[[[-88.163032,15.759081],[-88.163031,15.7589],[-88.162845,15.758901],[-88.162846,15.759082],[-88.163032,15.759081]]]},"properties":{"id":"honduras_2025-01-30_lgbm_83","region":"honduras","date":"2025-01-30","area_m2":400.0,"mean_prob":0.9559,"max_prob":0.9961,"model":"lgbm","n_px":4,"px_area_m2":100.0,"confirmed":false,"confirmed_by":null,"lon":-88.162938,"lat":15.758991}},{"type":"Feature","geometry":{"type":"Polygon","coordinates":[[[-88.163682,15.758445],[-88.163681,15.758354],[-88.163495,15.758355],[-88.163495,15.758446],[-88.163682,15.758445]]]},"properties":{"id":"honduras_2025-01-30_lgbm_84","region":"honduras","date":"2025-01-30","area_m2":200.0,"mean_prob":0.9784,"max_prob":0.9922,"model":"lgbm","n_px":2,"px_area_m2":100.0,"confirmed":false,"confirmed_by":null,"lon":-88.163588,"lat":15.7584}},{"type":"Feature","geometry":{"type":"Polygon","coordinates":[[[-88.186507,15.735001],[-88.186506,15.734911],[-88.1866,15.73491],[-88.186599,15.73482],[-88.186506,15.73482],[-88.186506,15.734911],[-88.186413,15.734911],[-88.186414,15.735001],[-88.186507,15.735001]]]},"properties":{"id":"honduras_2025-01-30_lgbm_85","region":"honduras","date":"2025-01-30","area_m2":200.0,"mean_prob":0.998,"max_prob":1.0,"model":"lgbm","n_px":2,"px_area_m2":100.0,"confirmed":false,"confirmed_by":null,"lon":-88.186506,"lat":15.734911}},{"type":"Feature","geometry":{"type":"Polygon","coordinates":[[[-88.18762,15.73391],[-88.187619,15.733729],[-88.187526,15.73373],[-88.187527,15.733911],[-88.18762,15.73391]]]},"properties":{"id":"honduras_2025-01-30_lgbm_86","region":"honduras","date":"2025-01-30","area_m2":200.0,"mean_prob":0.7412,"max_prob":0.8353,"model":"lgbm","n_px":2,"px_area_m2":100.0,"confirmed":false,"confirmed_by":null,"lon":-88.187573,"lat":15.73382}}]}