{"type": "FeatureCollection", "features": [{"type": "Feature", "id": "D-SZ-live-durban-2026-05-04-001-2", "geometry": {"type": "Polygon", "coordinates": [[[31.0201261, -29.8657931], [31.0201243, -29.8658833], [31.0200208, -29.8658817], [31.020019, -29.8659719], [31.0201225, -29.8659735], [31.0201243, -29.8658833], [31.0202278, -29.8658848], [31.0202295, -29.8657946], [31.0201261, -29.8657931]]]}, "properties": {"kind": "detection", "det_id": "D-SZ-live-durban-2026-05-04-001-2", "zone_id": "SZ-live-durban-2026-05-04-001", "scene_id": "S2A_MSIL2A_20260504T074021_R092_T36JUN_20260504T132359", "datetime": "2026-05-04T07:40:21.024000Z", "n_pixels": 2, "area_m2": 200, "prob_max": 0.8, "prob_mean": 0.7706, "threshold": 0.63, "in_strip": true, "artifact": "ship"}}, {"type": "Feature", "id": "D-SZ-live-durban-2026-05-04-001-3", "geometry": {"type": "Polygon", "coordinates": [[[31.0209521, -29.8658957], [31.0209486, -29.8660761], [31.0211555, -29.8660792], [31.0211573, -29.865989], [31.0212608, -29.8659905], [31.0212626, -29.8659003], [31.0211591, -29.8658988], [31.0211573, -29.865989], [31.0210538, -29.8659874], [31.0210556, -29.8658972], [31.0209521, -29.8658957]]]}, "properties": {"kind": "detection", "det_id": "D-SZ-live-durban-2026-05-04-001-3", "zone_id": "SZ-live-durban-2026-05-04-001", "scene_id": "S2A_MSIL2A_20260504T074021_R092_T36JUN_20260504T132359", "datetime": "2026-05-04T07:40:21.024000Z", "n_pixels": 4, "area_m2": 400, "prob_max": 0.8, "prob_mean": 0.7441, "threshold": 0.63, "in_strip": true, "artifact": "ship"}}, {"type": "Feature", "id": "D-SZ-live-durban-2026-05-04-001-4", "geometry": {"type": "Polygon", "coordinates": [[[31.0216765, -29.8659065], [31.0216747, -29.8659967], [31.0217782, -29.8659983], [31.02178, -29.8659081], [31.0216765, -29.8659065]]]}, "properties": {"kind": "detection", "det_id": "D-SZ-live-durban-2026-05-04-001-4", "zone_id": "SZ-live-durban-2026-05-04-001", "scene_id": "S2A_MSIL2A_20260504T074021_R092_T36JUN_20260504T132359", "datetime": "2026-05-04T07:40:21.024000Z", "n_pixels": 1, "area_m2": 100, "prob_max": 0.7765, "prob_mean": 0.7765, "threshold": 0.63, "in_strip": true, "artifact": null}}, {"type": "Feature", "id": "D-SZ-live-durban-2026-05-04-001-5", "geometry": {"type": "Polygon", "coordinates": [[[31.021466, -29.8660838], [31.0214642, -29.866174], [31.0215677, -29.8661756], [31.0215695, -29.8660854], [31.021466, -29.8660838]]]}, "properties": {"kind": "detection", "det_id": "D-SZ-live-durban-2026-05-04-001-5", "zone_id": "SZ-live-durban-2026-05-04-001", "scene_id": "S2A_MSIL2A_20260504T074021_R092_T36JUN_20260504T132359", "datetime": "2026-05-04T07:40:21.024000Z", "n_pixels": 1, "area_m2": 100, "prob_max": 0.6431, "prob_mean": 0.6431, "threshold": 0.63, "in_strip": true, "artifact": null}}, {"type": "Feature", "id": "D-SZ-live-durban-2026-05-04-001-6", "geometry": {"type": "Polygon", "coordinates": [[[31.0220869, -29.8660931], [31.0220851, -29.8661833], [31.0221886, -29.8661849], [31.0221904, -29.8660947], [31.0220869, -29.8660931]]]}, "properties": {"kind": "detection", "det_id": "D-SZ-live-durban-2026-05-04-001-6", "zone_id": "SZ-live-durban-2026-05-04-001", "scene_id": "S2A_MSIL2A_20260504T074021_R092_T36JUN_20260504T132359", "datetime": "2026-05-04T07:40:21.024000Z", "n_pixels": 1, "area_m2": 100, "prob_max": 0.7765, "prob_mean": 0.7765, "threshold": 0.63, "in_strip": true, "artifact": null}}, {"type": "Feature", "id": "D-SZ-live-durban-2026-05-04-001-7", "geometry": {"type": "Polygon", "coordinates": [[[31.0197032, -29.8662378], [31.0197014, -29.866328], [31.0198049, -29.8663296], [31.0198067, -29.8662394], [31.0197032, -29.8662378]]]}, "properties": {"kind": "detection", "det_id": "D-SZ-live-durban-2026-05-04-001-7", "zone_id": "SZ-live-durban-2026-05-04-001", "scene_id": "S2A_MSIL2A_20260504T074021_R092_T36JUN_20260504T132359", "datetime": "2026-05-04T07:40:21.024000Z", "n_pixels": 1, "area_m2": 100, "prob_max": 0.6314, "prob_mean": 0.6314, "threshold": 0.63, "in_strip": true, "artifact": "ship"}}, {"type": "Feature", "id": "D-SZ-live-durban-2026-05-04-001-8", "geometry": {"type": "Polygon", "coordinates": [[[31.0213589, -29.8662627], [31.0213572, -29.8663529], [31.0214606, -29.8663544], [31.0214624, -29.8662642], [31.0213589, -29.8662627]]]}, "properties": {"kind": "detection", "det_id": "D-SZ-live-durban-2026-05-04-001-8", "zone_id": "SZ-live-durban-2026-05-04-001", "scene_id": "S2A_MSIL2A_20260504T074021_R092_T36JUN_20260504T132359", "datetime": "2026-05-04T07:40:21.024000Z", "n_pixels": 1, "area_m2": 100, "prob_max": 0.6784, "prob_mean": 0.6784, "threshold": 0.63, "in_strip": true, "artifact": null}}, {"type": "Feature", "id": "D-SZ-live-durban-2026-05-04-001-9", "geometry": {"type": "Polygon", "coordinates": [[[31.0224955, -29.8663699], [31.0224937, -29.8664601], [31.0227007, -29.8664632], [31.0227024, -29.866373], [31.0224955, -29.8663699]]]}, "properties": {"kind": "detection", "det_id": "D-SZ-live-durban-2026-05-04-001-9", "zone_id": "SZ-live-durban-2026-05-04-001", "scene_id": "S2A_MSIL2A_20260504T074021_R092_T36JUN_20260504T132359", "datetime": "2026-05-04T07:40:21.024000Z", "n_pixels": 2, "area_m2": 200, "prob_max": 0.8784, "prob_mean": 0.7549, "threshold": 0.63, "in_strip": true, "artifact": "seam"}}, {"type": "Feature", "id": "D-SZ-live-durban-2026-05-04-001-10", "geometry": {"type": "Polygon", "coordinates": [[[31.0240477, -29.8663932], [31.0240442, -29.8665736], [31.0242511, -29.8665767], [31.0242547, -29.8663963], [31.0240477, -29.8663932]]]}, "properties": {"kind": "detection", "det_id": "D-SZ-live-durban-2026-05-04-001-10", "zone_id": "SZ-live-durban-2026-05-04-001", "scene_id": "S2A_MSIL2A_20260504T074021_R092_T36JUN_20260504T132359", "datetime": "2026-05-04T07:40:21.024000Z", "n_pixels": 4, "area_m2": 400, "prob_max": 0.8627, "prob_mean": 0.7471, "threshold": 0.63, "in_strip": true, "artifact": "seam"}}, {"type": "Feature", "id": "D-SZ-live-durban-2026-05-04-001-11", "geometry": {"type": "Polygon", "coordinates": [[[31.0212519, -29.8664415], [31.0212501, -29.8665317], [31.0213536, -29.8665332], [31.0213554, -29.8664431], [31.0212519, -29.8664415]]]}, "properties": {"kind": "detection", "det_id": "D-SZ-live-durban-2026-05-04-001-11", "zone_id": "SZ-live-durban-2026-05-04-001", "scene_id": "S2A_MSIL2A_20260504T074021_R092_T36JUN_20260504T132359", "datetime": "2026-05-04T07:40:21.024000Z", "n_pixels": 1, "area_m2": 100, "prob_max": 0.7961, "prob_mean": 0.7961, "threshold": 0.63, "in_strip": true, "artifact": null}}, {"type": "Feature", "id": "D-SZ-live-durban-2026-05-04-001-12", "geometry": {"type": "Polygon", "coordinates": [[[31.0216658, -29.8664477], [31.0216641, -29.8665379], [31.0217675, -29.8665395], [31.0217693, -29.8664493], [31.0216658, -29.8664477]]]}, "properties": {"kind": "detection", "det_id": "D-SZ-live-durban-2026-05-04-001-12", "zone_id": "SZ-live-durban-2026-05-04-001", "scene_id": "S2A_MSIL2A_20260504T074021_R092_T36JUN_20260504T132359", "datetime": "2026-05-04T07:40:21.024000Z", "n_pixels": 1, "area_m2": 100, "prob_max": 0.9216, "prob_mean": 0.9216, "threshold": 0.63, "in_strip": true, "artifact": null}}, {"type": "Feature", "id": "D-SZ-live-durban-2026-05-04-001-13", "geometry": {"type": "Polygon", "coordinates": [[[31.0188611, -29.866947], [31.0188593, -29.8670371], [31.0190663, -29.8670403], [31.0190681, -29.8669501], [31.0188611, -29.866947]]]}, "properties": {"kind": "detection", "det_id": "D-SZ-live-durban-2026-05-04-001-13", "zone_id": "SZ-live-durban-2026-05-04-001", "scene_id": "S2A_MSIL2A_20260504T074021_R092_T36JUN_20260504T132359", "datetime": "2026-05-04T07:40:21.024000Z", "n_pixels": 2, "area_m2": 200, "prob_max": 0.6588, "prob_mean": 0.6451, "threshold": 0.63, "in_strip": true, "artifact": null}}, {"type": "Feature", "id": "D-SZ-live-durban-2026-05-04-002-14", "geometry": {"type": "Polygon", "coordinates": [[[31.0140294, -29.8704831], [31.0140276, -29.8705733], [31.0141311, -29.8705749], [31.0141329, -29.8704847], [31.0140294, -29.8704831]]]}, "properties": {"kind": "detection", "det_id": "D-SZ-live-durban-2026-05-04-002-14", "zone_id": "SZ-live-durban-2026-05-04-002", "scene_id": "S2A_MSIL2A_20260504T074021_R092_T36JUN_20260504T132359", "datetime": "2026-05-04T07:40:21.024000Z", "n_pixels": 1, "area_m2": 100, "prob_max": 0.7176, "prob_mean": 0.7176, "threshold": 0.63, "in_strip": true, "artifact": null}}, {"type": "Feature", "id": "D-SZ-live-durban-2026-05-04-002-16", "geometry": {"type": "Polygon", "coordinates": [[[31.0173106, -29.8720662], [31.0173089, -29.8721564], [31.0174123, -29.872158], [31.0174141, -29.8720678], [31.0173106, -29.8720662]]]}, "properties": {"kind": "detection", "det_id": "D-SZ-live-durban-2026-05-04-002-16", "zone_id": "SZ-live-durban-2026-05-04-002", "scene_id": "S2A_MSIL2A_20260504T074021_R092_T36JUN_20260504T132359", "datetime": "2026-05-04T07:40:21.024000Z", "n_pixels": 1, "area_m2": 100, "prob_max": 0.6588, "prob_mean": 0.6588, "threshold": 0.63, "in_strip": true, "artifact": null}}, {"type": "Feature", "id": "D-SZ-live-durban-2026-05-04-002-19", "geometry": {"type": "Polygon", "coordinates": [[[31.0153301, -29.8727582], [31.0153283, -29.8728484], [31.0155353, -29.8728515], [31.0155371, -29.8727613], [31.0153301, -29.8727582]]]}, "properties": {"kind": "detection", "det_id": "D-SZ-live-durban-2026-05-04-002-19", "zone_id": "SZ-live-durban-2026-05-04-002", "scene_id": "S2A_MSIL2A_20260504T074021_R092_T36JUN_20260504T132359", "datetime": "2026-05-04T07:40:21.024000Z", "n_pixels": 2, "area_m2": 200, "prob_max": 0.7765, "prob_mean": 0.7588, "threshold": 0.63, "in_strip": true, "artifact": null}}, {"type": "Feature", "id": "D-SZ-live-durban-2026-05-04-002-20", "geometry": {"type": "Polygon", "coordinates": [[[31.0158368, -29.8733072], [31.015835, -29.8733974], [31.0159385, -29.8733989], [31.0159403, -29.8733087], [31.0158368, -29.8733072]]]}, "properties": {"kind": "detection", "det_id": "D-SZ-live-durban-2026-05-04-002-20", "zone_id": "SZ-live-durban-2026-05-04-002", "scene_id": "S2A_MSIL2A_20260504T074021_R092_T36JUN_20260504T132359", "datetime": "2026-05-04T07:40:21.024000Z", "n_pixels": 1, "area_m2": 100, "prob_max": 0.6706, "prob_mean": 0.6706, "threshold": 0.63, "in_strip": true, "artifact": "ship"}}, {"type": "Feature", "id": "D-SZ-live-durban-2026-05-04-002-21", "geometry": {"type": "Polygon", "coordinates": [[[31.0161437, -29.8734922], [31.0161366, -29.873853], [31.0162401, -29.8738545], [31.0162472, -29.8734938], [31.0161437, -29.8734922]]]}, "properties": {"kind": "detection", "det_id": "D-SZ-live-durban-2026-05-04-002-21", "zone_id": "SZ-live-durban-2026-05-04-002", "scene_id": "S2A_MSIL2A_20260504T074021_R092_T36JUN_20260504T132359", "datetime": "2026-05-04T07:40:21.024000Z", "n_pixels": 4, "area_m2": 400, "prob_max": 0.902, "prob_mean": 0.7863, "threshold": 0.63, "in_strip": true, "artifact": "seam"}}, {"type": "Feature", "id": "D-SZ-live-durban-2026-05-04-002-22", "geometry": {"type": "Polygon", "coordinates": [[[31.015198, -29.8741998], [31.0151962, -29.8742899], [31.0152997, -29.8742915], [31.0153015, -29.8742013], [31.015198, -29.8741998]]]}, "properties": {"kind": "detection", "det_id": "D-SZ-live-durban-2026-05-04-002-22", "zone_id": "SZ-live-durban-2026-05-04-002", "scene_id": "S2A_MSIL2A_20260504T074021_R092_T36JUN_20260504T132359", "datetime": "2026-05-04T07:40:21.024000Z", "n_pixels": 1, "area_m2": 100, "prob_max": 0.6627, "prob_mean": 0.6627, "threshold": 0.63, "in_strip": true, "artifact": null}}, {"type": "Feature", "id": "D-SZ-live-durban-2026-05-04-002-23", "geometry": {"type": "Polygon", "coordinates": [[[31.0147787, -29.8744641], [31.0147751, -29.8746445], [31.0146716, -29.8746429], [31.0146734, -29.8745527], [31.0145699, -29.8745512], [31.0145681, -29.8746414], [31.0146716, -29.8746429], [31.0146698, -29.8747331], [31.0148768, -29.8747362], [31.0148822, -29.8744657], [31.0147787, -29.8744641]]]}, "properties": {"kind": "detection", "det_id": "D-SZ-live-durban-2026-05-04-002-23", "zone_id": "SZ-live-durban-2026-05-04-002", "scene_id": "S2A_MSIL2A_20260504T074021_R092_T36JUN_20260504T132359", "datetime": "2026-05-04T07:40:21.024000Z", "n_pixels": 5, "area_m2": 500, "prob_max": 0.8314, "prob_mean": 0.7388, "threshold": 0.63, "in_strip": true, "artifact": "seam"}}, {"type": "Feature", "id": "D-SZ-live-durban-2026-05-04-002-24", "geometry": {"type": "Polygon", "coordinates": [[[31.0132976, -29.8760658], [31.0132958, -29.876156], [31.0133993, -29.8761575], [31.0134011, -29.8760673], [31.0132976, -29.8760658]]]}, "properties": {"kind": "detection", "det_id": "D-SZ-live-durban-2026-05-04-002-24", "zone_id": "SZ-live-durban-2026-05-04-002", "scene_id": "S2A_MSIL2A_20260504T074021_R092_T36JUN_20260504T132359", "datetime": "2026-05-04T07:40:21.024000Z", "n_pixels": 1, "area_m2": 100, "prob_max": 0.7098, "prob_mean": 0.7098, "threshold": 0.63, "in_strip": true, "artifact": null}}]}