{"type": "FeatureCollection", "features": [{"type": "Feature", "id": "SZ-live-durban-2026-05-04-001", "geometry": {"type": "Polygon", "coordinates": [[[31.020153, -29.86444], [31.019216, -29.864697], [31.018367, -29.865767], [31.017635, -29.866117], [31.017307, -29.867014], [31.017907, -29.868105], [31.018833, -29.86839], [31.019559, -29.868311], [31.020401, -29.867602], [31.021223, -29.867885], [31.023195, -29.867643], [31.024224, -29.86793], [31.025477, -29.867407], [31.025807, -29.86642], [31.025207, -29.865328], [31.024281, -29.865043], [31.023243, -29.865208], [31.022322, -29.864653], [31.020153, -29.86444]]]}, "properties": {"kind": "detection_zone", "layer_kind": "scene_zone", "zone_id": "SZ-live-durban-2026-05-04-001", "scene_key": "live-durban-2026-05-04", "scene_kind": "live", "scene_id": "S2A_MSIL2A_20260504T074021_R092_T36JUN_20260504T132359", "region": "durban", "title": "Дурбан · зона 1", "mission": "Sentinel-2", "datetime": "2026-05-04T07:40:21.024000Z", "detection_status": "insufficient_data", "status": "insufficient_data", "concentration_status": "unavailable", "quantity": {"status": "not_confirmed", "label": "концентрация по снимку не подтверждена", "detail": "перевод площади в штуки не показываем: нет калибровочных пар (см. docs/QUANTITY.md)"}, "verification": "false_alarm_signs", "training_scene": null, "flags": ["coast", "shallow", "ship"], "n_cozar_filaments": 0, "crop_file": "crops/SZ-live-durban-2026-05-04-001.jpg", "wind_high": false, "measured": {"zone_area_km2": 0.2489, "suspicious_area_m2": 2100, "n_pixels": 21, "n_objects": 12, "water_km2": 0.2438, "lwd_m2_km2": 8613.6, "lwd_note": null, "quality": {"valid_water_fraction": 0.969, "cloud_fraction": 0.0, "glint_fraction": 0.0}, "model": {"weights": "weights/lgbm", "file": "weights/lgbm/model.txt", "sha256": "0eeebf43fcccd8c7c07f053b7ec723229d1a3c9b92d12eec1bdb269258c51470", "sha256_short": "0eeebf43fccc", "trained_at": "2026-09-25T01:35:55Z", "threshold": 0.63, "harmonize": "none", "class": "MARIDA Marine Debris (любой плавающий мусор, не только пластик)"}}, "probable": {"prob_max": 0.922, "prob_mean": 0.739, "signs": {"foam": {"flag": false, "white_ratio_b2_b8": 0.372, "wind10m_ms": 0.53, "rule": "прирост B2 над водой ≥ 0.8 прироста B8 («белый» спектр) или ветер ≥ 7.0 м/с"}, "glint": {"flag": false, "b11_water_median": 0.0054, "glint_share": 0.0, "rule": "медиана B11 воды зоны > 0.01 или ≥ 20 % пикселей зоны — блик (маска качества)"}, "ship": {"flag": true, "share": 0.333, "bright_target_px_within_500m": 2044, "rule": "≥ 30 % пикселей — у яркой цели или кильватера (reports/artifacts.md) или яркая цель с откликом в SWIR (судно, лодка: B11 ≥ 0,015) ближе 500 м"}, "coast": {"flag": true, "land_px_within_300m": 604, "rule": "суша (маска качества) ближе 300 м — прибой, кромка берега"}, "shallow": {"flag": true, "b3_water_zone": 0.0532, "b3_ratio_to_scene_water": 9.85, "rule": "медиана B3 воды зоны ≥ 2× медианы воды снимка и ≥ 0,03 — мелководье или мутная вода"}, "seam": {"flag": false, "share": 0.286, "rule": "≥ 30 % пикселей — прямая линия вдоль трека/границы яркости (шов)"}, "cloud": {"flag": false, "cloud_fraction": 0.0, "rule": "облака или тени облаков (маска качества) ≥ 20 % зоны"}, "note": "эвристики, не классификатор; на размеченных данных не проверены"}, "n_cozar_filaments": 0}, "field_nearby": {"items": [{"source": "ADIS (4TU.ResearchData, судовая камера)", "segment_id": 279754, "ship": "Antsiva", "date": "2022-01-26", "days_from_scene": -1559, "distance_km": 1380.1, "lon": 45.33987, "lat": -30.76971, "n_items": 0, "area_km2": 0.2, "size_class": "> 5 см", "c_items_km2": 0.0, "ci95_lo": 0.0, "ci95_hi": 18.45, "ci95_method": "точный интервал Пуассона для N, делённый на A", "raw_10cm_items_km2": 0.0, "authors_cal_10cm_items_km2": 0.0, "authors_cal_10cm_lo95": null, "authors_cal_10cm_hi95": null}, {"source": "ADIS (4TU.ResearchData, судовая камера)", "segment_id": 299831, "ship": "Antsiva", "date": "2022-01-26", "days_from_scene": -1559, "distance_km": 1380.1, "lon": 45.33982, "lat": -30.77093, "n_items": 0, "area_km2": 0.2, "size_class": "> 5 см", "c_items_km2": 0.0, "ci95_lo": 0.0, "ci95_hi": 18.45, "ci95_method": "точный интервал Пуассона для N, делённый на A", "raw_10cm_items_km2": 0.0, "authors_cal_10cm_items_km2": 0.0, "authors_cal_10cm_lo95": null, "authors_cal_10cm_hi95": null}, {"source": "ADIS (4TU.ResearchData, судовая камера)", "segment_id": 299830, "ship": "Antsiva", "date": "2022-01-26", "days_from_scene": -1559, "distance_km": 1381.8, "lon": 45.36527, "lat": -30.68732, "n_items": 1, "area_km2": 0.1999, "size_class": "> 5 см", "c_items_km2": 5.0, "ci95_lo": 0.13, "ci95_hi": 27.87, "ci95_method": "точный интервал Пуассона для N, делённый на A", "raw_10cm_items_km2": 5.0, "authors_cal_10cm_items_km2": 12.32, "authors_cal_10cm_lo95": 2.17, "authors_cal_10cm_hi95": 70.04}], "nearest_organizer_sample": {"sample_id": "MPL-0922", "source_id": "S4_BLACK_SEA_DOORS3", "distance_km": 7961.8}, "note": "Измерение ≠ оценка: это независимые полевые счёты C = N/A в другое время и в другом месте; со сценой они не связаны и не калибруют её. Ближайший отрезок ADIS — за 1380 км: только для порядка величин."}}}, {"type": "Feature", "id": "SZ-live-durban-2026-05-04-002", "geometry": {"type": "Polygon", "coordinates": [[[31.014056, -29.86913], [31.013119, -29.869387], [31.012477, -29.87046], [31.01277, -29.871366], [31.013485, -29.871828], [31.014104, -29.871928], [31.013778, -29.872735], [31.013972, -29.873369], [31.013344, -29.873721], [31.013116, -29.8748], [31.012072, -29.875235], [31.011745, -29.876042], [31.012038, -29.876949], [31.013269, -29.877509], [31.014309, -29.877254], [31.014839, -29.87663], [31.014852, -29.875999], [31.015787, -29.875833], [31.016422, -29.87512], [31.017466, -29.874685], [31.017792, -29.873878], [31.017698, -29.873425], [31.018638, -29.872988], [31.018965, -29.872181], [31.018672, -29.871275], [31.017957, -29.870813], [31.016818, -29.870796], [31.015976, -29.871505], [31.015357, -29.871405], [31.015683, -29.870598], [31.015391, -29.869692], [31.014675, -29.86923], [31.014056, -29.86913]], [[31.015252, -29.871494], [31.015357, -29.871405], [31.015355, -29.871496], [31.015252, -29.871494]], [[31.014104, -29.871928], [31.01421, -29.871839], [31.014208, -29.871929], [31.014104, -29.871928]]]}, "properties": {"kind": "detection_zone", "layer_kind": "scene_zone", "zone_id": "SZ-live-durban-2026-05-04-002", "scene_key": "live-durban-2026-05-04", "scene_kind": "live", "scene_id": "S2A_MSIL2A_20260504T074021_R092_T36JUN_20260504T132359", "region": "durban", "title": "Дурбан · зона 2", "mission": "Sentinel-2", "datetime": "2026-05-04T07:40:21.024000Z", "detection_status": "insufficient_data", "status": "insufficient_data", "concentration_status": "unavailable", "quantity": {"status": "not_confirmed", "label": "концентрация по снимку не подтверждена", "detail": "перевод площади в штуки не показываем: нет калибровочных пар (см. docs/QUANTITY.md)"}, "verification": "false_alarm_signs", "training_scene": null, "flags": ["ship", "coast", "shallow", "seam"], "n_cozar_filaments": 0, "crop_file": "crops/SZ-live-durban-2026-05-04-002.jpg", "wind_high": false, "measured": {"zone_area_km2": 0.335, "suspicious_area_m2": 1600, "n_pixels": 16, "n_objects": 8, "water_km2": 0.3385, "lwd_m2_km2": 4726.7, "lwd_note": null, "quality": {"valid_water_fraction": 1.0, "cloud_fraction": 0.0, "glint_fraction": 0.0}, "model": {"weights": "weights/lgbm", "file": "weights/lgbm/model.txt", "sha256": "0eeebf43fcccd8c7c07f053b7ec723229d1a3c9b92d12eec1bdb269258c51470", "sha256_short": "0eeebf43fccc", "trained_at": "2026-09-25T01:35:55Z", "threshold": 0.63, "harmonize": "none", "class": "MARIDA Marine Debris (любой плавающий мусор, не только пластик)"}}, "probable": {"prob_max": 0.902, "prob_mean": 0.736, "signs": {"foam": {"flag": false, "white_ratio_b2_b8": 0.409, "wind10m_ms": 0.53, "rule": "прирост B2 над водой ≥ 0.8 прироста B8 («белый» спектр) или ветер ≥ 7.0 м/с"}, "glint": {"flag": false, "b11_water_median": 0.0037, "glint_share": 0.0, "rule": "медиана B11 воды зоны > 0.01 или ≥ 20 % пикселей зоны — блик (маска качества)"}, "ship": {"flag": true, "share": 0.062, "bright_target_px_within_500m": 1504, "rule": "≥ 30 % пикселей — у яркой цели или кильватера (reports/artifacts.md) или яркая цель с откликом в SWIR (судно, лодка: B11 ≥ 0,015) ближе 500 м"}, "coast": {"flag": true, "land_px_within_300m": 232, "rule": "суша (маска качества) ближе 300 м — прибой, кромка берега"}, "shallow": {"flag": true, "b3_water_zone": 0.0455, "b3_ratio_to_scene_water": 8.43, "rule": "медиана B3 воды зоны ≥ 2× медианы воды снимка и ≥ 0,03 — мелководье или мутная вода"}, "seam": {"flag": true, "share": 0.562, "rule": "≥ 30 % пикселей — прямая линия вдоль трека/границы яркости (шов)"}, "cloud": {"flag": false, "cloud_fraction": 0.0, "rule": "облака или тени облаков (маска качества) ≥ 20 % зоны"}, "note": "эвристики, не классификатор; на размеченных данных не проверены"}, "n_cozar_filaments": 0}, "field_nearby": {"items": [{"source": "ADIS (4TU.ResearchData, судовая камера)", "segment_id": 279754, "ship": "Antsiva", "date": "2022-01-26", "days_from_scene": -1559, "distance_km": 1380.1, "lon": 45.33987, "lat": -30.76971, "n_items": 0, "area_km2": 0.2, "size_class": "> 5 см", "c_items_km2": 0.0, "ci95_lo": 0.0, "ci95_hi": 18.45, "ci95_method": "точный интервал Пуассона для N, делённый на A", "raw_10cm_items_km2": 0.0, "authors_cal_10cm_items_km2": 0.0, "authors_cal_10cm_lo95": null, "authors_cal_10cm_hi95": null}, {"source": "ADIS (4TU.ResearchData, судовая камера)", "segment_id": 299831, "ship": "Antsiva", "date": "2022-01-26", "days_from_scene": -1559, "distance_km": 1380.1, "lon": 45.33982, "lat": -30.77093, "n_items": 0, "area_km2": 0.2, "size_class": "> 5 см", "c_items_km2": 0.0, "ci95_lo": 0.0, "ci95_hi": 18.45, "ci95_method": "точный интервал Пуассона для N, делённый на A", "raw_10cm_items_km2": 0.0, "authors_cal_10cm_items_km2": 0.0, "authors_cal_10cm_lo95": null, "authors_cal_10cm_hi95": null}, {"source": "ADIS (4TU.ResearchData, судовая камера)", "segment_id": 299830, "ship": "Antsiva", "date": "2022-01-26", "days_from_scene": -1559, "distance_km": 1381.8, "lon": 45.36527, "lat": -30.68732, "n_items": 1, "area_km2": 0.1999, "size_class": "> 5 см", "c_items_km2": 5.0, "ci95_lo": 0.13, "ci95_hi": 27.87, "ci95_method": "точный интервал Пуассона для N, делённый на A", "raw_10cm_items_km2": 5.0, "authors_cal_10cm_items_km2": 12.32, "authors_cal_10cm_lo95": 2.17, "authors_cal_10cm_hi95": 70.04}], "nearest_organizer_sample": {"sample_id": "MPL-0922", "source_id": "S4_BLACK_SEA_DOORS3", "distance_km": 7961.8}, "note": "Измерение ≠ оценка: это независимые полевые счёты C = N/A в другое время и в другом месте; со сценой они не связаны и не калибруют её. Ближайший отрезок ADIS — за 1380 км: только для порядка величин."}}}]}