{"type": "FeatureCollection", "features": [{"type": "Feature", "id": "D-SZ-live-manila-2025-01-06-001-43", "geometry": {"type": "Polygon", "coordinates": [[[120.9254243, 14.4952217], [120.9254251, 14.4951313], [120.9256106, 14.4951329], [120.9256098, 14.4952233], [120.9254243, 14.4952217]]]}, "properties": {"kind": "detection", "det_id": "D-SZ-live-manila-2025-01-06-001-43", "zone_id": "SZ-live-manila-2025-01-06-001", "scene_id": "S2B_MSIL2A_20250106T022009_R003_T51PTS_20250106T041630", "datetime": "2025-01-06T02:20:09.024000Z", "n_pixels": 2, "area_m2": 200, "prob_max": 0.9922, "prob_mean": 0.9706, "threshold": 0.63, "in_strip": true, "artifact": null}}, {"type": "Feature", "id": "D-SZ-live-manila-2025-01-06-001-44", "geometry": {"type": "Polygon", "coordinates": [[[120.9283996, 14.4944346], [120.9284004, 14.4943443], [120.9284932, 14.4943451], [120.9284923, 14.4944355], [120.9283996, 14.4944346]]]}, "properties": {"kind": "detection", "det_id": "D-SZ-live-manila-2025-01-06-001-44", "zone_id": "SZ-live-manila-2025-01-06-001", "scene_id": "S2B_MSIL2A_20250106T022009_R003_T51PTS_20250106T041630", "datetime": "2025-01-06T02:20:09.024000Z", "n_pixels": 1, "area_m2": 100, "prob_max": 1.0, "prob_mean": 1.0, "threshold": 0.63, "in_strip": true, "artifact": null}}, {"type": "Feature", "id": "D-SZ-live-manila-2025-01-06-001-45", "geometry": {"type": "Polygon", "coordinates": [[[120.9230231, 14.4941161], [120.923024, 14.4940257], [120.9231167, 14.4940265], [120.9231159, 14.4941169], [120.9230231, 14.4941161]]]}, "properties": {"kind": "detection", "det_id": "D-SZ-live-manila-2025-01-06-001-45", "zone_id": "SZ-live-manila-2025-01-06-001", "scene_id": "S2B_MSIL2A_20250106T022009_R003_T51PTS_20250106T041630", "datetime": "2025-01-06T02:20:09.024000Z", "n_pixels": 1, "area_m2": 100, "prob_max": 1.0, "prob_mean": 1.0, "threshold": 0.63, "in_strip": true, "artifact": null}}, {"type": "Feature", "id": "D-SZ-live-manila-2025-01-06-001-46", "geometry": {"type": "Polygon", "coordinates": [[[120.9266409, 14.4940577], [120.9266425, 14.493877], [120.9267353, 14.4938778], [120.9267336, 14.4940585], [120.9266409, 14.4940577]]]}, "properties": {"kind": "detection", "det_id": "D-SZ-live-manila-2025-01-06-001-46", "zone_id": "SZ-live-manila-2025-01-06-001", "scene_id": "S2B_MSIL2A_20250106T022009_R003_T51PTS_20250106T041630", "datetime": "2025-01-06T02:20:09.024000Z", "n_pixels": 2, "area_m2": 200, "prob_max": 1.0, "prob_mean": 1.0, "threshold": 0.63, "in_strip": true, "artifact": null}}, {"type": "Feature", "id": "D-SZ-live-manila-2025-01-06-001-47", "geometry": {"type": "Polygon", "coordinates": [[[120.9231251, 14.493123], [120.923126, 14.4930326], [120.9232187, 14.4930334], [120.9232179, 14.4931238], [120.9231251, 14.493123]]]}, "properties": {"kind": "detection", "det_id": "D-SZ-live-manila-2025-01-06-001-47", "zone_id": "SZ-live-manila-2025-01-06-001", "scene_id": "S2B_MSIL2A_20250106T022009_R003_T51PTS_20250106T041630", "datetime": "2025-01-06T02:20:09.024000Z", "n_pixels": 1, "area_m2": 100, "prob_max": 0.9922, "prob_mean": 0.9922, "threshold": 0.63, "in_strip": true, "artifact": null}}, {"type": "Feature", "id": "D-SZ-live-manila-2025-01-06-001-48", "geometry": {"type": "Polygon", "coordinates": [[[120.9233198, 14.4921307], [120.9233215, 14.49195], [120.9234143, 14.4919508], [120.9234126, 14.4921315], [120.9233198, 14.4921307]]]}, "properties": {"kind": "detection", "det_id": "D-SZ-live-manila-2025-01-06-001-48", "zone_id": "SZ-live-manila-2025-01-06-001", "scene_id": "S2B_MSIL2A_20250106T022009_R003_T51PTS_20250106T041630", "datetime": "2025-01-06T02:20:09.024000Z", "n_pixels": 2, "area_m2": 200, "prob_max": 1.0, "prob_mean": 0.998, "threshold": 0.63, "in_strip": true, "artifact": null}}, {"type": "Feature", "id": "D-SZ-live-manila-2025-01-06-001-49", "geometry": {"type": "Polygon", "coordinates": [[[120.9238948, 14.4901478], [120.9238956, 14.4900574], [120.9239884, 14.4900582], [120.9239875, 14.4901486], [120.9238948, 14.4901478]]]}, "properties": {"kind": "detection", "det_id": "D-SZ-live-manila-2025-01-06-001-49", "zone_id": "SZ-live-manila-2025-01-06-001", "scene_id": "S2B_MSIL2A_20250106T022009_R003_T51PTS_20250106T041630", "datetime": "2025-01-06T02:20:09.024000Z", "n_pixels": 1, "area_m2": 100, "prob_max": 0.7529, "prob_mean": 0.7529, "threshold": 0.63, "in_strip": true, "artifact": null}}, {"type": "Feature", "id": "D-SZ-live-manila-2025-01-06-001-53", "geometry": {"type": "Polygon", "coordinates": [[[120.9227929, 14.4889633], [120.9227937, 14.4888729], [120.9228864, 14.4888738], [120.9228856, 14.4889641], [120.9227929, 14.4889633]]]}, "properties": {"kind": "detection", "det_id": "D-SZ-live-manila-2025-01-06-001-53", "zone_id": "SZ-live-manila-2025-01-06-001", "scene_id": "S2B_MSIL2A_20250106T022009_R003_T51PTS_20250106T041630", "datetime": "2025-01-06T02:20:09.024000Z", "n_pixels": 1, "area_m2": 100, "prob_max": 0.7922, "prob_mean": 0.7922, "threshold": 0.63, "in_strip": true, "artifact": null}}, {"type": "Feature", "id": "D-SZ-live-manila-2025-01-06-001-55", "geometry": {"type": "Polygon", "coordinates": [[[120.9242893, 14.4876211], [120.9242901, 14.4875307], [120.9243829, 14.4875315], [120.924382, 14.4876219], [120.9242893, 14.4876211]]]}, "properties": {"kind": "detection", "det_id": "D-SZ-live-manila-2025-01-06-001-55", "zone_id": "SZ-live-manila-2025-01-06-001", "scene_id": "S2B_MSIL2A_20250106T022009_R003_T51PTS_20250106T041630", "datetime": "2025-01-06T02:20:09.024000Z", "n_pixels": 1, "area_m2": 100, "prob_max": 0.9961, "prob_mean": 0.9961, "threshold": 0.63, "in_strip": true, "artifact": null}}]}