{"type": "FeatureCollection", "features": [{"type": "Feature", "id": "SZ-live-honduras-2020-08-29-001", "geometry": {"type": "Polygon", "coordinates": [[[-88.161444, 15.905882], [-88.162283, 15.905606], [-88.162746, 15.904971], [-88.162833, 15.903705], [-88.162546, 15.902622], [-88.162823, 15.901988], [-88.162725, 15.901175], [-88.162908, 15.900632], [-88.162246, 15.899099], [-88.161589, 15.89865], [-88.161028, 15.898563], [-88.160189, 15.898838], [-88.159726, 15.899474], [-88.159636, 15.900107], [-88.15992, 15.900738], [-88.159927, 15.901913], [-88.159651, 15.902728], [-88.160029, 15.903539], [-88.159848, 15.904535], [-88.160133, 15.905347], [-88.16079, 15.905795], [-88.161444, 15.905882]]]}, "properties": {"kind": "detection_zone", "layer_kind": "scene_zone", "zone_id": "SZ-live-honduras-2020-08-29-001", "scene_key": "live-honduras-2020-08-29", "scene_kind": "live", "scene_id": "S2B_16PCC_20200829_0_L2A", "region": "honduras", "title": "Гондурасский залив (Омоа – Пуэрто-Кортес – устье Мотагуа) · зона 1", "mission": "Sentinel-2", "datetime": "2020-08-29T16:29:14.777000Z", "detection_status": "insufficient_data", "status": "insufficient_data", "concentration_status": "unavailable", "quantity": {"status": "not_confirmed", "label": "концентрация по снимку не подтверждена", "detail": "перевод площади в штуки не показываем: нет калибровочных пар (см. docs/QUANTITY.md)"}, "verification": "false_alarm_signs", "training_scene": null, "flags": ["ship"], "n_cozar_filaments": 0, "crop_file": "crops/SZ-live-honduras-2020-08-29-001.jpg", "wind_high": false, "measured": {"zone_area_km2": 0.229, "suspicious_area_m2": 2200, "n_pixels": 22, "n_objects": 10, "water_km2": 0.2279, "lwd_m2_km2": 9653.4, "lwd_note": null, "quality": {"valid_water_fraction": 1.0, "cloud_fraction": 0.0, "glint_fraction": 0.0}, "model": {"weights": "weights/lgbm", "file": "weights/lgbm/model.txt", "sha256": "0eeebf43fcccd8c7c07f053b7ec723229d1a3c9b92d12eec1bdb269258c51470", "sha256_short": "0eeebf43fccc", "trained_at": "2026-09-25T01:35:55Z", "threshold": 0.63, "harmonize": "none", "class": "MARIDA Marine Debris (любой плавающий мусор, не только пластик)"}}, "probable": {"prob_max": 1.0, "prob_mean": 0.913, "signs": {"foam": {"flag": false, "white_ratio_b2_b8": 0.202, "wind10m_ms": 2.63, "rule": "прирост B2 над водой ≥ 0.8 прироста B8 («белый» спектр) или ветер ≥ 7.0 м/с"}, "glint": {"flag": false, "b11_water_median": 0.0042, "glint_share": 0.0, "rule": "медиана B11 воды зоны > 0.01 или ≥ 20 % пикселей зоны — блик (маска качества)"}, "ship": {"flag": true, "share": 0.273, "bright_target_px_within_500m": 11, "rule": "≥ 30 % пикселей — у яркой цели или кильватера (reports/artifacts.md) или яркая цель с откликом в SWIR (судно, лодка: B11 ≥ 0,015) ближе 500 м, или малый яркий объект (≤ 40 пикс.) с B11 ≥ 0,01 ближе 500 м (лодка с кильватером)"}, "coast": {"flag": false, "land_px_within_300m": 0, "rule": "суша (маска качества) ближе 300 м — прибой, кромка берега"}, "shallow": {"flag": false, "b3_water_zone": 0.0156, "b3_ratio_to_scene_water": 0.56, "rule": "медиана B3 воды зоны ≥ 2× медианы воды снимка и ≥ 0,03, или B4 воды зоны ≥ 0,02 и (≥ 2× воды снимка или B8 ≥ 0,013) — мелководье, яркое дно, илистая банка"}, "seam": {"flag": false, "share": 0, "rule": "≥ 30 % пикселей — прямая линия вдоль трека/границы яркости (шов)"}, "cloud": {"flag": false, "cloud_fraction": 0.0, "rule": "облака или тени облаков (маска качества) ≥ 20 % зоны"}, "diag": {"dist_land_m": null, "dist_bright_m": 10, "n_bright_px_500m": 37, "b11_bright_max_500m": 0.0523, "b4_water_zone": 0.0083, "b8_water_zone": 0.0067, "b11_det_median": 0.0115, "b8_det_median": 0.0258, "water_scene_b3": 0.028, "water_scene_b4": 0.0141, "n_det_px": 22, "n_obj": 10}, "note": "эвристики, не классификатор; на размеченных данных не проверены"}, "n_cozar_filaments": 0}, "field_nearby": {"items": [{"source": "ADIS (4TU.ResearchData, судовая камера)", "segment_id": 416634, "ship": "RV Pelagia", "date": "2023-12-19", "days_from_scene": 1207, "distance_km": 1740.6, "lon": -75.79339, "lat": 25.94314, "n_items": 0, "area_km2": 0.9676, "size_class": "> 5 см", "c_items_km2": 0.0, "ci95_lo": 0.0, "ci95_hi": 3.81, "ci95_method": "точный интервал Пуассона для N, делённый на A", "raw_10cm_items_km2": 0.0, "authors_cal_10cm_items_km2": 0.0, "authors_cal_10cm_lo95": null, "authors_cal_10cm_hi95": null}, {"source": "ADIS (4TU.ResearchData, судовая камера)", "segment_id": 405468, "ship": "RV Pelagia", "date": "2023-12-19", "days_from_scene": 1207, "distance_km": 1740.7, "lon": -75.79193, "lat": 25.94347, "n_items": 0, "area_km2": 0.72, "size_class": "> 5 см", "c_items_km2": 0.0, "ci95_lo": 0.0, "ci95_hi": 5.12, "ci95_method": "точный интервал Пуассона для N, делённый на A", "raw_10cm_items_km2": 0.0, "authors_cal_10cm_items_km2": 0.0, "authors_cal_10cm_lo95": null, "authors_cal_10cm_hi95": null}, {"source": "ADIS (4TU.ResearchData, судовая камера)", "segment_id": 416633, "ship": "RV Pelagia", "date": "2023-12-19", "days_from_scene": 1207, "distance_km": 1750.1, "lon": -75.70128, "lat": 25.97146, "n_items": 0, "area_km2": 1.015, "size_class": "> 5 см", "c_items_km2": 0.0, "ci95_lo": 0.0, "ci95_hi": 3.63, "ci95_method": "точный интервал Пуассона для N, делённый на A", "raw_10cm_items_km2": 0.0, "authors_cal_10cm_items_km2": 0.0, "authors_cal_10cm_lo95": null, "authors_cal_10cm_hi95": null}], "nearest_organizer_sample": {"sample_id": "MPL-0239", "source_id": "S2_SARGASSO_MSM41", "distance_km": 2169.8}, "note": "Измерение ≠ оценка: это независимые полевые счёты C = N/A в другое время и в другом месте; со сценой они не связаны и не калибруют её. Ближайший отрезок ADIS — за 1741 км: только для порядка величин."}}}, {"type": "Feature", "id": "SZ-live-honduras-2020-08-29-002", "geometry": {"type": "Polygon", "coordinates": [[[-88.194237, 15.891422], [-88.195355, 15.890873], [-88.19563, 15.890058], [-88.195534, 15.889697], [-88.196558, 15.888969], [-88.197111, 15.887881], [-88.1972, 15.887067], [-88.196727, 15.886075], [-88.197285, 15.885711], [-88.197559, 15.884624], [-88.197274, 15.883812], [-88.196899, 15.883453], [-88.197738, 15.883268], [-88.198387, 15.88245], [-88.198845, 15.880911], [-88.199587, 15.880094], [-88.199582, 15.87928], [-88.199768, 15.879098], [-88.200422, 15.879185], [-88.201261, 15.878909], [-88.20349, 15.876728], [-88.203863, 15.876635], [-88.204326, 15.876], [-88.205354, 15.876085], [-88.206192, 15.875809], [-88.206746, 15.874721], [-88.20665, 15.874179], [-88.206179, 15.873549], [-88.204495, 15.873016], [-88.203189, 15.873295], [-88.202167, 15.874114], [-88.201797, 15.874839], [-88.200867, 15.875386], [-88.199288, 15.876932], [-88.198168, 15.876938], [-88.197516, 15.877394], [-88.197336, 15.878479], [-88.196872, 15.879024], [-88.196783, 15.879748], [-88.196318, 15.880021], [-88.19595, 15.881018], [-88.195394, 15.881654], [-88.195399, 15.882648], [-88.196057, 15.883367], [-88.195218, 15.883553], [-88.194755, 15.884188], [-88.194762, 15.885363], [-88.195139, 15.885903], [-88.19458, 15.886268], [-88.194305, 15.887173], [-88.192727, 15.888719], [-88.192735, 15.890074], [-88.19302, 15.890886], [-88.193676, 15.891335], [-88.194237, 15.891422]]]}, "properties": {"kind": "detection_zone", "layer_kind": "scene_zone", "zone_id": "SZ-live-honduras-2020-08-29-002", "scene_key": "live-honduras-2020-08-29", "scene_kind": "live", "scene_id": "S2B_16PCC_20200829_0_L2A", "region": "honduras", "title": "Гондурасский залив (Омоа – Пуэрто-Кортес – устье Мотагуа) · зона 2", "mission": "Sentinel-2", "datetime": "2020-08-29T16:29:14.777000Z", "detection_status": "insufficient_data", "status": "insufficient_data", "concentration_status": "unavailable", "quantity": {"status": "not_confirmed", "label": "концентрация по снимку не подтверждена", "detail": "перевод площади в штуки не показываем: нет калибровочных пар (см. docs/QUANTITY.md)"}, "verification": "false_alarm_signs", "training_scene": null, "flags": ["ship"], "n_cozar_filaments": 0, "crop_file": "crops/SZ-live-honduras-2020-08-29-002.jpg", "wind_high": false, "measured": {"zone_area_km2": 0.7263, "suspicious_area_m2": 5100, "n_pixels": 51, "n_objects": 24, "water_km2": 0.7311, "lwd_m2_km2": 6975.8, "lwd_note": null, "quality": {"valid_water_fraction": 1.0, "cloud_fraction": 0.0, "glint_fraction": 0.0}, "model": {"weights": "weights/lgbm", "file": "weights/lgbm/model.txt", "sha256": "0eeebf43fcccd8c7c07f053b7ec723229d1a3c9b92d12eec1bdb269258c51470", "sha256_short": "0eeebf43fccc", "trained_at": "2026-09-25T01:35:55Z", "threshold": 0.63, "harmonize": "none", "class": "MARIDA Marine Debris (любой плавающий мусор, не только пластик)"}}, "probable": {"prob_max": 1.0, "prob_mean": 0.895, "signs": {"foam": {"flag": false, "white_ratio_b2_b8": 0.437, "wind10m_ms": 2.63, "rule": "прирост B2 над водой ≥ 0.8 прироста B8 («белый» спектр) или ветер ≥ 7.0 м/с"}, "glint": {"flag": false, "b11_water_median": 0.0045, "glint_share": 0.0, "rule": "медиана B11 воды зоны > 0.01 или ≥ 20 % пикселей зоны — блик (маска качества)"}, "ship": {"flag": true, "share": 0.216, "bright_target_px_within_500m": 2, "rule": "≥ 30 % пикселей — у яркой цели или кильватера (reports/artifacts.md) или яркая цель с откликом в SWIR (судно, лодка: B11 ≥ 0,015) ближе 500 м, или малый яркий объект (≤ 40 пикс.) с B11 ≥ 0,01 ближе 500 м (лодка с кильватером)"}, "coast": {"flag": false, "land_px_within_300m": 0, "rule": "суша (маска качества) ближе 300 м — прибой, кромка берега"}, "shallow": {"flag": false, "b3_water_zone": 0.0228, "b3_ratio_to_scene_water": 0.81, "rule": "медиана B3 воды зоны ≥ 2× медианы воды снимка и ≥ 0,03, или B4 воды зоны ≥ 0,02 и (≥ 2× воды снимка или B8 ≥ 0,013) — мелководье, яркое дно, илистая банка"}, "seam": {"flag": false, "share": 0, "rule": "≥ 30 % пикселей — прямая линия вдоль трека/границы яркости (шов)"}, "cloud": {"flag": false, "cloud_fraction": 0.0, "rule": "облака или тени облаков (маска качества) ≥ 20 % зоны"}, "diag": {"dist_land_m": null, "dist_bright_m": 10, "n_bright_px_500m": 6, "b11_bright_max_500m": 0.0246, "b4_water_zone": 0.0124, "b8_water_zone": 0.0076, "b11_det_median": 0.0141, "b8_det_median": 0.0337, "water_scene_b3": 0.028, "water_scene_b4": 0.0141, "n_det_px": 51, "n_obj": 24}, "note": "эвристики, не классификатор; на размеченных данных не проверены"}, "n_cozar_filaments": 0}, "field_nearby": {"items": [{"source": "ADIS (4TU.ResearchData, судовая камера)", "segment_id": 416634, "ship": "RV Pelagia", "date": "2023-12-19", "days_from_scene": 1207, "distance_km": 1740.6, "lon": -75.79339, "lat": 25.94314, "n_items": 0, "area_km2": 0.9676, "size_class": "> 5 см", "c_items_km2": 0.0, "ci95_lo": 0.0, "ci95_hi": 3.81, "ci95_method": "точный интервал Пуассона для N, делённый на A", "raw_10cm_items_km2": 0.0, "authors_cal_10cm_items_km2": 0.0, "authors_cal_10cm_lo95": null, "authors_cal_10cm_hi95": null}, {"source": "ADIS (4TU.ResearchData, судовая камера)", "segment_id": 405468, "ship": "RV Pelagia", "date": "2023-12-19", "days_from_scene": 1207, "distance_km": 1740.7, "lon": -75.79193, "lat": 25.94347, "n_items": 0, "area_km2": 0.72, "size_class": "> 5 см", "c_items_km2": 0.0, "ci95_lo": 0.0, "ci95_hi": 5.12, "ci95_method": "точный интервал Пуассона для N, делённый на A", "raw_10cm_items_km2": 0.0, "authors_cal_10cm_items_km2": 0.0, "authors_cal_10cm_lo95": null, "authors_cal_10cm_hi95": null}, {"source": "ADIS (4TU.ResearchData, судовая камера)", "segment_id": 416633, "ship": "RV Pelagia", "date": "2023-12-19", "days_from_scene": 1207, "distance_km": 1750.1, "lon": -75.70128, "lat": 25.97146, "n_items": 0, "area_km2": 1.015, "size_class": "> 5 см", "c_items_km2": 0.0, "ci95_lo": 0.0, "ci95_hi": 3.63, "ci95_method": "точный интервал Пуассона для N, делённый на A", "raw_10cm_items_km2": 0.0, "authors_cal_10cm_items_km2": 0.0, "authors_cal_10cm_lo95": null, "authors_cal_10cm_hi95": null}], "nearest_organizer_sample": {"sample_id": "MPL-0239", "source_id": "S2_SARGASSO_MSM41", "distance_km": 2169.8}, "note": "Измерение ≠ оценка: это независимые полевые счёты C = N/A в другое время и в другом месте; со сценой они не связаны и не калибруют её. Ближайший отрезок ADIS — за 1741 км: только для порядка величин."}}}, {"type": "Feature", "id": "SZ-live-honduras-2020-08-29-003", "geometry": {"type": "Polygon", "coordinates": [[[-88.164546, 15.87685], [-88.165664, 15.876302], [-88.167326, 15.873039], [-88.16732, 15.872045], [-88.166381, 15.871146], [-88.165074, 15.871153], [-88.164423, 15.871608], [-88.164147, 15.872423], [-88.164244, 15.872965], [-88.163134, 15.87496], [-88.163044, 15.875503], [-88.163329, 15.876315], [-88.163985, 15.876763], [-88.164546, 15.87685]]]}, "properties": {"kind": "detection_zone", "layer_kind": "scene_zone", "zone_id": "SZ-live-honduras-2020-08-29-003", "scene_key": "live-honduras-2020-08-29", "scene_kind": "live", "scene_id": "S2B_16PCC_20200829_0_L2A", "region": "honduras", "title": "Гондурасский залив (Омоа – Пуэрто-Кортес – устье Мотагуа) · зона 3", "mission": "Sentinel-2", "datetime": "2020-08-29T16:29:14.777000Z", "detection_status": "insufficient_data", "status": "insufficient_data", "concentration_status": "unavailable", "quantity": {"status": "not_confirmed", "label": "концентрация по снимку не подтверждена", "detail": "перевод площади в штуки не показываем: нет калибровочных пар (см. docs/QUANTITY.md)"}, "verification": "false_alarm_signs", "training_scene": null, "flags": ["ship"], "n_cozar_filaments": 0, "crop_file": "crops/SZ-live-honduras-2020-08-29-003.jpg", "wind_high": false, "measured": {"zone_area_km2": 0.1876, "suspicious_area_m2": 1700, "n_pixels": 17, "n_objects": 9, "water_km2": 0.1875, "lwd_m2_km2": 9066.7, "lwd_note": null, "quality": {"valid_water_fraction": 1.0, "cloud_fraction": 0.0, "glint_fraction": 0.0}, "model": {"weights": "weights/lgbm", "file": "weights/lgbm/model.txt", "sha256": "0eeebf43fcccd8c7c07f053b7ec723229d1a3c9b92d12eec1bdb269258c51470", "sha256_short": "0eeebf43fccc", "trained_at": "2026-09-25T01:35:55Z", "threshold": 0.63, "harmonize": "none", "class": "MARIDA Marine Debris (любой плавающий мусор, не только пластик)"}}, "probable": {"prob_max": 0.984, "prob_mean": 0.795, "signs": {"foam": {"flag": false, "white_ratio_b2_b8": 0.316, "wind10m_ms": 2.63, "rule": "прирост B2 над водой ≥ 0.8 прироста B8 («белый» спектр) или ветер ≥ 7.0 м/с"}, "glint": {"flag": false, "b11_water_median": 0.0045, "glint_share": 0.0, "rule": "медиана B11 воды зоны > 0.01 или ≥ 20 % пикселей зоны — блик (маска качества)"}, "ship": {"flag": true, "share": 0.588, "bright_target_px_within_500m": 27, "rule": "≥ 30 % пикселей — у яркой цели или кильватера (reports/artifacts.md) или яркая цель с откликом в SWIR (судно, лодка: B11 ≥ 0,015) ближе 500 м, или малый яркий объект (≤ 40 пикс.) с B11 ≥ 0,01 ближе 500 м (лодка с кильватером)"}, "coast": {"flag": false, "land_px_within_300m": 0, "rule": "суша (маска качества) ближе 300 м — прибой, кромка берега"}, "shallow": {"flag": false, "b3_water_zone": 0.0169, "b3_ratio_to_scene_water": 0.6, "rule": "медиана B3 воды зоны ≥ 2× медианы воды снимка и ≥ 0,03, или B4 воды зоны ≥ 0,02 и (≥ 2× воды снимка или B8 ≥ 0,013) — мелководье, яркое дно, илистая банка"}, "seam": {"flag": false, "share": 0, "rule": "≥ 30 % пикселей — прямая линия вдоль трека/границы яркости (шов)"}, "cloud": {"flag": false, "cloud_fraction": 0.0, "rule": "облака или тени облаков (маска качества) ≥ 20 % зоны"}, "diag": {"dist_land_m": null, "dist_bright_m": 10, "n_bright_px_500m": 8, "b11_bright_max_500m": 0.0355, "b4_water_zone": 0.0092, "b8_water_zone": 0.007, "b11_det_median": 0.0163, "b8_det_median": 0.0358, "water_scene_b3": 0.028, "water_scene_b4": 0.0141, "n_det_px": 17, "n_obj": 9}, "note": "эвристики, не классификатор; на размеченных данных не проверены"}, "n_cozar_filaments": 0}, "field_nearby": {"items": [{"source": "ADIS (4TU.ResearchData, судовая камера)", "segment_id": 416634, "ship": "RV Pelagia", "date": "2023-12-19", "days_from_scene": 1207, "distance_km": 1740.6, "lon": -75.79339, "lat": 25.94314, "n_items": 0, "area_km2": 0.9676, "size_class": "> 5 см", "c_items_km2": 0.0, "ci95_lo": 0.0, "ci95_hi": 3.81, "ci95_method": "точный интервал Пуассона для N, делённый на A", "raw_10cm_items_km2": 0.0, "authors_cal_10cm_items_km2": 0.0, "authors_cal_10cm_lo95": null, "authors_cal_10cm_hi95": null}, {"source": "ADIS (4TU.ResearchData, судовая камера)", "segment_id": 405468, "ship": "RV Pelagia", "date": "2023-12-19", "days_from_scene": 1207, "distance_km": 1740.7, "lon": -75.79193, "lat": 25.94347, "n_items": 0, "area_km2": 0.72, "size_class": "> 5 см", "c_items_km2": 0.0, "ci95_lo": 0.0, "ci95_hi": 5.12, "ci95_method": "точный интервал Пуассона для N, делённый на A", "raw_10cm_items_km2": 0.0, "authors_cal_10cm_items_km2": 0.0, "authors_cal_10cm_lo95": null, "authors_cal_10cm_hi95": null}, {"source": "ADIS (4TU.ResearchData, судовая камера)", "segment_id": 416633, "ship": "RV Pelagia", "date": "2023-12-19", "days_from_scene": 1207, "distance_km": 1750.1, "lon": -75.70128, "lat": 25.97146, "n_items": 0, "area_km2": 1.015, "size_class": "> 5 см", "c_items_km2": 0.0, "ci95_lo": 0.0, "ci95_hi": 3.63, "ci95_method": "точный интервал Пуассона для N, делённый на A", "raw_10cm_items_km2": 0.0, "authors_cal_10cm_items_km2": 0.0, "authors_cal_10cm_lo95": null, "authors_cal_10cm_hi95": null}], "nearest_organizer_sample": {"sample_id": "MPL-0239", "source_id": "S2_SARGASSO_MSM41", "distance_km": 2169.8}, "note": "Измерение ≠ оценка: это независимые полевые счёты C = N/A в другое время и в другом месте; со сценой они не связаны и не калибруют её. Ближайший отрезок ADIS — за 1741 км: только для порядка величин."}}}, {"type": "Feature", "id": "SZ-live-honduras-2020-08-29-004", "geometry": {"type": "Polygon", "coordinates": [[[-88.216719, 15.871411], [-88.218117, 15.870861], [-88.21858, 15.870226], [-88.218573, 15.869141], [-88.217728, 15.868332], [-88.216701, 15.868338], [-88.215863, 15.868795], [-88.215307, 15.869521], [-88.215217, 15.870064], [-88.215502, 15.870876], [-88.216158, 15.871324], [-88.216719, 15.871411]]]}, "properties": {"kind": "detection_zone", "layer_kind": "scene_zone", "zone_id": "SZ-live-honduras-2020-08-29-004", "scene_key": "live-honduras-2020-08-29", "scene_kind": "live", "scene_id": "S2B_16PCC_20200829_0_L2A", "region": "honduras", "title": "Гондурасский залив (Омоа – Пуэрто-Кортес – устье Мотагуа) · зона 4", "mission": "Sentinel-2", "datetime": "2020-08-29T16:29:14.777000Z", "detection_status": "detected", "status": "detected", "concentration_status": "unavailable", "quantity": {"status": "not_confirmed", "label": "концентрация по снимку не подтверждена", "detail": "перевод площади в штуки не показываем: нет калибровочных пар (см. docs/QUANTITY.md)"}, "verification": "unverified", "training_scene": null, "flags": [], "n_cozar_filaments": 0, "crop_file": "crops/SZ-live-honduras-2020-08-29-004.jpg", "wind_high": false, "measured": {"zone_area_km2": 0.094, "suspicious_area_m2": 800, "n_pixels": 8, "n_objects": 1, "water_km2": 0.0938, "lwd_m2_km2": 8528.8, "lwd_note": null, "quality": {"valid_water_fraction": 1.0, "cloud_fraction": 0.0, "glint_fraction": 0.0}, "model": {"weights": "weights/lgbm", "file": "weights/lgbm/model.txt", "sha256": "0eeebf43fcccd8c7c07f053b7ec723229d1a3c9b92d12eec1bdb269258c51470", "sha256_short": "0eeebf43fccc", "trained_at": "2026-09-25T01:35:55Z", "threshold": 0.63, "harmonize": "none", "class": "MARIDA Marine Debris (любой плавающий мусор, не только пластик)"}}, "probable": {"prob_max": 0.976, "prob_mean": 0.834, "signs": {"foam": {"flag": false, "white_ratio_b2_b8": 0.406, "wind10m_ms": 2.63, "rule": "прирост B2 над водой ≥ 0.8 прироста B8 («белый» спектр) или ветер ≥ 7.0 м/с"}, "glint": {"flag": false, "b11_water_median": 0.0044, "glint_share": 0.0, "rule": "медиана B11 воды зоны > 0.01 или ≥ 20 % пикселей зоны — блик (маска качества)"}, "ship": {"flag": false, "share": 0, "bright_target_px_within_500m": 0, "rule": "≥ 30 % пикселей — у яркой цели или кильватера (reports/artifacts.md) или яркая цель с откликом в SWIR (судно, лодка: B11 ≥ 0,015) ближе 500 м, или малый яркий объект (≤ 40 пикс.) с B11 ≥ 0,01 ближе 500 м (лодка с кильватером)"}, "coast": {"flag": false, "land_px_within_300m": 0, "rule": "суша (маска качества) ближе 300 м — прибой, кромка берега"}, "shallow": {"flag": false, "b3_water_zone": 0.0278, "b3_ratio_to_scene_water": 0.99, "rule": "медиана B3 воды зоны ≥ 2× медианы воды снимка и ≥ 0,03, или B4 воды зоны ≥ 0,02 и (≥ 2× воды снимка или B8 ≥ 0,013) — мелководье, яркое дно, илистая банка"}, "seam": {"flag": false, "share": 0, "rule": "≥ 30 % пикселей — прямая линия вдоль трека/границы яркости (шов)"}, "cloud": {"flag": false, "cloud_fraction": 0.0, "rule": "облака или тени облаков (маска качества) ≥ 20 % зоны"}, "diag": {"dist_land_m": null, "dist_bright_m": null, "n_bright_px_500m": 0, "b11_bright_max_500m": null, "b4_water_zone": 0.0154, "b8_water_zone": 0.008, "b11_det_median": 0.0141, "b8_det_median": 0.0315, "water_scene_b3": 0.028, "water_scene_b4": 0.0141, "n_det_px": 8, "n_obj": 1}, "note": "эвристики, не классификатор; на размеченных данных не проверены"}, "n_cozar_filaments": 0}, "field_nearby": {"items": [{"source": "ADIS (4TU.ResearchData, судовая камера)", "segment_id": 416634, "ship": "RV Pelagia", "date": "2023-12-19", "days_from_scene": 1207, "distance_km": 1740.6, "lon": -75.79339, "lat": 25.94314, "n_items": 0, "area_km2": 0.9676, "size_class": "> 5 см", "c_items_km2": 0.0, "ci95_lo": 0.0, "ci95_hi": 3.81, "ci95_method": "точный интервал Пуассона для N, делённый на A", "raw_10cm_items_km2": 0.0, "authors_cal_10cm_items_km2": 0.0, "authors_cal_10cm_lo95": null, "authors_cal_10cm_hi95": null}, {"source": "ADIS (4TU.ResearchData, судовая камера)", "segment_id": 405468, "ship": "RV Pelagia", "date": "2023-12-19", "days_from_scene": 1207, "distance_km": 1740.7, "lon": -75.79193, "lat": 25.94347, "n_items": 0, "area_km2": 0.72, "size_class": "> 5 см", "c_items_km2": 0.0, "ci95_lo": 0.0, "ci95_hi": 5.12, "ci95_method": "точный интервал Пуассона для N, делённый на A", "raw_10cm_items_km2": 0.0, "authors_cal_10cm_items_km2": 0.0, "authors_cal_10cm_lo95": null, "authors_cal_10cm_hi95": null}, {"source": "ADIS (4TU.ResearchData, судовая камера)", "segment_id": 416633, "ship": "RV Pelagia", "date": "2023-12-19", "days_from_scene": 1207, "distance_km": 1750.1, "lon": -75.70128, "lat": 25.97146, "n_items": 0, "area_km2": 1.015, "size_class": "> 5 см", "c_items_km2": 0.0, "ci95_lo": 0.0, "ci95_hi": 3.63, "ci95_method": "точный интервал Пуассона для N, делённый на A", "raw_10cm_items_km2": 0.0, "authors_cal_10cm_items_km2": 0.0, "authors_cal_10cm_lo95": null, "authors_cal_10cm_hi95": null}], "nearest_organizer_sample": {"sample_id": "MPL-0239", "source_id": "S2_SARGASSO_MSM41", "distance_km": 2169.8}, "note": "Измерение ≠ оценка: это независимые полевые счёты C = N/A в другое время и в другом месте; со сценой они не связаны и не калибруют её. Ближайший отрезок ADIS — за 1741 км: только для порядка величин."}}}, {"type": "Feature", "id": "SZ-live-honduras-2020-08-29-005", "geometry": {"type": "Polygon", "coordinates": [[[-88.152132, 15.861731], [-88.152971, 15.861456], [-88.153435, 15.860821], [-88.153433, 15.860459], [-88.1539, 15.860457], [-88.154551, 15.860001], [-88.154826, 15.859186], [-88.154729, 15.858554], [-88.153884, 15.857745], [-88.153323, 15.857658], [-88.152578, 15.857933], [-88.152573, 15.857119], [-88.152103, 15.856489], [-88.150979, 15.855953], [-88.149952, 15.855958], [-88.149116, 15.856776], [-88.149122, 15.857861], [-88.149593, 15.858491], [-88.150716, 15.859027], [-88.151557, 15.859023], [-88.150906, 15.859478], [-88.150631, 15.860384], [-88.151197, 15.861465], [-88.152132, 15.861731]], [[-88.152024, 15.85902], [-88.151744, 15.859022], [-88.151743, 15.858931], [-88.152023, 15.85884], [-88.152024, 15.85902]]]}, "properties": {"kind": "detection_zone", "layer_kind": "scene_zone", "zone_id": "SZ-live-honduras-2020-08-29-005", "scene_key": "live-honduras-2020-08-29", "scene_kind": "live", "scene_id": "S2B_16PCC_20200829_0_L2A", "region": "honduras", "title": "Гондурасский залив (Омоа – Пуэрто-Кортес – устье Мотагуа) · зона 5", "mission": "Sentinel-2", "datetime": "2020-08-29T16:29:14.777000Z", "detection_status": "insufficient_data", "status": "insufficient_data", "concentration_status": "unavailable", "quantity": {"status": "not_confirmed", "label": "концентрация по снимку не подтверждена", "detail": "перевод площади в штуки не показываем: нет калибровочных пар (см. docs/QUANTITY.md)"}, "verification": "false_alarm_signs", "training_scene": null, "flags": ["ship"], "n_cozar_filaments": 0, "crop_file": "crops/SZ-live-honduras-2020-08-29-005.jpg", "wind_high": false, "measured": {"zone_area_km2": 0.226, "suspicious_area_m2": 700, "n_pixels": 7, "n_objects": 4, "water_km2": 0.2262, "lwd_m2_km2": 3094.6, "lwd_note": null, "quality": {"valid_water_fraction": 1.0, "cloud_fraction": 0.0, "glint_fraction": 0.0}, "model": {"weights": "weights/lgbm", "file": "weights/lgbm/model.txt", "sha256": "0eeebf43fcccd8c7c07f053b7ec723229d1a3c9b92d12eec1bdb269258c51470", "sha256_short": "0eeebf43fccc", "trained_at": "2026-09-25T01:35:55Z", "threshold": 0.63, "harmonize": "none", "class": "MARIDA Marine Debris (любой плавающий мусор, не только пластик)"}}, "probable": {"prob_max": 0.996, "prob_mean": 0.975, "signs": {"foam": {"flag": false, "white_ratio_b2_b8": 0.04, "wind10m_ms": 2.63, "rule": "прирост B2 над водой ≥ 0.8 прироста B8 («белый» спектр) или ветер ≥ 7.0 м/с"}, "glint": {"flag": false, "b11_water_median": 0.005, "glint_share": 0.0, "rule": "медиана B11 воды зоны > 0.01 или ≥ 20 % пикселей зоны — блик (маска качества)"}, "ship": {"flag": true, "share": 0, "bright_target_px_within_500m": 24, "rule": "≥ 30 % пикселей — у яркой цели или кильватера (reports/artifacts.md) или яркая цель с откликом в SWIR (судно, лодка: B11 ≥ 0,015) ближе 500 м, или малый яркий объект (≤ 40 пикс.) с B11 ≥ 0,01 ближе 500 м (лодка с кильватером)"}, "coast": {"flag": false, "land_px_within_300m": 0, "rule": "суша (маска качества) ближе 300 м — прибой, кромка берега"}, "shallow": {"flag": false, "b3_water_zone": 0.018, "b3_ratio_to_scene_water": 0.64, "rule": "медиана B3 воды зоны ≥ 2× медианы воды снимка и ≥ 0,03, или B4 воды зоны ≥ 0,02 и (≥ 2× воды снимка или B8 ≥ 0,013) — мелководье, яркое дно, илистая банка"}, "seam": {"flag": false, "share": 0, "rule": "≥ 30 % пикселей — прямая линия вдоль трека/границы яркости (шов)"}, "cloud": {"flag": false, "cloud_fraction": 0.0, "rule": "облака или тени облаков (маска качества) ≥ 20 % зоны"}, "diag": {"dist_land_m": null, "dist_bright_m": 258, "n_bright_px_500m": 41, "b11_bright_max_500m": 0.0665, "b4_water_zone": 0.0097, "b8_water_zone": 0.0075, "b11_det_median": 0.0134, "b8_det_median": 0.0269, "water_scene_b3": 0.028, "water_scene_b4": 0.0141, "n_det_px": 7, "n_obj": 4}, "note": "эвристики, не классификатор; на размеченных данных не проверены"}, "n_cozar_filaments": 0}, "field_nearby": {"items": [{"source": "ADIS (4TU.ResearchData, судовая камера)", "segment_id": 416634, "ship": "RV Pelagia", "date": "2023-12-19", "days_from_scene": 1207, "distance_km": 1740.6, "lon": -75.79339, "lat": 25.94314, "n_items": 0, "area_km2": 0.9676, "size_class": "> 5 см", "c_items_km2": 0.0, "ci95_lo": 0.0, "ci95_hi": 3.81, "ci95_method": "точный интервал Пуассона для N, делённый на A", "raw_10cm_items_km2": 0.0, "authors_cal_10cm_items_km2": 0.0, "authors_cal_10cm_lo95": null, "authors_cal_10cm_hi95": null}, {"source": "ADIS (4TU.ResearchData, судовая камера)", "segment_id": 405468, "ship": "RV Pelagia", "date": "2023-12-19", "days_from_scene": 1207, "distance_km": 1740.7, "lon": -75.79193, "lat": 25.94347, "n_items": 0, "area_km2": 0.72, "size_class": "> 5 см", "c_items_km2": 0.0, "ci95_lo": 0.0, "ci95_hi": 5.12, "ci95_method": "точный интервал Пуассона для N, делённый на A", "raw_10cm_items_km2": 0.0, "authors_cal_10cm_items_km2": 0.0, "authors_cal_10cm_lo95": null, "authors_cal_10cm_hi95": null}, {"source": "ADIS (4TU.ResearchData, судовая камера)", "segment_id": 416633, "ship": "RV Pelagia", "date": "2023-12-19", "days_from_scene": 1207, "distance_km": 1750.1, "lon": -75.70128, "lat": 25.97146, "n_items": 0, "area_km2": 1.015, "size_class": "> 5 см", "c_items_km2": 0.0, "ci95_lo": 0.0, "ci95_hi": 3.63, "ci95_method": "точный интервал Пуассона для N, делённый на A", "raw_10cm_items_km2": 0.0, "authors_cal_10cm_items_km2": 0.0, "authors_cal_10cm_lo95": null, "authors_cal_10cm_hi95": null}], "nearest_organizer_sample": {"sample_id": "MPL-0239", "source_id": "S2_SARGASSO_MSM41", "distance_km": 2169.8}, "note": "Измерение ≠ оценка: это независимые полевые счёты C = N/A в другое время и в другом месте; со сценой они не связаны и не калибруют её. Ближайший отрезок ADIS — за 1741 км: только для порядка величин."}}}, {"type": "Feature", "id": "SZ-live-honduras-2020-08-29-006", "geometry": {"type": "Polygon", "coordinates": [[[-88.159413, 15.86106], [-88.161653, 15.860957], [-88.162397, 15.860411], [-88.162672, 15.859506], [-88.162106, 15.858424], [-88.160796, 15.85807], [-88.160144, 15.858344], [-88.159397, 15.858348], [-88.158746, 15.858804], [-88.158471, 15.859619], [-88.158756, 15.860611], [-88.159413, 15.86106]]]}, "properties": {"kind": "detection_zone", "layer_kind": "scene_zone", "zone_id": "SZ-live-honduras-2020-08-29-006", "scene_key": "live-honduras-2020-08-29", "scene_kind": "live", "scene_id": "S2B_16PCC_20200829_0_L2A", "region": "honduras", "title": "Гондурасский залив (Омоа – Пуэрто-Кортес – устье Мотагуа) · зона 6", "mission": "Sentinel-2", "datetime": "2020-08-29T16:29:14.777000Z", "detection_status": "insufficient_data", "status": "insufficient_data", "concentration_status": "unavailable", "quantity": {"status": "not_confirmed", "label": "концентрация по снимку не подтверждена", "detail": "перевод площади в штуки не показываем: нет калибровочных пар (см. docs/QUANTITY.md)"}, "verification": "false_alarm_signs", "training_scene": null, "flags": ["ship"], "n_cozar_filaments": 0, "crop_file": "crops/SZ-live-honduras-2020-08-29-006.jpg", "wind_high": false, "measured": {"zone_area_km2": 0.1158, "suspicious_area_m2": 1100, "n_pixels": 11, "n_objects": 3, "water_km2": 0.1172, "lwd_m2_km2": 9385.7, "lwd_note": null, "quality": {"valid_water_fraction": 1.0, "cloud_fraction": 0.0, "glint_fraction": 0.0}, "model": {"weights": "weights/lgbm", "file": "weights/lgbm/model.txt", "sha256": "0eeebf43fcccd8c7c07f053b7ec723229d1a3c9b92d12eec1bdb269258c51470", "sha256_short": "0eeebf43fccc", "trained_at": "2026-09-25T01:35:55Z", "threshold": 0.63, "harmonize": "none", "class": "MARIDA Marine Debris (любой плавающий мусор, не только пластик)"}}, "probable": {"prob_max": 1.0, "prob_mean": 0.927, "signs": {"foam": {"flag": false, "white_ratio_b2_b8": 0.195, "wind10m_ms": 2.63, "rule": "прирост B2 над водой ≥ 0.8 прироста B8 («белый» спектр) или ветер ≥ 7.0 м/с"}, "glint": {"flag": false, "b11_water_median": 0.0046, "glint_share": 0.0, "rule": "медиана B11 воды зоны > 0.01 или ≥ 20 % пикселей зоны — блик (маска качества)"}, "ship": {"flag": true, "share": 0, "bright_target_px_within_500m": 0, "rule": "≥ 30 % пикселей — у яркой цели или кильватера (reports/artifacts.md) или яркая цель с откликом в SWIR (судно, лодка: B11 ≥ 0,015) ближе 500 м, или малый яркий объект (≤ 40 пикс.) с B11 ≥ 0,01 ближе 500 м (лодка с кильватером)"}, "coast": {"flag": false, "land_px_within_300m": 0, "rule": "суша (маска качества) ближе 300 м — прибой, кромка берега"}, "shallow": {"flag": false, "b3_water_zone": 0.0181, "b3_ratio_to_scene_water": 0.65, "rule": "медиана B3 воды зоны ≥ 2× медианы воды снимка и ≥ 0,03, или B4 воды зоны ≥ 0,02 и (≥ 2× воды снимка или B8 ≥ 0,013) — мелководье, яркое дно, илистая банка"}, "seam": {"flag": false, "share": 0, "rule": "≥ 30 % пикселей — прямая линия вдоль трека/границы яркости (шов)"}, "cloud": {"flag": false, "cloud_fraction": 0.0, "rule": "облака или тени облаков (маска качества) ≥ 20 % зоны"}, "diag": {"dist_land_m": null, "dist_bright_m": 10, "n_bright_px_500m": 1, "b11_bright_max_500m": 0.0221, "b4_water_zone": 0.0098, "b8_water_zone": 0.0072, "b11_det_median": 0.0161, "b8_det_median": 0.0297, "water_scene_b3": 0.028, "water_scene_b4": 0.0141, "n_det_px": 11, "n_obj": 3}, "note": "эвристики, не классификатор; на размеченных данных не проверены"}, "n_cozar_filaments": 0}, "field_nearby": {"items": [{"source": "ADIS (4TU.ResearchData, судовая камера)", "segment_id": 416634, "ship": "RV Pelagia", "date": "2023-12-19", "days_from_scene": 1207, "distance_km": 1740.6, "lon": -75.79339, "lat": 25.94314, "n_items": 0, "area_km2": 0.9676, "size_class": "> 5 см", "c_items_km2": 0.0, "ci95_lo": 0.0, "ci95_hi": 3.81, "ci95_method": "точный интервал Пуассона для N, делённый на A", "raw_10cm_items_km2": 0.0, "authors_cal_10cm_items_km2": 0.0, "authors_cal_10cm_lo95": null, "authors_cal_10cm_hi95": null}, {"source": "ADIS (4TU.ResearchData, судовая камера)", "segment_id": 405468, "ship": "RV Pelagia", "date": "2023-12-19", "days_from_scene": 1207, "distance_km": 1740.7, "lon": -75.79193, "lat": 25.94347, "n_items": 0, "area_km2": 0.72, "size_class": "> 5 см", "c_items_km2": 0.0, "ci95_lo": 0.0, "ci95_hi": 5.12, "ci95_method": "точный интервал Пуассона для N, делённый на A", "raw_10cm_items_km2": 0.0, "authors_cal_10cm_items_km2": 0.0, "authors_cal_10cm_lo95": null, "authors_cal_10cm_hi95": null}, {"source": "ADIS (4TU.ResearchData, судовая камера)", "segment_id": 416633, "ship": "RV Pelagia", "date": "2023-12-19", "days_from_scene": 1207, "distance_km": 1750.1, "lon": -75.70128, "lat": 25.97146, "n_items": 0, "area_km2": 1.015, "size_class": "> 5 см", "c_items_km2": 0.0, "ci95_lo": 0.0, "ci95_hi": 3.63, "ci95_method": "точный интервал Пуассона для N, делённый на A", "raw_10cm_items_km2": 0.0, "authors_cal_10cm_items_km2": 0.0, "authors_cal_10cm_lo95": null, "authors_cal_10cm_hi95": null}], "nearest_organizer_sample": {"sample_id": "MPL-0239", "source_id": "S2_SARGASSO_MSM41", "distance_km": 2169.8}, "note": "Измерение ≠ оценка: это независимые полевые счёты C = N/A в другое время и в другом месте; со сценой они не связаны и не калибруют её. Ближайший отрезок ADIS — за 1741 км: только для порядка величин."}}}, {"type": "Feature", "id": "SZ-live-honduras-2020-08-29-007", "geometry": {"type": "Polygon", "coordinates": [[[-88.152685, 15.843831], [-88.153802, 15.843283], [-88.154077, 15.842468], [-88.153981, 15.841926], [-88.153042, 15.841027], [-88.151641, 15.840944], [-88.150805, 15.841762], [-88.150811, 15.842847], [-88.151376, 15.843567], [-88.152685, 15.843831]]]}, "properties": {"kind": "detection_zone", "layer_kind": "scene_zone", "zone_id": "SZ-live-honduras-2020-08-29-007", "scene_key": "live-honduras-2020-08-29", "scene_kind": "live", "scene_id": "S2B_16PCC_20200829_0_L2A", "region": "honduras", "title": "Гондурасский залив (Омоа – Пуэрто-Кортес – устье Мотагуа) · зона 7", "mission": "Sentinel-2", "datetime": "2020-08-29T16:29:14.777000Z", "detection_status": "insufficient_data", "status": "insufficient_data", "concentration_status": "unavailable", "quantity": {"status": "not_confirmed", "label": "концентрация по снимку не подтверждена", "detail": "перевод площади в штуки не показываем: нет калибровочных пар (см. docs/QUANTITY.md)"}, "verification": "false_alarm_signs", "training_scene": null, "flags": ["ship"], "n_cozar_filaments": 0, "crop_file": "crops/SZ-live-honduras-2020-08-29-007.jpg", "wind_high": false, "measured": {"zone_area_km2": 0.0868, "suspicious_area_m2": 800, "n_pixels": 8, "n_objects": 1, "water_km2": 0.0896, "lwd_m2_km2": 8928.6, "lwd_note": null, "quality": {"valid_water_fraction": 1.0, "cloud_fraction": 0.0, "glint_fraction": 0.0}, "model": {"weights": "weights/lgbm", "file": "weights/lgbm/model.txt", "sha256": "0eeebf43fcccd8c7c07f053b7ec723229d1a3c9b92d12eec1bdb269258c51470", "sha256_short": "0eeebf43fccc", "trained_at": "2026-09-25T01:35:55Z", "threshold": 0.63, "harmonize": "none", "class": "MARIDA Marine Debris (любой плавающий мусор, не только пластик)"}}, "probable": {"prob_max": 1.0, "prob_mean": 0.869, "signs": {"foam": {"flag": false, "white_ratio_b2_b8": 0.319, "wind10m_ms": 2.63, "rule": "прирост B2 над водой ≥ 0.8 прироста B8 («белый» спектр) или ветер ≥ 7.0 м/с"}, "glint": {"flag": false, "b11_water_median": 0.0056, "glint_share": 0.0, "rule": "медиана B11 воды зоны > 0.01 или ≥ 20 % пикселей зоны — блик (маска качества)"}, "ship": {"flag": true, "share": 0, "bright_target_px_within_500m": 22, "rule": "≥ 30 % пикселей — у яркой цели или кильватера (reports/artifacts.md) или яркая цель с откликом в SWIR (судно, лодка: B11 ≥ 0,015) ближе 500 м, или малый яркий объект (≤ 40 пикс.) с B11 ≥ 0,01 ближе 500 м (лодка с кильватером)"}, "coast": {"flag": false, "land_px_within_300m": 0, "rule": "суша (маска качества) ближе 300 м — прибой, кромка берега"}, "shallow": {"flag": false, "b3_water_zone": 0.0189, "b3_ratio_to_scene_water": 0.68, "rule": "медиана B3 воды зоны ≥ 2× медианы воды снимка и ≥ 0,03, или B4 воды зоны ≥ 0,02 и (≥ 2× воды снимка или B8 ≥ 0,013) — мелководье, яркое дно, илистая банка"}, "seam": {"flag": false, "share": 0, "rule": "≥ 30 % пикселей — прямая линия вдоль трека/границы яркости (шов)"}, "cloud": {"flag": false, "cloud_fraction": 0.0, "rule": "облака или тени облаков (маска качества) ≥ 20 % зоны"}, "diag": {"dist_land_m": null, "dist_bright_m": 63, "n_bright_px_500m": 56, "b11_bright_max_500m": 0.0621, "b4_water_zone": 0.0106, "b8_water_zone": 0.0082, "b11_det_median": 0.0113, "b8_det_median": 0.0247, "water_scene_b3": 0.028, "water_scene_b4": 0.0141, "n_det_px": 8, "n_obj": 1}, "note": "эвристики, не классификатор; на размеченных данных не проверены"}, "n_cozar_filaments": 0}, "field_nearby": {"items": [{"source": "ADIS (4TU.ResearchData, судовая камера)", "segment_id": 416634, "ship": "RV Pelagia", "date": "2023-12-19", "days_from_scene": 1207, "distance_km": 1740.6, "lon": -75.79339, "lat": 25.94314, "n_items": 0, "area_km2": 0.9676, "size_class": "> 5 см", "c_items_km2": 0.0, "ci95_lo": 0.0, "ci95_hi": 3.81, "ci95_method": "точный интервал Пуассона для N, делённый на A", "raw_10cm_items_km2": 0.0, "authors_cal_10cm_items_km2": 0.0, "authors_cal_10cm_lo95": null, "authors_cal_10cm_hi95": null}, {"source": "ADIS (4TU.ResearchData, судовая камера)", "segment_id": 405468, "ship": "RV Pelagia", "date": "2023-12-19", "days_from_scene": 1207, "distance_km": 1740.7, "lon": -75.79193, "lat": 25.94347, "n_items": 0, "area_km2": 0.72, "size_class": "> 5 см", "c_items_km2": 0.0, "ci95_lo": 0.0, "ci95_hi": 5.12, "ci95_method": "точный интервал Пуассона для N, делённый на A", "raw_10cm_items_km2": 0.0, "authors_cal_10cm_items_km2": 0.0, "authors_cal_10cm_lo95": null, "authors_cal_10cm_hi95": null}, {"source": "ADIS (4TU.ResearchData, судовая камера)", "segment_id": 416633, "ship": "RV Pelagia", "date": "2023-12-19", "days_from_scene": 1207, "distance_km": 1750.1, "lon": -75.70128, "lat": 25.97146, "n_items": 0, "area_km2": 1.015, "size_class": "> 5 см", "c_items_km2": 0.0, "ci95_lo": 0.0, "ci95_hi": 3.63, "ci95_method": "точный интервал Пуассона для N, делённый на A", "raw_10cm_items_km2": 0.0, "authors_cal_10cm_items_km2": 0.0, "authors_cal_10cm_lo95": null, "authors_cal_10cm_hi95": null}], "nearest_organizer_sample": {"sample_id": "MPL-0239", "source_id": "S2_SARGASSO_MSM41", "distance_km": 2169.8}, "note": "Измерение ≠ оценка: это независимые полевые счёты C = N/A в другое время и в другом месте; со сценой они не связаны и не калибруют её. Ближайший отрезок ADIS — за 1741 км: только для порядка величин."}}}, {"type": "Feature", "id": "SZ-live-honduras-2020-08-29-008", "geometry": {"type": "Polygon", "coordinates": [[[-88.144636, 15.84062], [-88.145475, 15.840344], [-88.145938, 15.839709], [-88.145932, 15.838625], [-88.145462, 15.837994], [-88.14462, 15.837728], [-88.14406, 15.837821], [-88.143224, 15.838639], [-88.143315, 15.838096], [-88.14303, 15.837284], [-88.141905, 15.836567], [-88.140972, 15.836572], [-88.140875, 15.83603], [-88.140405, 15.8354], [-88.139283, 15.835134], [-88.138165, 15.835683], [-88.13789, 15.836588], [-88.138551, 15.83785], [-88.139393, 15.838117], [-88.140046, 15.838023], [-88.140049, 15.838475], [-88.140613, 15.839195], [-88.141735, 15.839551], [-88.142761, 15.839274], [-88.143224, 15.838639], [-88.143134, 15.839272], [-88.143419, 15.840084], [-88.144075, 15.840533], [-88.144636, 15.84062]]]}, "properties": {"kind": "detection_zone", "layer_kind": "scene_zone", "zone_id": "SZ-live-honduras-2020-08-29-008", "scene_key": "live-honduras-2020-08-29", "scene_kind": "live", "scene_id": "S2B_16PCC_20200829_0_L2A", "region": "honduras", "title": "Гондурасский залив (Омоа – Пуэрто-Кортес – устье Мотагуа) · зона 8", "mission": "Sentinel-2", "datetime": "2020-08-29T16:29:14.777000Z", "detection_status": "detected", "status": "detected", "concentration_status": "unavailable", "quantity": {"status": "not_confirmed", "label": "концентрация по снимку не подтверждена", "detail": "перевод площади в штуки не показываем: нет калибровочных пар (см. docs/QUANTITY.md)"}, "verification": "unverified", "training_scene": null, "flags": [], "n_cozar_filaments": 0, "crop_file": "crops/SZ-live-honduras-2020-08-29-008.jpg", "wind_high": false, "measured": {"zone_area_km2": 0.2379, "suspicious_area_m2": 1600, "n_pixels": 16, "n_objects": 4, "water_km2": 0.2386, "lwd_m2_km2": 6705.8, "lwd_note": null, "quality": {"valid_water_fraction": 1.0, "cloud_fraction": 0.0, "glint_fraction": 0.0}, "model": {"weights": "weights/lgbm", "file": "weights/lgbm/model.txt", "sha256": "0eeebf43fcccd8c7c07f053b7ec723229d1a3c9b92d12eec1bdb269258c51470", "sha256_short": "0eeebf43fccc", "trained_at": "2026-09-25T01:35:55Z", "threshold": 0.63, "harmonize": "none", "class": "MARIDA Marine Debris (любой плавающий мусор, не только пластик)"}}, "probable": {"prob_max": 1.0, "prob_mean": 0.883, "signs": {"foam": {"flag": false, "white_ratio_b2_b8": 0.191, "wind10m_ms": 2.63, "rule": "прирост B2 над водой ≥ 0.8 прироста B8 («белый» спектр) или ветер ≥ 7.0 м/с"}, "glint": {"flag": false, "b11_water_median": 0.0055, "glint_share": 0.0, "rule": "медиана B11 воды зоны > 0.01 или ≥ 20 % пикселей зоны — блик (маска качества)"}, "ship": {"flag": false, "share": 0, "bright_target_px_within_500m": 0, "rule": "≥ 30 % пикселей — у яркой цели или кильватера (reports/artifacts.md) или яркая цель с откликом в SWIR (судно, лодка: B11 ≥ 0,015) ближе 500 м, или малый яркий объект (≤ 40 пикс.) с B11 ≥ 0,01 ближе 500 м (лодка с кильватером)"}, "coast": {"flag": false, "land_px_within_300m": 0, "rule": "суша (маска качества) ближе 300 м — прибой, кромка берега"}, "shallow": {"flag": false, "b3_water_zone": 0.0191, "b3_ratio_to_scene_water": 0.68, "rule": "медиана B3 воды зоны ≥ 2× медианы воды снимка и ≥ 0,03, или B4 воды зоны ≥ 0,02 и (≥ 2× воды снимка или B8 ≥ 0,013) — мелководье, яркое дно, илистая банка"}, "seam": {"flag": false, "share": 0, "rule": "≥ 30 % пикселей — прямая линия вдоль трека/границы яркости (шов)"}, "cloud": {"flag": false, "cloud_fraction": 0.0, "rule": "облака или тени облаков (маска качества) ≥ 20 % зоны"}, "diag": {"dist_land_m": null, "dist_bright_m": 995, "n_bright_px_500m": 0, "b11_bright_max_500m": null, "b4_water_zone": 0.0106, "b8_water_zone": 0.008, "b11_det_median": 0.0114, "b8_det_median": 0.0225, "water_scene_b3": 0.028, "water_scene_b4": 0.0141, "n_det_px": 16, "n_obj": 4}, "note": "эвристики, не классификатор; на размеченных данных не проверены"}, "n_cozar_filaments": 0}, "field_nearby": {"items": [{"source": "ADIS (4TU.ResearchData, судовая камера)", "segment_id": 416634, "ship": "RV Pelagia", "date": "2023-12-19", "days_from_scene": 1207, "distance_km": 1740.6, "lon": -75.79339, "lat": 25.94314, "n_items": 0, "area_km2": 0.9676, "size_class": "> 5 см", "c_items_km2": 0.0, "ci95_lo": 0.0, "ci95_hi": 3.81, "ci95_method": "точный интервал Пуассона для N, делённый на A", "raw_10cm_items_km2": 0.0, "authors_cal_10cm_items_km2": 0.0, "authors_cal_10cm_lo95": null, "authors_cal_10cm_hi95": null}, {"source": "ADIS (4TU.ResearchData, судовая камера)", "segment_id": 405468, "ship": "RV Pelagia", "date": "2023-12-19", "days_from_scene": 1207, "distance_km": 1740.7, "lon": -75.79193, "lat": 25.94347, "n_items": 0, "area_km2": 0.72, "size_class": "> 5 см", "c_items_km2": 0.0, "ci95_lo": 0.0, "ci95_hi": 5.12, "ci95_method": "точный интервал Пуассона для N, делённый на A", "raw_10cm_items_km2": 0.0, "authors_cal_10cm_items_km2": 0.0, "authors_cal_10cm_lo95": null, "authors_cal_10cm_hi95": null}, {"source": "ADIS (4TU.ResearchData, судовая камера)", "segment_id": 416633, "ship": "RV Pelagia", "date": "2023-12-19", "days_from_scene": 1207, "distance_km": 1750.1, "lon": -75.70128, "lat": 25.97146, "n_items": 0, "area_km2": 1.015, "size_class": "> 5 см", "c_items_km2": 0.0, "ci95_lo": 0.0, "ci95_hi": 3.63, "ci95_method": "точный интервал Пуассона для N, делённый на A", "raw_10cm_items_km2": 0.0, "authors_cal_10cm_items_km2": 0.0, "authors_cal_10cm_lo95": null, "authors_cal_10cm_hi95": null}], "nearest_organizer_sample": {"sample_id": "MPL-0239", "source_id": "S2_SARGASSO_MSM41", "distance_km": 2169.8}, "note": "Измерение ≠ оценка: это независимые полевые счёты C = N/A в другое время и в другом месте; со сценой они не связаны и не калибруют её. Ближайший отрезок ADIS — за 1741 км: только для порядка величин."}}}, {"type": "Feature", "id": "SZ-live-honduras-2020-08-29-009", "geometry": {"type": "Polygon", "coordinates": [[[-88.135067, 15.832535], [-88.136184, 15.831987], [-88.136459, 15.831172], [-88.136362, 15.830449], [-88.135611, 15.82973], [-88.135701, 15.829097], [-88.135416, 15.828285], [-88.13476, 15.827836], [-88.133733, 15.827842], [-88.132897, 15.82866], [-88.132904, 15.829835], [-88.133561, 15.830464], [-88.133472, 15.831188], [-88.133756, 15.832], [-88.134412, 15.832448], [-88.135067, 15.832535]]]}, "properties": {"kind": "detection_zone", "layer_kind": "scene_zone", "zone_id": "SZ-live-honduras-2020-08-29-009", "scene_key": "live-honduras-2020-08-29", "scene_kind": "live", "scene_id": "S2B_16PCC_20200829_0_L2A", "region": "honduras", "title": "Гондурасский залив (Омоа – Пуэрто-Кортес – устье Мотагуа) · зона 9", "mission": "Sentinel-2", "datetime": "2020-08-29T16:29:14.777000Z", "detection_status": "detected", "status": "detected", "concentration_status": "unavailable", "quantity": {"status": "not_confirmed", "label": "концентрация по снимку не подтверждена", "detail": "перевод площади в штуки не показываем: нет калибровочных пар (см. docs/QUANTITY.md)"}, "verification": "unverified", "training_scene": null, "flags": [], "n_cozar_filaments": 0, "crop_file": "crops/SZ-live-honduras-2020-08-29-009.jpg", "wind_high": false, "measured": {"zone_area_km2": 0.1381, "suspicious_area_m2": 800, "n_pixels": 8, "n_objects": 2, "water_km2": 0.14, "lwd_m2_km2": 5714.3, "lwd_note": null, "quality": {"valid_water_fraction": 1.0, "cloud_fraction": 0.0, "glint_fraction": 0.0}, "model": {"weights": "weights/lgbm", "file": "weights/lgbm/model.txt", "sha256": "0eeebf43fcccd8c7c07f053b7ec723229d1a3c9b92d12eec1bdb269258c51470", "sha256_short": "0eeebf43fccc", "trained_at": "2026-09-25T01:35:55Z", "threshold": 0.63, "harmonize": "none", "class": "MARIDA Marine Debris (любой плавающий мусор, не только пластик)"}}, "probable": {"prob_max": 1.0, "prob_mean": 0.934, "signs": {"foam": {"flag": false, "white_ratio_b2_b8": 0.251, "wind10m_ms": 2.63, "rule": "прирост B2 над водой ≥ 0.8 прироста B8 («белый» спектр) или ветер ≥ 7.0 м/с"}, "glint": {"flag": false, "b11_water_median": 0.0052, "glint_share": 0.0, "rule": "медиана B11 воды зоны > 0.01 или ≥ 20 % пикселей зоны — блик (маска качества)"}, "ship": {"flag": false, "share": 0, "bright_target_px_within_500m": 0, "rule": "≥ 30 % пикселей — у яркой цели или кильватера (reports/artifacts.md) или яркая цель с откликом в SWIR (судно, лодка: B11 ≥ 0,015) ближе 500 м, или малый яркий объект (≤ 40 пикс.) с B11 ≥ 0,01 ближе 500 м (лодка с кильватером)"}, "coast": {"flag": false, "land_px_within_300m": 0, "rule": "суша (маска качества) ближе 300 м — прибой, кромка берега"}, "shallow": {"flag": false, "b3_water_zone": 0.0199, "b3_ratio_to_scene_water": 0.71, "rule": "медиана B3 воды зоны ≥ 2× медианы воды снимка и ≥ 0,03, или B4 воды зоны ≥ 0,02 и (≥ 2× воды снимка или B8 ≥ 0,013) — мелководье, яркое дно, илистая банка"}, "seam": {"flag": false, "share": 0, "rule": "≥ 30 % пикселей — прямая линия вдоль трека/границы яркости (шов)"}, "cloud": {"flag": false, "cloud_fraction": 0.0, "rule": "облака или тени облаков (маска качества) ≥ 20 % зоны"}, "diag": {"dist_land_m": null, "dist_bright_m": null, "n_bright_px_500m": 0, "b11_bright_max_500m": null, "b4_water_zone": 0.011, "b8_water_zone": 0.008, "b11_det_median": 0.0148, "b8_det_median": 0.0367, "water_scene_b3": 0.028, "water_scene_b4": 0.0141, "n_det_px": 8, "n_obj": 2}, "note": "эвристики, не классификатор; на размеченных данных не проверены"}, "n_cozar_filaments": 0}, "field_nearby": {"items": [{"source": "ADIS (4TU.ResearchData, судовая камера)", "segment_id": 416634, "ship": "RV Pelagia", "date": "2023-12-19", "days_from_scene": 1207, "distance_km": 1740.6, "lon": -75.79339, "lat": 25.94314, "n_items": 0, "area_km2": 0.9676, "size_class": "> 5 см", "c_items_km2": 0.0, "ci95_lo": 0.0, "ci95_hi": 3.81, "ci95_method": "точный интервал Пуассона для N, делённый на A", "raw_10cm_items_km2": 0.0, "authors_cal_10cm_items_km2": 0.0, "authors_cal_10cm_lo95": null, "authors_cal_10cm_hi95": null}, {"source": "ADIS (4TU.ResearchData, судовая камера)", "segment_id": 405468, "ship": "RV Pelagia", "date": "2023-12-19", "days_from_scene": 1207, "distance_km": 1740.7, "lon": -75.79193, "lat": 25.94347, "n_items": 0, "area_km2": 0.72, "size_class": "> 5 см", "c_items_km2": 0.0, "ci95_lo": 0.0, "ci95_hi": 5.12, "ci95_method": "точный интервал Пуассона для N, делённый на A", "raw_10cm_items_km2": 0.0, "authors_cal_10cm_items_km2": 0.0, "authors_cal_10cm_lo95": null, "authors_cal_10cm_hi95": null}, {"source": "ADIS (4TU.ResearchData, судовая камера)", "segment_id": 416633, "ship": "RV Pelagia", "date": "2023-12-19", "days_from_scene": 1207, "distance_km": 1750.1, "lon": -75.70128, "lat": 25.97146, "n_items": 0, "area_km2": 1.015, "size_class": "> 5 см", "c_items_km2": 0.0, "ci95_lo": 0.0, "ci95_hi": 3.63, "ci95_method": "точный интервал Пуассона для N, делённый на A", "raw_10cm_items_km2": 0.0, "authors_cal_10cm_items_km2": 0.0, "authors_cal_10cm_lo95": null, "authors_cal_10cm_hi95": null}], "nearest_organizer_sample": {"sample_id": "MPL-0239", "source_id": "S2_SARGASSO_MSM41", "distance_km": 2169.8}, "note": "Измерение ≠ оценка: это независимые полевые счёты C = N/A в другое время и в другом месте; со сценой они не связаны и не калибруют её. Ближайший отрезок ADIS — за 1741 км: только для порядка величин."}}}, {"type": "Feature", "id": "SZ-live-honduras-2020-08-29-010", "geometry": {"type": "Polygon", "coordinates": [[[-88.148936, 15.775336], [-88.149775, 15.77506], [-88.150238, 15.774425], [-88.150328, 15.773792], [-88.14995, 15.77298], [-88.150225, 15.772075], [-88.14994, 15.771263], [-88.149565, 15.770903], [-88.148537, 15.770637], [-88.147419, 15.771186], [-88.147145, 15.772091], [-88.147522, 15.772902], [-88.147342, 15.773988], [-88.147626, 15.7748], [-88.148282, 15.775249], [-88.148936, 15.775336]]]}, "properties": {"kind": "detection_zone", "layer_kind": "scene_zone", "zone_id": "SZ-live-honduras-2020-08-29-010", "scene_key": "live-honduras-2020-08-29", "scene_kind": "live", "scene_id": "S2B_16PCC_20200829_0_L2A", "region": "honduras", "title": "Гондурасский залив (Омоа – Пуэрто-Кортес – устье Мотагуа) · зона 10", "mission": "Sentinel-2", "datetime": "2020-08-29T16:29:14.777000Z", "detection_status": "detected", "status": "detected", "concentration_status": "unavailable", "quantity": {"status": "not_confirmed", "label": "концентрация по снимку не подтверждена", "detail": "перевод площади в штуки не показываем: нет калибровочных пар (см. docs/QUANTITY.md)"}, "verification": "unverified", "training_scene": null, "flags": [], "n_cozar_filaments": 0, "crop_file": "crops/SZ-live-honduras-2020-08-29-010.jpg", "wind_high": false, "measured": {"zone_area_km2": 0.1367, "suspicious_area_m2": 1000, "n_pixels": 10, "n_objects": 2, "water_km2": 0.137, "lwd_m2_km2": 7299.3, "lwd_note": null, "quality": {"valid_water_fraction": 1.0, "cloud_fraction": 0.0, "glint_fraction": 0.0}, "model": {"weights": "weights/lgbm", "file": "weights/lgbm/model.txt", "sha256": "0eeebf43fcccd8c7c07f053b7ec723229d1a3c9b92d12eec1bdb269258c51470", "sha256_short": "0eeebf43fccc", "trained_at": "2026-09-25T01:35:55Z", "threshold": 0.63, "harmonize": "none", "class": "MARIDA Marine Debris (любой плавающий мусор, не только пластик)"}}, "probable": {"prob_max": 0.996, "prob_mean": 0.938, "signs": {"foam": {"flag": false, "white_ratio_b2_b8": 0.426, "wind10m_ms": 2.63, "rule": "прирост B2 над водой ≥ 0.8 прироста B8 («белый» спектр) или ветер ≥ 7.0 м/с"}, "glint": {"flag": false, "b11_water_median": 0.0053, "glint_share": 0.0, "rule": "медиана B11 воды зоны > 0.01 или ≥ 20 % пикселей зоны — блик (маска качества)"}, "ship": {"flag": false, "share": 0, "bright_target_px_within_500m": 0, "rule": "≥ 30 % пикселей — у яркой цели или кильватера (reports/artifacts.md) или яркая цель с откликом в SWIR (судно, лодка: B11 ≥ 0,015) ближе 500 м, или малый яркий объект (≤ 40 пикс.) с B11 ≥ 0,01 ближе 500 м (лодка с кильватером)"}, "coast": {"flag": false, "land_px_within_300m": 0, "rule": "суша (маска качества) ближе 300 м — прибой, кромка берега"}, "shallow": {"flag": false, "b3_water_zone": 0.0276, "b3_ratio_to_scene_water": 0.99, "rule": "медиана B3 воды зоны ≥ 2× медианы воды снимка и ≥ 0,03, или B4 воды зоны ≥ 0,02 и (≥ 2× воды снимка или B8 ≥ 0,013) — мелководье, яркое дно, илистая банка"}, "seam": {"flag": false, "share": 0, "rule": "≥ 30 % пикселей — прямая линия вдоль трека/границы яркости (шов)"}, "cloud": {"flag": false, "cloud_fraction": 0.0, "rule": "облака или тени облаков (маска качества) ≥ 20 % зоны"}, "diag": {"dist_land_m": null, "dist_bright_m": null, "n_bright_px_500m": 0, "b11_bright_max_500m": null, "b4_water_zone": 0.0144, "b8_water_zone": 0.0085, "b11_det_median": 0.015, "b8_det_median": 0.0343, "water_scene_b3": 0.028, "water_scene_b4": 0.0141, "n_det_px": 10, "n_obj": 2}, "note": "эвристики, не классификатор; на размеченных данных не проверены"}, "n_cozar_filaments": 0}, "field_nearby": {"items": [{"source": "ADIS (4TU.ResearchData, судовая камера)", "segment_id": 416634, "ship": "RV Pelagia", "date": "2023-12-19", "days_from_scene": 1207, "distance_km": 1740.6, "lon": -75.79339, "lat": 25.94314, "n_items": 0, "area_km2": 0.9676, "size_class": "> 5 см", "c_items_km2": 0.0, "ci95_lo": 0.0, "ci95_hi": 3.81, "ci95_method": "точный интервал Пуассона для N, делённый на A", "raw_10cm_items_km2": 0.0, "authors_cal_10cm_items_km2": 0.0, "authors_cal_10cm_lo95": null, "authors_cal_10cm_hi95": null}, {"source": "ADIS (4TU.ResearchData, судовая камера)", "segment_id": 405468, "ship": "RV Pelagia", "date": "2023-12-19", "days_from_scene": 1207, "distance_km": 1740.7, "lon": -75.79193, "lat": 25.94347, "n_items": 0, "area_km2": 0.72, "size_class": "> 5 см", "c_items_km2": 0.0, "ci95_lo": 0.0, "ci95_hi": 5.12, "ci95_method": "точный интервал Пуассона для N, делённый на A", "raw_10cm_items_km2": 0.0, "authors_cal_10cm_items_km2": 0.0, "authors_cal_10cm_lo95": null, "authors_cal_10cm_hi95": null}, {"source": "ADIS (4TU.ResearchData, судовая камера)", "segment_id": 416633, "ship": "RV Pelagia", "date": "2023-12-19", "days_from_scene": 1207, "distance_km": 1750.1, "lon": -75.70128, "lat": 25.97146, "n_items": 0, "area_km2": 1.015, "size_class": "> 5 см", "c_items_km2": 0.0, "ci95_lo": 0.0, "ci95_hi": 3.63, "ci95_method": "точный интервал Пуассона для N, делённый на A", "raw_10cm_items_km2": 0.0, "authors_cal_10cm_items_km2": 0.0, "authors_cal_10cm_lo95": null, "authors_cal_10cm_hi95": null}], "nearest_organizer_sample": {"sample_id": "MPL-0239", "source_id": "S2_SARGASSO_MSM41", "distance_km": 2169.8}, "note": "Измерение ≠ оценка: это независимые полевые счёты C = N/A в другое время и в другом месте; со сценой они не связаны и не калибруют её. Ближайший отрезок ADIS — за 1741 км: только для порядка величин."}}}]}