{"type": "FeatureCollection", "features": [{"type": "Feature", "id": "D-SZ-fresh-bali-2026-09-03-001-1", "geometry": {"type": "Polygon", "coordinates": [[[115.2638547, -8.7184159], [115.2638539, -8.7185968], [115.2640356, -8.7185976], [115.2640365, -8.7184168], [115.2638547, -8.7184159]]]}, "properties": {"kind": "detection", "det_id": "D-SZ-fresh-bali-2026-09-03-001-1", "zone_id": "SZ-fresh-bali-2026-09-03-001", "scene_id": "S2C_MSIL2A_20260903T021531_R003_T50LLR_20260903T062806", "datetime": "2026-09-03T02:15:31.025000Z", "n_pixels": 4, "area_m2": 400, "prob_max": 0.8706, "prob_mean": 0.8275, "threshold": 0.63, "in_strip": true, "artifact": null}}, {"type": "Feature", "id": "D-SZ-fresh-bali-2026-09-03-001-2", "geometry": {"type": "Polygon", "coordinates": [[[115.2630348, -8.7188642], [115.2630344, -8.7189547], [115.2629435, -8.7189542], [115.2629431, -8.7190447], [115.2631249, -8.7190455], [115.2631257, -8.7188647], [115.2630348, -8.7188642]]]}, "properties": {"kind": "detection", "det_id": "D-SZ-fresh-bali-2026-09-03-001-2", "zone_id": "SZ-fresh-bali-2026-09-03-001", "scene_id": "S2C_MSIL2A_20260903T021531_R003_T50LLR_20260903T062806", "datetime": "2026-09-03T02:15:31.025000Z", "n_pixels": 3, "area_m2": 300, "prob_max": 0.9725, "prob_mean": 0.8131, "threshold": 0.63, "in_strip": true, "artifact": "seam"}}]}