{"type": "FeatureCollection", "features": [{"type": "Feature", "id": "D-SZ-live-guanabara-2025-09-04-001-4", "geometry": {"type": "Polygon", "coordinates": [[[-43.1658812, -22.7137767], [-43.16588, -22.7138669], [-43.1656853, -22.7138647], [-43.1656865, -22.7137744], [-43.1658812, -22.7137767]]]}, "properties": {"kind": "detection", "det_id": "D-SZ-live-guanabara-2025-09-04-001-4", "zone_id": "SZ-live-guanabara-2025-09-04-001", "scene_id": "S2C_MSIL2A_20250904T130301_R095_T23KPQ_20250904T173012", "datetime": "2025-09-04T13:03:01.024000Z", "n_pixels": 2, "area_m2": 200, "prob_max": 0.9686, "prob_mean": 0.8686, "threshold": 0.63, "in_strip": true, "artifact": null}}, {"type": "Feature", "id": "D-SZ-live-guanabara-2025-09-04-001-7", "geometry": {"type": "Polygon", "coordinates": [[[-43.1682975, -22.7150686], [-43.1682963, -22.7151589], [-43.168199, -22.7151578], [-43.1682002, -22.7150675], [-43.1682975, -22.7150686]]]}, "properties": {"kind": "detection", "det_id": "D-SZ-live-guanabara-2025-09-04-001-7", "zone_id": "SZ-live-guanabara-2025-09-04-001", "scene_id": "S2C_MSIL2A_20250904T130301_R095_T23KPQ_20250904T173012", "datetime": "2025-09-04T13:03:01.024000Z", "n_pixels": 1, "area_m2": 100, "prob_max": 0.949, "prob_mean": 0.949, "threshold": 0.63, "in_strip": true, "artifact": null}}, {"type": "Feature", "id": "D-SZ-live-guanabara-2025-09-04-001-8", "geometry": {"type": "Polygon", "coordinates": [[[-43.1685883, -22.7151623], [-43.1685871, -22.7152526], [-43.1684897, -22.7152514], [-43.1684909, -22.7151612], [-43.1685883, -22.7151623]]]}, "properties": {"kind": "detection", "det_id": "D-SZ-live-guanabara-2025-09-04-001-8", "zone_id": "SZ-live-guanabara-2025-09-04-001", "scene_id": "S2C_MSIL2A_20250904T130301_R095_T23KPQ_20250904T173012", "datetime": "2025-09-04T13:03:01.024000Z", "n_pixels": 1, "area_m2": 100, "prob_max": 0.7882, "prob_mean": 0.7882, "threshold": 0.63, "in_strip": true, "artifact": null}}, {"type": "Feature", "id": "D-SZ-live-guanabara-2025-09-04-001-9", "geometry": {"type": "Polygon", "coordinates": [[[-43.1697297, -22.717162], [-43.1697285, -22.7172523], [-43.1696312, -22.7172512], [-43.1696324, -22.7171609], [-43.1697297, -22.717162]]]}, "properties": {"kind": "detection", "det_id": "D-SZ-live-guanabara-2025-09-04-001-9", "zone_id": "SZ-live-guanabara-2025-09-04-001", "scene_id": "S2C_MSIL2A_20250904T130301_R095_T23KPQ_20250904T173012", "datetime": "2025-09-04T13:03:01.024000Z", "n_pixels": 1, "area_m2": 100, "prob_max": 0.702, "prob_mean": 0.702, "threshold": 0.63, "in_strip": true, "artifact": null}}, {"type": "Feature", "id": "D-SZ-live-guanabara-2025-09-04-001-10", "geometry": {"type": "Polygon", "coordinates": [[[-43.1698223, -22.7175243], [-43.1698211, -22.7176146], [-43.1696264, -22.7176124], [-43.1696276, -22.7175221], [-43.1698223, -22.7175243]]]}, "properties": {"kind": "detection", "det_id": "D-SZ-live-guanabara-2025-09-04-001-10", "zone_id": "SZ-live-guanabara-2025-09-04-001", "scene_id": "S2C_MSIL2A_20250904T130301_R095_T23KPQ_20250904T173012", "datetime": "2025-09-04T13:03:01.024000Z", "n_pixels": 2, "area_m2": 200, "prob_max": 0.7686, "prob_mean": 0.7039, "threshold": 0.63, "in_strip": true, "artifact": null}}, {"type": "Feature", "id": "D-SZ-live-guanabara-2025-09-04-002-11", "geometry": {"type": "Polygon", "coordinates": [[[-43.1744736, -22.7191127], [-43.1744724, -22.719203], [-43.1743751, -22.7192019], [-43.1743763, -22.7191116], [-43.1744736, -22.7191127]]]}, "properties": {"kind": "detection", "det_id": "D-SZ-live-guanabara-2025-09-04-002-11", "zone_id": "SZ-live-guanabara-2025-09-04-002", "scene_id": "S2C_MSIL2A_20250904T130301_R095_T23KPQ_20250904T173012", "datetime": "2025-09-04T13:03:01.024000Z", "n_pixels": 1, "area_m2": 100, "prob_max": 0.7882, "prob_mean": 0.7882, "threshold": 0.63, "in_strip": true, "artifact": null}}, {"type": "Feature", "id": "D-SZ-live-guanabara-2025-09-04-002-12", "geometry": {"type": "Polygon", "coordinates": [[[-43.1727193, -22.7192733], [-43.1727181, -22.7193636], [-43.1726208, -22.7193624], [-43.172622, -22.7192722], [-43.1727193, -22.7192733]]]}, "properties": {"kind": "detection", "det_id": "D-SZ-live-guanabara-2025-09-04-002-12", "zone_id": "SZ-live-guanabara-2025-09-04-002", "scene_id": "S2C_MSIL2A_20250904T130301_R095_T23KPQ_20250904T173012", "datetime": "2025-09-04T13:03:01.024000Z", "n_pixels": 1, "area_m2": 100, "prob_max": 0.749, "prob_mean": 0.749, "threshold": 0.63, "in_strip": true, "artifact": null}}, {"type": "Feature", "id": "D-SZ-live-guanabara-2025-09-04-002-13", "geometry": {"type": "Polygon", "coordinates": [[[-43.1730065, -22.7196378], [-43.1730053, -22.7197281], [-43.1728106, -22.7197258], [-43.1728118, -22.7196355], [-43.1730065, -22.7196378]]]}, "properties": {"kind": "detection", "det_id": "D-SZ-live-guanabara-2025-09-04-002-13", "zone_id": "SZ-live-guanabara-2025-09-04-002", "scene_id": "S2C_MSIL2A_20250904T130301_R095_T23KPQ_20250904T173012", "datetime": "2025-09-04T13:03:01.024000Z", "n_pixels": 2, "area_m2": 200, "prob_max": 0.7333, "prob_mean": 0.7275, "threshold": 0.63, "in_strip": true, "artifact": null}}, {"type": "Feature", "id": "D-SZ-live-guanabara-2025-09-04-002-15", "geometry": {"type": "Polygon", "coordinates": [[[-43.1742706, -22.7197425], [-43.1742694, -22.7198328], [-43.174172, -22.7198317], [-43.1741732, -22.7197414], [-43.1742706, -22.7197425]]]}, "properties": {"kind": "detection", "det_id": "D-SZ-live-guanabara-2025-09-04-002-15", "zone_id": "SZ-live-guanabara-2025-09-04-002", "scene_id": "S2C_MSIL2A_20250904T130301_R095_T23KPQ_20250904T173012", "datetime": "2025-09-04T13:03:01.024000Z", "n_pixels": 1, "area_m2": 100, "prob_max": 0.6588, "prob_mean": 0.6588, "threshold": 0.63, "in_strip": true, "artifact": null}}, {"type": "Feature", "id": "D-SZ-live-guanabara-2025-09-04-002-16", "geometry": {"type": "Polygon", "coordinates": [[[-43.1732937, -22.7200023], [-43.1732925, -22.7200926], [-43.1731951, -22.7200915], [-43.1731963, -22.7200012], [-43.1732937, -22.7200023]]]}, "properties": {"kind": "detection", "det_id": "D-SZ-live-guanabara-2025-09-04-002-16", "zone_id": "SZ-live-guanabara-2025-09-04-002", "scene_id": "S2C_MSIL2A_20250904T130301_R095_T23KPQ_20250904T173012", "datetime": "2025-09-04T13:03:01.024000Z", "n_pixels": 1, "area_m2": 100, "prob_max": 0.7647, "prob_mean": 0.7647, "threshold": 0.63, "in_strip": true, "artifact": "ship"}}, {"type": "Feature", "id": "D-SZ-live-guanabara-2025-09-04-003-22", "geometry": {"type": "Polygon", "coordinates": [[[-43.1784007, -22.7239437], [-43.1783983, -22.7241243], [-43.178301, -22.7241232], [-43.1783034, -22.7239426], [-43.1784007, -22.7239437]]]}, "properties": {"kind": "detection", "det_id": "D-SZ-live-guanabara-2025-09-04-003-22", "zone_id": "SZ-live-guanabara-2025-09-04-003", "scene_id": "S2C_MSIL2A_20250904T130301_R095_T23KPQ_20250904T173012", "datetime": "2025-09-04T13:03:01.024000Z", "n_pixels": 2, "area_m2": 200, "prob_max": 0.8941, "prob_mean": 0.8804, "threshold": 0.63, "in_strip": true, "artifact": null}}, {"type": "Feature", "id": "D-SZ-live-guanabara-2025-09-04-003-23", "geometry": {"type": "Polygon", "coordinates": [[[-43.177717, -22.7241165], [-43.1777146, -22.7242971], [-43.1776173, -22.724296], [-43.1776185, -22.7242057], [-43.1775211, -22.7242046], [-43.1775223, -22.7241143], [-43.177717, -22.7241165]]]}, "properties": {"kind": "detection", "det_id": "D-SZ-live-guanabara-2025-09-04-003-23", "zone_id": "SZ-live-guanabara-2025-09-04-003", "scene_id": "S2C_MSIL2A_20250904T130301_R095_T23KPQ_20250904T173012", "datetime": "2025-09-04T13:03:01.024000Z", "n_pixels": 3, "area_m2": 300, "prob_max": 0.9608, "prob_mean": 0.8824, "threshold": 0.63, "in_strip": true, "artifact": null}}, {"type": "Feature", "id": "D-SZ-live-guanabara-2025-09-04-003-24", "geometry": {"type": "Polygon", "coordinates": [[[-43.1781953, -22.7247541], [-43.1781929, -22.7249347], [-43.1780956, -22.7249336], [-43.178098, -22.724753], [-43.1781953, -22.7247541]]]}, "properties": {"kind": "detection", "det_id": "D-SZ-live-guanabara-2025-09-04-003-24", "zone_id": "SZ-live-guanabara-2025-09-04-003", "scene_id": "S2C_MSIL2A_20250904T130301_R095_T23KPQ_20250904T173012", "datetime": "2025-09-04T13:03:01.024000Z", "n_pixels": 2, "area_m2": 200, "prob_max": 0.9137, "prob_mean": 0.8843, "threshold": 0.63, "in_strip": true, "artifact": null}}, {"type": "Feature", "id": "D-SZ-live-guanabara-2025-09-04-003-25", "geometry": {"type": "Polygon", "coordinates": [[[-43.1790641, -22.7253058], [-43.1790629, -22.7253961], [-43.1789656, -22.725395], [-43.1789632, -22.7255756], [-43.1788659, -22.7255745], [-43.1788683, -22.7253939], [-43.1789656, -22.725395], [-43.1789668, -22.7253047], [-43.1790641, -22.7253058]]]}, "properties": {"kind": "detection", "det_id": "D-SZ-live-guanabara-2025-09-04-003-25", "zone_id": "SZ-live-guanabara-2025-09-04-003", "scene_id": "S2C_MSIL2A_20250904T130301_R095_T23KPQ_20250904T173012", "datetime": "2025-09-04T13:03:01.024000Z", "n_pixels": 3, "area_m2": 300, "prob_max": 0.8941, "prob_mean": 0.7608, "threshold": 0.63, "in_strip": true, "artifact": null}}, {"type": "Feature", "id": "D-SZ-live-guanabara-2025-09-04-004-27", "geometry": {"type": "Polygon", "coordinates": [[[-43.034098, -22.7266586], [-43.0340954, -22.7268392], [-43.0338034, -22.7268356], [-43.033806, -22.7266551], [-43.034098, -22.7266586]]]}, "properties": {"kind": "detection", "det_id": "D-SZ-live-guanabara-2025-09-04-004-27", "zone_id": "SZ-live-guanabara-2025-09-04-004", "scene_id": "S2C_MSIL2A_20250904T130301_R095_T23KPQ_20250904T173012", "datetime": "2025-09-04T13:03:01.024000Z", "n_pixels": 6, "area_m2": 600, "prob_max": 0.9608, "prob_mean": 0.8196, "threshold": 0.63, "in_strip": true, "artifact": "seam"}}, {"type": "Feature", "id": "D-SZ-live-guanabara-2025-09-04-005-28", "geometry": {"type": "Polygon", "coordinates": [[[-43.1968253, -22.7293903], [-43.1968241, -22.7294806], [-43.1969214, -22.7294817], [-43.1969203, -22.729572], [-43.1971149, -22.7295742], [-43.1971126, -22.7297548], [-43.1969179, -22.7297526], [-43.1969191, -22.7296623], [-43.1968217, -22.7296612], [-43.1968241, -22.7294806], [-43.1967268, -22.7294795], [-43.1967244, -22.7296601], [-43.1965297, -22.7296579], [-43.1965309, -22.7295676], [-43.1966282, -22.7295687], [-43.1966306, -22.7293882], [-43.1968253, -22.7293903]]]}, "properties": {"kind": "detection", "det_id": "D-SZ-live-guanabara-2025-09-04-005-28", "zone_id": "SZ-live-guanabara-2025-09-04-005", "scene_id": "S2C_MSIL2A_20250904T130301_R095_T23KPQ_20250904T173012", "datetime": "2025-09-04T13:03:01.024000Z", "n_pixels": 11, "area_m2": 1100, "prob_max": 1.0, "prob_mean": 0.9205, "threshold": 0.63, "in_strip": true, "artifact": "ship"}}, {"type": "Feature", "id": "D-SZ-live-guanabara-2025-09-04-005-29", "geometry": {"type": "Polygon", "coordinates": [[[-43.1967232, -22.7297504], [-43.1967208, -22.729931], [-43.1966235, -22.7299299], [-43.1966259, -22.7297493], [-43.1967232, -22.7297504]]]}, "properties": {"kind": "detection", "det_id": "D-SZ-live-guanabara-2025-09-04-005-29", "zone_id": "SZ-live-guanabara-2025-09-04-005", "scene_id": "S2C_MSIL2A_20250904T130301_R095_T23KPQ_20250904T173012", "datetime": "2025-09-04T13:03:01.024000Z", "n_pixels": 2, "area_m2": 200, "prob_max": 0.9882, "prob_mean": 0.9882, "threshold": 0.63, "in_strip": true, "artifact": "ship"}}, {"type": "Feature", "id": "D-SZ-live-guanabara-2025-09-04-006-30", "geometry": {"type": "Polygon", "coordinates": [[[-43.201773, -22.7307104], [-43.2017718, -22.7308007], [-43.2014798, -22.7307974], [-43.2014786, -22.7308877], [-43.2013812, -22.7308866], [-43.2013824, -22.7307963], [-43.2014798, -22.7307974], [-43.2014809, -22.7307071], [-43.201773, -22.7307104]]]}, "properties": {"kind": "detection", "det_id": "D-SZ-live-guanabara-2025-09-04-006-30", "zone_id": "SZ-live-guanabara-2025-09-04-006", "scene_id": "S2C_MSIL2A_20250904T130301_R095_T23KPQ_20250904T173012", "datetime": "2025-09-04T13:03:01.024000Z", "n_pixels": 4, "area_m2": 400, "prob_max": 0.7882, "prob_mean": 0.7029, "threshold": 0.63, "in_strip": true, "artifact": "ship"}}, {"type": "Feature", "id": "D-SZ-live-guanabara-2025-09-04-006-31", "geometry": {"type": "Polygon", "coordinates": [[[-43.2019664, -22.7308029], [-43.2019641, -22.7309835], [-43.2018667, -22.7309824], [-43.2018691, -22.7308018], [-43.2019664, -22.7308029]]]}, "properties": {"kind": "detection", "det_id": "D-SZ-live-guanabara-2025-09-04-006-31", "zone_id": "SZ-live-guanabara-2025-09-04-006", "scene_id": "S2C_MSIL2A_20250904T130301_R095_T23KPQ_20250904T173012", "datetime": "2025-09-04T13:03:01.024000Z", "n_pixels": 2, "area_m2": 200, "prob_max": 0.902, "prob_mean": 0.8275, "threshold": 0.63, "in_strip": true, "artifact": "ship"}}, {"type": "Feature", "id": "D-SZ-live-guanabara-2025-09-04-006-32", "geometry": {"type": "Polygon", "coordinates": [[[-43.2022549, -22.731077], [-43.2022537, -22.7311673], [-43.2020591, -22.7311651], [-43.2020602, -22.7310748], [-43.2022549, -22.731077]]]}, "properties": {"kind": "detection", "det_id": "D-SZ-live-guanabara-2025-09-04-006-32", "zone_id": "SZ-live-guanabara-2025-09-04-006", "scene_id": "S2C_MSIL2A_20250904T130301_R095_T23KPQ_20250904T173012", "datetime": "2025-09-04T13:03:01.024000Z", "n_pixels": 2, "area_m2": 200, "prob_max": 0.7647, "prob_mean": 0.7471, "threshold": 0.63, "in_strip": true, "artifact": "ship"}}, {"type": "Feature", "id": "D-SZ-live-guanabara-2025-09-04-007-34", "geometry": {"type": "Polygon", "coordinates": [[[-43.210782, -22.7341528], [-43.2107808, -22.7342431], [-43.2108781, -22.7342442], [-43.2108758, -22.7344248], [-43.2109731, -22.7344259], [-43.2109696, -22.7346968], [-43.2108722, -22.7346957], [-43.2108734, -22.7346054], [-43.2107761, -22.7346043], [-43.2107749, -22.7346946], [-43.2106776, -22.7346935], [-43.2106787, -22.7346032], [-43.2105814, -22.7346021], [-43.2105838, -22.7344215], [-43.2106811, -22.7344226], [-43.2106846, -22.7341518], [-43.210782, -22.7341528]]]}, "properties": {"kind": "detection", "det_id": "D-SZ-live-guanabara-2025-09-04-007-34", "zone_id": "SZ-live-guanabara-2025-09-04-007", "scene_id": "S2C_MSIL2A_20250904T130301_R095_T23KPQ_20250904T173012", "datetime": "2025-09-04T13:03:01.024000Z", "n_pixels": 15, "area_m2": 1500, "prob_max": 0.9765, "prob_mean": 0.7843, "threshold": 0.63, "in_strip": true, "artifact": "seam"}}, {"type": "Feature", "id": "D-SZ-live-guanabara-2025-09-04-007-35", "geometry": {"type": "Polygon", "coordinates": [[[-43.2109661, -22.7349677], [-43.2109649, -22.735058], [-43.2108675, -22.7350569], [-43.2108687, -22.7349666], [-43.2109661, -22.7349677]]]}, "properties": {"kind": "detection", "det_id": "D-SZ-live-guanabara-2025-09-04-007-35", "zone_id": "SZ-live-guanabara-2025-09-04-007", "scene_id": "S2C_MSIL2A_20250904T130301_R095_T23KPQ_20250904T173012", "datetime": "2025-09-04T13:03:01.024000Z", "n_pixels": 1, "area_m2": 100, "prob_max": 0.698, "prob_mean": 0.698, "threshold": 0.63, "in_strip": true, "artifact": null}}, {"type": "Feature", "id": "D-SZ-live-guanabara-2025-09-04-008-36", "geometry": {"type": "Polygon", "coordinates": [[[-43.0923833, -22.7354019], [-43.0923808, -22.7355825], [-43.0922834, -22.7355813], [-43.0922822, -22.7356716], [-43.0920875, -22.7356693], [-43.0920862, -22.7357596], [-43.0919889, -22.7357584], [-43.0919914, -22.7355778], [-43.0920888, -22.735579], [-43.09209, -22.7354887], [-43.0921873, -22.7354899], [-43.0921886, -22.7353996], [-43.0923833, -22.7354019]]]}, "properties": {"kind": "detection", "det_id": "D-SZ-live-guanabara-2025-09-04-008-36", "zone_id": "SZ-live-guanabara-2025-09-04-008", "scene_id": "S2C_MSIL2A_20250904T130301_R095_T23KPQ_20250904T173012", "datetime": "2025-09-04T13:03:01.024000Z", "n_pixels": 9, "area_m2": 900, "prob_max": 1.0, "prob_mean": 0.983, "threshold": 0.63, "in_strip": true, "artifact": null}}, {"type": "Feature", "id": "D-SZ-live-guanabara-2025-09-04-009-37", "geometry": {"type": "Polygon", "coordinates": [[[-43.0785478, -22.7362294], [-43.0785465, -22.7363197], [-43.0786439, -22.7363209], [-43.0786401, -22.7365917], [-43.0787374, -22.7365929], [-43.0787362, -22.7366832], [-43.0789308, -22.7366855], [-43.0789296, -22.7367758], [-43.0790269, -22.736777], [-43.0790256, -22.7368673], [-43.079123, -22.7368685], [-43.0791217, -22.7369587], [-43.0792191, -22.7369599], [-43.0792178, -22.7370502], [-43.0790231, -22.7370479], [-43.0790244, -22.7369576], [-43.078927, -22.7369564], [-43.0789283, -22.7368661], [-43.078831, -22.7368649], [-43.0788322, -22.7367747], [-43.0787349, -22.7367735], [-43.0787362, -22.7366832], [-43.0786388, -22.736682], [-43.0786401, -22.7365917], [-43.0785428, -22.7365906], [-43.078544, -22.7365003], [-43.0784467, -22.7364991], [-43.0784505, -22.7362283], [-43.0785478, -22.7362294]]]}, "properties": {"kind": "detection", "det_id": "D-SZ-live-guanabara-2025-09-04-009-37", "zone_id": "SZ-live-guanabara-2025-09-04-009", "scene_id": "S2C_MSIL2A_20250904T130301_R095_T23KPQ_20250904T173012", "datetime": "2025-09-04T13:03:01.024000Z", "n_pixels": 15, "area_m2": 1500, "prob_max": 1.0, "prob_mean": 0.9558, "threshold": 0.63, "in_strip": true, "artifact": null}}, {"type": "Feature", "id": "D-SZ-live-guanabara-2025-09-04-009-38", "geometry": {"type": "Polygon", "coordinates": [[[-43.0779638, -22.7362224], [-43.0779625, -22.7363127], [-43.0777679, -22.7363104], [-43.0777691, -22.7362201], [-43.0779638, -22.7362224]]]}, "properties": {"kind": "detection", "det_id": "D-SZ-live-guanabara-2025-09-04-009-38", "zone_id": "SZ-live-guanabara-2025-09-04-009", "scene_id": "S2C_MSIL2A_20250904T130301_R095_T23KPQ_20250904T173012", "datetime": "2025-09-04T13:03:01.024000Z", "n_pixels": 2, "area_m2": 200, "prob_max": 1.0, "prob_mean": 0.9922, "threshold": 0.63, "in_strip": true, "artifact": null}}, {"type": "Feature", "id": "D-SZ-live-guanabara-2025-09-04-009-39", "geometry": {"type": "Polygon", "coordinates": [[[-43.079415, -22.736872], [-43.0794137, -22.7369623], [-43.0795111, -22.7369634], [-43.0795085, -22.737144], [-43.0794112, -22.7371428], [-43.0794125, -22.7370525], [-43.0793151, -22.7370514], [-43.0793177, -22.7368708], [-43.079415, -22.736872]]]}, "properties": {"kind": "detection", "det_id": "D-SZ-live-guanabara-2025-09-04-009-39", "zone_id": "SZ-live-guanabara-2025-09-04-009", "scene_id": "S2C_MSIL2A_20250904T130301_R095_T23KPQ_20250904T173012", "datetime": "2025-09-04T13:03:01.024000Z", "n_pixels": 4, "area_m2": 400, "prob_max": 1.0, "prob_mean": 0.9245, "threshold": 0.63, "in_strip": true, "artifact": null}}, {"type": "Feature", "id": "D-SZ-live-guanabara-2025-09-04-010-42", "geometry": {"type": "Polygon", "coordinates": [[[-43.0823367, -22.74377], [-43.0823329, -22.7440409], [-43.0824302, -22.744042], [-43.082429, -22.7441323], [-43.0822343, -22.74413], [-43.0822393, -22.7437688], [-43.0823367, -22.74377]]]}, "properties": {"kind": "detection", "det_id": "D-SZ-live-guanabara-2025-09-04-010-42", "zone_id": "SZ-live-guanabara-2025-09-04-010", "scene_id": "S2C_MSIL2A_20250904T130301_R095_T23KPQ_20250904T173012", "datetime": "2025-09-04T13:03:01.024000Z", "n_pixels": 5, "area_m2": 500, "prob_max": 1.0, "prob_mean": 0.9318, "threshold": 0.63, "in_strip": true, "artifact": null}}, {"type": "Feature", "id": "D-SZ-live-guanabara-2025-09-04-010-43", "geometry": {"type": "Polygon", "coordinates": [[[-43.0820383, -22.7442179], [-43.0820371, -22.7443082], [-43.0818424, -22.7443059], [-43.0818411, -22.7443962], [-43.0817438, -22.744395], [-43.0817463, -22.7442144], [-43.0820383, -22.7442179]]]}, "properties": {"kind": "detection", "det_id": "D-SZ-live-guanabara-2025-09-04-010-43", "zone_id": "SZ-live-guanabara-2025-09-04-010", "scene_id": "S2C_MSIL2A_20250904T130301_R095_T23KPQ_20250904T173012", "datetime": "2025-09-04T13:03:01.024000Z", "n_pixels": 4, "area_m2": 400, "prob_max": 0.9961, "prob_mean": 0.8539, "threshold": 0.63, "in_strip": true, "artifact": null}}, {"type": "Feature", "id": "D-SZ-live-guanabara-2025-09-04-010-44", "geometry": {"type": "Polygon", "coordinates": [[[-43.0822318, -22.7443105], [-43.0822292, -22.7444911], [-43.0821319, -22.74449], [-43.0821344, -22.7443094], [-43.0822318, -22.7443105]]]}, "properties": {"kind": "detection", "det_id": "D-SZ-live-guanabara-2025-09-04-010-44", "zone_id": "SZ-live-guanabara-2025-09-04-010", "scene_id": "S2C_MSIL2A_20250904T130301_R095_T23KPQ_20250904T173012", "datetime": "2025-09-04T13:03:01.024000Z", "n_pixels": 2, "area_m2": 200, "prob_max": 0.9961, "prob_mean": 0.9843, "threshold": 0.63, "in_strip": true, "artifact": null}}, {"type": "Feature", "id": "D-SZ-live-guanabara-2025-09-04-010-45", "geometry": {"type": "Polygon", "coordinates": [[[-43.0817425, -22.7444853], [-43.0817413, -22.7445756], [-43.0816439, -22.7445744], [-43.0816452, -22.7444841], [-43.0817425, -22.7444853]]]}, "properties": {"kind": "detection", "det_id": "D-SZ-live-guanabara-2025-09-04-010-45", "zone_id": "SZ-live-guanabara-2025-09-04-010", "scene_id": "S2C_MSIL2A_20250904T130301_R095_T23KPQ_20250904T173012", "datetime": "2025-09-04T13:03:01.024000Z", "n_pixels": 1, "area_m2": 100, "prob_max": 0.9255, "prob_mean": 0.9255, "threshold": 0.63, "in_strip": true, "artifact": null}}, {"type": "Feature", "id": "D-SZ-live-guanabara-2025-09-04-010-46", "geometry": {"type": "Polygon", "coordinates": [[[-43.0820283, -22.7449402], [-43.082027, -22.7450305], [-43.0819296, -22.7450293], [-43.0819309, -22.744939], [-43.0820283, -22.7449402]]]}, "properties": {"kind": "detection", "det_id": "D-SZ-live-guanabara-2025-09-04-010-46", "zone_id": "SZ-live-guanabara-2025-09-04-010", "scene_id": "S2C_MSIL2A_20250904T130301_R095_T23KPQ_20250904T173012", "datetime": "2025-09-04T13:03:01.024000Z", "n_pixels": 1, "area_m2": 100, "prob_max": 0.9765, "prob_mean": 0.9765, "threshold": 0.63, "in_strip": true, "artifact": null}}, {"type": "Feature", "id": "D-SZ-live-guanabara-2025-09-04-011-47", "geometry": {"type": "Polygon", "coordinates": [[[-43.0407032, -22.7481409], [-43.0407019, -22.7482312], [-43.0407992, -22.7482324], [-43.0407979, -22.7483227], [-43.0408953, -22.7483239], [-43.040894, -22.7484141], [-43.0409913, -22.7484153], [-43.0409887, -22.7485959], [-43.0408914, -22.7485947], [-43.0408927, -22.7485044], [-43.0407954, -22.7485032], [-43.0407966, -22.748413], [-43.0406993, -22.7484118], [-43.0407006, -22.7483215], [-43.0406032, -22.7483203], [-43.0406045, -22.74823], [-43.0405072, -22.7482288], [-43.0405085, -22.7481385], [-43.0407032, -22.7481409]]]}, "properties": {"kind": "detection", "det_id": "D-SZ-live-guanabara-2025-09-04-011-47", "zone_id": "SZ-live-guanabara-2025-09-04-011", "scene_id": "S2C_MSIL2A_20250904T130301_R095_T23KPQ_20250904T173012", "datetime": "2025-09-04T13:03:01.024000Z", "n_pixels": 9, "area_m2": 900, "prob_max": 0.9961, "prob_mean": 0.966, "threshold": 0.63, "in_strip": true, "artifact": "seam"}}, {"type": "Feature", "id": "D-SZ-live-guanabara-2025-09-04-012-49", "geometry": {"type": "Polygon", "coordinates": [[[-43.2298347, -22.7515234], [-43.2298335, -22.7516137], [-43.2297361, -22.7516126], [-43.2297373, -22.7515223], [-43.2298347, -22.7515234]]]}, "properties": {"kind": "detection", "det_id": "D-SZ-live-guanabara-2025-09-04-012-49", "zone_id": "SZ-live-guanabara-2025-09-04-012", "scene_id": "S2C_MSIL2A_20250904T130301_R095_T23KPQ_20250904T173012", "datetime": "2025-09-04T13:03:01.024000Z", "n_pixels": 1, "area_m2": 100, "prob_max": 0.6863, "prob_mean": 0.6863, "threshold": 0.63, "in_strip": true, "artifact": "ship"}}, {"type": "Feature", "id": "D-SZ-live-guanabara-2025-09-04-012-50", "geometry": {"type": "Polygon", "coordinates": [[[-43.2313877, -22.7519018], [-43.2313865, -22.7519921], [-43.2312892, -22.751991], [-43.2312903, -22.7519007], [-43.2313877, -22.7519018]]]}, "properties": {"kind": "detection", "det_id": "D-SZ-live-guanabara-2025-09-04-012-50", "zone_id": "SZ-live-guanabara-2025-09-04-012", "scene_id": "S2C_MSIL2A_20250904T130301_R095_T23KPQ_20250904T173012", "datetime": "2025-09-04T13:03:01.024000Z", "n_pixels": 1, "area_m2": 100, "prob_max": 0.7294, "prob_mean": 0.7294, "threshold": 0.63, "in_strip": true, "artifact": null}}, {"type": "Feature", "id": "D-SZ-live-guanabara-2025-09-04-012-51", "geometry": {"type": "Polygon", "coordinates": [[[-43.2268097, -22.7520317], [-43.2268085, -22.752122], [-43.2262244, -22.7521155], [-43.2262255, -22.7520252], [-43.2268097, -22.7520317]]]}, "properties": {"kind": "detection", "det_id": "D-SZ-live-guanabara-2025-09-04-012-51", "zone_id": "SZ-live-guanabara-2025-09-04-012", "scene_id": "S2C_MSIL2A_20250904T130301_R095_T23KPQ_20250904T173012", "datetime": "2025-09-04T13:03:01.024000Z", "n_pixels": 6, "area_m2": 600, "prob_max": 0.9216, "prob_mean": 0.7542, "threshold": 0.63, "in_strip": true, "artifact": "seam"}}, {"type": "Feature", "id": "D-SZ-live-guanabara-2025-09-04-012-52", "geometry": {"type": "Polygon", "coordinates": [[[-43.2307954, -22.7525274], [-43.2307942, -22.7526177], [-43.2306969, -22.7526166], [-43.230698, -22.7525263], [-43.2307954, -22.7525274]]]}, "properties": {"kind": "detection", "det_id": "D-SZ-live-guanabara-2025-09-04-012-52", "zone_id": "SZ-live-guanabara-2025-09-04-012", "scene_id": "S2C_MSIL2A_20250904T130301_R095_T23KPQ_20250904T173012", "datetime": "2025-09-04T13:03:01.024000Z", "n_pixels": 1, "area_m2": 100, "prob_max": 0.9922, "prob_mean": 0.9922, "threshold": 0.63, "in_strip": true, "artifact": null}}, {"type": "Feature", "id": "D-SZ-live-guanabara-2025-09-04-012-54", "geometry": {"type": "Polygon", "coordinates": [[[-43.225333, -22.7532796], [-43.2253319, -22.7533699], [-43.2252345, -22.7533688], [-43.2252333, -22.7534591], [-43.225136, -22.753458], [-43.2251336, -22.7536386], [-43.2247442, -22.7536342], [-43.2247454, -22.7535439], [-43.2248427, -22.753545], [-43.2248439, -22.7534547], [-43.225136, -22.753458], [-43.2251383, -22.7532774], [-43.225333, -22.7532796]]]}, "properties": {"kind": "detection", "det_id": "D-SZ-live-guanabara-2025-09-04-012-54", "zone_id": "SZ-live-guanabara-2025-09-04-012", "scene_id": "S2C_MSIL2A_20250904T130301_R095_T23KPQ_20250904T173012", "datetime": "2025-09-04T13:03:01.024000Z", "n_pixels": 10, "area_m2": 1000, "prob_max": 0.9961, "prob_mean": 0.8765, "threshold": 0.63, "in_strip": true, "artifact": "seam"}}, {"type": "Feature", "id": "D-SZ-live-guanabara-2025-09-04-012-56", "geometry": {"type": "Polygon", "coordinates": [[[-43.2284449, -22.753585], [-43.2284437, -22.7536753], [-43.2280543, -22.753671], [-43.2280555, -22.7535807], [-43.2284449, -22.753585]]]}, "properties": {"kind": "detection", "det_id": "D-SZ-live-guanabara-2025-09-04-012-56", "zone_id": "SZ-live-guanabara-2025-09-04-012", "scene_id": "S2C_MSIL2A_20250904T130301_R095_T23KPQ_20250904T173012", "datetime": "2025-09-04T13:03:01.024000Z", "n_pixels": 4, "area_m2": 400, "prob_max": 0.9804, "prob_mean": 0.9549, "threshold": 0.63, "in_strip": true, "artifact": "seam"}}, {"type": "Feature", "id": "D-SZ-live-guanabara-2025-09-04-012-57", "geometry": {"type": "Polygon", "coordinates": [[[-43.2249378, -22.7537267], [-43.2249366, -22.753817], [-43.2248392, -22.7538159], [-43.2248404, -22.7537256], [-43.2249378, -22.7537267]]]}, "properties": {"kind": "detection", "det_id": "D-SZ-live-guanabara-2025-09-04-012-57", "zone_id": "SZ-live-guanabara-2025-09-04-012", "scene_id": "S2C_MSIL2A_20250904T130301_R095_T23KPQ_20250904T173012", "datetime": "2025-09-04T13:03:01.024000Z", "n_pixels": 1, "area_m2": 100, "prob_max": 0.7294, "prob_mean": 0.7294, "threshold": 0.63, "in_strip": true, "artifact": null}}, {"type": "Feature", "id": "D-SZ-live-guanabara-2025-09-04-013-80", "geometry": {"type": "Polygon", "coordinates": [[[-43.228167, -22.7826607], [-43.2281646, -22.7828413], [-43.2280673, -22.7828402], [-43.2280684, -22.7827499], [-43.227971, -22.7827488], [-43.2279722, -22.7826585], [-43.228167, -22.7826607]]]}, "properties": {"kind": "detection", "det_id": "D-SZ-live-guanabara-2025-09-04-013-80", "zone_id": "SZ-live-guanabara-2025-09-04-013", "scene_id": "S2C_MSIL2A_20250904T130301_R095_T23KPQ_20250904T173012", "datetime": "2025-09-04T13:03:01.024000Z", "n_pixels": 3, "area_m2": 300, "prob_max": 0.9843, "prob_mean": 0.8654, "threshold": 0.63, "in_strip": true, "artifact": null}}, {"type": "Feature", "id": "D-SZ-live-guanabara-2025-09-04-013-81", "geometry": {"type": "Polygon", "coordinates": [[[-43.2254381, -22.782811], [-43.2254358, -22.7829916], [-43.2253384, -22.7829905], [-43.2253407, -22.7828099], [-43.2254381, -22.782811]]]}, "properties": {"kind": "detection", "det_id": "D-SZ-live-guanabara-2025-09-04-013-81", "zone_id": "SZ-live-guanabara-2025-09-04-013", "scene_id": "S2C_MSIL2A_20250904T130301_R095_T23KPQ_20250904T173012", "datetime": "2025-09-04T13:03:01.024000Z", "n_pixels": 2, "area_m2": 200, "prob_max": 0.9843, "prob_mean": 0.9784, "threshold": 0.63, "in_strip": true, "artifact": null}}, {"type": "Feature", "id": "D-SZ-live-guanabara-2025-09-04-013-82", "geometry": {"type": "Polygon", "coordinates": [[[-43.2269938, -22.7830089], [-43.2269926, -22.7830992], [-43.2268952, -22.7830981], [-43.2268964, -22.7830078], [-43.2269938, -22.7830089]]]}, "properties": {"kind": "detection", "det_id": "D-SZ-live-guanabara-2025-09-04-013-82", "zone_id": "SZ-live-guanabara-2025-09-04-013", "scene_id": "S2C_MSIL2A_20250904T130301_R095_T23KPQ_20250904T173012", "datetime": "2025-09-04T13:03:01.024000Z", "n_pixels": 1, "area_m2": 100, "prob_max": 0.698, "prob_mean": 0.698, "threshold": 0.63, "in_strip": true, "artifact": null}}, {"type": "Feature", "id": "D-SZ-live-guanabara-2025-09-04-013-83", "geometry": {"type": "Polygon", "coordinates": [[[-43.2266043, -22.7830045], [-43.2266031, -22.7830948], [-43.2265057, -22.7830938], [-43.2265069, -22.7830035], [-43.2266043, -22.7830045]]]}, "properties": {"kind": "detection", "det_id": "D-SZ-live-guanabara-2025-09-04-013-83", "zone_id": "SZ-live-guanabara-2025-09-04-013", "scene_id": "S2C_MSIL2A_20250904T130301_R095_T23KPQ_20250904T173012", "datetime": "2025-09-04T13:03:01.024000Z", "n_pixels": 1, "area_m2": 100, "prob_max": 0.7294, "prob_mean": 0.7294, "threshold": 0.63, "in_strip": true, "artifact": null}}, {"type": "Feature", "id": "D-SZ-live-guanabara-2025-09-04-014-86", "geometry": {"type": "Polygon", "coordinates": [[[-43.1906664, -22.7904575], [-43.1906652, -22.7905478], [-43.1905679, -22.7905467], [-43.190569, -22.7904564], [-43.1906664, -22.7904575]]]}, "properties": {"kind": "detection", "det_id": "D-SZ-live-guanabara-2025-09-04-014-86", "zone_id": "SZ-live-guanabara-2025-09-04-014", "scene_id": "S2C_MSIL2A_20250904T130301_R095_T23KPQ_20250904T173012", "datetime": "2025-09-04T13:03:01.024000Z", "n_pixels": 1, "area_m2": 100, "prob_max": 0.7137, "prob_mean": 0.7137, "threshold": 0.63, "in_strip": true, "artifact": null}}, {"type": "Feature", "id": "D-SZ-live-guanabara-2025-09-04-014-87", "geometry": {"type": "Polygon", "coordinates": [[[-43.1902709, -22.7909045], [-43.1902686, -22.7910851], [-43.1901712, -22.791084], [-43.1901736, -22.7909034], [-43.1902709, -22.7909045]]]}, "properties": {"kind": "detection", "det_id": "D-SZ-live-guanabara-2025-09-04-014-87", "zone_id": "SZ-live-guanabara-2025-09-04-014", "scene_id": "S2C_MSIL2A_20250904T130301_R095_T23KPQ_20250904T173012", "datetime": "2025-09-04T13:03:01.024000Z", "n_pixels": 2, "area_m2": 200, "prob_max": 0.7412, "prob_mean": 0.7412, "threshold": 0.63, "in_strip": true, "artifact": null}}, {"type": "Feature", "id": "D-SZ-live-guanabara-2025-09-04-014-88", "geometry": {"type": "Polygon", "coordinates": [[[-43.1907447, -22.7919033], [-43.1907435, -22.7919936], [-43.1906462, -22.7919925], [-43.1906474, -22.7919022], [-43.1907447, -22.7919033]]]}, "properties": {"kind": "detection", "det_id": "D-SZ-live-guanabara-2025-09-04-014-88", "zone_id": "SZ-live-guanabara-2025-09-04-014", "scene_id": "S2C_MSIL2A_20250904T130301_R095_T23KPQ_20250904T173012", "datetime": "2025-09-04T13:03:01.024000Z", "n_pixels": 1, "area_m2": 100, "prob_max": 0.6627, "prob_mean": 0.6627, "threshold": 0.63, "in_strip": true, "artifact": null}}, {"type": "Feature", "id": "D-SZ-live-guanabara-2025-09-04-014-89", "geometry": {"type": "Polygon", "coordinates": [[[-43.1921888, -22.7931839], [-43.1921876, -22.7932742], [-43.1920902, -22.7932731], [-43.1920914, -22.7931828], [-43.1921888, -22.7931839]]]}, "properties": {"kind": "detection", "det_id": "D-SZ-live-guanabara-2025-09-04-014-89", "zone_id": "SZ-live-guanabara-2025-09-04-014", "scene_id": "S2C_MSIL2A_20250904T130301_R095_T23KPQ_20250904T173012", "datetime": "2025-09-04T13:03:01.024000Z", "n_pixels": 1, "area_m2": 100, "prob_max": 0.8941, "prob_mean": 0.8941, "threshold": 0.63, "in_strip": true, "artifact": null}}, {"type": "Feature", "id": "D-SZ-live-guanabara-2025-09-04-014-90", "geometry": {"type": "Polygon", "coordinates": [[[-43.191019, -22.793261], [-43.1910178, -22.7933513], [-43.1911152, -22.7933524], [-43.191114, -22.7934427], [-43.1909192, -22.7934404], [-43.1909204, -22.7933502], [-43.1908231, -22.793349], [-43.1908242, -22.7932588], [-43.191019, -22.793261]]]}, "properties": {"kind": "detection", "det_id": "D-SZ-live-guanabara-2025-09-04-014-90", "zone_id": "SZ-live-guanabara-2025-09-04-014", "scene_id": "S2C_MSIL2A_20250904T130301_R095_T23KPQ_20250904T173012", "datetime": "2025-09-04T13:03:01.024000Z", "n_pixels": 4, "area_m2": 400, "prob_max": 0.8941, "prob_mean": 0.8657, "threshold": 0.63, "in_strip": true, "artifact": null}}, {"type": "Feature", "id": "D-SZ-live-guanabara-2025-09-04-014-91", "geometry": {"type": "Polygon", "coordinates": [[[-43.1914062, -22.793446], [-43.191405, -22.7935363], [-43.1915023, -22.7935374], [-43.1915012, -22.7936277], [-43.1913064, -22.7936254], [-43.1913088, -22.7934449], [-43.1914062, -22.793446]]]}, "properties": {"kind": "detection", "det_id": "D-SZ-live-guanabara-2025-09-04-014-91", "zone_id": "SZ-live-guanabara-2025-09-04-014", "scene_id": "S2C_MSIL2A_20250904T130301_R095_T23KPQ_20250904T173012", "datetime": "2025-09-04T13:03:01.024000Z", "n_pixels": 3, "area_m2": 300, "prob_max": 1.0, "prob_mean": 0.9974, "threshold": 0.63, "in_strip": true, "artifact": null}}, {"type": "Feature", "id": "D-SZ-live-guanabara-2025-09-04-015-99", "geometry": {"type": "Polygon", "coordinates": [[[-43.0718602, -22.8034231], [-43.0718589, -22.8035134], [-43.0717615, -22.8035122], [-43.0717628, -22.8034219], [-43.0718602, -22.8034231]]]}, "properties": {"kind": "detection", "det_id": "D-SZ-live-guanabara-2025-09-04-015-99", "zone_id": "SZ-live-guanabara-2025-09-04-015", "scene_id": "S2C_MSIL2A_20250904T130301_R095_T23KPQ_20250904T173012", "datetime": "2025-09-04T13:03:01.024000Z", "n_pixels": 1, "area_m2": 100, "prob_max": 0.6431, "prob_mean": 0.6431, "threshold": 0.63, "in_strip": true, "artifact": null}}, {"type": "Feature", "id": "D-SZ-live-guanabara-2025-09-04-015-100", "geometry": {"type": "Polygon", "coordinates": [[[-43.0714681, -22.803599], [-43.0714669, -22.8036893], [-43.0713695, -22.8036881], [-43.0713669, -22.8038687], [-43.0714643, -22.8038698], [-43.071463, -22.8039601], [-43.0713657, -22.8039589], [-43.0713669, -22.8038687], [-43.0709774, -22.8038639], [-43.0709799, -22.8036834], [-43.0712721, -22.8036869], [-43.0712734, -22.8035966], [-43.0714681, -22.803599]]]}, "properties": {"kind": "detection", "det_id": "D-SZ-live-guanabara-2025-09-04-015-100", "zone_id": "SZ-live-guanabara-2025-09-04-015", "scene_id": "S2C_MSIL2A_20250904T130301_R095_T23KPQ_20250904T173012", "datetime": "2025-09-04T13:03:01.024000Z", "n_pixels": 11, "area_m2": 1100, "prob_max": 0.9882, "prob_mean": 0.8738, "threshold": 0.63, "in_strip": true, "artifact": null}}, {"type": "Feature", "id": "D-SZ-live-guanabara-2025-09-04-015-101", "geometry": {"type": "Polygon", "coordinates": [[[-43.0719512, -22.8038757], [-43.07195, -22.803966], [-43.0718526, -22.8039648], [-43.0718538, -22.8038745], [-43.0719512, -22.8038757]]]}, "properties": {"kind": "detection", "det_id": "D-SZ-live-guanabara-2025-09-04-015-101", "zone_id": "SZ-live-guanabara-2025-09-04-015", "scene_id": "S2C_MSIL2A_20250904T130301_R095_T23KPQ_20250904T173012", "datetime": "2025-09-04T13:03:01.024000Z", "n_pixels": 1, "area_m2": 100, "prob_max": 0.7137, "prob_mean": 0.7137, "threshold": 0.63, "in_strip": true, "artifact": null}}, {"type": "Feature", "id": "D-SZ-live-guanabara-2025-09-04-016-103", "geometry": {"type": "Polygon", "coordinates": [[[-43.2692287, -22.8087589], [-43.2692276, -22.8088492], [-43.2691302, -22.8088481], [-43.2691313, -22.8087578], [-43.2692287, -22.8087589]]]}, "properties": {"kind": "detection", "det_id": "D-SZ-live-guanabara-2025-09-04-016-103", "zone_id": "SZ-live-guanabara-2025-09-04-016", "scene_id": "S2C_MSIL2A_20250904T130301_R095_T23KPQ_20250904T173012", "datetime": "2025-09-04T13:03:01.024000Z", "n_pixels": 1, "area_m2": 100, "prob_max": 0.9647, "prob_mean": 0.9647, "threshold": 0.63, "in_strip": true, "artifact": null}}, {"type": "Feature", "id": "D-SZ-live-guanabara-2025-09-04-016-104", "geometry": {"type": "Polygon", "coordinates": [[[-43.2687383, -22.8090245], [-43.2687372, -22.8091148], [-43.2686398, -22.8091137], [-43.2686409, -22.8090234], [-43.2687383, -22.8090245]]]}, "properties": {"kind": "detection", "det_id": "D-SZ-live-guanabara-2025-09-04-016-104", "zone_id": "SZ-live-guanabara-2025-09-04-016", "scene_id": "S2C_MSIL2A_20250904T130301_R095_T23KPQ_20250904T173012", "datetime": "2025-09-04T13:03:01.024000Z", "n_pixels": 1, "area_m2": 100, "prob_max": 0.8627, "prob_mean": 0.8627, "threshold": 0.63, "in_strip": true, "artifact": null}}, {"type": "Feature", "id": "D-SZ-live-guanabara-2025-09-04-016-105", "geometry": {"type": "Polygon", "coordinates": [[[-43.2685412, -22.809203], [-43.2685401, -22.8092933], [-43.2684427, -22.8092922], [-43.2684438, -22.8092019], [-43.2685412, -22.809203]]]}, "properties": {"kind": "detection", "det_id": "D-SZ-live-guanabara-2025-09-04-016-105", "zone_id": "SZ-live-guanabara-2025-09-04-016", "scene_id": "S2C_MSIL2A_20250904T130301_R095_T23KPQ_20250904T173012", "datetime": "2025-09-04T13:03:01.024000Z", "n_pixels": 1, "area_m2": 100, "prob_max": 0.9922, "prob_mean": 0.9922, "threshold": 0.63, "in_strip": true, "artifact": null}}, {"type": "Feature", "id": "D-SZ-live-guanabara-2025-09-04-016-106", "geometry": {"type": "Polygon", "coordinates": [[[-43.2683453, -22.8092912], [-43.268343, -22.8094717], [-43.2682456, -22.8094707], [-43.2682479, -22.8092901], [-43.2683453, -22.8092912]]]}, "properties": {"kind": "detection", "det_id": "D-SZ-live-guanabara-2025-09-04-016-106", "zone_id": "SZ-live-guanabara-2025-09-04-016", "scene_id": "S2C_MSIL2A_20250904T130301_R095_T23KPQ_20250904T173012", "datetime": "2025-09-04T13:03:01.024000Z", "n_pixels": 2, "area_m2": 200, "prob_max": 1.0, "prob_mean": 0.9941, "threshold": 0.63, "in_strip": true, "artifact": null}}, {"type": "Feature", "id": "D-SZ-live-guanabara-2025-09-04-016-107", "geometry": {"type": "Polygon", "coordinates": [[[-43.2680508, -22.8094686], [-43.2680485, -22.8096492], [-43.2679511, -22.8096481], [-43.2679534, -22.8094675], [-43.2680508, -22.8094686]]]}, "properties": {"kind": "detection", "det_id": "D-SZ-live-guanabara-2025-09-04-016-107", "zone_id": "SZ-live-guanabara-2025-09-04-016", "scene_id": "S2C_MSIL2A_20250904T130301_R095_T23KPQ_20250904T173012", "datetime": "2025-09-04T13:03:01.024000Z", "n_pixels": 2, "area_m2": 200, "prob_max": 0.9529, "prob_mean": 0.949, "threshold": 0.63, "in_strip": true, "artifact": null}}, {"type": "Feature", "id": "D-SZ-live-guanabara-2025-09-04-016-108", "geometry": {"type": "Polygon", "coordinates": [[[-43.2678537, -22.809647], [-43.2678526, -22.8097373], [-43.2677552, -22.8097363], [-43.2677541, -22.8098266], [-43.2676567, -22.8098255], [-43.2676578, -22.8097352], [-43.2677552, -22.8097363], [-43.2677563, -22.809646], [-43.2678537, -22.809647]]]}, "properties": {"kind": "detection", "det_id": "D-SZ-live-guanabara-2025-09-04-016-108", "zone_id": "SZ-live-guanabara-2025-09-04-016", "scene_id": "S2C_MSIL2A_20250904T130301_R095_T23KPQ_20250904T173012", "datetime": "2025-09-04T13:03:01.024000Z", "n_pixels": 2, "area_m2": 200, "prob_max": 1.0, "prob_mean": 0.8882, "threshold": 0.63, "in_strip": true, "artifact": null}}, {"type": "Feature", "id": "D-SZ-live-guanabara-2025-09-04-016-109", "geometry": {"type": "Polygon", "coordinates": [[[-43.2675593, -22.8098245], [-43.267557, -22.810005], [-43.2674596, -22.810004], [-43.2674619, -22.8098234], [-43.2675593, -22.8098245]]]}, "properties": {"kind": "detection", "det_id": "D-SZ-live-guanabara-2025-09-04-016-109", "zone_id": "SZ-live-guanabara-2025-09-04-016", "scene_id": "S2C_MSIL2A_20250904T130301_R095_T23KPQ_20250904T173012", "datetime": "2025-09-04T13:03:01.024000Z", "n_pixels": 2, "area_m2": 200, "prob_max": 0.9882, "prob_mean": 0.949, "threshold": 0.63, "in_strip": true, "artifact": null}}, {"type": "Feature", "id": "D-SZ-live-guanabara-2025-09-04-016-110", "geometry": {"type": "Polygon", "coordinates": [[[-43.2670677, -22.8101803], [-43.2670666, -22.8102706], [-43.2669692, -22.8102696], [-43.2669703, -22.8101793], [-43.2670677, -22.8101803]]]}, "properties": {"kind": "detection", "det_id": "D-SZ-live-guanabara-2025-09-04-016-110", "zone_id": "SZ-live-guanabara-2025-09-04-016", "scene_id": "S2C_MSIL2A_20250904T130301_R095_T23KPQ_20250904T173012", "datetime": "2025-09-04T13:03:01.024000Z", "n_pixels": 1, "area_m2": 100, "prob_max": 0.9843, "prob_mean": 0.9843, "threshold": 0.63, "in_strip": true, "artifact": null}}, {"type": "Feature", "id": "D-SZ-live-guanabara-2025-09-04-016-111", "geometry": {"type": "Polygon", "coordinates": [[[-43.2666747, -22.810447], [-43.2666735, -22.8105373], [-43.2665761, -22.8105362], [-43.266575, -22.8106265], [-43.2664776, -22.8106255], [-43.2664799, -22.8104449], [-43.2666747, -22.810447]]]}, "properties": {"kind": "detection", "det_id": "D-SZ-live-guanabara-2025-09-04-016-111", "zone_id": "SZ-live-guanabara-2025-09-04-016", "scene_id": "S2C_MSIL2A_20250904T130301_R095_T23KPQ_20250904T173012", "datetime": "2025-09-04T13:03:01.024000Z", "n_pixels": 3, "area_m2": 300, "prob_max": 1.0, "prob_mean": 0.9908, "threshold": 0.63, "in_strip": true, "artifact": null}}, {"type": "Feature", "id": "D-SZ-live-guanabara-2025-09-04-017-113", "geometry": {"type": "Polygon", "coordinates": [[[-43.073528, -22.8094934], [-43.0735268, -22.8095837], [-43.0734294, -22.8095825], [-43.0734306, -22.8094923], [-43.073528, -22.8094934]]]}, "properties": {"kind": "detection", "det_id": "D-SZ-live-guanabara-2025-09-04-017-113", "zone_id": "SZ-live-guanabara-2025-09-04-017", "scene_id": "S2C_MSIL2A_20250904T130301_R095_T23KPQ_20250904T173012", "datetime": "2025-09-04T13:03:01.024000Z", "n_pixels": 1, "area_m2": 100, "prob_max": 0.9804, "prob_mean": 0.9804, "threshold": 0.63, "in_strip": true, "artifact": null}}, {"type": "Feature", "id": "D-SZ-live-guanabara-2025-09-04-017-114", "geometry": {"type": "Polygon", "coordinates": [[[-43.0728425, -22.809756], [-43.0728412, -22.8098463], [-43.0727438, -22.8098452], [-43.0727451, -22.8097549], [-43.0728425, -22.809756]]]}, "properties": {"kind": "detection", "det_id": "D-SZ-live-guanabara-2025-09-04-017-114", "zone_id": "SZ-live-guanabara-2025-09-04-017", "scene_id": "S2C_MSIL2A_20250904T130301_R095_T23KPQ_20250904T173012", "datetime": "2025-09-04T13:03:01.024000Z", "n_pixels": 1, "area_m2": 100, "prob_max": 0.9373, "prob_mean": 0.9373, "threshold": 0.63, "in_strip": true, "artifact": null}}, {"type": "Feature", "id": "D-SZ-live-guanabara-2025-09-04-017-115", "geometry": {"type": "Polygon", "coordinates": [[[-43.0754529, -22.8111421], [-43.0754517, -22.8112324], [-43.0753543, -22.8112312], [-43.0753555, -22.8111409], [-43.0754529, -22.8111421]]]}, "properties": {"kind": "detection", "det_id": "D-SZ-live-guanabara-2025-09-04-017-115", "zone_id": "SZ-live-guanabara-2025-09-04-017", "scene_id": "S2C_MSIL2A_20250904T130301_R095_T23KPQ_20250904T173012", "datetime": "2025-09-04T13:03:01.024000Z", "n_pixels": 1, "area_m2": 100, "prob_max": 0.9608, "prob_mean": 0.9608, "threshold": 0.63, "in_strip": true, "artifact": null}}, {"type": "Feature", "id": "D-SZ-live-guanabara-2025-09-04-017-116", "geometry": {"type": "Polygon", "coordinates": [[[-43.0758361, -22.8115982], [-43.0758349, -22.8116885], [-43.0756401, -22.8116862], [-43.0756414, -22.8115959], [-43.0758361, -22.8115982]]]}, "properties": {"kind": "detection", "det_id": "D-SZ-live-guanabara-2025-09-04-017-116", "zone_id": "SZ-live-guanabara-2025-09-04-017", "scene_id": "S2C_MSIL2A_20250904T130301_R095_T23KPQ_20250904T173012", "datetime": "2025-09-04T13:03:01.024000Z", "n_pixels": 2, "area_m2": 200, "prob_max": 0.8784, "prob_mean": 0.8588, "threshold": 0.63, "in_strip": true, "artifact": null}}, {"type": "Feature", "id": "D-SZ-live-guanabara-2025-09-04-017-117", "geometry": {"type": "Polygon", "coordinates": [[[-43.0752467, -22.8119523], [-43.0752455, -22.8120426], [-43.0751481, -22.8120414], [-43.0751493, -22.8119511], [-43.0752467, -22.8119523]]]}, "properties": {"kind": "detection", "det_id": "D-SZ-live-guanabara-2025-09-04-017-117", "zone_id": "SZ-live-guanabara-2025-09-04-017", "scene_id": "S2C_MSIL2A_20250904T130301_R095_T23KPQ_20250904T173012", "datetime": "2025-09-04T13:03:01.024000Z", "n_pixels": 1, "area_m2": 100, "prob_max": 0.6667, "prob_mean": 0.6667, "threshold": 0.63, "in_strip": true, "artifact": null}}, {"type": "Feature", "id": "D-SZ-live-guanabara-2025-09-04-018-120", "geometry": {"type": "Polygon", "coordinates": [[[-43.0778382, -22.8146926], [-43.0778369, -22.8147829], [-43.0777396, -22.8147817], [-43.0777408, -22.8146914], [-43.0778382, -22.8146926]]]}, "properties": {"kind": "detection", "det_id": "D-SZ-live-guanabara-2025-09-04-018-120", "zone_id": "SZ-live-guanabara-2025-09-04-018", "scene_id": "S2C_MSIL2A_20250904T130301_R095_T23KPQ_20250904T173012", "datetime": "2025-09-04T13:03:01.024000Z", "n_pixels": 1, "area_m2": 100, "prob_max": 0.9412, "prob_mean": 0.9412, "threshold": 0.63, "in_strip": true, "artifact": null}}, {"type": "Feature", "id": "D-SZ-live-guanabara-2025-09-04-018-121", "geometry": {"type": "Polygon", "coordinates": [[[-43.0778357, -22.8148732], [-43.0778344, -22.8149635], [-43.077737, -22.8149623], [-43.0777345, -22.8151429], [-43.0776371, -22.8151417], [-43.0776409, -22.8148708], [-43.0778357, -22.8148732]]]}, "properties": {"kind": "detection", "det_id": "D-SZ-live-guanabara-2025-09-04-018-121", "zone_id": "SZ-live-guanabara-2025-09-04-018", "scene_id": "S2C_MSIL2A_20250904T130301_R095_T23KPQ_20250904T173012", "datetime": "2025-09-04T13:03:01.024000Z", "n_pixels": 4, "area_m2": 400, "prob_max": 0.9725, "prob_mean": 0.898, "threshold": 0.63, "in_strip": true, "artifact": "seam"}}, {"type": "Feature", "id": "D-SZ-live-guanabara-2025-09-04-019-123", "geometry": {"type": "Polygon", "coordinates": [[[-43.0868792, -22.8159754], [-43.0868779, -22.8160656], [-43.0867805, -22.8160645], [-43.0867818, -22.8159742], [-43.0868792, -22.8159754]]]}, "properties": {"kind": "detection", "det_id": "D-SZ-live-guanabara-2025-09-04-019-123", "zone_id": "SZ-live-guanabara-2025-09-04-019", "scene_id": "S2C_MSIL2A_20250904T130301_R095_T23KPQ_20250904T173012", "datetime": "2025-09-04T13:03:01.024000Z", "n_pixels": 1, "area_m2": 100, "prob_max": 0.9686, "prob_mean": 0.9686, "threshold": 0.63, "in_strip": true, "artifact": null}}, {"type": "Feature", "id": "D-SZ-live-guanabara-2025-09-04-019-124", "geometry": {"type": "Polygon", "coordinates": [[[-43.0873649, -22.8160715], [-43.0873624, -22.8162521], [-43.087265, -22.8162509], [-43.0872675, -22.8160703], [-43.0873649, -22.8160715]]]}, "properties": {"kind": "detection", "det_id": "D-SZ-live-guanabara-2025-09-04-019-124", "zone_id": "SZ-live-guanabara-2025-09-04-019", "scene_id": "S2C_MSIL2A_20250904T130301_R095_T23KPQ_20250904T173012", "datetime": "2025-09-04T13:03:01.024000Z", "n_pixels": 2, "area_m2": 200, "prob_max": 0.7725, "prob_mean": 0.7078, "threshold": 0.63, "in_strip": true, "artifact": null}}, {"type": "Feature", "id": "D-SZ-live-guanabara-2025-09-04-019-126", "geometry": {"type": "Polygon", "coordinates": [[[-43.0876445, -22.8169779], [-43.0876419, -22.8171584], [-43.0874472, -22.8171561], [-43.0874484, -22.8170658], [-43.0875458, -22.817067], [-43.0875471, -22.8169767], [-43.0876445, -22.8169779]]]}, "properties": {"kind": "detection", "det_id": "D-SZ-live-guanabara-2025-09-04-019-126", "zone_id": "SZ-live-guanabara-2025-09-04-019", "scene_id": "S2C_MSIL2A_20250904T130301_R095_T23KPQ_20250904T173012", "datetime": "2025-09-04T13:03:01.024000Z", "n_pixels": 3, "area_m2": 300, "prob_max": 1.0, "prob_mean": 0.9033, "threshold": 0.63, "in_strip": true, "artifact": null}}, {"type": "Feature", "id": "D-SZ-live-guanabara-2025-09-04-019-128", "geometry": {"type": "Polygon", "coordinates": [[[-43.086663, -22.8175079], [-43.0866604, -22.8176884], [-43.0865631, -22.8176873], [-43.0865643, -22.817597], [-43.0864669, -22.8175958], [-43.0864682, -22.8175055], [-43.086663, -22.8175079]]]}, "properties": {"kind": "detection", "det_id": "D-SZ-live-guanabara-2025-09-04-019-128", "zone_id": "SZ-live-guanabara-2025-09-04-019", "scene_id": "S2C_MSIL2A_20250904T130301_R095_T23KPQ_20250904T173012", "datetime": "2025-09-04T13:03:01.024000Z", "n_pixels": 3, "area_m2": 300, "prob_max": 0.9961, "prob_mean": 0.9882, "threshold": 0.63, "in_strip": true, "artifact": null}}, {"type": "Feature", "id": "D-SZ-live-guanabara-2025-09-04-019-129", "geometry": {"type": "Polygon", "coordinates": [[[-43.085689, -22.8174962], [-43.0856878, -22.8175865], [-43.0855904, -22.8175853], [-43.0855916, -22.817495], [-43.085689, -22.8174962]]]}, "properties": {"kind": "detection", "det_id": "D-SZ-live-guanabara-2025-09-04-019-129", "zone_id": "SZ-live-guanabara-2025-09-04-019", "scene_id": "S2C_MSIL2A_20250904T130301_R095_T23KPQ_20250904T173012", "datetime": "2025-09-04T13:03:01.024000Z", "n_pixels": 1, "area_m2": 100, "prob_max": 0.8196, "prob_mean": 0.8196, "threshold": 0.63, "in_strip": true, "artifact": null}}, {"type": "Feature", "id": "D-SZ-live-guanabara-2025-09-04-019-130", "geometry": {"type": "Polygon", "coordinates": [[[-43.084027, -22.8179277], [-43.0840258, -22.818018], [-43.0839284, -22.8180168], [-43.0839296, -22.8179265], [-43.084027, -22.8179277]]]}, "properties": {"kind": "detection", "det_id": "D-SZ-live-guanabara-2025-09-04-019-130", "zone_id": "SZ-live-guanabara-2025-09-04-019", "scene_id": "S2C_MSIL2A_20250904T130301_R095_T23KPQ_20250904T173012", "datetime": "2025-09-04T13:03:01.024000Z", "n_pixels": 1, "area_m2": 100, "prob_max": 0.8667, "prob_mean": 0.8667, "threshold": 0.63, "in_strip": true, "artifact": null}}, {"type": "Feature", "id": "D-SZ-live-guanabara-2025-09-04-020-165", "geometry": {"type": "Polygon", "coordinates": [[[-43.1613986, -22.8955973], [-43.1613962, -22.8957779], [-43.1612013, -22.8957756], [-43.1612025, -22.8956853], [-43.1613, -22.8956865], [-43.1613012, -22.8955962], [-43.1613986, -22.8955973]]]}, "properties": {"kind": "detection", "det_id": "D-SZ-live-guanabara-2025-09-04-020-165", "zone_id": "SZ-live-guanabara-2025-09-04-020", "scene_id": "S2C_MSIL2A_20250904T130301_R095_T23KPQ_20250904T173012", "datetime": "2025-09-04T13:03:01.024000Z", "n_pixels": 3, "area_m2": 300, "prob_max": 0.9137, "prob_mean": 0.898, "threshold": 0.63, "in_strip": true, "artifact": null}}, {"type": "Feature", "id": "D-SZ-live-guanabara-2025-09-04-020-166", "geometry": {"type": "Polygon", "coordinates": [[[-43.160228, -22.8956741], [-43.1602255, -22.8958546], [-43.1601281, -22.8958535], [-43.1601305, -22.8956729], [-43.160228, -22.8956741]]]}, "properties": {"kind": "detection", "det_id": "D-SZ-live-guanabara-2025-09-04-020-166", "zone_id": "SZ-live-guanabara-2025-09-04-020", "scene_id": "S2C_MSIL2A_20250904T130301_R095_T23KPQ_20250904T173012", "datetime": "2025-09-04T13:03:01.024000Z", "n_pixels": 2, "area_m2": 200, "prob_max": 0.902, "prob_mean": 0.8176, "threshold": 0.63, "in_strip": true, "artifact": null}}, {"type": "Feature", "id": "D-SZ-live-guanabara-2025-09-04-021-173", "geometry": {"type": "Polygon", "coordinates": [[[-43.1151868, -22.9246747], [-43.1151855, -22.924765], [-43.1150881, -22.9247638], [-43.1150893, -22.9246735], [-43.1151868, -22.9246747]]]}, "properties": {"kind": "detection", "det_id": "D-SZ-live-guanabara-2025-09-04-021-173", "zone_id": "SZ-live-guanabara-2025-09-04-021", "scene_id": "S2C_MSIL2A_20250904T130301_R095_T23KPQ_20250904T173012", "datetime": "2025-09-04T13:03:01.024000Z", "n_pixels": 1, "area_m2": 100, "prob_max": 0.7647, "prob_mean": 0.7647, "threshold": 0.63, "in_strip": true, "artifact": null}}, {"type": "Feature", "id": "D-SZ-live-guanabara-2025-09-04-021-175", "geometry": {"type": "Polygon", "coordinates": [[[-43.1144982, -22.925118], [-43.114497, -22.9252083], [-43.1145945, -22.9252094], [-43.1145932, -22.9252997], [-43.1144957, -22.9252986], [-43.114497, -22.9252083], [-43.1143995, -22.9252071], [-43.1144008, -22.9251168], [-43.1144982, -22.925118]]]}, "properties": {"kind": "detection", "det_id": "D-SZ-live-guanabara-2025-09-04-021-175", "zone_id": "SZ-live-guanabara-2025-09-04-021", "scene_id": "S2C_MSIL2A_20250904T130301_R095_T23KPQ_20250904T173012", "datetime": "2025-09-04T13:03:01.024000Z", "n_pixels": 2, "area_m2": 200, "prob_max": 0.9255, "prob_mean": 0.9, "threshold": 0.63, "in_strip": true, "artifact": null}}, {"type": "Feature", "id": "D-SZ-live-guanabara-2025-09-04-021-176", "geometry": {"type": "Polygon", "coordinates": [[[-43.1118477, -22.926441], [-43.1118452, -22.9266216], [-43.1117477, -22.9266204], [-43.1117503, -22.9264398], [-43.1118477, -22.926441]]]}, "properties": {"kind": "detection", "det_id": "D-SZ-live-guanabara-2025-09-04-021-176", "zone_id": "SZ-live-guanabara-2025-09-04-021", "scene_id": "S2C_MSIL2A_20250904T130301_R095_T23KPQ_20250904T173012", "datetime": "2025-09-04T13:03:01.024000Z", "n_pixels": 2, "area_m2": 200, "prob_max": 0.7608, "prob_mean": 0.7118, "threshold": 0.63, "in_strip": true, "artifact": null}}, {"type": "Feature", "id": "D-SZ-live-guanabara-2025-09-04-022-177", "geometry": {"type": "Polygon", "coordinates": [[[-43.1449863, -22.9270123], [-43.1449851, -22.9271026], [-43.1448876, -22.9271015], [-43.1448888, -22.9270112], [-43.1449863, -22.9270123]]]}, "properties": {"kind": "detection", "det_id": "D-SZ-live-guanabara-2025-09-04-022-177", "zone_id": "SZ-live-guanabara-2025-09-04-022", "scene_id": "S2C_MSIL2A_20250904T130301_R095_T23KPQ_20250904T173012", "datetime": "2025-09-04T13:03:01.024000Z", "n_pixels": 1, "area_m2": 100, "prob_max": 0.9176, "prob_mean": 0.9176, "threshold": 0.63, "in_strip": true, "artifact": null}}, {"type": "Feature", "id": "D-SZ-live-guanabara-2025-09-04-022-178", "geometry": {"type": "Polygon", "coordinates": [[[-43.142452, -22.9269827], [-43.1424495, -22.9271633], [-43.142352, -22.9271621], [-43.1423545, -22.9269816], [-43.142452, -22.9269827]]]}, "properties": {"kind": "detection", "det_id": "D-SZ-live-guanabara-2025-09-04-022-178", "zone_id": "SZ-live-guanabara-2025-09-04-022", "scene_id": "S2C_MSIL2A_20250904T130301_R095_T23KPQ_20250904T173012", "datetime": "2025-09-04T13:03:01.024000Z", "n_pixels": 2, "area_m2": 200, "prob_max": 0.8745, "prob_mean": 0.8059, "threshold": 0.63, "in_strip": true, "artifact": null}}, {"type": "Feature", "id": "D-SZ-live-guanabara-2025-09-04-022-179", "geometry": {"type": "Polygon", "coordinates": [[[-43.1446914, -22.9271895], [-43.1446902, -22.9272798], [-43.1445927, -22.9272786], [-43.1445939, -22.9271884], [-43.1446914, -22.9271895]]]}, "properties": {"kind": "detection", "det_id": "D-SZ-live-guanabara-2025-09-04-022-179", "zone_id": "SZ-live-guanabara-2025-09-04-022", "scene_id": "S2C_MSIL2A_20250904T130301_R095_T23KPQ_20250904T173012", "datetime": "2025-09-04T13:03:01.024000Z", "n_pixels": 1, "area_m2": 100, "prob_max": 0.8471, "prob_mean": 0.8471, "threshold": 0.63, "in_strip": true, "artifact": null}}, {"type": "Feature", "id": "D-SZ-live-guanabara-2025-09-04-022-180", "geometry": {"type": "Polygon", "coordinates": [[[-43.1433972, -22.929161], [-43.1433947, -22.9293416], [-43.1432972, -22.9293404], [-43.1432997, -22.9291599], [-43.1433972, -22.929161]]]}, "properties": {"kind": "detection", "det_id": "D-SZ-live-guanabara-2025-09-04-022-180", "zone_id": "SZ-live-guanabara-2025-09-04-022", "scene_id": "S2C_MSIL2A_20250904T130301_R095_T23KPQ_20250904T173012", "datetime": "2025-09-04T13:03:01.024000Z", "n_pixels": 2, "area_m2": 200, "prob_max": 0.9765, "prob_mean": 0.9706, "threshold": 0.63, "in_strip": true, "artifact": null}}, {"type": "Feature", "id": "D-SZ-live-guanabara-2025-09-04-022-181", "geometry": {"type": "Polygon", "coordinates": [[[-43.1458316, -22.9293701], [-43.1458304, -22.9294604], [-43.1457329, -22.9294592], [-43.1457341, -22.9293689], [-43.1458316, -22.9293701]]]}, "properties": {"kind": "detection", "det_id": "D-SZ-live-guanabara-2025-09-04-022-181", "zone_id": "SZ-live-guanabara-2025-09-04-022", "scene_id": "S2C_MSIL2A_20250904T130301_R095_T23KPQ_20250904T173012", "datetime": "2025-09-04T13:03:01.024000Z", "n_pixels": 1, "area_m2": 100, "prob_max": 0.9098, "prob_mean": 0.9098, "threshold": 0.63, "in_strip": true, "artifact": null}}, {"type": "Feature", "id": "D-SZ-live-guanabara-2025-09-04-022-183", "geometry": {"type": "Polygon", "coordinates": [[[-43.1443363, -22.9317908], [-43.144335, -22.931881], [-43.1442375, -22.9318799], [-43.1442388, -22.9317896], [-43.1443363, -22.9317908]]]}, "properties": {"kind": "detection", "det_id": "D-SZ-live-guanabara-2025-09-04-022-183", "zone_id": "SZ-live-guanabara-2025-09-04-022", "scene_id": "S2C_MSIL2A_20250904T130301_R095_T23KPQ_20250904T173012", "datetime": "2025-09-04T13:03:01.024000Z", "n_pixels": 1, "area_m2": 100, "prob_max": 0.9569, "prob_mean": 0.9569, "threshold": 0.63, "in_strip": true, "artifact": null}}, {"type": "Feature", "id": "D-SZ-live-guanabara-2025-09-04-023-184", "geometry": {"type": "Polygon", "coordinates": [[[-43.1574873, -22.9325761], [-43.1574861, -22.9326664], [-43.1575836, -22.9326675], [-43.1575811, -22.9328481], [-43.1574836, -22.932847], [-43.1574849, -22.9327567], [-43.1573874, -22.9327555], [-43.1573898, -22.932575], [-43.1574873, -22.9325761]]]}, "properties": {"kind": "detection", "det_id": "D-SZ-live-guanabara-2025-09-04-023-184", "zone_id": "SZ-live-guanabara-2025-09-04-023", "scene_id": "S2C_MSIL2A_20250904T130301_R095_T23KPQ_20250904T173012", "datetime": "2025-09-04T13:03:01.024000Z", "n_pixels": 4, "area_m2": 400, "prob_max": 0.9882, "prob_mean": 0.8912, "threshold": 0.63, "in_strip": true, "artifact": null}}, {"type": "Feature", "id": "D-SZ-live-guanabara-2025-09-04-023-185", "geometry": {"type": "Polygon", "coordinates": [[[-43.1574824, -22.9329372], [-43.1574812, -22.9330275], [-43.1573837, -22.9330264], [-43.1573849, -22.9329361], [-43.1574824, -22.9329372]]]}, "properties": {"kind": "detection", "det_id": "D-SZ-live-guanabara-2025-09-04-023-185", "zone_id": "SZ-live-guanabara-2025-09-04-023", "scene_id": "S2C_MSIL2A_20250904T130301_R095_T23KPQ_20250904T173012", "datetime": "2025-09-04T13:03:01.024000Z", "n_pixels": 1, "area_m2": 100, "prob_max": 0.9922, "prob_mean": 0.9922, "threshold": 0.63, "in_strip": true, "artifact": null}}]}