{"type": "FeatureCollection", "features": [{"type": "Feature", "id": "D-SZ-live-haiti-2020-12-19-001-8", "geometry": {"type": "Polygon", "coordinates": [[[-72.5058672, 18.6938585], [-72.5058686, 18.6937682], [-72.5057738, 18.6937669], [-72.5057751, 18.6936766], [-72.5056804, 18.6936754], [-72.5056817, 18.6935851], [-72.505587, 18.6935838], [-72.5055883, 18.6934935], [-72.5054935, 18.6934923], [-72.5054909, 18.6936728], [-72.5055856, 18.6936741], [-72.5055843, 18.6937644], [-72.5056791, 18.6937657], [-72.5056777, 18.693856], [-72.5058672, 18.6938585]]]}, "properties": {"kind": "detection", "det_id": "D-SZ-live-haiti-2020-12-19-001-8", "zone_id": "SZ-live-haiti-2020-12-19-001", "scene_id": "S2B_18QYF_20201219_0_L2A", "datetime": "2020-12-19T15:27:56.448000Z", "n_pixels": 7, "area_m2": 700, "prob_max": 0.9961, "prob_mean": 0.842, "threshold": 0.63, "in_strip": true, "artifact": null}}, {"type": "Feature", "id": "D-SZ-live-haiti-2020-12-19-001-9", "geometry": {"type": "Polygon", "coordinates": [[[-72.5053014, 18.6936703], [-72.505304, 18.6934897], [-72.5051145, 18.6934872], [-72.5051132, 18.6935775], [-72.505208, 18.6935788], [-72.5052066, 18.6936691], [-72.5053014, 18.6936703]]]}, "properties": {"kind": "detection", "det_id": "D-SZ-live-haiti-2020-12-19-001-9", "zone_id": "SZ-live-haiti-2020-12-19-001", "scene_id": "S2B_18QYF_20201219_0_L2A", "datetime": "2020-12-19T15:27:56.448000Z", "n_pixels": 3, "area_m2": 300, "prob_max": 0.9843, "prob_mean": 0.9765, "threshold": 0.63, "in_strip": true, "artifact": null}}, {"type": "Feature", "id": "D-SZ-live-haiti-2020-12-19-001-10", "geometry": {"type": "Polygon", "coordinates": [[[-72.504925, 18.6934847], [-72.5049264, 18.6933944], [-72.5047369, 18.6933919], [-72.5047355, 18.6934822], [-72.504925, 18.6934847]]]}, "properties": {"kind": "detection", "det_id": "D-SZ-live-haiti-2020-12-19-001-10", "zone_id": "SZ-live-haiti-2020-12-19-001", "scene_id": "S2B_18QYF_20201219_0_L2A", "datetime": "2020-12-19T15:27:56.448000Z", "n_pixels": 2, "area_m2": 200, "prob_max": 0.9373, "prob_mean": 0.8863, "threshold": 0.63, "in_strip": true, "artifact": null}}, {"type": "Feature", "id": "D-SZ-live-haiti-2020-12-19-001-11", "geometry": {"type": "Polygon", "coordinates": [[[-72.504167, 18.6934746], [-72.5041697, 18.693294], [-72.5039802, 18.6932915], [-72.5039815, 18.6932012], [-72.5036973, 18.6931974], [-72.5036959, 18.6932877], [-72.5037907, 18.693289], [-72.5037894, 18.6933793], [-72.5039789, 18.6933818], [-72.5039775, 18.6934721], [-72.504167, 18.6934746]]]}, "properties": {"kind": "detection", "det_id": "D-SZ-live-haiti-2020-12-19-001-11", "zone_id": "SZ-live-haiti-2020-12-19-001", "scene_id": "S2B_18QYF_20201219_0_L2A", "datetime": "2020-12-19T15:27:56.448000Z", "n_pixels": 9, "area_m2": 900, "prob_max": 1.0, "prob_mean": 0.9529, "threshold": 0.63, "in_strip": true, "artifact": null}}, {"type": "Feature", "id": "D-SZ-live-haiti-2020-12-19-001-12", "geometry": {"type": "Polygon", "coordinates": [[[-72.5029419, 18.6930067], [-72.5029446, 18.6928261], [-72.5027551, 18.6928236], [-72.5027538, 18.6929139], [-72.5028485, 18.6929152], [-72.5028472, 18.6930055], [-72.5029419, 18.6930067]]]}, "properties": {"kind": "detection", "det_id": "D-SZ-live-haiti-2020-12-19-001-12", "zone_id": "SZ-live-haiti-2020-12-19-001", "scene_id": "S2B_18QYF_20201219_0_L2A", "datetime": "2020-12-19T15:27:56.448000Z", "n_pixels": 3, "area_m2": 300, "prob_max": 0.9686, "prob_mean": 0.9464, "threshold": 0.63, "in_strip": true, "artifact": null}}, {"type": "Feature", "id": "D-SZ-live-haiti-2020-12-19-001-13", "geometry": {"type": "Polygon", "coordinates": [[[-72.5097652, 18.6930072], [-72.5097665, 18.6929169], [-72.5096718, 18.6929156], [-72.5096731, 18.6928253], [-72.5095783, 18.6928241], [-72.5095757, 18.6930047], [-72.5097652, 18.6930072]]]}, "properties": {"kind": "detection", "det_id": "D-SZ-live-haiti-2020-12-19-001-13", "zone_id": "SZ-live-haiti-2020-12-19-001", "scene_id": "S2B_18QYF_20201219_0_L2A", "datetime": "2020-12-19T15:27:56.448000Z", "n_pixels": 3, "area_m2": 300, "prob_max": 0.9922, "prob_mean": 0.9085, "threshold": 0.63, "in_strip": true, "artifact": null}}, {"type": "Feature", "id": "D-SZ-live-haiti-2020-12-19-001-14", "geometry": {"type": "Polygon", "coordinates": [[[-72.5026603, 18.6928224], [-72.5026617, 18.6927321], [-72.5024722, 18.6927295], [-72.5024708, 18.6928198], [-72.5026603, 18.6928224]]]}, "properties": {"kind": "detection", "det_id": "D-SZ-live-haiti-2020-12-19-001-14", "zone_id": "SZ-live-haiti-2020-12-19-001", "scene_id": "S2B_18QYF_20201219_0_L2A", "datetime": "2020-12-19T15:27:56.448000Z", "n_pixels": 2, "area_m2": 200, "prob_max": 0.9176, "prob_mean": 0.8784, "threshold": 0.63, "in_strip": true, "artifact": null}}, {"type": "Feature", "id": "D-SZ-live-haiti-2020-12-19-001-15", "geometry": {"type": "Polygon", "coordinates": [[[-72.5023774, 18.6927283], [-72.5023787, 18.692638], [-72.502284, 18.6926367], [-72.5022827, 18.692727], [-72.5023774, 18.6927283]]]}, "properties": {"kind": "detection", "det_id": "D-SZ-live-haiti-2020-12-19-001-15", "zone_id": "SZ-live-haiti-2020-12-19-001", "scene_id": "S2B_18QYF_20201219_0_L2A", "datetime": "2020-12-19T15:27:56.448000Z", "n_pixels": 1, "area_m2": 100, "prob_max": 0.6627, "prob_mean": 0.6627, "threshold": 0.63, "in_strip": true, "artifact": null}}, {"type": "Feature", "id": "D-SZ-live-haiti-2020-12-19-001-16", "geometry": {"type": "Polygon", "coordinates": [[[-72.5085374, 18.6927199], [-72.5085387, 18.6926296], [-72.508444, 18.6926284], [-72.5084427, 18.6927187], [-72.5085374, 18.6927199]]]}, "properties": {"kind": "detection", "det_id": "D-SZ-live-haiti-2020-12-19-001-16", "zone_id": "SZ-live-haiti-2020-12-19-001", "scene_id": "S2B_18QYF_20201219_0_L2A", "datetime": "2020-12-19T15:27:56.448000Z", "n_pixels": 1, "area_m2": 100, "prob_max": 0.7294, "prob_mean": 0.7294, "threshold": 0.63, "in_strip": true, "artifact": null}}, {"type": "Feature", "id": "D-SZ-live-haiti-2020-12-19-001-17", "geometry": {"type": "Polygon", "coordinates": [[[-72.5089177, 18.6926347], [-72.5089204, 18.6924541], [-72.5088256, 18.6924528], [-72.5088269, 18.6923625], [-72.5086374, 18.69236], [-72.5086361, 18.6924503], [-72.5087309, 18.6924516], [-72.5087295, 18.6925419], [-72.5088243, 18.6925431], [-72.508823, 18.6926334], [-72.5089177, 18.6926347]]]}, "properties": {"kind": "detection", "det_id": "D-SZ-live-haiti-2020-12-19-001-17", "zone_id": "SZ-live-haiti-2020-12-19-001", "scene_id": "S2B_18QYF_20201219_0_L2A", "datetime": "2020-12-19T15:27:56.448000Z", "n_pixels": 5, "area_m2": 500, "prob_max": 1.0, "prob_mean": 0.8682, "threshold": 0.63, "in_strip": true, "artifact": null}}, {"type": "Feature", "id": "D-SZ-live-haiti-2020-12-19-001-18", "geometry": {"type": "Polygon", "coordinates": [[[-72.5079702, 18.6926221], [-72.5079716, 18.6925318], [-72.5080663, 18.692533], [-72.5080676, 18.6924428], [-72.5078781, 18.6924402], [-72.5078755, 18.6926208], [-72.5079702, 18.6926221]]]}, "properties": {"kind": "detection", "det_id": "D-SZ-live-haiti-2020-12-19-001-18", "zone_id": "SZ-live-haiti-2020-12-19-001", "scene_id": "S2B_18QYF_20201219_0_L2A", "datetime": "2020-12-19T15:27:56.448000Z", "n_pixels": 3, "area_m2": 300, "prob_max": 0.9647, "prob_mean": 0.949, "threshold": 0.63, "in_strip": true, "artifact": null}}, {"type": "Feature", "id": "D-SZ-live-haiti-2020-12-19-001-19", "geometry": {"type": "Polygon", "coordinates": [[[-72.5083532, 18.6923562], [-72.5083545, 18.6922659], [-72.5082598, 18.6922647], [-72.5082584, 18.692355], [-72.5083532, 18.6923562]]]}, "properties": {"kind": "detection", "det_id": "D-SZ-live-haiti-2020-12-19-001-19", "zone_id": "SZ-live-haiti-2020-12-19-001", "scene_id": "S2B_18QYF_20201219_0_L2A", "datetime": "2020-12-19T15:27:56.448000Z", "n_pixels": 1, "area_m2": 100, "prob_max": 0.9843, "prob_mean": 0.9843, "threshold": 0.63, "in_strip": true, "artifact": null}}, {"type": "Feature", "id": "D-SZ-live-haiti-2020-12-19-001-20", "geometry": {"type": "Polygon", "coordinates": [[[-72.5091138, 18.6921857], [-72.5091151, 18.6920954], [-72.5090204, 18.6920942], [-72.5090191, 18.6921845], [-72.5091138, 18.6921857]]]}, "properties": {"kind": "detection", "det_id": "D-SZ-live-haiti-2020-12-19-001-20", "zone_id": "SZ-live-haiti-2020-12-19-001", "scene_id": "S2B_18QYF_20201219_0_L2A", "datetime": "2020-12-19T15:27:56.448000Z", "n_pixels": 1, "area_m2": 100, "prob_max": 0.9882, "prob_mean": 0.9882, "threshold": 0.63, "in_strip": true, "artifact": null}}, {"type": "Feature", "id": "D-SZ-live-haiti-2020-12-19-002-23", "geometry": {"type": "Polygon", "coordinates": [[[-72.4350038, 18.6357376], [-72.4350052, 18.6356473], [-72.4349105, 18.635646], [-72.4349118, 18.6355557], [-72.4348171, 18.6355544], [-72.4348157, 18.6356447], [-72.4349105, 18.635646], [-72.4349091, 18.6357363], [-72.4350038, 18.6357376]]]}, "properties": {"kind": "detection", "det_id": "D-SZ-live-haiti-2020-12-19-002-23", "zone_id": "SZ-live-haiti-2020-12-19-002", "scene_id": "S2B_18QYF_20201219_0_L2A", "datetime": "2020-12-19T15:27:56.448000Z", "n_pixels": 2, "area_m2": 200, "prob_max": 0.8431, "prob_mean": 0.8294, "threshold": 0.63, "in_strip": true, "artifact": null}}, {"type": "Feature", "id": "D-SZ-live-haiti-2020-12-19-002-24", "geometry": {"type": "Polygon", "coordinates": [[[-72.4346263, 18.6356421], [-72.4346277, 18.6355518], [-72.434533, 18.6355505], [-72.4345316, 18.6356408], [-72.4346263, 18.6356421]]]}, "properties": {"kind": "detection", "det_id": "D-SZ-live-haiti-2020-12-19-002-24", "zone_id": "SZ-live-haiti-2020-12-19-002", "scene_id": "S2B_18QYF_20201219_0_L2A", "datetime": "2020-12-19T15:27:56.448000Z", "n_pixels": 1, "area_m2": 100, "prob_max": 0.7608, "prob_mean": 0.7608, "threshold": 0.63, "in_strip": true, "artifact": null}}, {"type": "Feature", "id": "D-SZ-live-haiti-2020-12-19-002-25", "geometry": {"type": "Polygon", "coordinates": [[[-72.4359658, 18.6347573], [-72.4359685, 18.6345767], [-72.4355897, 18.6345715], [-72.4355911, 18.6344813], [-72.4351175, 18.6344748], [-72.4351161, 18.6345651], [-72.4353056, 18.6345677], [-72.4353042, 18.634658], [-72.4357778, 18.6346644], [-72.4357764, 18.6347547], [-72.4359658, 18.6347573]]]}, "properties": {"kind": "detection", "det_id": "D-SZ-live-haiti-2020-12-19-002-25", "zone_id": "SZ-live-haiti-2020-12-19-002", "scene_id": "S2B_18QYF_20201219_0_L2A", "datetime": "2020-12-19T15:27:56.448000Z", "n_pixels": 14, "area_m2": 1400, "prob_max": 1.0, "prob_mean": 0.8697, "threshold": 0.63, "in_strip": true, "artifact": null}}, {"type": "Feature", "id": "D-SZ-live-haiti-2020-12-19-003-26", "geometry": {"type": "Polygon", "coordinates": [[[-72.4387517, 18.6321763], [-72.4387531, 18.6320861], [-72.4386584, 18.6320848], [-72.438657, 18.6321751], [-72.4387517, 18.6321763]]]}, "properties": {"kind": "detection", "det_id": "D-SZ-live-haiti-2020-12-19-003-26", "zone_id": "SZ-live-haiti-2020-12-19-003", "scene_id": "S2B_18QYF_20201219_0_L2A", "datetime": "2020-12-19T15:27:56.448000Z", "n_pixels": 1, "area_m2": 100, "prob_max": 0.9569, "prob_mean": 0.9569, "threshold": 0.63, "in_strip": true, "artifact": null}}, {"type": "Feature", "id": "D-SZ-live-haiti-2020-12-19-003-27", "geometry": {"type": "Polygon", "coordinates": [[[-72.4383742, 18.6320809], [-72.438377, 18.6319003], [-72.4381875, 18.6318977], [-72.4381848, 18.6320783], [-72.4383742, 18.6320809]]]}, "properties": {"kind": "detection", "det_id": "D-SZ-live-haiti-2020-12-19-003-27", "zone_id": "SZ-live-haiti-2020-12-19-003", "scene_id": "S2B_18QYF_20201219_0_L2A", "datetime": "2020-12-19T15:27:56.448000Z", "n_pixels": 4, "area_m2": 400, "prob_max": 0.9922, "prob_mean": 0.8627, "threshold": 0.63, "in_strip": true, "artifact": null}}, {"type": "Feature", "id": "D-SZ-live-haiti-2020-12-19-003-28", "geometry": {"type": "Polygon", "coordinates": [[[-72.4380915, 18.6319867], [-72.4380928, 18.6318964], [-72.4379981, 18.6318951], [-72.4379968, 18.6319854], [-72.4380915, 18.6319867]]]}, "properties": {"kind": "detection", "det_id": "D-SZ-live-haiti-2020-12-19-003-28", "zone_id": "SZ-live-haiti-2020-12-19-003", "scene_id": "S2B_18QYF_20201219_0_L2A", "datetime": "2020-12-19T15:27:56.448000Z", "n_pixels": 1, "area_m2": 100, "prob_max": 0.9098, "prob_mean": 0.9098, "threshold": 0.63, "in_strip": true, "artifact": null}}, {"type": "Feature", "id": "D-SZ-live-haiti-2020-12-19-003-29", "geometry": {"type": "Polygon", "coordinates": [[[-72.4367696, 18.6316978], [-72.4367709, 18.6316075], [-72.4366762, 18.6316062], [-72.4366776, 18.6315159], [-72.4362988, 18.6315107], [-72.436296, 18.6316913], [-72.4367696, 18.6316978]]]}, "properties": {"kind": "detection", "det_id": "D-SZ-live-haiti-2020-12-19-003-29", "zone_id": "SZ-live-haiti-2020-12-19-003", "scene_id": "S2B_18QYF_20201219_0_L2A", "datetime": "2020-12-19T15:27:56.448000Z", "n_pixels": 9, "area_m2": 900, "prob_max": 0.9961, "prob_mean": 0.8763, "threshold": 0.63, "in_strip": true, "artifact": null}}, {"type": "Feature", "id": "D-SZ-live-haiti-2020-12-19-003-30", "geometry": {"type": "Polygon", "coordinates": [[[-72.4362027, 18.6315997], [-72.4362054, 18.6314192], [-72.436016, 18.6314166], [-72.4360146, 18.6315069], [-72.4361093, 18.6315082], [-72.436108, 18.6315985], [-72.4362027, 18.6315997]]]}, "properties": {"kind": "detection", "det_id": "D-SZ-live-haiti-2020-12-19-003-30", "zone_id": "SZ-live-haiti-2020-12-19-003", "scene_id": "S2B_18QYF_20201219_0_L2A", "datetime": "2020-12-19T15:27:56.448000Z", "n_pixels": 3, "area_m2": 300, "prob_max": 0.9333, "prob_mean": 0.9124, "threshold": 0.63, "in_strip": true, "artifact": null}}, {"type": "Feature", "id": "D-SZ-live-haiti-2020-12-19-003-31", "geometry": {"type": "Polygon", "coordinates": [[[-72.4404741, 18.6310258], [-72.4404768, 18.6308452], [-72.4403821, 18.6308439], [-72.4403808, 18.6309342], [-72.440286, 18.6309329], [-72.4402874, 18.6308426], [-72.4401927, 18.6308413], [-72.4401913, 18.6309316], [-72.440286, 18.6309329], [-72.4402847, 18.6310232], [-72.4404741, 18.6310258]]]}, "properties": {"kind": "detection", "det_id": "D-SZ-live-haiti-2020-12-19-003-31", "zone_id": "SZ-live-haiti-2020-12-19-003", "scene_id": "S2B_18QYF_20201219_0_L2A", "datetime": "2020-12-19T15:27:56.448000Z", "n_pixels": 4, "area_m2": 400, "prob_max": 0.9373, "prob_mean": 0.8529, "threshold": 0.63, "in_strip": true, "artifact": "ship"}}, {"type": "Feature", "id": "D-SZ-live-haiti-2020-12-19-003-32", "geometry": {"type": "Polygon", "coordinates": [[[-72.4390589, 18.6306453], [-72.4390616, 18.6304647], [-72.4389669, 18.6304634], [-72.4389682, 18.6303731], [-72.4388735, 18.6303718], [-72.4388708, 18.6305524], [-72.4389655, 18.6305537], [-72.4389642, 18.630644], [-72.4390589, 18.6306453]]]}, "properties": {"kind": "detection", "det_id": "D-SZ-live-haiti-2020-12-19-003-32", "zone_id": "SZ-live-haiti-2020-12-19-003", "scene_id": "S2B_18QYF_20201219_0_L2A", "datetime": "2020-12-19T15:27:56.448000Z", "n_pixels": 4, "area_m2": 400, "prob_max": 0.9529, "prob_mean": 0.9245, "threshold": 0.63, "in_strip": true, "artifact": null}}, {"type": "Feature", "id": "D-SZ-live-haiti-2020-12-19-003-33", "geometry": {"type": "Polygon", "coordinates": [[[-72.4386827, 18.6304595], [-72.4386841, 18.6303693], [-72.4385894, 18.630368], [-72.4385907, 18.6302777], [-72.4384013, 18.6302751], [-72.4384027, 18.6301848], [-72.438308, 18.6301835], [-72.4383053, 18.6303641], [-72.4384, 18.6303654], [-72.4383986, 18.6304557], [-72.4386827, 18.6304595]]]}, "properties": {"kind": "detection", "det_id": "D-SZ-live-haiti-2020-12-19-003-33", "zone_id": "SZ-live-haiti-2020-12-19-003", "scene_id": "S2B_18QYF_20201219_0_L2A", "datetime": "2020-12-19T15:27:56.448000Z", "n_pixels": 7, "area_m2": 700, "prob_max": 1.0, "prob_mean": 0.851, "threshold": 0.63, "in_strip": true, "artifact": null}}, {"type": "Feature", "id": "D-SZ-live-haiti-2020-12-19-003-34", "geometry": {"type": "Polygon", "coordinates": [[[-72.4381172, 18.6302712], [-72.4381199, 18.6300906], [-72.4380252, 18.6300894], [-72.4380225, 18.6302699], [-72.4381172, 18.6302712]]]}, "properties": {"kind": "detection", "det_id": "D-SZ-live-haiti-2020-12-19-003-34", "zone_id": "SZ-live-haiti-2020-12-19-003", "scene_id": "S2B_18QYF_20201219_0_L2A", "datetime": "2020-12-19T15:27:56.448000Z", "n_pixels": 2, "area_m2": 200, "prob_max": 0.8118, "prob_mean": 0.7765, "threshold": 0.63, "in_strip": true, "artifact": null}}, {"type": "Feature", "id": "D-SZ-live-haiti-2020-12-19-003-35", "geometry": {"type": "Polygon", "coordinates": [[[-72.4392672, 18.6293838], [-72.4392686, 18.6292935], [-72.4391739, 18.6292922], [-72.4391725, 18.6293825], [-72.4392672, 18.6293838]]]}, "properties": {"kind": "detection", "det_id": "D-SZ-live-haiti-2020-12-19-003-35", "zone_id": "SZ-live-haiti-2020-12-19-003", "scene_id": "S2B_18QYF_20201219_0_L2A", "datetime": "2020-12-19T15:27:56.448000Z", "n_pixels": 1, "area_m2": 100, "prob_max": 0.9882, "prob_mean": 0.9882, "threshold": 0.63, "in_strip": true, "artifact": null}}, {"type": "Feature", "id": "D-SZ-live-haiti-2020-12-19-003-36", "geometry": {"type": "Polygon", "coordinates": [[[-72.4390778, 18.6293812], [-72.4390792, 18.6292909], [-72.4389845, 18.6292897], [-72.4389831, 18.6293799], [-72.4390778, 18.6293812]]]}, "properties": {"kind": "detection", "det_id": "D-SZ-live-haiti-2020-12-19-003-36", "zone_id": "SZ-live-haiti-2020-12-19-003", "scene_id": "S2B_18QYF_20201219_0_L2A", "datetime": "2020-12-19T15:27:56.448000Z", "n_pixels": 1, "area_m2": 100, "prob_max": 0.9451, "prob_mean": 0.9451, "threshold": 0.63, "in_strip": true, "artifact": null}}, {"type": "Feature", "id": "D-SZ-live-haiti-2020-12-19-004-37", "geometry": {"type": "Polygon", "coordinates": [[[-72.4440392, 18.6270104], [-72.4440419, 18.6268298], [-72.4438524, 18.6268273], [-72.4438511, 18.6269176], [-72.4439458, 18.6269188], [-72.4439444, 18.6270091], [-72.4440392, 18.6270104]]]}, "properties": {"kind": "detection", "det_id": "D-SZ-live-haiti-2020-12-19-004-37", "zone_id": "SZ-live-haiti-2020-12-19-004", "scene_id": "S2B_18QYF_20201219_0_L2A", "datetime": "2020-12-19T15:27:56.448000Z", "n_pixels": 3, "area_m2": 300, "prob_max": 0.9882, "prob_mean": 0.9765, "threshold": 0.63, "in_strip": true, "artifact": null}}, {"type": "Feature", "id": "D-SZ-live-haiti-2020-12-19-004-38", "geometry": {"type": "Polygon", "coordinates": [[[-72.4433789, 18.6268208], [-72.4433803, 18.6267305], [-72.4432855, 18.6267292], [-72.4432842, 18.6268195], [-72.4433789, 18.6268208]]]}, "properties": {"kind": "detection", "det_id": "D-SZ-live-haiti-2020-12-19-004-38", "zone_id": "SZ-live-haiti-2020-12-19-004", "scene_id": "S2B_18QYF_20201219_0_L2A", "datetime": "2020-12-19T15:27:56.448000Z", "n_pixels": 1, "area_m2": 100, "prob_max": 0.9882, "prob_mean": 0.9882, "threshold": 0.63, "in_strip": true, "artifact": null}}, {"type": "Feature", "id": "D-SZ-live-haiti-2020-12-19-004-39", "geometry": {"type": "Polygon", "coordinates": [[[-72.4430948, 18.626817], [-72.4430975, 18.6266364], [-72.4429081, 18.6266338], [-72.4429067, 18.6267241], [-72.4430014, 18.6267254], [-72.4430001, 18.6268157], [-72.4430948, 18.626817]]]}, "properties": {"kind": "detection", "det_id": "D-SZ-live-haiti-2020-12-19-004-39", "zone_id": "SZ-live-haiti-2020-12-19-004", "scene_id": "S2B_18QYF_20201219_0_L2A", "datetime": "2020-12-19T15:27:56.448000Z", "n_pixels": 3, "area_m2": 300, "prob_max": 0.9961, "prob_mean": 0.9412, "threshold": 0.63, "in_strip": true, "artifact": null}}, {"type": "Feature", "id": "D-SZ-live-haiti-2020-12-19-004-40", "geometry": {"type": "Polygon", "coordinates": [[[-72.4338148, 18.6266002], [-72.4338162, 18.6265099], [-72.4337215, 18.6265087], [-72.4337201, 18.6265989], [-72.4338148, 18.6266002]]]}, "properties": {"kind": "detection", "det_id": "D-SZ-live-haiti-2020-12-19-004-40", "zone_id": "SZ-live-haiti-2020-12-19-004", "scene_id": "S2B_18QYF_20201219_0_L2A", "datetime": "2020-12-19T15:27:56.448000Z", "n_pixels": 1, "area_m2": 100, "prob_max": 0.7529, "prob_mean": 0.7529, "threshold": 0.63, "in_strip": true, "artifact": null}}, {"type": "Feature", "id": "D-SZ-live-haiti-2020-12-19-004-41", "geometry": {"type": "Polygon", "coordinates": [[[-72.4411167, 18.6260676], [-72.4411194, 18.625887], [-72.44093, 18.6258844], [-72.4409273, 18.626065], [-72.4411167, 18.6260676]]]}, "properties": {"kind": "detection", "det_id": "D-SZ-live-haiti-2020-12-19-004-41", "zone_id": "SZ-live-haiti-2020-12-19-004", "scene_id": "S2B_18QYF_20201219_0_L2A", "datetime": "2020-12-19T15:27:56.448000Z", "n_pixels": 4, "area_m2": 400, "prob_max": 0.9686, "prob_mean": 0.9363, "threshold": 0.63, "in_strip": true, "artifact": "ship"}}, {"type": "Feature", "id": "D-SZ-live-haiti-2020-12-19-004-42", "geometry": {"type": "Polygon", "coordinates": [[[-72.440171, 18.6259644], [-72.4401737, 18.6257838], [-72.440079, 18.6257825], [-72.4400763, 18.6259631], [-72.440171, 18.6259644]]]}, "properties": {"kind": "detection", "det_id": "D-SZ-live-haiti-2020-12-19-004-42", "zone_id": "SZ-live-haiti-2020-12-19-004", "scene_id": "S2B_18QYF_20201219_0_L2A", "datetime": "2020-12-19T15:27:56.448000Z", "n_pixels": 2, "area_m2": 200, "prob_max": 0.9961, "prob_mean": 0.9078, "threshold": 0.63, "in_strip": true, "artifact": null}}, {"type": "Feature", "id": "D-SZ-live-haiti-2020-12-19-004-43", "geometry": {"type": "Polygon", "coordinates": [[[-72.4396988, 18.6258677], [-72.4397015, 18.6256871], [-72.4396068, 18.6256858], [-72.4396041, 18.6258664], [-72.4396988, 18.6258677]]]}, "properties": {"kind": "detection", "det_id": "D-SZ-live-haiti-2020-12-19-004-43", "zone_id": "SZ-live-haiti-2020-12-19-004", "scene_id": "S2B_18QYF_20201219_0_L2A", "datetime": "2020-12-19T15:27:56.448000Z", "n_pixels": 2, "area_m2": 200, "prob_max": 0.9529, "prob_mean": 0.8451, "threshold": 0.63, "in_strip": true, "artifact": null}}, {"type": "Feature", "id": "D-SZ-live-haiti-2020-12-19-004-44", "geometry": {"type": "Polygon", "coordinates": [[[-72.4372378, 18.6257438], [-72.4372405, 18.6255633], [-72.4369564, 18.6255594], [-72.436955, 18.6256497], [-72.4371445, 18.6256523], [-72.4371431, 18.6257425], [-72.4372378, 18.6257438]]]}, "properties": {"kind": "detection", "det_id": "D-SZ-live-haiti-2020-12-19-004-44", "zone_id": "SZ-live-haiti-2020-12-19-004", "scene_id": "S2B_18QYF_20201219_0_L2A", "datetime": "2020-12-19T15:27:56.448000Z", "n_pixels": 4, "area_m2": 400, "prob_max": 0.9961, "prob_mean": 0.951, "threshold": 0.63, "in_strip": true, "artifact": "ship"}}, {"type": "Feature", "id": "D-SZ-live-haiti-2020-12-19-004-45", "geometry": {"type": "Polygon", "coordinates": [[[-72.4395121, 18.6256845], [-72.4395148, 18.6255039], [-72.4392307, 18.6255001], [-72.4392294, 18.6255904], [-72.4393241, 18.6255916], [-72.4393227, 18.6256819], [-72.4395121, 18.6256845]]]}, "properties": {"kind": "detection", "det_id": "D-SZ-live-haiti-2020-12-19-004-45", "zone_id": "SZ-live-haiti-2020-12-19-004", "scene_id": "S2B_18QYF_20201219_0_L2A", "datetime": "2020-12-19T15:27:56.448000Z", "n_pixels": 5, "area_m2": 500, "prob_max": 1.0, "prob_mean": 0.931, "threshold": 0.63, "in_strip": true, "artifact": null}}, {"type": "Feature", "id": "D-SZ-live-haiti-2020-12-19-004-46", "geometry": {"type": "Polygon", "coordinates": [[[-72.4365762, 18.6256445], [-72.4365789, 18.6254639], [-72.4363895, 18.6254614], [-72.4363882, 18.6255516], [-72.4362934, 18.6255503], [-72.4362948, 18.6254601], [-72.4362001, 18.6254588], [-72.4361974, 18.6256393], [-72.4365762, 18.6256445]]]}, "properties": {"kind": "detection", "det_id": "D-SZ-live-haiti-2020-12-19-004-46", "zone_id": "SZ-live-haiti-2020-12-19-004", "scene_id": "S2B_18QYF_20201219_0_L2A", "datetime": "2020-12-19T15:27:56.448000Z", "n_pixels": 7, "area_m2": 700, "prob_max": 1.0, "prob_mean": 0.8325, "threshold": 0.63, "in_strip": true, "artifact": null}}, {"type": "Feature", "id": "D-SZ-live-haiti-2020-12-19-004-47", "geometry": {"type": "Polygon", "coordinates": [[[-72.4361027, 18.6256381], [-72.4361054, 18.6254575], [-72.4358213, 18.6254536], [-72.4358199, 18.6255439], [-72.4359146, 18.6255452], [-72.4359133, 18.6256355], [-72.4361027, 18.6256381]]]}, "properties": {"kind": "detection", "det_id": "D-SZ-live-haiti-2020-12-19-004-47", "zone_id": "SZ-live-haiti-2020-12-19-004", "scene_id": "S2B_18QYF_20201219_0_L2A", "datetime": "2020-12-19T15:27:56.448000Z", "n_pixels": 5, "area_m2": 500, "prob_max": 0.9529, "prob_mean": 0.8133, "threshold": 0.63, "in_strip": true, "artifact": null}}, {"type": "Feature", "id": "D-SZ-live-haiti-2020-12-19-004-48", "geometry": {"type": "Polygon", "coordinates": [[[-72.4389452, 18.6255865], [-72.4389479, 18.6254059], [-72.4388532, 18.6254046], [-72.4388519, 18.6254949], [-72.4386625, 18.6254923], [-72.4386611, 18.6255826], [-72.4389452, 18.6255865]]]}, "properties": {"kind": "detection", "det_id": "D-SZ-live-haiti-2020-12-19-004-48", "zone_id": "SZ-live-haiti-2020-12-19-004", "scene_id": "S2B_18QYF_20201219_0_L2A", "datetime": "2020-12-19T15:27:56.448000Z", "n_pixels": 4, "area_m2": 400, "prob_max": 1.0, "prob_mean": 0.9951, "threshold": 0.63, "in_strip": true, "artifact": "ship"}}, {"type": "Feature", "id": "D-SZ-live-haiti-2020-12-19-004-49", "geometry": {"type": "Polygon", "coordinates": [[[-72.4378088, 18.625571], [-72.4378101, 18.6254807], [-72.4377154, 18.6254794], [-72.4377168, 18.6253891], [-72.437622, 18.6253878], [-72.4376193, 18.6255684], [-72.4378088, 18.625571]]]}, "properties": {"kind": "detection", "det_id": "D-SZ-live-haiti-2020-12-19-004-49", "zone_id": "SZ-live-haiti-2020-12-19-004", "scene_id": "S2B_18QYF_20201219_0_L2A", "datetime": "2020-12-19T15:27:56.448000Z", "n_pixels": 3, "area_m2": 300, "prob_max": 0.9725, "prob_mean": 0.9281, "threshold": 0.63, "in_strip": true, "artifact": null}}, {"type": "Feature", "id": "D-SZ-live-haiti-2020-12-19-004-50", "geometry": {"type": "Polygon", "coordinates": [[[-72.4356305, 18.6255413], [-72.4356319, 18.625451], [-72.4353477, 18.6254471], [-72.4353464, 18.6255374], [-72.4356305, 18.6255413]]]}, "properties": {"kind": "detection", "det_id": "D-SZ-live-haiti-2020-12-19-004-50", "zone_id": "SZ-live-haiti-2020-12-19-004", "scene_id": "S2B_18QYF_20201219_0_L2A", "datetime": "2020-12-19T15:27:56.448000Z", "n_pixels": 3, "area_m2": 300, "prob_max": 1.0, "prob_mean": 0.9791, "threshold": 0.63, "in_strip": true, "artifact": null}}, {"type": "Feature", "id": "D-SZ-live-haiti-2020-12-19-004-51", "geometry": {"type": "Polygon", "coordinates": [[[-72.4345887, 18.6255271], [-72.4345901, 18.6254368], [-72.4344954, 18.6254355], [-72.434494, 18.6255258], [-72.4345887, 18.6255271]]]}, "properties": {"kind": "detection", "det_id": "D-SZ-live-haiti-2020-12-19-004-51", "zone_id": "SZ-live-haiti-2020-12-19-004", "scene_id": "S2B_18QYF_20201219_0_L2A", "datetime": "2020-12-19T15:27:56.448000Z", "n_pixels": 1, "area_m2": 100, "prob_max": 0.7059, "prob_mean": 0.7059, "threshold": 0.63, "in_strip": true, "artifact": null}}, {"type": "Feature", "id": "D-SZ-live-haiti-2020-12-19-004-52", "geometry": {"type": "Polygon", "coordinates": [[[-72.4380956, 18.6253943], [-72.4380969, 18.625304], [-72.4380022, 18.6253027], [-72.4380009, 18.625393], [-72.4380956, 18.6253943]]]}, "properties": {"kind": "detection", "det_id": "D-SZ-live-haiti-2020-12-19-004-52", "zone_id": "SZ-live-haiti-2020-12-19-004", "scene_id": "S2B_18QYF_20201219_0_L2A", "datetime": "2020-12-19T15:27:56.448000Z", "n_pixels": 1, "area_m2": 100, "prob_max": 0.9255, "prob_mean": 0.9255, "threshold": 0.63, "in_strip": true, "artifact": null}}]}