{"type": "FeatureCollection", "features": [{"type": "Feature", "id": "SZ-live-haiti-2020-12-19-001", "geometry": {"type": "Polygon", "coordinates": [[[-72.505847, 18.695213], [-72.506992, 18.694686], [-72.50729, 18.693787], [-72.508708, 18.693987], [-72.509556, 18.694359], [-72.51022, 18.694278], [-72.51089, 18.693835], [-72.511186, 18.693026], [-72.5111, 18.692483], [-72.509984, 18.691023], [-72.509135, 18.690741], [-72.507805, 18.690994], [-72.506753, 18.691612], [-72.506552, 18.692423], [-72.504661, 18.692127], [-72.502399, 18.691284], [-72.501829, 18.691366], [-72.501159, 18.691809], [-72.500861, 18.692708], [-72.501414, 18.693799], [-72.502355, 18.694263], [-72.502829, 18.69427], [-72.503485, 18.69473], [-72.504528, 18.694744], [-72.505847, 18.695213]]]}, "properties": {"kind": "detection_zone", "layer_kind": "scene_zone", "zone_id": "SZ-live-haiti-2020-12-19-001", "scene_key": "live-haiti-2020-12-19", "scene_kind": "live", "scene_id": "S2B_18QYF_20201219_0_L2A", "region": "haiti", "title": "Залив Порт-о-Пренс (Гаити) · зона 1", "mission": "Sentinel-2", "datetime": "2020-12-19T15:27:56.448000Z", "detection_status": "insufficient_data", "status": "insufficient_data", "concentration_status": "unavailable", "quantity": {"status": "not_confirmed", "label": "концентрация по снимку не подтверждена", "detail": "перевод площади в штуки не показываем: нет калибровочных пар (см. docs/QUANTITY.md)"}, "verification": "false_alarm_signs", "training_scene": null, "flags": ["foam"], "n_cozar_filaments": 0, "crop_file": "crops/SZ-live-haiti-2020-12-19-001.jpg", "wind_high": false, "measured": {"zone_area_km2": 0.3285, "suspicious_area_m2": 4100, "n_pixels": 41, "n_objects": 13, "water_km2": 0.3326, "lwd_m2_km2": 12327.1, "lwd_note": null, "quality": {"valid_water_fraction": 1.0, "cloud_fraction": 0.0, "glint_fraction": 0.0}, "model": {"weights": "weights/lgbm", "file": "weights/lgbm/model.txt", "sha256": "0eeebf43fcccd8c7c07f053b7ec723229d1a3c9b92d12eec1bdb269258c51470", "sha256_short": "0eeebf43fccc", "trained_at": "2026-09-25T01:35:55Z", "threshold": 0.63, "harmonize": "none", "class": "MARIDA Marine Debris (любой плавающий мусор, не только пластик)"}}, "probable": {"prob_max": 1.0, "prob_mean": 0.904, "signs": {"foam": {"flag": true, "white_ratio_b2_b8": 0.838, "wind10m_ms": 0.98, "rule": "прирост B2 над водой ≥ 0.8 прироста B8 («белый» спектр) или ветер ≥ 7.0 м/с"}, "glint": {"flag": false, "b11_water_median": 0.0022, "glint_share": 0.0, "rule": "медиана B11 воды зоны > 0.01 или ≥ 20 % пикселей зоны — блик (маска качества)"}, "ship": {"flag": false, "share": 0, "bright_target_px_within_500m": 0, "rule": "≥ 30 % пикселей — у яркой цели или кильватера (reports/artifacts.md) или яркая цель с откликом в SWIR (судно, лодка: B11 ≥ 0,015) ближе 500 м"}, "coast": {"flag": false, "land_px_within_300m": 0, "rule": "суша (маска качества) ближе 300 м — прибой, кромка берега"}, "shallow": {"flag": false, "b3_water_zone": 0.0149, "b3_ratio_to_scene_water": 1.12, "rule": "медиана B3 воды зоны ≥ 2× медианы воды снимка и ≥ 0,03 — мелководье или мутная вода"}, "seam": {"flag": false, "share": 0, "rule": "≥ 30 % пикселей — прямая линия вдоль трека/границы яркости (шов)"}, "cloud": {"flag": false, "cloud_fraction": 0.0, "rule": "облака или тени облаков (маска качества) ≥ 20 % зоны"}, "note": "эвристики, не классификатор; на размеченных данных не проверены"}, "n_cozar_filaments": 0}, "field_nearby": {"items": [{"source": "ADIS (4TU.ResearchData, судовая камера)", "segment_id": 416611, "ship": "RV Pelagia", "date": "2023-12-17", "days_from_scene": 1093, "distance_km": 777.4, "lon": -69.62766, "lat": 25.17519, "n_items": 0, "area_km2": 0.4738, "size_class": "> 5 см", "c_items_km2": 0.0, "ci95_lo": 0.0, "ci95_hi": 7.79, "ci95_method": "точный интервал Пуассона для N, делённый на A", "raw_10cm_items_km2": 0.0, "authors_cal_10cm_items_km2": 0.0, "authors_cal_10cm_lo95": null, "authors_cal_10cm_hi95": null}, {"source": "ADIS (4TU.ResearchData, судовая камера)", "segment_id": 416610, "ship": "RV Pelagia", "date": "2023-12-17", "days_from_scene": 1093, "distance_km": 780.5, "lon": -69.55526, "lat": 25.17532, "n_items": 0, "area_km2": 1.015, "size_class": "> 5 см", "c_items_km2": 0.0, "ci95_lo": 0.0, "ci95_hi": 3.63, "ci95_method": "точный интервал Пуассона для N, делённый на A", "raw_10cm_items_km2": 0.0, "authors_cal_10cm_items_km2": 0.0, "authors_cal_10cm_lo95": null, "authors_cal_10cm_hi95": null}, {"source": "ADIS (4TU.ResearchData, судовая камера)", "segment_id": 416609, "ship": "RV Pelagia", "date": "2023-12-17", "days_from_scene": 1093, "distance_km": 786.0, "lon": -69.45806, "lat": 25.18796, "n_items": 0, "area_km2": 1.0152, "size_class": "> 5 см", "c_items_km2": 0.0, "ci95_lo": 0.0, "ci95_hi": 3.63, "ci95_method": "точный интервал Пуассона для N, делённый на A", "raw_10cm_items_km2": 0.0, "authors_cal_10cm_items_km2": 0.0, "authors_cal_10cm_lo95": null, "authors_cal_10cm_hi95": null}], "nearest_organizer_sample": {"sample_id": "MPL-0239", "source_id": "S2_SARGASSO_MSM41", "distance_km": 668.8}, "note": "Измерение ≠ оценка: это независимые полевые счёты C = N/A в другое время и в другом месте; со сценой они не связаны и не калибруют её. Ближайший отрезок ADIS — за 777 км: только для порядка величин."}}}, {"type": "Feature", "id": "SZ-live-haiti-2020-12-19-002", "geometry": {"type": "Polygon", "coordinates": [[[-72.434983, 18.637092], [-72.43584, 18.636833], [-72.436326, 18.636027], [-72.436802, 18.635852], [-72.437285, 18.635227], [-72.437301, 18.634143], [-72.436461, 18.633319], [-72.435138, 18.63312], [-72.434281, 18.63338], [-72.433798, 18.634005], [-72.433792, 18.634457], [-72.433214, 18.635081], [-72.433111, 18.635621], [-72.433383, 18.636438], [-72.434039, 18.636898], [-72.434983, 18.637092]]]}, "properties": {"kind": "detection_zone", "layer_kind": "scene_zone", "zone_id": "SZ-live-haiti-2020-12-19-002", "scene_key": "live-haiti-2020-12-19", "scene_kind": "live", "scene_id": "S2B_18QYF_20201219_0_L2A", "region": "haiti", "title": "Залив Порт-о-Пренс (Гаити) · зона 2", "mission": "Sentinel-2", "datetime": "2020-12-19T15:27:56.448000Z", "detection_status": "insufficient_data", "status": "insufficient_data", "concentration_status": "unavailable", "quantity": {"status": "not_confirmed", "label": "концентрация по снимку не подтверждена", "detail": "перевод площади в штуки не показываем: нет калибровочных пар (см. docs/QUANTITY.md)"}, "verification": "false_alarm_signs", "training_scene": null, "flags": ["foam"], "n_cozar_filaments": 0, "crop_file": "crops/SZ-live-haiti-2020-12-19-002.jpg", "wind_high": false, "measured": {"zone_area_km2": 0.1401, "suspicious_area_m2": 1700, "n_pixels": 17, "n_objects": 3, "water_km2": 0.1407, "lwd_m2_km2": 12082.4, "lwd_note": null, "quality": {"valid_water_fraction": 1.0, "cloud_fraction": 0.0, "glint_fraction": 0.0}, "model": {"weights": "weights/lgbm", "file": "weights/lgbm/model.txt", "sha256": "0eeebf43fcccd8c7c07f053b7ec723229d1a3c9b92d12eec1bdb269258c51470", "sha256_short": "0eeebf43fccc", "trained_at": "2026-09-25T01:35:55Z", "threshold": 0.63, "harmonize": "none", "class": "MARIDA Marine Debris (любой плавающий мусор, не только пластик)"}}, "probable": {"prob_max": 1.0, "prob_mean": 0.859, "signs": {"foam": {"flag": true, "white_ratio_b2_b8": 1.33, "wind10m_ms": 0.98, "rule": "прирост B2 над водой ≥ 0.8 прироста B8 («белый» спектр) или ветер ≥ 7.0 м/с"}, "glint": {"flag": false, "b11_water_median": 0.0021, "glint_share": 0.0, "rule": "медиана B11 воды зоны > 0.01 или ≥ 20 % пикселей зоны — блик (маска качества)"}, "ship": {"flag": false, "share": 0, "bright_target_px_within_500m": 0, "rule": "≥ 30 % пикселей — у яркой цели или кильватера (reports/artifacts.md) или яркая цель с откликом в SWIR (судно, лодка: B11 ≥ 0,015) ближе 500 м"}, "coast": {"flag": false, "land_px_within_300m": 0, "rule": "суша (маска качества) ближе 300 м — прибой, кромка берега"}, "shallow": {"flag": false, "b3_water_zone": 0.0158, "b3_ratio_to_scene_water": 1.19, "rule": "медиана B3 воды зоны ≥ 2× медианы воды снимка и ≥ 0,03 — мелководье или мутная вода"}, "seam": {"flag": false, "share": 0, "rule": "≥ 30 % пикселей — прямая линия вдоль трека/границы яркости (шов)"}, "cloud": {"flag": false, "cloud_fraction": 0.0, "rule": "облака или тени облаков (маска качества) ≥ 20 % зоны"}, "note": "эвристики, не классификатор; на размеченных данных не проверены"}, "n_cozar_filaments": 0}, "field_nearby": {"items": [{"source": "ADIS (4TU.ResearchData, судовая камера)", "segment_id": 416611, "ship": "RV Pelagia", "date": "2023-12-17", "days_from_scene": 1093, "distance_km": 777.4, "lon": -69.62766, "lat": 25.17519, "n_items": 0, "area_km2": 0.4738, "size_class": "> 5 см", "c_items_km2": 0.0, "ci95_lo": 0.0, "ci95_hi": 7.79, "ci95_method": "точный интервал Пуассона для N, делённый на A", "raw_10cm_items_km2": 0.0, "authors_cal_10cm_items_km2": 0.0, "authors_cal_10cm_lo95": null, "authors_cal_10cm_hi95": null}, {"source": "ADIS (4TU.ResearchData, судовая камера)", "segment_id": 416610, "ship": "RV Pelagia", "date": "2023-12-17", "days_from_scene": 1093, "distance_km": 780.5, "lon": -69.55526, "lat": 25.17532, "n_items": 0, "area_km2": 1.015, "size_class": "> 5 см", "c_items_km2": 0.0, "ci95_lo": 0.0, "ci95_hi": 3.63, "ci95_method": "точный интервал Пуассона для N, делённый на A", "raw_10cm_items_km2": 0.0, "authors_cal_10cm_items_km2": 0.0, "authors_cal_10cm_lo95": null, "authors_cal_10cm_hi95": null}, {"source": "ADIS (4TU.ResearchData, судовая камера)", "segment_id": 416609, "ship": "RV Pelagia", "date": "2023-12-17", "days_from_scene": 1093, "distance_km": 786.0, "lon": -69.45806, "lat": 25.18796, "n_items": 0, "area_km2": 1.0152, "size_class": "> 5 см", "c_items_km2": 0.0, "ci95_lo": 0.0, "ci95_hi": 3.63, "ci95_method": "точный интервал Пуассона для N, делённый на A", "raw_10cm_items_km2": 0.0, "authors_cal_10cm_items_km2": 0.0, "authors_cal_10cm_lo95": null, "authors_cal_10cm_hi95": null}], "nearest_organizer_sample": {"sample_id": "MPL-0239", "source_id": "S2_SARGASSO_MSM41", "distance_km": 668.8}, "note": "Измерение ≠ оценка: это независимые полевые счёты C = N/A в другое время и в другом месте; со сценой они не связаны и не калибруют её. Ближайший отрезок ADIS — за 777 км: только для порядка величин."}}}, {"type": "Feature", "id": "SZ-live-haiti-2020-12-19-003", "geometry": {"type": "Polygon", "coordinates": [[[-72.438731, 18.633531], [-72.439588, 18.633271], [-72.440071, 18.632646], [-72.440076, 18.632285], [-72.440454, 18.63238], [-72.44131, 18.632121], [-72.441895, 18.631045], [-72.441625, 18.630048], [-72.440969, 18.629588], [-72.44059, 18.629582], [-72.440417, 18.628496], [-72.439289, 18.627939], [-72.438148, 18.628195], [-72.43776, 18.628821], [-72.436901, 18.629261], [-72.436603, 18.63016], [-72.436036, 18.630062], [-72.43518, 18.630321], [-72.434595, 18.631397], [-72.434682, 18.63194], [-72.435239, 18.63267], [-72.436276, 18.633046], [-72.437129, 18.632967], [-72.437692, 18.633336], [-72.438731, 18.633531]]]}, "properties": {"kind": "detection_zone", "layer_kind": "scene_zone", "zone_id": "SZ-live-haiti-2020-12-19-003", "scene_key": "live-haiti-2020-12-19", "scene_kind": "live", "scene_id": "S2B_18QYF_20201219_0_L2A", "region": "haiti", "title": "Залив Порт-о-Пренс (Гаити) · зона 3", "mission": "Sentinel-2", "datetime": "2020-12-19T15:27:56.448000Z", "detection_status": "insufficient_data", "status": "insufficient_data", "concentration_status": "unavailable", "quantity": {"status": "not_confirmed", "label": "концентрация по снимку не подтверждена", "detail": "перевод площади в штуки не показываем: нет калибровочных пар (см. docs/QUANTITY.md)"}, "verification": "false_alarm_signs", "training_scene": null, "flags": ["ship", "foam"], "n_cozar_filaments": 0, "crop_file": "crops/SZ-live-haiti-2020-12-19-003.jpg", "wind_high": false, "measured": {"zone_area_km2": 0.2997, "suspicious_area_m2": 3700, "n_pixels": 37, "n_objects": 11, "water_km2": 0.3023, "lwd_m2_km2": 12239.5, "lwd_note": null, "quality": {"valid_water_fraction": 1.0, "cloud_fraction": 0.0, "glint_fraction": 0.0}, "model": {"weights": "weights/lgbm", "file": "weights/lgbm/model.txt", "sha256": "0eeebf43fcccd8c7c07f053b7ec723229d1a3c9b92d12eec1bdb269258c51470", "sha256_short": "0eeebf43fccc", "trained_at": "2026-09-25T01:35:55Z", "threshold": 0.63, "harmonize": "none", "class": "MARIDA Marine Debris (любой плавающий мусор, не только пластик)"}}, "probable": {"prob_max": 1.0, "prob_mean": 0.878, "signs": {"foam": {"flag": true, "white_ratio_b2_b8": 1.209, "wind10m_ms": 0.98, "rule": "прирост B2 над водой ≥ 0.8 прироста B8 («белый» спектр) или ветер ≥ 7.0 м/с"}, "glint": {"flag": false, "b11_water_median": 0.0025, "glint_share": 0.0, "rule": "медиана B11 воды зоны > 0.01 или ≥ 20 % пикселей зоны — блик (маска качества)"}, "ship": {"flag": true, "share": 0.108, "bright_target_px_within_500m": 16, "rule": "≥ 30 % пикселей — у яркой цели или кильватера (reports/artifacts.md) или яркая цель с откликом в SWIR (судно, лодка: B11 ≥ 0,015) ближе 500 м"}, "coast": {"flag": false, "land_px_within_300m": 0, "rule": "суша (маска качества) ближе 300 м — прибой, кромка берега"}, "shallow": {"flag": false, "b3_water_zone": 0.0156, "b3_ratio_to_scene_water": 1.17, "rule": "медиана B3 воды зоны ≥ 2× медианы воды снимка и ≥ 0,03 — мелководье или мутная вода"}, "seam": {"flag": false, "share": 0, "rule": "≥ 30 % пикселей — прямая линия вдоль трека/границы яркости (шов)"}, "cloud": {"flag": false, "cloud_fraction": 0.0, "rule": "облака или тени облаков (маска качества) ≥ 20 % зоны"}, "note": "эвристики, не классификатор; на размеченных данных не проверены"}, "n_cozar_filaments": 0}, "field_nearby": {"items": [{"source": "ADIS (4TU.ResearchData, судовая камера)", "segment_id": 416611, "ship": "RV Pelagia", "date": "2023-12-17", "days_from_scene": 1093, "distance_km": 777.4, "lon": -69.62766, "lat": 25.17519, "n_items": 0, "area_km2": 0.4738, "size_class": "> 5 см", "c_items_km2": 0.0, "ci95_lo": 0.0, "ci95_hi": 7.79, "ci95_method": "точный интервал Пуассона для N, делённый на A", "raw_10cm_items_km2": 0.0, "authors_cal_10cm_items_km2": 0.0, "authors_cal_10cm_lo95": null, "authors_cal_10cm_hi95": null}, {"source": "ADIS (4TU.ResearchData, судовая камера)", "segment_id": 416610, "ship": "RV Pelagia", "date": "2023-12-17", "days_from_scene": 1093, "distance_km": 780.5, "lon": -69.55526, "lat": 25.17532, "n_items": 0, "area_km2": 1.015, "size_class": "> 5 см", "c_items_km2": 0.0, "ci95_lo": 0.0, "ci95_hi": 3.63, "ci95_method": "точный интервал Пуассона для N, делённый на A", "raw_10cm_items_km2": 0.0, "authors_cal_10cm_items_km2": 0.0, "authors_cal_10cm_lo95": null, "authors_cal_10cm_hi95": null}, {"source": "ADIS (4TU.ResearchData, судовая камера)", "segment_id": 416609, "ship": "RV Pelagia", "date": "2023-12-17", "days_from_scene": 1093, "distance_km": 786.0, "lon": -69.45806, "lat": 25.18796, "n_items": 0, "area_km2": 1.0152, "size_class": "> 5 см", "c_items_km2": 0.0, "ci95_lo": 0.0, "ci95_hi": 3.63, "ci95_method": "точный интервал Пуассона для N, делённый на A", "raw_10cm_items_km2": 0.0, "authors_cal_10cm_items_km2": 0.0, "authors_cal_10cm_lo95": null, "authors_cal_10cm_hi95": null}], "nearest_organizer_sample": {"sample_id": "MPL-0239", "source_id": "S2_SARGASSO_MSM41", "distance_km": 668.8}, "note": "Измерение ≠ оценка: это независимые полевые счёты C = N/A в другое время и в другом месте; со сценой они не связаны и не калибруют её. Ближайший отрезок ADIS — за 777 км: только для порядка величин."}}}, {"type": "Feature", "id": "SZ-live-haiti-2020-12-19-004", "geometry": {"type": "Polygon", "coordinates": [[[-72.444019, 18.628365], [-72.444875, 18.628105], [-72.445358, 18.62748], [-72.445462, 18.626849], [-72.44519, 18.626033], [-72.444534, 18.625572], [-72.443118, 18.625282], [-72.442357, 18.625452], [-72.442268, 18.62509], [-72.441612, 18.624629], [-72.440665, 18.624617], [-72.440007, 18.624246], [-72.438117, 18.62395], [-72.437166, 18.624208], [-72.434516, 18.624081], [-72.433659, 18.62434], [-72.433176, 18.624966], [-72.433171, 18.625327], [-72.432693, 18.625592], [-72.432665, 18.627488], [-72.433228, 18.627857], [-72.433794, 18.627955], [-72.434651, 18.627695], [-72.435138, 18.626799], [-72.437123, 18.627097], [-72.438642, 18.626847], [-72.440056, 18.627317], [-72.441096, 18.627422], [-72.441667, 18.627249], [-72.442508, 18.628073], [-72.444019, 18.628365]]]}, "properties": {"kind": "detection_zone", "layer_kind": "scene_zone", "zone_id": "SZ-live-haiti-2020-12-19-004", "scene_key": "live-haiti-2020-12-19", "scene_kind": "live", "scene_id": "S2B_18QYF_20201219_0_L2A", "region": "haiti", "title": "Залив Порт-о-Пренс (Гаити) · зона 4", "mission": "Sentinel-2", "datetime": "2020-12-19T15:27:56.448000Z", "detection_status": "insufficient_data", "status": "insufficient_data", "concentration_status": "unavailable", "quantity": {"status": "not_confirmed", "label": "концентрация по снимку не подтверждена", "detail": "перевод площади в штуки не показываем: нет калибровочных пар (см. docs/QUANTITY.md)"}, "verification": "false_alarm_signs", "training_scene": null, "flags": ["ship", "foam"], "n_cozar_filaments": 0, "crop_file": "crops/SZ-live-haiti-2020-12-19-004.jpg", "wind_high": false, "measured": {"zone_area_km2": 0.4221, "suspicious_area_m2": 4900, "n_pixels": 49, "n_objects": 16, "water_km2": 0.4191, "lwd_m2_km2": 11691.7, "lwd_note": null, "quality": {"valid_water_fraction": 1.0, "cloud_fraction": 0.0, "glint_fraction": 0.0}, "model": {"weights": "weights/lgbm", "file": "weights/lgbm/model.txt", "sha256": "0eeebf43fcccd8c7c07f053b7ec723229d1a3c9b92d12eec1bdb269258c51470", "sha256_short": "0eeebf43fccc", "trained_at": "2026-09-25T01:35:55Z", "threshold": 0.63, "harmonize": "none", "class": "MARIDA Marine Debris (любой плавающий мусор, не только пластик)"}}, "probable": {"prob_max": 1.0, "prob_mean": 0.907, "signs": {"foam": {"flag": true, "white_ratio_b2_b8": 0.991, "wind10m_ms": 0.98, "rule": "прирост B2 над водой ≥ 0.8 прироста B8 («белый» спектр) или ветер ≥ 7.0 м/с"}, "glint": {"flag": false, "b11_water_median": 0.0022, "glint_share": 0.0, "rule": "медиана B11 воды зоны > 0.01 или ≥ 20 % пикселей зоны — блик (маска качества)"}, "ship": {"flag": true, "share": 0.245, "bright_target_px_within_500m": 16, "rule": "≥ 30 % пикселей — у яркой цели или кильватера (reports/artifacts.md) или яркая цель с откликом в SWIR (судно, лодка: B11 ≥ 0,015) ближе 500 м"}, "coast": {"flag": false, "land_px_within_300m": 0, "rule": "суша (маска качества) ближе 300 м — прибой, кромка берега"}, "shallow": {"flag": false, "b3_water_zone": 0.0152, "b3_ratio_to_scene_water": 1.14, "rule": "медиана B3 воды зоны ≥ 2× медианы воды снимка и ≥ 0,03 — мелководье или мутная вода"}, "seam": {"flag": false, "share": 0, "rule": "≥ 30 % пикселей — прямая линия вдоль трека/границы яркости (шов)"}, "cloud": {"flag": false, "cloud_fraction": 0.0, "rule": "облака или тени облаков (маска качества) ≥ 20 % зоны"}, "note": "эвристики, не классификатор; на размеченных данных не проверены"}, "n_cozar_filaments": 0}, "field_nearby": {"items": [{"source": "ADIS (4TU.ResearchData, судовая камера)", "segment_id": 416611, "ship": "RV Pelagia", "date": "2023-12-17", "days_from_scene": 1093, "distance_km": 777.4, "lon": -69.62766, "lat": 25.17519, "n_items": 0, "area_km2": 0.4738, "size_class": "> 5 см", "c_items_km2": 0.0, "ci95_lo": 0.0, "ci95_hi": 7.79, "ci95_method": "точный интервал Пуассона для N, делённый на A", "raw_10cm_items_km2": 0.0, "authors_cal_10cm_items_km2": 0.0, "authors_cal_10cm_lo95": null, "authors_cal_10cm_hi95": null}, {"source": "ADIS (4TU.ResearchData, судовая камера)", "segment_id": 416610, "ship": "RV Pelagia", "date": "2023-12-17", "days_from_scene": 1093, "distance_km": 780.5, "lon": -69.55526, "lat": 25.17532, "n_items": 0, "area_km2": 1.015, "size_class": "> 5 см", "c_items_km2": 0.0, "ci95_lo": 0.0, "ci95_hi": 3.63, "ci95_method": "точный интервал Пуассона для N, делённый на A", "raw_10cm_items_km2": 0.0, "authors_cal_10cm_items_km2": 0.0, "authors_cal_10cm_lo95": null, "authors_cal_10cm_hi95": null}, {"source": "ADIS (4TU.ResearchData, судовая камера)", "segment_id": 416609, "ship": "RV Pelagia", "date": "2023-12-17", "days_from_scene": 1093, "distance_km": 786.0, "lon": -69.45806, "lat": 25.18796, "n_items": 0, "area_km2": 1.0152, "size_class": "> 5 см", "c_items_km2": 0.0, "ci95_lo": 0.0, "ci95_hi": 3.63, "ci95_method": "точный интервал Пуассона для N, делённый на A", "raw_10cm_items_km2": 0.0, "authors_cal_10cm_items_km2": 0.0, "authors_cal_10cm_lo95": null, "authors_cal_10cm_hi95": null}], "nearest_organizer_sample": {"sample_id": "MPL-0239", "source_id": "S2_SARGASSO_MSM41", "distance_km": 668.8}, "note": "Измерение ≠ оценка: это независимые полевые счёты C = N/A в другое время и в другом месте; со сценой они не связаны и не калибруют её. Ближайший отрезок ADIS — за 777 км: только для порядка величин."}}}]}