{"type": "FeatureCollection", "features": [{"type": "Feature", "id": "D-SZ-fresh-bali-2026-07-20-001-94", "geometry": {"type": "Polygon", "coordinates": [[[115.3622513, -8.9288901], [115.3622509, -8.9289805], [115.3623419, -8.9289809], [115.3623423, -8.9288905], [115.3622513, -8.9288901]]]}, "properties": {"kind": "detection", "det_id": "D-SZ-fresh-bali-2026-07-20-001-94", "zone_id": "SZ-fresh-bali-2026-07-20-001", "scene_id": "S2B_MSIL2A_20260720T021529_R003_T50LLR_20260720T232558", "datetime": "2026-07-20T02:15:29.024000Z", "n_pixels": 1, "area_m2": 100, "prob_max": 0.9333, "prob_mean": 0.9333, "threshold": 0.63, "in_strip": true, "artifact": null}}, {"type": "Feature", "id": "D-SZ-fresh-bali-2026-07-20-001-99", "geometry": {"type": "Polygon", "coordinates": [[[115.360152, -8.9306891], [115.3601516, -8.9307795], [115.3602425, -8.9307799], [115.3602429, -8.9306895], [115.360152, -8.9306891]]]}, "properties": {"kind": "detection", "det_id": "D-SZ-fresh-bali-2026-07-20-001-99", "zone_id": "SZ-fresh-bali-2026-07-20-001", "scene_id": "S2B_MSIL2A_20260720T021529_R003_T50LLR_20260720T232558", "datetime": "2026-07-20T02:15:29.024000Z", "n_pixels": 1, "area_m2": 100, "prob_max": 0.898, "prob_mean": 0.898, "threshold": 0.63, "in_strip": true, "artifact": null}}, {"type": "Feature", "id": "D-SZ-fresh-bali-2026-07-20-001-100", "geometry": {"type": "Polygon", "coordinates": [[[115.3627888, -8.9307008], [115.3627884, -8.9307912], [115.3628793, -8.9307916], [115.3628797, -8.9307012], [115.3627888, -8.9307008]]]}, "properties": {"kind": "detection", "det_id": "D-SZ-fresh-bali-2026-07-20-001-100", "zone_id": "SZ-fresh-bali-2026-07-20-001", "scene_id": "S2B_MSIL2A_20260720T021529_R003_T50LLR_20260720T232558", "datetime": "2026-07-20T02:15:29.024000Z", "n_pixels": 1, "area_m2": 100, "prob_max": 0.9333, "prob_mean": 0.9333, "threshold": 0.63, "in_strip": true, "artifact": null}}, {"type": "Feature", "id": "D-SZ-fresh-bali-2026-07-20-001-102", "geometry": {"type": "Polygon", "coordinates": [[[115.3615086, -8.9323226], [115.3615078, -8.9325034], [115.3615987, -8.9325038], [115.3615995, -8.932323], [115.3615086, -8.9323226]]]}, "properties": {"kind": "detection", "det_id": "D-SZ-fresh-bali-2026-07-20-001-102", "zone_id": "SZ-fresh-bali-2026-07-20-001", "scene_id": "S2B_MSIL2A_20260720T021529_R003_T50LLR_20260720T232558", "datetime": "2026-07-20T02:15:29.024000Z", "n_pixels": 2, "area_m2": 200, "prob_max": 0.9137, "prob_mean": 0.7882, "threshold": 0.63, "in_strip": true, "artifact": null}}, {"type": "Feature", "id": "D-SZ-fresh-bali-2026-07-20-002-104", "geometry": {"type": "Polygon", "coordinates": [[[115.3727782, -8.9335476], [115.3727778, -8.933638], [115.3728688, -8.9336384], [115.3728692, -8.933548], [115.3727782, -8.9335476]]]}, "properties": {"kind": "detection", "det_id": "D-SZ-fresh-bali-2026-07-20-002-104", "zone_id": "SZ-fresh-bali-2026-07-20-002", "scene_id": "S2B_MSIL2A_20260720T021529_R003_T50LLR_20260720T232558", "datetime": "2026-07-20T02:15:29.024000Z", "n_pixels": 1, "area_m2": 100, "prob_max": 0.6902, "prob_mean": 0.6902, "threshold": 0.63, "in_strip": true, "artifact": "ship"}}, {"type": "Feature", "id": "D-SZ-fresh-bali-2026-07-20-002-106", "geometry": {"type": "Polygon", "coordinates": [[[115.3757768, -8.9340128], [115.3757764, -8.9341033], [115.3758673, -8.9341037], [115.3758677, -8.9340132], [115.3757768, -8.9340128]]]}, "properties": {"kind": "detection", "det_id": "D-SZ-fresh-bali-2026-07-20-002-106", "zone_id": "SZ-fresh-bali-2026-07-20-002", "scene_id": "S2B_MSIL2A_20260720T021529_R003_T50LLR_20260720T232558", "datetime": "2026-07-20T02:15:29.024000Z", "n_pixels": 1, "area_m2": 100, "prob_max": 0.6392, "prob_mean": 0.6392, "threshold": 0.63, "in_strip": true, "artifact": null}}, {"type": "Feature", "id": "D-SZ-fresh-bali-2026-07-20-002-108", "geometry": {"type": "Polygon", "coordinates": [[[115.3739567, -8.9343665], [115.3739563, -8.9344569], [115.3740472, -8.9344573], [115.3740476, -8.9343669], [115.3739567, -8.9343665]]]}, "properties": {"kind": "detection", "det_id": "D-SZ-fresh-bali-2026-07-20-002-108", "zone_id": "SZ-fresh-bali-2026-07-20-002", "scene_id": "S2B_MSIL2A_20260720T021529_R003_T50LLR_20260720T232558", "datetime": "2026-07-20T02:15:29.024000Z", "n_pixels": 1, "area_m2": 100, "prob_max": 0.898, "prob_mean": 0.898, "threshold": 0.63, "in_strip": true, "artifact": null}}, {"type": "Feature", "id": "D-SZ-fresh-bali-2026-07-20-002-109", "geometry": {"type": "Polygon", "coordinates": [[[115.3762298, -8.9343765], [115.3762294, -8.9344669], [115.3763204, -8.9344673], [115.3763208, -8.9343769], [115.3762298, -8.9343765]]]}, "properties": {"kind": "detection", "det_id": "D-SZ-fresh-bali-2026-07-20-002-109", "zone_id": "SZ-fresh-bali-2026-07-20-002", "scene_id": "S2B_MSIL2A_20260720T021529_R003_T50LLR_20260720T232558", "datetime": "2026-07-20T02:15:29.024000Z", "n_pixels": 1, "area_m2": 100, "prob_max": 0.7686, "prob_mean": 0.7686, "threshold": 0.63, "in_strip": true, "artifact": null}}, {"type": "Feature", "id": "D-SZ-fresh-bali-2026-07-20-002-110", "geometry": {"type": "Polygon", "coordinates": [[[115.3721365, -8.9347202], [115.3721361, -8.9348106], [115.3722271, -8.934811], [115.3722275, -8.9347206], [115.3721365, -8.9347202]]]}, "properties": {"kind": "detection", "det_id": "D-SZ-fresh-bali-2026-07-20-002-110", "zone_id": "SZ-fresh-bali-2026-07-20-002", "scene_id": "S2B_MSIL2A_20260720T021529_R003_T50LLR_20260720T232558", "datetime": "2026-07-20T02:15:29.024000Z", "n_pixels": 1, "area_m2": 100, "prob_max": 0.9255, "prob_mean": 0.9255, "threshold": 0.63, "in_strip": true, "artifact": null}}, {"type": "Feature", "id": "D-SZ-fresh-bali-2026-07-20-002-116", "geometry": {"type": "Polygon", "coordinates": [[[115.3774035, -8.9362804], [115.3774031, -8.9363708], [115.377494, -8.9363712], [115.3774944, -8.9362808], [115.3774035, -8.9362804]]]}, "properties": {"kind": "detection", "det_id": "D-SZ-fresh-bali-2026-07-20-002-116", "zone_id": "SZ-fresh-bali-2026-07-20-002", "scene_id": "S2B_MSIL2A_20260720T021529_R003_T50LLR_20260720T232558", "datetime": "2026-07-20T02:15:29.024000Z", "n_pixels": 1, "area_m2": 100, "prob_max": 0.9569, "prob_mean": 0.9569, "threshold": 0.63, "in_strip": true, "artifact": null}}, {"type": "Feature", "id": "D-SZ-fresh-bali-2026-07-20-002-118", "geometry": {"type": "Polygon", "coordinates": [[[115.3783961, -8.9380026], [115.3783957, -8.938093], [115.3784866, -8.9380934], [115.378487, -8.938003], [115.3783961, -8.9380026]]]}, "properties": {"kind": "detection", "det_id": "D-SZ-fresh-bali-2026-07-20-002-118", "zone_id": "SZ-fresh-bali-2026-07-20-002", "scene_id": "S2B_MSIL2A_20260720T021529_R003_T50LLR_20260720T232558", "datetime": "2026-07-20T02:15:29.024000Z", "n_pixels": 1, "area_m2": 100, "prob_max": 0.9843, "prob_mean": 0.9843, "threshold": 0.63, "in_strip": true, "artifact": null}}, {"type": "Feature", "id": "D-SZ-fresh-bali-2026-07-20-002-121", "geometry": {"type": "Polygon", "coordinates": [[[115.3800228, -8.9402702], [115.3800224, -8.9403606], [115.3801134, -8.940361], [115.3801138, -8.9402706], [115.3800228, -8.9402702]]]}, "properties": {"kind": "detection", "det_id": "D-SZ-fresh-bali-2026-07-20-002-121", "zone_id": "SZ-fresh-bali-2026-07-20-002", "scene_id": "S2B_MSIL2A_20260720T021529_R003_T50LLR_20260720T232558", "datetime": "2026-07-20T02:15:29.024000Z", "n_pixels": 1, "area_m2": 100, "prob_max": 0.8157, "prob_mean": 0.8157, "threshold": 0.63, "in_strip": true, "artifact": null}}, {"type": "Feature", "id": "D-SZ-fresh-bali-2026-07-20-002-123", "geometry": {"type": "Polygon", "coordinates": [[[115.3799267, -8.9414452], [115.3799263, -8.9415356], [115.3800172, -8.941536], [115.3800176, -8.9414455], [115.3799267, -8.9414452]]]}, "properties": {"kind": "detection", "det_id": "D-SZ-fresh-bali-2026-07-20-002-123", "zone_id": "SZ-fresh-bali-2026-07-20-002", "scene_id": "S2B_MSIL2A_20260720T021529_R003_T50LLR_20260720T232558", "datetime": "2026-07-20T02:15:29.024000Z", "n_pixels": 1, "area_m2": 100, "prob_max": 0.8, "prob_mean": 0.8, "threshold": 0.63, "in_strip": true, "artifact": "ship"}}, {"type": "Feature", "id": "D-SZ-fresh-bali-2026-07-20-002-124", "geometry": {"type": "Polygon", "coordinates": [[[115.3781986, -8.941528], [115.3781982, -8.9416184], [115.3782892, -8.9416188], [115.3782896, -8.9415284], [115.3781986, -8.941528]]]}, "properties": {"kind": "detection", "det_id": "D-SZ-fresh-bali-2026-07-20-002-124", "zone_id": "SZ-fresh-bali-2026-07-20-002", "scene_id": "S2B_MSIL2A_20260720T021529_R003_T50LLR_20260720T232558", "datetime": "2026-07-20T02:15:29.024000Z", "n_pixels": 1, "area_m2": 100, "prob_max": 0.8118, "prob_mean": 0.8118, "threshold": 0.63, "in_strip": true, "artifact": null}}, {"type": "Feature", "id": "D-SZ-fresh-bali-2026-07-20-003-111", "geometry": {"type": "Polygon", "coordinates": [[[115.3681353, -8.934793], [115.3681349, -8.9348835], [115.3682259, -8.9348839], [115.3682263, -8.9347934], [115.3681353, -8.934793]]]}, "properties": {"kind": "detection", "det_id": "D-SZ-fresh-bali-2026-07-20-003-111", "zone_id": "SZ-fresh-bali-2026-07-20-003", "scene_id": "S2B_MSIL2A_20260720T021529_R003_T50LLR_20260720T232558", "datetime": "2026-07-20T02:15:29.024000Z", "n_pixels": 1, "area_m2": 100, "prob_max": 0.6471, "prob_mean": 0.6471, "threshold": 0.63, "in_strip": true, "artifact": "ship"}}, {"type": "Feature", "id": "D-SZ-fresh-bali-2026-07-20-003-113", "geometry": {"type": "Polygon", "coordinates": [[[115.3667702, -8.9350583], [115.3667698, -8.9351487], [115.3668608, -8.9351491], [115.3668612, -8.9350587], [115.3667702, -8.9350583]]]}, "properties": {"kind": "detection", "det_id": "D-SZ-fresh-bali-2026-07-20-003-113", "zone_id": "SZ-fresh-bali-2026-07-20-003", "scene_id": "S2B_MSIL2A_20260720T021529_R003_T50LLR_20260720T232558", "datetime": "2026-07-20T02:15:29.024000Z", "n_pixels": 1, "area_m2": 100, "prob_max": 0.9843, "prob_mean": 0.9843, "threshold": 0.63, "in_strip": true, "artifact": "ship"}}, {"type": "Feature", "id": "D-SZ-fresh-bali-2026-07-20-003-114", "geometry": {"type": "Polygon", "coordinates": [[[115.3688587, -8.9357004], [115.3688583, -8.9357908], [115.3689493, -8.9357912], [115.3689497, -8.9357008], [115.3688587, -8.9357004]]]}, "properties": {"kind": "detection", "det_id": "D-SZ-fresh-bali-2026-07-20-003-114", "zone_id": "SZ-fresh-bali-2026-07-20-003", "scene_id": "S2B_MSIL2A_20260720T021529_R003_T50LLR_20260720T232558", "datetime": "2026-07-20T02:15:29.024000Z", "n_pixels": 1, "area_m2": 100, "prob_max": 0.6667, "prob_mean": 0.6667, "threshold": 0.63, "in_strip": true, "artifact": "ship"}}, {"type": "Feature", "id": "D-SZ-fresh-bali-2026-07-20-003-115", "geometry": {"type": "Polygon", "coordinates": [[[115.3662198, -8.9361409], [115.3662194, -8.9362313], [115.3664013, -8.9362321], [115.3664017, -8.9361417], [115.3662198, -8.9361409]]]}, "properties": {"kind": "detection", "det_id": "D-SZ-fresh-bali-2026-07-20-003-115", "zone_id": "SZ-fresh-bali-2026-07-20-003", "scene_id": "S2B_MSIL2A_20260720T021529_R003_T50LLR_20260720T232558", "datetime": "2026-07-20T02:15:29.024000Z", "n_pixels": 2, "area_m2": 200, "prob_max": 0.9804, "prob_mean": 0.8333, "threshold": 0.63, "in_strip": true, "artifact": "ship"}}]}