{"type": "FeatureCollection", "features": [{"type": "Feature", "id": "SZ-fresh-bali-2026-07-20-001", "geometry": {"type": "Polygon", "coordinates": [[[115.362257, -8.927534], [115.361164, -8.928072], [115.360887, -8.928884], [115.361066, -8.929608], [115.360249, -8.929333], [115.359703, -8.929421], [115.359065, -8.929871], [115.358788, -8.930683], [115.359057, -8.931588], [115.359691, -8.932043], [115.360236, -8.932136], [115.360144, -8.932497], [115.360413, -8.933312], [115.361502, -8.93386], [115.362048, -8.933772], [115.362686, -8.933322], [115.362963, -8.93251], [115.362874, -8.932057], [115.363693, -8.93188], [115.364243, -8.930798], [115.363974, -8.929892], [115.363521, -8.929619], [115.363706, -8.928897], [115.363437, -8.928082], [115.362803, -8.927627], [115.362257, -8.927534]], [[115.361066, -8.929699], [115.361157, -8.929609], [115.361157, -8.929699], [115.361066, -8.929699]], [[115.361337, -8.930061], [115.361428, -8.929971], [115.361428, -8.930062], [115.361337, -8.930061]], [[115.361427, -8.930243], [115.36161, -8.930063], [115.361609, -8.930243], [115.361427, -8.930243]]]}, "properties": {"kind": "detection_zone", "layer_kind": "scene_zone", "zone_id": "SZ-fresh-bali-2026-07-20-001", "scene_key": "fresh-bali-2026-07-20", "scene_kind": "fresh_s2", "scene_id": "S2B_MSIL2A_20260720T021529_R003_T50LLR_20260720T232558", "region": "bali", "title": "Бали (пролив Бадунг) · зона 1", "mission": "Sentinel-2", "datetime": "2026-07-20T02:15:29.024000Z", "detection_status": "insufficient_data", "status": "insufficient_data", "concentration_status": "unavailable", "quantity": {"status": "not_confirmed", "label": "концентрация по снимку не подтверждена", "detail": "перевод площади в штуки не показываем: нет калибровочных пар (см. docs/QUANTITY.md)"}, "verification": "false_alarm_signs", "training_scene": null, "flags": ["ship", "glint", "foam"], "n_cozar_filaments": 0, "crop_file": "crops/SZ-fresh-bali-2026-07-20-001.jpg", "wind_high": true, "measured": {"zone_area_km2": 0.2545, "suspicious_area_m2": 500, "n_pixels": 5, "n_objects": 4, "water_km2": 0.2543, "lwd_m2_km2": null, "lwd_note": "ветер > 5 м/с: по правилу Cózar 2024 эта вода не входит в знаменатель «обследовано» — LWD не считается", "quality": {"valid_water_fraction": 1.0, "cloud_fraction": 0.0, "glint_fraction": 0.0}, "model": {"weights": "weights/lgbm", "file": "weights/lgbm/model.txt", "sha256": "0eeebf43fcccd8c7c07f053b7ec723229d1a3c9b92d12eec1bdb269258c51470", "sha256_short": "0eeebf43fccc", "trained_at": "2026-09-25T01:36:30Z", "threshold": 0.63, "harmonize": "none", "class": "MARIDA Marine Debris (любой плавающий мусор, не только пластик)"}}, "probable": {"prob_max": 0.933, "prob_mean": 0.868, "signs": {"foam": {"flag": true, "white_ratio_b2_b8": 0.933, "wind10m_ms": 5.98, "rule": "прирост B2 над водой ≥ 0.8 прироста B8 («белый» спектр) или ветер ≥ 7.0 м/с"}, "glint": {"flag": true, "b11_water_median": 0.0121, "glint_share": 0.0, "rule": "медиана B11 воды зоны > 0.01 или ≥ 20 % пикселей зоны — блик (маска качества)"}, "ship": {"flag": true, "share": 0, "bright_target_px_within_500m": 13, "rule": "≥ 30 % пикселей — у яркой цели или кильватера (reports/artifacts.md) или яркая цель с откликом в SWIR (судно, лодка: B11 ≥ 0,015) ближе 500 м, или малый яркий объект (≤ 40 пикс.) с B11 ≥ 0,01 ближе 500 м (лодка с кильватером)"}, "coast": {"flag": false, "land_px_within_300m": 0, "rule": "суша (маска качества) ближе 300 м — прибой, кромка берега"}, "shallow": {"flag": false, "b3_water_zone": 0.0222, "b3_ratio_to_scene_water": 0.97, "rule": "медиана B3 воды зоны ≥ 2× медианы воды снимка и ≥ 0,03, или B4 воды зоны ≥ 0,02 и (≥ 2× воды снимка или B8 ≥ 0,013) — мелководье, яркое дно, илистая банка"}, "seam": {"flag": false, "share": 0, "rule": "≥ 30 % пикселей — прямая линия вдоль трека/границы яркости (шов)"}, "cloud": {"flag": false, "cloud_fraction": 0.0, "rule": "облака или тени облаков (маска качества) ≥ 20 % зоны"}, "diag": {"dist_land_m": null, "dist_bright_m": 114, "n_bright_px_500m": 16, "b11_bright_max_500m": 0.0328, "b4_water_zone": 0.0164, "b8_water_zone": 0.0137, "b11_det_median": 0.0137, "b8_det_median": 0.0347, "water_scene_b3": 0.0229, "water_scene_b4": 0.0164, "n_det_px": 5, "n_obj": 4}, "note": "эвристики, не классификатор; на размеченных данных не проверены"}, "n_cozar_filaments": 0}, "field_nearby": {"items": [{"source": "ADIS (4TU.ResearchData, судовая камера)", "segment_id": 437124, "ship": "Bark Europa", "date": "2024-08-17", "days_from_scene": -702, "distance_km": 5751.3, "lon": 167.19954, "lat": -15.52294, "n_items": 0, "area_km2": 0.1994, "size_class": "> 5 см", "c_items_km2": 0.0, "ci95_lo": 0.0, "ci95_hi": 18.5, "ci95_method": "точный интервал Пуассона для N, делённый на A", "raw_10cm_items_km2": 0.0, "authors_cal_10cm_items_km2": 0.0, "authors_cal_10cm_lo95": null, "authors_cal_10cm_hi95": null}, {"source": "ADIS (4TU.ResearchData, судовая камера)", "segment_id": 417394, "ship": "Bark Europa", "date": "2024-08-17", "days_from_scene": -702, "distance_km": 5751.7, "lon": 167.20278, "lat": -15.52361, "n_items": 3, "area_km2": 0.2326, "size_class": "> 5 см", "c_items_km2": 12.9, "ci95_lo": 2.66, "ci95_hi": 37.69, "ci95_method": "точный интервал Пуассона для N, делённый на A", "raw_10cm_items_km2": 12.9, "authors_cal_10cm_items_km2": 65.61, "authors_cal_10cm_lo95": 7.34, "authors_cal_10cm_hi95": 586.02}, {"source": "ADIS (4TU.ResearchData, судовая камера)", "segment_id": 437123, "ship": "Bark Europa", "date": "2024-08-17", "days_from_scene": -702, "distance_km": 5758.6, "lon": 167.26541, "lat": -15.53092, "n_items": 0, "area_km2": 0.4595, "size_class": "> 5 см", "c_items_km2": 0.0, "ci95_lo": 0.0, "ci95_hi": 8.03, "ci95_method": "точный интервал Пуассона для N, делённый на A", "raw_10cm_items_km2": 0.0, "authors_cal_10cm_items_km2": 0.0, "authors_cal_10cm_lo95": null, "authors_cal_10cm_hi95": null}], "nearest_organizer_sample": {"sample_id": "MPL-0922", "source_id": "S4_BLACK_SEA_DOORS3", "distance_km": 9848.4}, "note": "Измерение ≠ оценка: это независимые полевые счёты C = N/A в другое время и в другом месте; со сценой они не связаны и не калибруют её. Ближайший отрезок ADIS — за 5751 км: только для порядка величин."}, "acquired_at": "2026-07-20T02:15:29.024000Z", "acquisition_date": "2026-07-20", "processed_at": "2026-09-26T20:54:27Z", "human_checked": false, "auto_label": "автоматически, не проверено человеком"}}, {"type": "Feature", "id": "SZ-fresh-bali-2026-07-20-002", "geometry": {"type": "Polygon", "coordinates": [[[115.372784, -8.932191], [115.371965, -8.932459], [115.371507, -8.93309], [115.371505, -8.933542], [115.371049, -8.933902], [115.370773, -8.934714], [115.371041, -8.93562], [115.37213, -8.936167], [115.372676, -8.936079], [115.373224, -8.935629], [115.374496, -8.935725], [115.375044, -8.935275], [115.375769, -8.935731], [115.376224, -8.935733], [115.376128, -8.936817], [115.37658, -8.937452], [115.377125, -8.937635], [115.377032, -8.938087], [115.377301, -8.938902], [115.377935, -8.939357], [115.379118, -8.939272], [115.378752, -8.939813], [115.37875, -8.940265], [115.37775, -8.94026], [115.377111, -8.94071], [115.376835, -8.941522], [115.377103, -8.942427], [115.378192, -8.942975], [115.379103, -8.942617], [115.37992, -8.942892], [115.380831, -8.942625], [115.381381, -8.941542], [115.381389, -8.939824], [115.380574, -8.939007], [115.380029, -8.938914], [115.380028, -8.939004], [115.379574, -8.939002], [115.379573, -8.939093], [115.379392, -8.939092], [115.379758, -8.938551], [115.379762, -8.937557], [115.37931, -8.936922], [115.378765, -8.936738], [115.378858, -8.936287], [115.378589, -8.935472], [115.377955, -8.935017], [115.3775, -8.935015], [115.377685, -8.934383], [115.377416, -8.933568], [115.376691, -8.932932], [115.375874, -8.932657], [115.375328, -8.932745], [115.37478, -8.933195], [115.374053, -8.933101], [115.373692, -8.932467], [115.372784, -8.932191]], [[115.3793, -8.939182], [115.379392, -8.939092], [115.379391, -8.939182], [115.3793, -8.939182]], [[115.379118, -8.939272], [115.379209, -8.939182], [115.379209, -8.939272], [115.379118, -8.939272]]]}, "properties": {"kind": "detection_zone", "layer_kind": "scene_zone", "zone_id": "SZ-fresh-bali-2026-07-20-002", "scene_key": "fresh-bali-2026-07-20", "scene_kind": "fresh_s2", "scene_id": "S2B_MSIL2A_20260720T021529_R003_T50LLR_20260720T232558", "region": "bali", "title": "Бали (пролив Бадунг) · зона 2", "mission": "Sentinel-2", "datetime": "2026-07-20T02:15:29.024000Z", "detection_status": "insufficient_data", "status": "insufficient_data", "concentration_status": "unavailable", "quantity": {"status": "not_confirmed", "label": "концентрация по снимку не подтверждена", "detail": "перевод площади в штуки не показываем: нет калибровочных пар (см. docs/QUANTITY.md)"}, "verification": "false_alarm_signs", "training_scene": null, "flags": ["ship", "glint", "foam"], "n_cozar_filaments": 0, "crop_file": "crops/SZ-fresh-bali-2026-07-20-002.jpg", "wind_high": true, "measured": {"zone_area_km2": 0.5128, "suspicious_area_m2": 1000, "n_pixels": 10, "n_objects": 10, "water_km2": 0.5146, "lwd_m2_km2": null, "lwd_note": "ветер > 5 м/с: по правилу Cózar 2024 эта вода не входит в знаменатель «обследовано» — LWD не считается", "quality": {"valid_water_fraction": 1.0, "cloud_fraction": 0.0, "glint_fraction": 0.0}, "model": {"weights": "weights/lgbm", "file": "weights/lgbm/model.txt", "sha256": "0eeebf43fcccd8c7c07f053b7ec723229d1a3c9b92d12eec1bdb269258c51470", "sha256_short": "0eeebf43fccc", "trained_at": "2026-09-25T01:36:30Z", "threshold": 0.63, "harmonize": "none", "class": "MARIDA Marine Debris (любой плавающий мусор, не только пластик)"}}, "probable": {"prob_max": 0.984, "prob_mean": 0.829, "signs": {"foam": {"flag": true, "white_ratio_b2_b8": 1.083, "wind10m_ms": 5.98, "rule": "прирост B2 над водой ≥ 0.8 прироста B8 («белый» спектр) или ветер ≥ 7.0 м/с"}, "glint": {"flag": true, "b11_water_median": 0.0133, "glint_share": 0.0, "rule": "медиана B11 воды зоны > 0.01 или ≥ 20 % пикселей зоны — блик (маска качества)"}, "ship": {"flag": true, "share": 0.2, "bright_target_px_within_500m": 25, "rule": "≥ 30 % пикселей — у яркой цели или кильватера (reports/artifacts.md) или яркая цель с откликом в SWIR (судно, лодка: B11 ≥ 0,015) ближе 500 м, или малый яркий объект (≤ 40 пикс.) с B11 ≥ 0,01 ближе 500 м (лодка с кильватером)"}, "coast": {"flag": false, "land_px_within_300m": 0, "rule": "суша (маска качества) ближе 300 м — прибой, кромка берега"}, "shallow": {"flag": false, "b3_water_zone": 0.0247, "b3_ratio_to_scene_water": 1.08, "rule": "медиана B3 воды зоны ≥ 2× медианы воды снимка и ≥ 0,03, или B4 воды зоны ≥ 0,02 и (≥ 2× воды снимка или B8 ≥ 0,013) — мелководье, яркое дно, илистая банка"}, "seam": {"flag": false, "share": 0, "rule": "≥ 30 % пикселей — прямая линия вдоль трека/границы яркости (шов)"}, "cloud": {"flag": false, "cloud_fraction": 0.0, "rule": "облака или тени облаков (маска качества) ≥ 20 % зоны"}, "diag": {"dist_land_m": null, "dist_bright_m": 10, "n_bright_px_500m": 32, "b11_bright_max_500m": 0.0217, "b4_water_zone": 0.0186, "b8_water_zone": 0.0153, "b11_det_median": 0.0149, "b8_det_median": 0.0356, "water_scene_b3": 0.0229, "water_scene_b4": 0.0164, "n_det_px": 10, "n_obj": 10}, "note": "эвристики, не классификатор; на размеченных данных не проверены"}, "n_cozar_filaments": 0}, "field_nearby": {"items": [{"source": "ADIS (4TU.ResearchData, судовая камера)", "segment_id": 437124, "ship": "Bark Europa", "date": "2024-08-17", "days_from_scene": -702, "distance_km": 5751.3, "lon": 167.19954, "lat": -15.52294, "n_items": 0, "area_km2": 0.1994, "size_class": "> 5 см", "c_items_km2": 0.0, "ci95_lo": 0.0, "ci95_hi": 18.5, "ci95_method": "точный интервал Пуассона для N, делённый на A", "raw_10cm_items_km2": 0.0, "authors_cal_10cm_items_km2": 0.0, "authors_cal_10cm_lo95": null, "authors_cal_10cm_hi95": null}, {"source": "ADIS (4TU.ResearchData, судовая камера)", "segment_id": 417394, "ship": "Bark Europa", "date": "2024-08-17", "days_from_scene": -702, "distance_km": 5751.7, "lon": 167.20278, "lat": -15.52361, "n_items": 3, "area_km2": 0.2326, "size_class": "> 5 см", "c_items_km2": 12.9, "ci95_lo": 2.66, "ci95_hi": 37.69, "ci95_method": "точный интервал Пуассона для N, делённый на A", "raw_10cm_items_km2": 12.9, "authors_cal_10cm_items_km2": 65.61, "authors_cal_10cm_lo95": 7.34, "authors_cal_10cm_hi95": 586.02}, {"source": "ADIS (4TU.ResearchData, судовая камера)", "segment_id": 437123, "ship": "Bark Europa", "date": "2024-08-17", "days_from_scene": -702, "distance_km": 5758.6, "lon": 167.26541, "lat": -15.53092, "n_items": 0, "area_km2": 0.4595, "size_class": "> 5 см", "c_items_km2": 0.0, "ci95_lo": 0.0, "ci95_hi": 8.03, "ci95_method": "точный интервал Пуассона для N, делённый на A", "raw_10cm_items_km2": 0.0, "authors_cal_10cm_items_km2": 0.0, "authors_cal_10cm_lo95": null, "authors_cal_10cm_hi95": null}], "nearest_organizer_sample": {"sample_id": "MPL-0922", "source_id": "S4_BLACK_SEA_DOORS3", "distance_km": 9848.4}, "note": "Измерение ≠ оценка: это независимые полевые счёты C = N/A в другое время и в другом месте; со сценой они не связаны и не калибруют её. Ближайший отрезок ADIS — за 5751 км: только для порядка величин."}, "acquired_at": "2026-07-20T02:15:29.024000Z", "acquisition_date": "2026-07-20", "processed_at": "2026-09-26T20:54:27Z", "human_checked": false, "auto_label": "автоматически, не проверено человеком"}}, {"type": "Feature", "id": "SZ-fresh-bali-2026-07-20-003", "geometry": {"type": "Polygon", "coordinates": [[[115.368141, -8.933437], [115.367321, -8.933795], [115.366321, -8.93379], [115.365683, -8.93424], [115.365497, -8.935053], [115.365132, -8.935322], [115.364856, -8.936135], [115.364944, -8.936678], [115.365396, -8.937313], [115.366213, -8.937587], [115.36685, -8.9375], [115.367489, -8.937051], [115.367673, -8.936419], [115.368035, -8.936872], [115.368852, -8.937147], [115.369398, -8.937059], [115.370037, -8.93661], [115.370313, -8.935797], [115.370044, -8.934892], [115.3695, -8.934528], [115.369049, -8.933712], [115.368141, -8.933437]]]}, "properties": {"kind": "detection_zone", "layer_kind": "scene_zone", "zone_id": "SZ-fresh-bali-2026-07-20-003", "scene_key": "fresh-bali-2026-07-20", "scene_kind": "fresh_s2", "scene_id": "S2B_MSIL2A_20260720T021529_R003_T50LLR_20260720T232558", "region": "bali", "title": "Бали (пролив Бадунг) · зона 3", "mission": "Sentinel-2", "datetime": "2026-07-20T02:15:29.024000Z", "detection_status": "insufficient_data", "status": "insufficient_data", "concentration_status": "unavailable", "quantity": {"status": "not_confirmed", "label": "концентрация по снимку не подтверждена", "detail": "перевод площади в штуки не показываем: нет калибровочных пар (см. docs/QUANTITY.md)"}, "verification": "false_alarm_signs", "training_scene": null, "flags": ["ship", "glint", "foam"], "n_cozar_filaments": 0, "crop_file": "crops/SZ-fresh-bali-2026-07-20-003.jpg", "wind_high": true, "measured": {"zone_area_km2": 0.1926, "suspicious_area_m2": 500, "n_pixels": 5, "n_objects": 4, "water_km2": 0.1925, "lwd_m2_km2": null, "lwd_note": "ветер > 5 м/с: по правилу Cózar 2024 эта вода не входит в знаменатель «обследовано» — LWD не считается", "quality": {"valid_water_fraction": 1.0, "cloud_fraction": 0.0, "glint_fraction": 0.0}, "model": {"weights": "weights/lgbm", "file": "weights/lgbm/model.txt", "sha256": "0eeebf43fcccd8c7c07f053b7ec723229d1a3c9b92d12eec1bdb269258c51470", "sha256_short": "0eeebf43fccc", "trained_at": "2026-09-25T01:36:30Z", "threshold": 0.63, "harmonize": "none", "class": "MARIDA Marine Debris (любой плавающий мусор, не только пластик)"}}, "probable": {"prob_max": 0.984, "prob_mean": 0.793, "signs": {"foam": {"flag": true, "white_ratio_b2_b8": 0.892, "wind10m_ms": 5.98, "rule": "прирост B2 над водой ≥ 0.8 прироста B8 («белый» спектр) или ветер ≥ 7.0 м/с"}, "glint": {"flag": true, "b11_water_median": 0.0131, "glint_share": 0.0, "rule": "медиана B11 воды зоны > 0.01 или ≥ 20 % пикселей зоны — блик (маска качества)"}, "ship": {"flag": true, "share": 1.0, "bright_target_px_within_500m": 46, "rule": "≥ 30 % пикселей — у яркой цели или кильватера (reports/artifacts.md) или яркая цель с откликом в SWIR (судно, лодка: B11 ≥ 0,015) ближе 500 м, или малый яркий объект (≤ 40 пикс.) с B11 ≥ 0,01 ближе 500 м (лодка с кильватером)"}, "coast": {"flag": false, "land_px_within_300m": 0, "rule": "суша (маска качества) ближе 300 м — прибой, кромка берега"}, "shallow": {"flag": false, "b3_water_zone": 0.0241, "b3_ratio_to_scene_water": 1.05, "rule": "медиана B3 воды зоны ≥ 2× медианы воды снимка и ≥ 0,03, или B4 воды зоны ≥ 0,02 и (≥ 2× воды снимка или B8 ≥ 0,013) — мелководье, яркое дно, илистая банка"}, "seam": {"flag": false, "share": 0, "rule": "≥ 30 % пикселей — прямая линия вдоль трека/границы яркости (шов)"}, "cloud": {"flag": false, "cloud_fraction": 0.0, "rule": "облака или тени облаков (маска качества) ≥ 20 % зоны"}, "diag": {"dist_land_m": null, "dist_bright_m": 10, "n_bright_px_500m": 60, "b11_bright_max_500m": 0.0263, "b4_water_zone": 0.0181, "b8_water_zone": 0.015, "b11_det_median": 0.0151, "b8_det_median": 0.0462, "water_scene_b3": 0.0229, "water_scene_b4": 0.0164, "n_det_px": 5, "n_obj": 4}, "note": "эвристики, не классификатор; на размеченных данных не проверены"}, "n_cozar_filaments": 0}, "field_nearby": {"items": [{"source": "ADIS (4TU.ResearchData, судовая камера)", "segment_id": 437124, "ship": "Bark Europa", "date": "2024-08-17", "days_from_scene": -702, "distance_km": 5751.3, "lon": 167.19954, "lat": -15.52294, "n_items": 0, "area_km2": 0.1994, "size_class": "> 5 см", "c_items_km2": 0.0, "ci95_lo": 0.0, "ci95_hi": 18.5, "ci95_method": "точный интервал Пуассона для N, делённый на A", "raw_10cm_items_km2": 0.0, "authors_cal_10cm_items_km2": 0.0, "authors_cal_10cm_lo95": null, "authors_cal_10cm_hi95": null}, {"source": "ADIS (4TU.ResearchData, судовая камера)", "segment_id": 417394, "ship": "Bark Europa", "date": "2024-08-17", "days_from_scene": -702, "distance_km": 5751.7, "lon": 167.20278, "lat": -15.52361, "n_items": 3, "area_km2": 0.2326, "size_class": "> 5 см", "c_items_km2": 12.9, "ci95_lo": 2.66, "ci95_hi": 37.69, "ci95_method": "точный интервал Пуассона для N, делённый на A", "raw_10cm_items_km2": 12.9, "authors_cal_10cm_items_km2": 65.61, "authors_cal_10cm_lo95": 7.34, "authors_cal_10cm_hi95": 586.02}, {"source": "ADIS (4TU.ResearchData, судовая камера)", "segment_id": 437123, "ship": "Bark Europa", "date": "2024-08-17", "days_from_scene": -702, "distance_km": 5758.6, "lon": 167.26541, "lat": -15.53092, "n_items": 0, "area_km2": 0.4595, "size_class": "> 5 см", "c_items_km2": 0.0, "ci95_lo": 0.0, "ci95_hi": 8.03, "ci95_method": "точный интервал Пуассона для N, делённый на A", "raw_10cm_items_km2": 0.0, "authors_cal_10cm_items_km2": 0.0, "authors_cal_10cm_lo95": null, "authors_cal_10cm_hi95": null}], "nearest_organizer_sample": {"sample_id": "MPL-0922", "source_id": "S4_BLACK_SEA_DOORS3", "distance_km": 9848.4}, "note": "Измерение ≠ оценка: это независимые полевые счёты C = N/A в другое время и в другом месте; со сценой они не связаны и не калибруют её. Ближайший отрезок ADIS — за 5751 км: только для порядка величин."}, "acquired_at": "2026-07-20T02:15:29.024000Z", "acquisition_date": "2026-07-20", "processed_at": "2026-09-26T20:54:27Z", "human_checked": false, "auto_label": "автоматически, не проверено человеком"}}]}