{"type": "FeatureCollection", "features": [{"type": "Feature", "id": "D-SZ-fresh-honduras-2026-09-07-001-1", "geometry": {"type": "Polygon", "coordinates": [[[-88.2734736, 15.9120295], [-88.273473, 15.9119391], [-88.2735664, 15.9119386], [-88.2735642, 15.9115771], [-88.2734708, 15.9115776], [-88.2734713, 15.911668], [-88.2733779, 15.9116685], [-88.2733802, 15.9120301], [-88.2734736, 15.9120295]]]}, "properties": {"kind": "detection", "det_id": "D-SZ-fresh-honduras-2026-09-07-001-1", "zone_id": "SZ-fresh-honduras-2026-09-07-001", "scene_id": "S2B_MSIL2A_20260907T160819_R140_T16PCC_20260907T200205", "datetime": "2026-09-07T16:08:19.024000Z", "n_pixels": 8, "area_m2": 800, "prob_max": 1.0, "prob_mean": 0.9255, "threshold": 0.63, "in_strip": true, "artifact": null}}, {"type": "Feature", "id": "D-SZ-fresh-honduras-2026-09-07-001-5", "geometry": {"type": "Polygon", "coordinates": [[[-88.2755153, 15.9099386], [-88.2755148, 15.9098482], [-88.2754214, 15.9098488], [-88.2754219, 15.9099391], [-88.2755153, 15.9099386]]]}, "properties": {"kind": "detection", "det_id": "D-SZ-fresh-honduras-2026-09-07-001-5", "zone_id": "SZ-fresh-honduras-2026-09-07-001", "scene_id": "S2B_MSIL2A_20260907T160819_R140_T16PCC_20260907T200205", "datetime": "2026-09-07T16:08:19.024000Z", "n_pixels": 1, "area_m2": 100, "prob_max": 0.8784, "prob_mean": 0.8784, "threshold": 0.63, "in_strip": true, "artifact": null}}, {"type": "Feature", "id": "D-SZ-fresh-honduras-2026-09-07-001-10", "geometry": {"type": "Polygon", "coordinates": [[[-88.2743791, 15.9075049], [-88.2743786, 15.9074145], [-88.2742852, 15.9074151], [-88.2742858, 15.9075054], [-88.2743791, 15.9075049]]]}, "properties": {"kind": "detection", "det_id": "D-SZ-fresh-honduras-2026-09-07-001-10", "zone_id": "SZ-fresh-honduras-2026-09-07-001", "scene_id": "S2B_MSIL2A_20260907T160819_R140_T16PCC_20260907T200205", "datetime": "2026-09-07T16:08:19.024000Z", "n_pixels": 1, "area_m2": 100, "prob_max": 0.8706, "prob_mean": 0.8706, "threshold": 0.63, "in_strip": true, "artifact": null}}, {"type": "Feature", "id": "D-SZ-fresh-honduras-2026-09-07-002-4", "geometry": {"type": "Polygon", "coordinates": [[[-88.2629091, 15.9104646], [-88.2629085, 15.9103742], [-88.2630019, 15.9103737], [-88.2630014, 15.9102833], [-88.262908, 15.9102839], [-88.2629074, 15.9101935], [-88.262814, 15.910194], [-88.2628157, 15.9104652], [-88.2629091, 15.9104646]]]}, "properties": {"kind": "detection", "det_id": "D-SZ-fresh-honduras-2026-09-07-002-4", "zone_id": "SZ-fresh-honduras-2026-09-07-002", "scene_id": "S2B_MSIL2A_20260907T160819_R140_T16PCC_20260907T200205", "datetime": "2026-09-07T16:08:19.024000Z", "n_pixels": 4, "area_m2": 400, "prob_max": 1.0, "prob_mean": 0.9735, "threshold": 0.63, "in_strip": true, "artifact": null}}, {"type": "Feature", "id": "D-SZ-fresh-honduras-2026-09-07-002-6", "geometry": {"type": "Polygon", "coordinates": [[[-88.2629057, 15.9099223], [-88.2629051, 15.9098319], [-88.2628117, 15.9098325], [-88.2628123, 15.9099229], [-88.2629057, 15.9099223]]]}, "properties": {"kind": "detection", "det_id": "D-SZ-fresh-honduras-2026-09-07-002-6", "zone_id": "SZ-fresh-honduras-2026-09-07-002", "scene_id": "S2B_MSIL2A_20260907T160819_R140_T16PCC_20260907T200205", "datetime": "2026-09-07T16:08:19.024000Z", "n_pixels": 1, "area_m2": 100, "prob_max": 0.9686, "prob_mean": 0.9686, "threshold": 0.63, "in_strip": true, "artifact": null}}, {"type": "Feature", "id": "D-SZ-fresh-honduras-2026-09-07-002-7", "geometry": {"type": "Polygon", "coordinates": [[[-88.2638363, 15.9093746], [-88.2638357, 15.9092842], [-88.2636489, 15.9092853], [-88.2636495, 15.9093757], [-88.2638363, 15.9093746]]]}, "properties": {"kind": "detection", "det_id": "D-SZ-fresh-honduras-2026-09-07-002-7", "zone_id": "SZ-fresh-honduras-2026-09-07-002", "scene_id": "S2B_MSIL2A_20260907T160819_R140_T16PCC_20260907T200205", "datetime": "2026-09-07T16:08:19.024000Z", "n_pixels": 2, "area_m2": 200, "prob_max": 0.8784, "prob_mean": 0.8059, "threshold": 0.63, "in_strip": true, "artifact": null}}, {"type": "Feature", "id": "D-SZ-fresh-honduras-2026-09-07-003-13", "geometry": {"type": "Polygon", "coordinates": [[[-88.2913506, 15.903156], [-88.29135, 15.9030656], [-88.2914434, 15.903065], [-88.2914423, 15.9028843], [-88.2913489, 15.9028848], [-88.2913495, 15.9029752], [-88.2912561, 15.9029758], [-88.2912567, 15.9030662], [-88.2911633, 15.9030667], [-88.2911638, 15.9031571], [-88.2913506, 15.903156]]]}, "properties": {"kind": "detection", "det_id": "D-SZ-fresh-honduras-2026-09-07-003-13", "zone_id": "SZ-fresh-honduras-2026-09-07-003", "scene_id": "S2B_MSIL2A_20260907T160819_R140_T16PCC_20260907T200205", "datetime": "2026-09-07T16:08:19.024000Z", "n_pixels": 5, "area_m2": 500, "prob_max": 0.9961, "prob_mean": 0.9404, "threshold": 0.63, "in_strip": true, "artifact": null}}, {"type": "Feature", "id": "D-SZ-fresh-honduras-2026-09-07-004-20", "geometry": {"type": "Polygon", "coordinates": [[[-88.2865253, 15.8934231], [-88.2865248, 15.8933328], [-88.2864314, 15.8933333], [-88.2864308, 15.8932429], [-88.286244, 15.893244], [-88.2862452, 15.8934248], [-88.2865253, 15.8934231]]]}, "properties": {"kind": "detection", "det_id": "D-SZ-fresh-honduras-2026-09-07-004-20", "zone_id": "SZ-fresh-honduras-2026-09-07-004", "scene_id": "S2B_MSIL2A_20260907T160819_R140_T16PCC_20260907T200205", "datetime": "2026-09-07T16:08:19.024000Z", "n_pixels": 5, "area_m2": 500, "prob_max": 1.0, "prob_mean": 0.8973, "threshold": 0.63, "in_strip": true, "artifact": null}}, {"type": "Feature", "id": "D-SZ-fresh-honduras-2026-09-07-005-21", "geometry": {"type": "Polygon", "coordinates": [[[-88.2765301, 15.8931209], [-88.2765295, 15.8930305], [-88.2764361, 15.893031], [-88.2764367, 15.8931214], [-88.2765301, 15.8931209]]]}, "properties": {"kind": "detection", "det_id": "D-SZ-fresh-honduras-2026-09-07-005-21", "zone_id": "SZ-fresh-honduras-2026-09-07-005", "scene_id": "S2B_MSIL2A_20260907T160819_R140_T16PCC_20260907T200205", "datetime": "2026-09-07T16:08:19.024000Z", "n_pixels": 1, "area_m2": 100, "prob_max": 0.9765, "prob_mean": 0.9765, "threshold": 0.63, "in_strip": true, "artifact": "ship"}}, {"type": "Feature", "id": "D-SZ-fresh-honduras-2026-09-07-005-22", "geometry": {"type": "Polygon", "coordinates": [[[-88.2768097, 15.8930288], [-88.2768091, 15.8929384], [-88.2767157, 15.892939], [-88.2767163, 15.8930294], [-88.2768097, 15.8930288]]]}, "properties": {"kind": "detection", "det_id": "D-SZ-fresh-honduras-2026-09-07-005-22", "zone_id": "SZ-fresh-honduras-2026-09-07-005", "scene_id": "S2B_MSIL2A_20260907T160819_R140_T16PCC_20260907T200205", "datetime": "2026-09-07T16:08:19.024000Z", "n_pixels": 1, "area_m2": 100, "prob_max": 0.8314, "prob_mean": 0.8314, "threshold": 0.63, "in_strip": true, "artifact": "ship"}}, {"type": "Feature", "id": "D-SZ-fresh-honduras-2026-09-07-005-23", "geometry": {"type": "Polygon", "coordinates": [[[-88.2766223, 15.8929395], [-88.2766218, 15.8928492], [-88.2762482, 15.8928514], [-88.2762488, 15.8929417], [-88.2766223, 15.8929395]]]}, "properties": {"kind": "detection", "det_id": "D-SZ-fresh-honduras-2026-09-07-005-23", "zone_id": "SZ-fresh-honduras-2026-09-07-005", "scene_id": "S2B_MSIL2A_20260907T160819_R140_T16PCC_20260907T200205", "datetime": "2026-09-07T16:08:19.024000Z", "n_pixels": 4, "area_m2": 400, "prob_max": 0.7843, "prob_mean": 0.7304, "threshold": 0.63, "in_strip": true, "artifact": "ship"}}, {"type": "Feature", "id": "D-SZ-fresh-honduras-2026-09-07-006-24", "geometry": {"type": "Polygon", "coordinates": [[[-88.2473892, 15.8929294], [-88.2473887, 15.892839], [-88.2472953, 15.8928396], [-88.2472958, 15.89293], [-88.2473892, 15.8929294]]]}, "properties": {"kind": "detection", "det_id": "D-SZ-fresh-honduras-2026-09-07-006-24", "zone_id": "SZ-fresh-honduras-2026-09-07-006", "scene_id": "S2B_MSIL2A_20260907T160819_R140_T16PCC_20260907T200205", "datetime": "2026-09-07T16:08:19.024000Z", "n_pixels": 1, "area_m2": 100, "prob_max": 0.651, "prob_mean": 0.651, "threshold": 0.63, "in_strip": true, "artifact": null}}, {"type": "Feature", "id": "D-SZ-fresh-honduras-2026-09-07-006-25", "geometry": {"type": "Polygon", "coordinates": [[[-88.2481297, 15.8918405], [-88.2481291, 15.8917501], [-88.2480357, 15.8917507], [-88.2480363, 15.8918411], [-88.2481297, 15.8918405]]]}, "properties": {"kind": "detection", "det_id": "D-SZ-fresh-honduras-2026-09-07-006-25", "zone_id": "SZ-fresh-honduras-2026-09-07-006", "scene_id": "S2B_MSIL2A_20260907T160819_R140_T16PCC_20260907T200205", "datetime": "2026-09-07T16:08:19.024000Z", "n_pixels": 1, "area_m2": 100, "prob_max": 0.9529, "prob_mean": 0.9529, "threshold": 0.63, "in_strip": true, "artifact": null}}, {"type": "Feature", "id": "D-SZ-fresh-honduras-2026-09-07-006-26", "geometry": {"type": "Polygon", "coordinates": [[[-88.2478484, 15.8916614], [-88.2478473, 15.8914806], [-88.2477539, 15.8914811], [-88.2477544, 15.8915715], [-88.247661, 15.8915721], [-88.2476616, 15.8916624], [-88.2478484, 15.8916614]]]}, "properties": {"kind": "detection", "det_id": "D-SZ-fresh-honduras-2026-09-07-006-26", "zone_id": "SZ-fresh-honduras-2026-09-07-006", "scene_id": "S2B_MSIL2A_20260907T160819_R140_T16PCC_20260907T200205", "datetime": "2026-09-07T16:08:19.024000Z", "n_pixels": 3, "area_m2": 300, "prob_max": 0.9922, "prob_mean": 0.8458, "threshold": 0.63, "in_strip": true, "artifact": null}}, {"type": "Feature", "id": "D-SZ-fresh-honduras-2026-09-07-007-31", "geometry": {"type": "Polygon", "coordinates": [[[-88.2519007, 15.8824185], [-88.2519001, 15.8823281], [-88.2518067, 15.8823287], [-88.2518073, 15.882419], [-88.2519007, 15.8824185]]]}, "properties": {"kind": "detection", "det_id": "D-SZ-fresh-honduras-2026-09-07-007-31", "zone_id": "SZ-fresh-honduras-2026-09-07-007", "scene_id": "S2B_MSIL2A_20260907T160819_R140_T16PCC_20260907T200205", "datetime": "2026-09-07T16:08:19.024000Z", "n_pixels": 1, "area_m2": 100, "prob_max": 0.8784, "prob_mean": 0.8784, "threshold": 0.63, "in_strip": true, "artifact": "ship"}}, {"type": "Feature", "id": "D-SZ-fresh-honduras-2026-09-07-007-32", "geometry": {"type": "Polygon", "coordinates": [[[-88.2509646, 15.8820624], [-88.2509634, 15.8818816], [-88.2507767, 15.8818827], [-88.2507778, 15.8820635], [-88.2509646, 15.8820624]]]}, "properties": {"kind": "detection", "det_id": "D-SZ-fresh-honduras-2026-09-07-007-32", "zone_id": "SZ-fresh-honduras-2026-09-07-007", "scene_id": "S2B_MSIL2A_20260907T160819_R140_T16PCC_20260907T200205", "datetime": "2026-09-07T16:08:19.024000Z", "n_pixels": 4, "area_m2": 400, "prob_max": 0.9922, "prob_mean": 0.8676, "threshold": 0.63, "in_strip": true, "artifact": null}}, {"type": "Feature", "id": "D-SZ-fresh-honduras-2026-09-07-008-34", "geometry": {"type": "Polygon", "coordinates": [[[-88.2957755, 15.8794485], [-88.2957749, 15.8793582], [-88.2955882, 15.8793593], [-88.2955887, 15.8794497], [-88.2957755, 15.8794485]]]}, "properties": {"kind": "detection", "det_id": "D-SZ-fresh-honduras-2026-09-07-008-34", "zone_id": "SZ-fresh-honduras-2026-09-07-008", "scene_id": "S2B_MSIL2A_20260907T160819_R140_T16PCC_20260907T200205", "datetime": "2026-09-07T16:08:19.024000Z", "n_pixels": 2, "area_m2": 200, "prob_max": 0.9843, "prob_mean": 0.951, "threshold": 0.63, "in_strip": true, "artifact": null}}, {"type": "Feature", "id": "D-SZ-fresh-honduras-2026-09-07-008-35", "geometry": {"type": "Polygon", "coordinates": [[[-88.295681, 15.8792683], [-88.2956804, 15.879178], [-88.2957738, 15.8791774], [-88.2957732, 15.879087], [-88.2955864, 15.8790881], [-88.2955876, 15.8792689], [-88.295681, 15.8792683]]]}, "properties": {"kind": "detection", "det_id": "D-SZ-fresh-honduras-2026-09-07-008-35", "zone_id": "SZ-fresh-honduras-2026-09-07-008", "scene_id": "S2B_MSIL2A_20260907T160819_R140_T16PCC_20260907T200205", "datetime": "2026-09-07T16:08:19.024000Z", "n_pixels": 3, "area_m2": 300, "prob_max": 0.9137, "prob_mean": 0.8758, "threshold": 0.63, "in_strip": true, "artifact": null}}, {"type": "Feature", "id": "D-SZ-fresh-honduras-2026-09-07-009-36", "geometry": {"type": "Polygon", "coordinates": [[[-88.2916481, 15.8765809], [-88.2916475, 15.8764905], [-88.2915541, 15.8764911], [-88.2915547, 15.8765815], [-88.2916481, 15.8765809]]]}, "properties": {"kind": "detection", "det_id": "D-SZ-fresh-honduras-2026-09-07-009-36", "zone_id": "SZ-fresh-honduras-2026-09-07-009", "scene_id": "S2B_MSIL2A_20260907T160819_R140_T16PCC_20260907T200205", "datetime": "2026-09-07T16:08:19.024000Z", "n_pixels": 1, "area_m2": 100, "prob_max": 0.8314, "prob_mean": 0.8314, "threshold": 0.63, "in_strip": true, "artifact": null}}, {"type": "Feature", "id": "D-SZ-fresh-honduras-2026-09-07-009-37", "geometry": {"type": "Polygon", "coordinates": [[[-88.2911812, 15.8765837], [-88.2911806, 15.8764933], [-88.2910872, 15.8764939], [-88.2910878, 15.8765842], [-88.2911812, 15.8765837]]]}, "properties": {"kind": "detection", "det_id": "D-SZ-fresh-honduras-2026-09-07-009-37", "zone_id": "SZ-fresh-honduras-2026-09-07-009", "scene_id": "S2B_MSIL2A_20260907T160819_R140_T16PCC_20260907T200205", "datetime": "2026-09-07T16:08:19.024000Z", "n_pixels": 1, "area_m2": 100, "prob_max": 0.8314, "prob_mean": 0.8314, "threshold": 0.63, "in_strip": true, "artifact": null}}, {"type": "Feature", "id": "D-SZ-fresh-honduras-2026-09-07-009-39", "geometry": {"type": "Polygon", "coordinates": [[[-88.2912723, 15.8762216], [-88.2912717, 15.8761312], [-88.2911783, 15.8761318], [-88.2911777, 15.8760414], [-88.2910843, 15.8760419], [-88.2910855, 15.8762227], [-88.2912723, 15.8762216]]]}, "properties": {"kind": "detection", "det_id": "D-SZ-fresh-honduras-2026-09-07-009-39", "zone_id": "SZ-fresh-honduras-2026-09-07-009", "scene_id": "S2B_MSIL2A_20260907T160819_R140_T16PCC_20260907T200205", "datetime": "2026-09-07T16:08:19.024000Z", "n_pixels": 3, "area_m2": 300, "prob_max": 0.9961, "prob_mean": 0.9686, "threshold": 0.63, "in_strip": true, "artifact": null}}, {"type": "Feature", "id": "D-SZ-fresh-honduras-2026-09-07-009-40", "geometry": {"type": "Polygon", "coordinates": [[[-88.2909915, 15.8761329], [-88.290991, 15.8760425], [-88.2908976, 15.8760431], [-88.2908981, 15.8761334], [-88.2909915, 15.8761329]]]}, "properties": {"kind": "detection", "det_id": "D-SZ-fresh-honduras-2026-09-07-009-40", "zone_id": "SZ-fresh-honduras-2026-09-07-009", "scene_id": "S2B_MSIL2A_20260907T160819_R140_T16PCC_20260907T200205", "datetime": "2026-09-07T16:08:19.024000Z", "n_pixels": 1, "area_m2": 100, "prob_max": 0.9843, "prob_mean": 0.9843, "threshold": 0.63, "in_strip": true, "artifact": null}}, {"type": "Feature", "id": "D-SZ-fresh-honduras-2026-09-07-009-41", "geometry": {"type": "Polygon", "coordinates": [[[-88.2914579, 15.8760397], [-88.2914567, 15.875859], [-88.2913633, 15.8758595], [-88.2913645, 15.8760403], [-88.2914579, 15.8760397]]]}, "properties": {"kind": "detection", "det_id": "D-SZ-fresh-honduras-2026-09-07-009-41", "zone_id": "SZ-fresh-honduras-2026-09-07-009", "scene_id": "S2B_MSIL2A_20260907T160819_R140_T16PCC_20260907T200205", "datetime": "2026-09-07T16:08:19.024000Z", "n_pixels": 2, "area_m2": 200, "prob_max": 0.9922, "prob_mean": 0.9686, "threshold": 0.63, "in_strip": true, "artifact": null}}, {"type": "Feature", "id": "D-SZ-fresh-honduras-2026-09-07-010-45", "geometry": {"type": "Polygon", "coordinates": [[[-88.2997755, 15.8624321], [-88.2997749, 15.8623417], [-88.2994014, 15.862344], [-88.299402, 15.8624344], [-88.2997755, 15.8624321]]]}, "properties": {"kind": "detection", "det_id": "D-SZ-fresh-honduras-2026-09-07-010-45", "zone_id": "SZ-fresh-honduras-2026-09-07-010", "scene_id": "S2B_MSIL2A_20260907T160819_R140_T16PCC_20260907T200205", "datetime": "2026-09-07T16:08:19.024000Z", "n_pixels": 4, "area_m2": 400, "prob_max": 0.9961, "prob_mean": 0.9775, "threshold": 0.63, "in_strip": true, "artifact": "seam"}}, {"type": "Feature", "id": "D-SZ-fresh-honduras-2026-09-07-010-46", "geometry": {"type": "Polygon", "coordinates": [[[-88.2997732, 15.8620706], [-88.2997726, 15.8619802], [-88.2996792, 15.8619808], [-88.2996798, 15.8620712], [-88.2997732, 15.8620706]]]}, "properties": {"kind": "detection", "det_id": "D-SZ-fresh-honduras-2026-09-07-010-46", "zone_id": "SZ-fresh-honduras-2026-09-07-010", "scene_id": "S2B_MSIL2A_20260907T160819_R140_T16PCC_20260907T200205", "datetime": "2026-09-07T16:08:19.024000Z", "n_pixels": 1, "area_m2": 100, "prob_max": 0.9882, "prob_mean": 0.9882, "threshold": 0.63, "in_strip": true, "artifact": "ship"}}, {"type": "Feature", "id": "D-SZ-fresh-honduras-2026-09-07-010-47", "geometry": {"type": "Polygon", "coordinates": [[[-88.2970641, 15.8619061], [-88.2970635, 15.8618157], [-88.2968768, 15.8618168], [-88.2968774, 15.8619072], [-88.2970641, 15.8619061]]]}, "properties": {"kind": "detection", "det_id": "D-SZ-fresh-honduras-2026-09-07-010-47", "zone_id": "SZ-fresh-honduras-2026-09-07-010", "scene_id": "S2B_MSIL2A_20260907T160819_R140_T16PCC_20260907T200205", "datetime": "2026-09-07T16:08:19.024000Z", "n_pixels": 2, "area_m2": 200, "prob_max": 0.9961, "prob_mean": 0.8275, "threshold": 0.63, "in_strip": true, "artifact": null}}, {"type": "Feature", "id": "D-SZ-fresh-honduras-2026-09-07-010-48", "geometry": {"type": "Polygon", "coordinates": [[[-88.2964105, 15.86191], [-88.2964099, 15.8618196], [-88.2963165, 15.8618202], [-88.2963171, 15.8619105], [-88.2964105, 15.86191]]]}, "properties": {"kind": "detection", "det_id": "D-SZ-fresh-honduras-2026-09-07-010-48", "zone_id": "SZ-fresh-honduras-2026-09-07-010", "scene_id": "S2B_MSIL2A_20260907T160819_R140_T16PCC_20260907T200205", "datetime": "2026-09-07T16:08:19.024000Z", "n_pixels": 1, "area_m2": 100, "prob_max": 0.9059, "prob_mean": 0.9059, "threshold": 0.63, "in_strip": true, "artifact": null}}, {"type": "Feature", "id": "D-SZ-fresh-honduras-2026-09-07-010-49", "geometry": {"type": "Polygon", "coordinates": [[[-88.2964093, 15.8617292], [-88.2964087, 15.8616388], [-88.2963154, 15.8616394], [-88.2963159, 15.8617298], [-88.2964093, 15.8617292]]]}, "properties": {"kind": "detection", "det_id": "D-SZ-fresh-honduras-2026-09-07-010-49", "zone_id": "SZ-fresh-honduras-2026-09-07-010", "scene_id": "S2B_MSIL2A_20260907T160819_R140_T16PCC_20260907T200205", "datetime": "2026-09-07T16:08:19.024000Z", "n_pixels": 1, "area_m2": 100, "prob_max": 0.8745, "prob_mean": 0.8745, "threshold": 0.63, "in_strip": true, "artifact": null}}]}