{"type": "FeatureCollection", "features": [{"type": "Feature", "id": "D-SZ-live-honduras-2026-05-30-001-5", "geometry": {"type": "Polygon", "coordinates": [[[-88.2698464, 15.8698406], [-88.2698453, 15.8696598], [-88.2695651, 15.8696615], [-88.2695657, 15.8697519], [-88.2696591, 15.8697513], [-88.2696597, 15.8698417], [-88.2698464, 15.8698406]]]}, "properties": {"kind": "detection", "det_id": "D-SZ-live-honduras-2026-05-30-001-5", "zone_id": "SZ-live-honduras-2026-05-30-001", "scene_id": "S2B_MSIL2A_20260530T160859_R140_T16PCC_20260530T212833", "datetime": "2026-05-30T16:08:59.024000Z", "n_pixels": 5, "area_m2": 500, "prob_max": 0.9961, "prob_mean": 0.8573, "threshold": 0.63, "in_strip": true, "artifact": null}}, {"type": "Feature", "id": "D-SZ-live-honduras-2026-05-30-002-9", "geometry": {"type": "Polygon", "coordinates": [[[-88.1843125, 15.7589661], [-88.184312, 15.7588757], [-88.1842187, 15.7588762], [-88.1842176, 15.7586955], [-88.1841243, 15.758696], [-88.1841248, 15.7587864], [-88.1840315, 15.7587869], [-88.184032, 15.7588773], [-88.1841253, 15.7588768], [-88.1841258, 15.7589671], [-88.1843125, 15.7589661]]]}, "properties": {"kind": "detection", "det_id": "D-SZ-live-honduras-2026-05-30-002-9", "zone_id": "SZ-live-honduras-2026-05-30-002", "scene_id": "S2B_MSIL2A_20260530T160859_R140_T16PCC_20260530T212833", "datetime": "2026-05-30T16:08:59.024000Z", "n_pixels": 5, "area_m2": 500, "prob_max": 0.9843, "prob_mean": 0.8957, "threshold": 0.63, "in_strip": true, "artifact": "ship"}}, {"type": "Feature", "id": "D-SZ-live-honduras-2026-05-30-003-12", "geometry": {"type": "Polygon", "coordinates": [[[-88.2084931, 15.7284626], [-88.2084926, 15.7283722], [-88.2083993, 15.7283727], [-88.2083998, 15.7284631], [-88.2084931, 15.7284626]]]}, "properties": {"kind": "detection", "det_id": "D-SZ-live-honduras-2026-05-30-003-12", "zone_id": "SZ-live-honduras-2026-05-30-003", "scene_id": "S2B_MSIL2A_20260530T160859_R140_T16PCC_20260530T212833", "datetime": "2026-05-30T16:08:59.024000Z", "n_pixels": 1, "area_m2": 100, "prob_max": 0.8863, "prob_mean": 0.8863, "threshold": 0.63, "in_strip": true, "artifact": null}}, {"type": "Feature", "id": "D-SZ-live-honduras-2026-05-30-003-13", "geometry": {"type": "Polygon", "coordinates": [[[-88.2087725, 15.7283707], [-88.2087715, 15.7281899], [-88.2086782, 15.7281904], [-88.2086787, 15.7282808], [-88.2085854, 15.7282813], [-88.2085859, 15.7283717], [-88.2087725, 15.7283707]]]}, "properties": {"kind": "detection", "det_id": "D-SZ-live-honduras-2026-05-30-003-13", "zone_id": "SZ-live-honduras-2026-05-30-003", "scene_id": "S2B_MSIL2A_20260530T160859_R140_T16PCC_20260530T212833", "datetime": "2026-05-30T16:08:59.024000Z", "n_pixels": 3, "area_m2": 300, "prob_max": 0.8431, "prob_mean": 0.7255, "threshold": 0.63, "in_strip": true, "artifact": null}}, {"type": "Feature", "id": "D-SZ-live-honduras-2026-05-30-003-14", "geometry": {"type": "Polygon", "coordinates": [[[-88.2089576, 15.7280985], [-88.208957, 15.7280081], [-88.2090504, 15.7280076], [-88.2090498, 15.7279172], [-88.2089565, 15.7279177], [-88.208957, 15.7280081], [-88.2088637, 15.7280086], [-88.2088643, 15.728099], [-88.2089576, 15.7280985]]]}, "properties": {"kind": "detection", "det_id": "D-SZ-live-honduras-2026-05-30-003-14", "zone_id": "SZ-live-honduras-2026-05-30-003", "scene_id": "S2B_MSIL2A_20260530T160859_R140_T16PCC_20260530T212833", "datetime": "2026-05-30T16:08:59.024000Z", "n_pixels": 2, "area_m2": 200, "prob_max": 0.9843, "prob_mean": 0.8941, "threshold": 0.63, "in_strip": true, "artifact": null}}]}