{"type": "FeatureCollection", "features": [{"type": "Feature", "id": "SZ-live-honduras-2026-05-30-001", "geometry": {"type": "Polygon", "coordinates": [[[-88.269855, 15.871196], [-88.270972, 15.870647], [-88.271246, 15.869652], [-88.270679, 15.86857], [-88.269557, 15.868306], [-88.268439, 15.868855], [-88.268165, 15.86976], [-88.26845, 15.870572], [-88.268826, 15.870931], [-88.269855, 15.871196]]]}, "properties": {"kind": "detection_zone", "layer_kind": "scene_zone", "zone_id": "SZ-live-honduras-2026-05-30-001", "scene_key": "live-honduras-2026-05-30", "scene_kind": "live", "scene_id": "S2B_MSIL2A_20260530T160859_R140_T16PCC_20260530T212833", "region": "honduras", "title": "Гондурасский залив (Омоа – Пуэрто-Кортес – устье Мотагуа) · зона 1", "mission": "Sentinel-2", "datetime": "2026-05-30T16:08:59.024000Z", "detection_status": "detected", "status": "detected", "concentration_status": "unavailable", "quantity": {"status": "not_confirmed", "label": "концентрация по снимку не подтверждена", "detail": "перевод площади в штуки не показываем: нет калибровочных пар (см. docs/QUANTITY.md)"}, "verification": "unverified", "training_scene": null, "flags": [], "n_cozar_filaments": 0, "crop_file": "crops/SZ-live-honduras-2026-05-30-001.jpg", "measured": {"zone_area_km2": 0.0774, "suspicious_area_m2": 500, "n_pixels": 5, "n_objects": 1, "water_km2": 0.0794, "lwd_m2_km2": 6297.2, "quality": {"valid_water_fraction": 1.0, "cloud_fraction": 0.0, "glint_fraction": 0.0}, "model": {"weights": "weights/lgbm", "file": "weights/lgbm/model.txt", "sha256": "0eeebf43fcccd8c7c07f053b7ec723229d1a3c9b92d12eec1bdb269258c51470", "sha256_short": "0eeebf43fccc", "trained_at": "2026-09-25T01:35:55Z", "threshold": 0.63, "harmonize": "none", "class": "MARIDA Marine Debris (любой плавающий мусор, не только пластик)"}}, "probable": {"prob_max": 0.996, "prob_mean": 0.857, "signs": {"foam": {"flag": false, "white_ratio_b2_b8": 0.106, "wind10m_ms": 1.59, "rule": "прирост B2 над водой ≥ 0.8 прироста B8 («белый» спектр) или ветер ≥ 7.0 м/с"}, "glint": {"flag": false, "b11_water_median": 0.0045, "glint_share": 0.0, "rule": "медиана B11 воды зоны > 0.01 или ≥ 20 % пикселей зоны — блик (маска качества)"}, "ship": {"flag": false, "share": 0, "bright_target_px_within_500m": 0, "rule": "≥ 30 % пикселей — у яркой цели или кильватера (reports/artifacts.md) или яркая цель с откликом в SWIR (судно, лодка: B11 ≥ 0,015) ближе 500 м"}, "coast": {"flag": false, "land_px_within_300m": 0, "rule": "суша (маска качества) ближе 300 м — прибой, кромка берега"}, "shallow": {"flag": false, "b3_water_zone": 0.0135, "b3_ratio_to_scene_water": 0.7, "rule": "медиана B3 воды зоны ≥ 2× медианы воды снимка и ≥ 0,03 — мелководье или мутная вода"}, "seam": {"flag": false, "share": 0, "rule": "≥ 30 % пикселей — прямая линия вдоль трека/границы яркости (шов)"}, "cloud": {"flag": false, "cloud_fraction": 0.0, "rule": "облака или тени облаков (маска качества) ≥ 20 % зоны"}, "note": "эвристики, не классификатор; на размеченных данных не проверены"}, "n_cozar_filaments": 0}, "field_nearby": {"items": [{"source": "ADIS (4TU.ResearchData, судовая камера)", "segment_id": 416634, "ship": "RV Pelagia", "date": "2023-12-19", "days_from_scene": -893, "distance_km": 1740.6, "lon": -75.79339, "lat": 25.94314, "n_items": 0, "area_km2": 0.9676, "size_class": "> 5 см", "c_items_km2": 0.0, "ci95_lo": 0.0, "ci95_hi": 3.81, "ci95_method": "точный интервал Пуассона для N, делённый на A"}, {"source": "ADIS (4TU.ResearchData, судовая камера)", "segment_id": 405468, "ship": "RV Pelagia", "date": "2023-12-19", "days_from_scene": -893, "distance_km": 1740.7, "lon": -75.79193, "lat": 25.94347, "n_items": 0, "area_km2": 0.72, "size_class": "> 5 см", "c_items_km2": 0.0, "ci95_lo": 0.0, "ci95_hi": 5.12, "ci95_method": "точный интервал Пуассона для N, делённый на A"}, {"source": "ADIS (4TU.ResearchData, судовая камера)", "segment_id": 416633, "ship": "RV Pelagia", "date": "2023-12-19", "days_from_scene": -893, "distance_km": 1750.1, "lon": -75.70128, "lat": 25.97146, "n_items": 0, "area_km2": 1.015, "size_class": "> 5 см", "c_items_km2": 0.0, "ci95_lo": 0.0, "ci95_hi": 3.63, "ci95_method": "точный интервал Пуассона для N, делённый на A"}], "nearest_organizer_sample": {"sample_id": "MPL-0239", "source_id": "S2_SARGASSO_MSM41", "distance_km": 2169.8}, "note": "Измерение ≠ оценка: это независимые полевые счёты C = N/A в другое время и в другом месте; со сценой они не связаны и не калибруют её. Ближайший отрезок ADIS — за 1741 км: только для порядка величин."}}}, {"type": "Feature", "id": "SZ-live-honduras-2026-05-30-002", "geometry": {"type": "Polygon", "coordinates": [[[-88.18432, 15.760322], [-88.185437, 15.759774], [-88.185712, 15.758868], [-88.185333, 15.757876], [-88.184677, 15.757428], [-88.184116, 15.75734], [-88.183278, 15.757616], [-88.182907, 15.757979], [-88.182632, 15.758885], [-88.182917, 15.759697], [-88.183292, 15.760056], [-88.18432, 15.760322]]]}, "properties": {"kind": "detection_zone", "layer_kind": "scene_zone", "zone_id": "SZ-live-honduras-2026-05-30-002", "scene_key": "live-honduras-2026-05-30", "scene_kind": "live", "scene_id": "S2B_MSIL2A_20260530T160859_R140_T16PCC_20260530T212833", "region": "honduras", "title": "Гондурасский залив (Омоа – Пуэрто-Кортес – устье Мотагуа) · зона 2", "mission": "Sentinel-2", "datetime": "2026-05-30T16:08:59.024000Z", "detection_status": "insufficient_data", "status": "insufficient_data", "concentration_status": "unavailable", "quantity": {"status": "not_confirmed", "label": "концентрация по снимку не подтверждена", "detail": "перевод площади в штуки не показываем: нет калибровочных пар (см. docs/QUANTITY.md)"}, "verification": "false_alarm_signs", "training_scene": null, "flags": ["ship"], "n_cozar_filaments": 0, "crop_file": "crops/SZ-live-honduras-2026-05-30-002.jpg", "measured": {"zone_area_km2": 0.0806, "suspicious_area_m2": 500, "n_pixels": 5, "n_objects": 1, "water_km2": 0.0803, "lwd_m2_km2": 6226.7, "quality": {"valid_water_fraction": 1.0, "cloud_fraction": 0.0, "glint_fraction": 0.0}, "model": {"weights": "weights/lgbm", "file": "weights/lgbm/model.txt", "sha256": "0eeebf43fcccd8c7c07f053b7ec723229d1a3c9b92d12eec1bdb269258c51470", "sha256_short": "0eeebf43fccc", "trained_at": "2026-09-25T01:35:55Z", "threshold": 0.63, "harmonize": "none", "class": "MARIDA Marine Debris (любой плавающий мусор, не только пластик)"}}, "probable": {"prob_max": 0.984, "prob_mean": 0.896, "signs": {"foam": {"flag": false, "white_ratio_b2_b8": 0.638, "wind10m_ms": 1.59, "rule": "прирост B2 над водой ≥ 0.8 прироста B8 («белый» спектр) или ветер ≥ 7.0 м/с"}, "glint": {"flag": false, "b11_water_median": 0.0018, "glint_share": 0.0, "rule": "медиана B11 воды зоны > 0.01 или ≥ 20 % пикселей зоны — блик (маска качества)"}, "ship": {"flag": true, "share": 1.0, "bright_target_px_within_500m": 0, "rule": "≥ 30 % пикселей — у яркой цели или кильватера (reports/artifacts.md) или яркая цель с откликом в SWIR (судно, лодка: B11 ≥ 0,015) ближе 500 м"}, "coast": {"flag": false, "land_px_within_300m": 0, "rule": "суша (маска качества) ближе 300 м — прибой, кромка берега"}, "shallow": {"flag": false, "b3_water_zone": 0.0222, "b3_ratio_to_scene_water": 1.15, "rule": "медиана B3 воды зоны ≥ 2× медианы воды снимка и ≥ 0,03 — мелководье или мутная вода"}, "seam": {"flag": false, "share": 0, "rule": "≥ 30 % пикселей — прямая линия вдоль трека/границы яркости (шов)"}, "cloud": {"flag": false, "cloud_fraction": 0.0, "rule": "облака или тени облаков (маска качества) ≥ 20 % зоны"}, "note": "эвристики, не классификатор; на размеченных данных не проверены"}, "n_cozar_filaments": 0}, "field_nearby": {"items": [{"source": "ADIS (4TU.ResearchData, судовая камера)", "segment_id": 416634, "ship": "RV Pelagia", "date": "2023-12-19", "days_from_scene": -893, "distance_km": 1740.6, "lon": -75.79339, "lat": 25.94314, "n_items": 0, "area_km2": 0.9676, "size_class": "> 5 см", "c_items_km2": 0.0, "ci95_lo": 0.0, "ci95_hi": 3.81, "ci95_method": "точный интервал Пуассона для N, делённый на A"}, {"source": "ADIS (4TU.ResearchData, судовая камера)", "segment_id": 405468, "ship": "RV Pelagia", "date": "2023-12-19", "days_from_scene": -893, "distance_km": 1740.7, "lon": -75.79193, "lat": 25.94347, "n_items": 0, "area_km2": 0.72, "size_class": "> 5 см", "c_items_km2": 0.0, "ci95_lo": 0.0, "ci95_hi": 5.12, "ci95_method": "точный интервал Пуассона для N, делённый на A"}, {"source": "ADIS (4TU.ResearchData, судовая камера)", "segment_id": 416633, "ship": "RV Pelagia", "date": "2023-12-19", "days_from_scene": -893, "distance_km": 1750.1, "lon": -75.70128, "lat": 25.97146, "n_items": 0, "area_km2": 1.015, "size_class": "> 5 см", "c_items_km2": 0.0, "ci95_lo": 0.0, "ci95_hi": 3.63, "ci95_method": "точный интервал Пуассона для N, делённый на A"}], "nearest_organizer_sample": {"sample_id": "MPL-0239", "source_id": "S2_SARGASSO_MSM41", "distance_km": 2169.8}, "note": "Измерение ≠ оценка: это независимые полевые счёты C = N/A в другое время и в другом месте; со сценой они не связаны и не калибруют её. Ближайший отрезок ADIS — за 1741 км: только для порядка величин."}}}, {"type": "Feature", "id": "SZ-live-honduras-2026-05-30-003", "geometry": {"type": "Polygon", "coordinates": [[[-88.208501, 15.729818], [-88.209619, 15.729451], [-88.21036, 15.728452], [-88.210354, 15.727458], [-88.209509, 15.726649], [-88.208949, 15.726562], [-88.20811, 15.726838], [-88.20709, 15.727928], [-88.207, 15.728471], [-88.207285, 15.729283], [-88.207941, 15.729731], [-88.208501, 15.729818]]]}, "properties": {"kind": "detection_zone", "layer_kind": "scene_zone", "zone_id": "SZ-live-honduras-2026-05-30-003", "scene_key": "live-honduras-2026-05-30", "scene_kind": "live", "scene_id": "S2B_MSIL2A_20260530T160859_R140_T16PCC_20260530T212833", "region": "honduras", "title": "Гондурасский залив (Омоа – Пуэрто-Кортес – устье Мотагуа) · зона 3", "mission": "Sentinel-2", "datetime": "2026-05-30T16:08:59.024000Z", "detection_status": "detected", "status": "detected", "concentration_status": "unavailable", "quantity": {"status": "not_confirmed", "label": "концентрация по снимку не подтверждена", "detail": "перевод площади в штуки не показываем: нет калибровочных пар (см. docs/QUANTITY.md)"}, "verification": "unverified", "training_scene": null, "flags": [], "n_cozar_filaments": 0, "crop_file": "crops/SZ-live-honduras-2026-05-30-003.jpg", "measured": {"zone_area_km2": 0.0954, "suspicious_area_m2": 600, "n_pixels": 6, "n_objects": 3, "water_km2": 0.0954, "lwd_m2_km2": 6289.3, "quality": {"valid_water_fraction": 1.0, "cloud_fraction": 0.0, "glint_fraction": 0.0}, "model": {"weights": "weights/lgbm", "file": "weights/lgbm/model.txt", "sha256": "0eeebf43fcccd8c7c07f053b7ec723229d1a3c9b92d12eec1bdb269258c51470", "sha256_short": "0eeebf43fccc", "trained_at": "2026-09-25T01:35:55Z", "threshold": 0.63, "harmonize": "none", "class": "MARIDA Marine Debris (любой плавающий мусор, не только пластик)"}}, "probable": {"prob_max": 0.984, "prob_mean": 0.808, "signs": {"foam": {"flag": false, "white_ratio_b2_b8": 0.519, "wind10m_ms": 1.59, "rule": "прирост B2 над водой ≥ 0.8 прироста B8 («белый» спектр) или ветер ≥ 7.0 м/с"}, "glint": {"flag": false, "b11_water_median": 0.0015, "glint_share": 0.0, "rule": "медиана B11 воды зоны > 0.01 или ≥ 20 % пикселей зоны — блик (маска качества)"}, "ship": {"flag": false, "share": 0, "bright_target_px_within_500m": 0, "rule": "≥ 30 % пикселей — у яркой цели или кильватера (reports/artifacts.md) или яркая цель с откликом в SWIR (судно, лодка: B11 ≥ 0,015) ближе 500 м"}, "coast": {"flag": false, "land_px_within_300m": 0, "rule": "суша (маска качества) ближе 300 м — прибой, кромка берега"}, "shallow": {"flag": false, "b3_water_zone": 0.0218, "b3_ratio_to_scene_water": 1.13, "rule": "медиана B3 воды зоны ≥ 2× медианы воды снимка и ≥ 0,03 — мелководье или мутная вода"}, "seam": {"flag": false, "share": 0, "rule": "≥ 30 % пикселей — прямая линия вдоль трека/границы яркости (шов)"}, "cloud": {"flag": false, "cloud_fraction": 0.0, "rule": "облака или тени облаков (маска качества) ≥ 20 % зоны"}, "note": "эвристики, не классификатор; на размеченных данных не проверены"}, "n_cozar_filaments": 0}, "field_nearby": {"items": [{"source": "ADIS (4TU.ResearchData, судовая камера)", "segment_id": 416634, "ship": "RV Pelagia", "date": "2023-12-19", "days_from_scene": -893, "distance_km": 1740.6, "lon": -75.79339, "lat": 25.94314, "n_items": 0, "area_km2": 0.9676, "size_class": "> 5 см", "c_items_km2": 0.0, "ci95_lo": 0.0, "ci95_hi": 3.81, "ci95_method": "точный интервал Пуассона для N, делённый на A"}, {"source": "ADIS (4TU.ResearchData, судовая камера)", "segment_id": 405468, "ship": "RV Pelagia", "date": "2023-12-19", "days_from_scene": -893, "distance_km": 1740.7, "lon": -75.79193, "lat": 25.94347, "n_items": 0, "area_km2": 0.72, "size_class": "> 5 см", "c_items_km2": 0.0, "ci95_lo": 0.0, "ci95_hi": 5.12, "ci95_method": "точный интервал Пуассона для N, делённый на A"}, {"source": "ADIS (4TU.ResearchData, судовая камера)", "segment_id": 416633, "ship": "RV Pelagia", "date": "2023-12-19", "days_from_scene": -893, "distance_km": 1750.1, "lon": -75.70128, "lat": 25.97146, "n_items": 0, "area_km2": 1.015, "size_class": "> 5 см", "c_items_km2": 0.0, "ci95_lo": 0.0, "ci95_hi": 3.63, "ci95_method": "точный интервал Пуассона для N, делённый на A"}], "nearest_organizer_sample": {"sample_id": "MPL-0239", "source_id": "S2_SARGASSO_MSM41", "distance_km": 2169.8}, "note": "Измерение ≠ оценка: это независимые полевые счёты C = N/A в другое время и в другом месте; со сценой они не связаны и не калибруют её. Ближайший отрезок ADIS — за 1741 км: только для порядка величин."}}}]}