{"type": "FeatureCollection", "features": [{"type": "Feature", "id": "SZ-live-durban-2019-04-19-000", "geometry": {"type": "Polygon", "coordinates": [[[31.391858, -29.907876], [31.391858, -29.620825], [30.989476, -29.620825], [30.989476, -29.907876], [31.391858, -29.907876]]]}, "properties": {"kind": "detection_zone", "layer_kind": "scene_zone", "zone_id": "SZ-live-durban-2019-04-19-000", "scene_key": "live-durban-2019-04-19", "scene_kind": "live", "scene_id": "S2A_36JUN_20190419_0_L2A", "region": "durban", "title": "Дурбан · вся вырезка", "mission": "Sentinel-2", "datetime": "2019-04-19T08:24:54.736000Z", "detection_status": "not_detected", "status": "not_detected", "concentration_status": "unavailable", "quantity": {"status": "not_confirmed", "label": "концентрация по снимку не подтверждена", "detail": "перевод площади в штуки не показываем: нет калибровочных пар (см. docs/QUANTITY.md)"}, "flags": [], "n_cozar_filaments": 0, "measured": {"zone_area_km2": 1238.267, "suspicious_area_m2": 400, "n_pixels": 4, "n_objects": 3, "water_km2": 755.522, "lwd_m2_km2": 0.53, "quality": {"valid_water_fraction": 0.63, "cloud_fraction": 0.003, "glint_fraction": 0.0}, "model": {"weights": "weights/lgbm", "file": "weights/lgbm/model.txt", "sha256": "0eeebf43fcccd8c7c07f053b7ec723229d1a3c9b92d12eec1bdb269258c51470", "sha256_short": "0eeebf43fccc", "trained_at": "2026-09-25T01:35:55Z", "threshold": 0.63, "harmonize": "none", "class": "MARIDA Marine Debris (любой плавающий мусор, не только пластик)"}}, "probable": {"prob_max": 0.816, "prob_mean": null, "signs": null, "n_cozar_filaments": 0}, "field_nearby": {"items": [{"source": "ADIS (4TU.ResearchData, судовая камера)", "segment_id": 279754, "ship": "Antsiva", "date": "2022-01-26", "days_from_scene": 1013, "distance_km": 1371.8, "lon": 45.33987, "lat": -30.76971, "n_items": 0, "area_km2": 0.2, "size_class": "> 5 см", "c_items_km2": 0.0, "ci95_lo": 0.0, "ci95_hi": 18.45, "ci95_method": "точный интервал Пуассона для N, делённый на A"}, {"source": "ADIS (4TU.ResearchData, судовая камера)", "segment_id": 299831, "ship": "Antsiva", "date": "2022-01-26", "days_from_scene": 1013, "distance_km": 1371.8, "lon": 45.33982, "lat": -30.77093, "n_items": 0, "area_km2": 0.2, "size_class": "> 5 см", "c_items_km2": 0.0, "ci95_lo": 0.0, "ci95_hi": 18.45, "ci95_method": "точный интервал Пуассона для N, делённый на A"}, {"source": "ADIS (4TU.ResearchData, судовая камера)", "segment_id": 299830, "ship": "Antsiva", "date": "2022-01-26", "days_from_scene": 1013, "distance_km": 1373.5, "lon": 45.36527, "lat": -30.68732, "n_items": 1, "area_km2": 0.1999, "size_class": "> 5 см", "c_items_km2": 5.0, "ci95_lo": 0.13, "ci95_hi": 27.87, "ci95_method": "точный интервал Пуассона для N, делённый на A"}], "nearest_organizer_sample": {"sample_id": "MPL-0922", "source_id": "S4_BLACK_SEA_DOORS3", "distance_km": 7953.5}, "note": "Измерение ≠ оценка: это независимые полевые счёты C = N/A в другое время и в другом месте; со сценой они не связаны и не калибруют её. Ближайший отрезок ADIS — за 1372 км: только для порядка величин."}}}]}