{"type": "FeatureCollection", "features": [{"type": "Feature", "id": "D-SZ-live-karachi-2026-02-14-001-4", "geometry": {"type": "Polygon", "coordinates": [[[66.9698631, 24.841818], [66.969866, 24.8416375], [66.9699649, 24.8416388], [66.9699634, 24.8417291], [66.9700624, 24.8417304], [66.9700609, 24.8418207], [66.9698631, 24.841818]]]}, "properties": {"kind": "detection", "det_id": "D-SZ-live-karachi-2026-02-14-001-4", "zone_id": "SZ-live-karachi-2026-02-14-001", "scene_id": "S2C_MSIL2A_20260214T060941_R134_T42RTN_20260214T085315", "datetime": "2026-02-14T06:09:41.025000Z", "n_pixels": 3, "area_m2": 300, "prob_max": 0.8941, "prob_mean": 0.8667, "threshold": 0.63, "in_strip": true, "artifact": null}}, {"type": "Feature", "id": "D-SZ-live-karachi-2026-02-14-001-5", "geometry": {"type": "Polygon", "coordinates": [[[66.9663112, 24.8412281], [66.9663126, 24.8411378], [66.9664116, 24.8411391], [66.9664101, 24.8412294], [66.9663112, 24.8412281]]]}, "properties": {"kind": "detection", "det_id": "D-SZ-live-karachi-2026-02-14-001-5", "zone_id": "SZ-live-karachi-2026-02-14-001", "scene_id": "S2C_MSIL2A_20260214T060941_R134_T42RTN_20260214T085315", "datetime": "2026-02-14T06:09:41.025000Z", "n_pixels": 1, "area_m2": 100, "prob_max": 0.7922, "prob_mean": 0.7922, "threshold": 0.63, "in_strip": true, "artifact": null}}, {"type": "Feature", "id": "D-SZ-live-karachi-2026-02-14-001-6", "geometry": {"type": "Polygon", "coordinates": [[[66.9691854, 24.840906], [66.9691869, 24.8408158], [66.9692858, 24.8408171], [66.9692843, 24.8409074], [66.9691854, 24.840906]]]}, "properties": {"kind": "detection", "det_id": "D-SZ-live-karachi-2026-02-14-001-6", "zone_id": "SZ-live-karachi-2026-02-14-001", "scene_id": "S2C_MSIL2A_20260214T060941_R134_T42RTN_20260214T085315", "datetime": "2026-02-14T06:09:41.025000Z", "n_pixels": 1, "area_m2": 100, "prob_max": 0.898, "prob_mean": 0.898, "threshold": 0.63, "in_strip": true, "artifact": "ship"}}, {"type": "Feature", "id": "D-SZ-live-karachi-2026-02-14-001-7", "geometry": {"type": "Polygon", "coordinates": [[[66.9689906, 24.8407228], [66.968992, 24.8406326], [66.9690909, 24.8406339], [66.9690895, 24.8407242], [66.9689906, 24.8407228]]]}, "properties": {"kind": "detection", "det_id": "D-SZ-live-karachi-2026-02-14-001-7", "zone_id": "SZ-live-karachi-2026-02-14-001", "scene_id": "S2C_MSIL2A_20260214T060941_R134_T42RTN_20260214T085315", "datetime": "2026-02-14T06:09:41.025000Z", "n_pixels": 1, "area_m2": 100, "prob_max": 0.8039, "prob_mean": 0.8039, "threshold": 0.63, "in_strip": true, "artifact": "ship"}}, {"type": "Feature", "id": "D-SZ-live-karachi-2026-02-14-001-8", "geometry": {"type": "Polygon", "coordinates": [[[66.9683129, 24.8398109], [66.9683159, 24.8396304], [66.9684148, 24.8396317], [66.9684133, 24.839722], [66.9685122, 24.8397233], [66.9685108, 24.8398136], [66.9683129, 24.8398109]]]}, "properties": {"kind": "detection", "det_id": "D-SZ-live-karachi-2026-02-14-001-8", "zone_id": "SZ-live-karachi-2026-02-14-001", "scene_id": "S2C_MSIL2A_20260214T060941_R134_T42RTN_20260214T085315", "datetime": "2026-02-14T06:09:41.025000Z", "n_pixels": 3, "area_m2": 300, "prob_max": 0.9451, "prob_mean": 0.8967, "threshold": 0.63, "in_strip": true, "artifact": "ship"}}, {"type": "Feature", "id": "D-SZ-live-karachi-2026-02-14-001-9", "geometry": {"type": "Polygon", "coordinates": [[[66.9680192, 24.8396263], [66.9680206, 24.8395361], [66.9681195, 24.8395374], [66.9681181, 24.8396277], [66.9680192, 24.8396263]]]}, "properties": {"kind": "detection", "det_id": "D-SZ-live-karachi-2026-02-14-001-9", "zone_id": "SZ-live-karachi-2026-02-14-001", "scene_id": "S2C_MSIL2A_20260214T060941_R134_T42RTN_20260214T085315", "datetime": "2026-02-14T06:09:41.025000Z", "n_pixels": 1, "area_m2": 100, "prob_max": 0.9765, "prob_mean": 0.9765, "threshold": 0.63, "in_strip": true, "artifact": "ship"}}, {"type": "Feature", "id": "D-SZ-live-karachi-2026-02-14-001-10", "geometry": {"type": "Polygon", "coordinates": [[[66.9673312, 24.8393461], [66.9673327, 24.8392559], [66.9672338, 24.8392545], [66.9672353, 24.8391643], [66.967532, 24.8391683], [66.9675305, 24.8392586], [66.9674316, 24.8392572], [66.9674301, 24.8393475], [66.9673312, 24.8393461]]]}, "properties": {"kind": "detection", "det_id": "D-SZ-live-karachi-2026-02-14-001-10", "zone_id": "SZ-live-karachi-2026-02-14-001", "scene_id": "S2C_MSIL2A_20260214T060941_R134_T42RTN_20260214T085315", "datetime": "2026-02-14T06:09:41.025000Z", "n_pixels": 4, "area_m2": 400, "prob_max": 0.9961, "prob_mean": 0.8637, "threshold": 0.63, "in_strip": true, "artifact": "seam"}}, {"type": "Feature", "id": "D-SZ-live-karachi-2026-02-14-001-11", "geometry": {"type": "Polygon", "coordinates": [[[66.9667437, 24.838977], [66.9667466, 24.8387965], [66.9666477, 24.8387952], [66.9666492, 24.8387049], [66.9665503, 24.8387036], [66.9665547, 24.8384328], [66.9664558, 24.8384315], [66.9664602, 24.8381607], [66.9665592, 24.838162], [66.9665547, 24.8384328], [66.9666536, 24.8384342], [66.9666492, 24.8387049], [66.9667481, 24.8387063], [66.9667466, 24.8387965], [66.9668455, 24.8387979], [66.9668426, 24.8389784], [66.9667437, 24.838977]]]}, "properties": {"kind": "detection", "det_id": "D-SZ-live-karachi-2026-02-14-001-11", "zone_id": "SZ-live-karachi-2026-02-14-001", "scene_id": "S2C_MSIL2A_20260214T060941_R134_T42RTN_20260214T085315", "datetime": "2026-02-14T06:09:41.025000Z", "n_pixels": 9, "area_m2": 900, "prob_max": 0.9961, "prob_mean": 0.912, "threshold": 0.63, "in_strip": true, "artifact": "ship"}}, {"type": "Feature", "id": "D-SZ-live-karachi-2026-02-14-001-13", "geometry": {"type": "Polygon", "coordinates": [[[66.96685, 24.8385271], [66.9668514, 24.8384369], [66.9669504, 24.8384382], [66.9669489, 24.8385285], [66.96685, 24.8385271]]]}, "properties": {"kind": "detection", "det_id": "D-SZ-live-karachi-2026-02-14-001-13", "zone_id": "SZ-live-karachi-2026-02-14-001", "scene_id": "S2C_MSIL2A_20260214T060941_R134_T42RTN_20260214T085315", "datetime": "2026-02-14T06:09:41.025000Z", "n_pixels": 1, "area_m2": 100, "prob_max": 0.9333, "prob_mean": 0.9333, "threshold": 0.63, "in_strip": true, "artifact": "ship"}}, {"type": "Feature", "id": "D-SZ-live-karachi-2026-02-14-001-14", "geometry": {"type": "Polygon", "coordinates": [[[66.9668529, 24.8383466], [66.9668544, 24.8382563], [66.9669533, 24.8382577], [66.9669518, 24.8383479], [66.9668529, 24.8383466]]]}, "properties": {"kind": "detection", "det_id": "D-SZ-live-karachi-2026-02-14-001-14", "zone_id": "SZ-live-karachi-2026-02-14-001", "scene_id": "S2C_MSIL2A_20260214T060941_R134_T42RTN_20260214T085315", "datetime": "2026-02-14T06:09:41.025000Z", "n_pixels": 1, "area_m2": 100, "prob_max": 0.6471, "prob_mean": 0.6471, "threshold": 0.63, "in_strip": true, "artifact": null}}, {"type": "Feature", "id": "D-SZ-live-karachi-2026-02-14-001-15", "geometry": {"type": "Polygon", "coordinates": [[[66.9663702, 24.8376178], [66.9663776, 24.8371665], [66.9665754, 24.8371692], [66.9665769, 24.837079], [66.9666758, 24.8370803], [66.9666772, 24.8369901], [66.9667761, 24.8369914], [66.9667732, 24.8371719], [66.9666743, 24.8371706], [66.9666713, 24.8373511], [66.9665724, 24.8373497], [66.966568, 24.8376205], [66.9663702, 24.8376178]]]}, "properties": {"kind": "detection", "det_id": "D-SZ-live-karachi-2026-02-14-001-15", "zone_id": "SZ-live-karachi-2026-02-14-001", "scene_id": "S2C_MSIL2A_20260214T060941_R134_T42RTN_20260214T085315", "datetime": "2026-02-14T06:09:41.025000Z", "n_pixels": 15, "area_m2": 1500, "prob_max": 1.0, "prob_mean": 0.9817, "threshold": 0.63, "in_strip": true, "artifact": null}}, {"type": "Feature", "id": "D-SZ-live-karachi-2026-02-14-001-16", "geometry": {"type": "Polygon", "coordinates": [[[66.9662846, 24.8368042], [66.966286, 24.8367139], [66.9663849, 24.8367153], [66.9663835, 24.8368055], [66.9662846, 24.8368042]]]}, "properties": {"kind": "detection", "det_id": "D-SZ-live-karachi-2026-02-14-001-16", "zone_id": "SZ-live-karachi-2026-02-14-001", "scene_id": "S2C_MSIL2A_20260214T060941_R134_T42RTN_20260214T085315", "datetime": "2026-02-14T06:09:41.025000Z", "n_pixels": 1, "area_m2": 100, "prob_max": 0.9608, "prob_mean": 0.9608, "threshold": 0.63, "in_strip": true, "artifact": null}}, {"type": "Feature", "id": "D-SZ-live-karachi-2026-02-14-001-17", "geometry": {"type": "Polygon", "coordinates": [[[66.9679704, 24.8365563], [66.9679733, 24.8363758], [66.9680722, 24.8363771], [66.9680737, 24.8362869], [66.9681726, 24.8362882], [66.9681711, 24.8363785], [66.96827, 24.8363798], [66.9682686, 24.8364701], [66.9681697, 24.8364687], [66.9681682, 24.836559], [66.9679704, 24.8365563]]]}, "properties": {"kind": "detection", "det_id": "D-SZ-live-karachi-2026-02-14-001-17", "zone_id": "SZ-live-karachi-2026-02-14-001", "scene_id": "S2C_MSIL2A_20260214T060941_R134_T42RTN_20260214T085315", "datetime": "2026-02-14T06:09:41.025000Z", "n_pixels": 6, "area_m2": 600, "prob_max": 0.9922, "prob_mean": 0.8935, "threshold": 0.63, "in_strip": true, "artifact": "ship"}}, {"type": "Feature", "id": "D-SZ-live-karachi-2026-02-14-001-18", "geometry": {"type": "Polygon", "coordinates": [[[66.9681741, 24.8361979], [66.968177, 24.8360174], [66.9682759, 24.8360188], [66.968273, 24.8361993], [66.9681741, 24.8361979]]]}, "properties": {"kind": "detection", "det_id": "D-SZ-live-karachi-2026-02-14-001-18", "zone_id": "SZ-live-karachi-2026-02-14-001", "scene_id": "S2C_MSIL2A_20260214T060941_R134_T42RTN_20260214T085315", "datetime": "2026-02-14T06:09:41.025000Z", "n_pixels": 2, "area_m2": 200, "prob_max": 0.9608, "prob_mean": 0.9569, "threshold": 0.63, "in_strip": true, "artifact": "ship"}}, {"type": "Feature", "id": "D-SZ-live-karachi-2026-02-14-001-19", "geometry": {"type": "Polygon", "coordinates": [[[66.9680929, 24.8351135], [66.9680943, 24.8350233], [66.9679954, 24.8350219], [66.9679999, 24.8347512], [66.967802, 24.8347485], [66.967805, 24.834568], [66.9677061, 24.8345666], [66.967712, 24.8342056], [66.9676131, 24.8342042], [66.9676146, 24.834114], [66.9678124, 24.8341167], [66.9678109, 24.8342069], [66.9679098, 24.8342083], [66.9679039, 24.8345693], [66.9680028, 24.8345707], [66.9679999, 24.8347512], [66.9680988, 24.8347525], [66.9680958, 24.834933], [66.9681947, 24.8349344], [66.9681918, 24.8351149], [66.9680929, 24.8351135]]]}, "properties": {"kind": "detection", "det_id": "D-SZ-live-karachi-2026-02-14-001-19", "zone_id": "SZ-live-karachi-2026-02-14-001", "scene_id": "S2C_MSIL2A_20260214T060941_R134_T42RTN_20260214T085315", "datetime": "2026-02-14T06:09:41.025000Z", "n_pixels": 19, "area_m2": 1900, "prob_max": 1.0, "prob_mean": 0.9333, "threshold": 0.63, "in_strip": true, "artifact": null}}, {"type": "Feature", "id": "D-SZ-live-karachi-2026-02-14-001-20", "geometry": {"type": "Polygon", "coordinates": [[[66.9691808, 24.8351283], [66.9691823, 24.8350381], [66.9692812, 24.8350394], [66.9692797, 24.8351297], [66.9691808, 24.8351283]]]}, "properties": {"kind": "detection", "det_id": "D-SZ-live-karachi-2026-02-14-001-20", "zone_id": "SZ-live-karachi-2026-02-14-001", "scene_id": "S2C_MSIL2A_20260214T060941_R134_T42RTN_20260214T085315", "datetime": "2026-02-14T06:09:41.025000Z", "n_pixels": 1, "area_m2": 100, "prob_max": 0.8118, "prob_mean": 0.8118, "threshold": 0.63, "in_strip": true, "artifact": "ship"}}, {"type": "Feature", "id": "D-SZ-live-karachi-2026-02-14-001-21", "geometry": {"type": "Polygon", "coordinates": [[[66.9669252, 24.8339241], [66.9669281, 24.8337436], [66.967027, 24.8337449], [66.9670241, 24.8339254], [66.9669252, 24.8339241]]]}, "properties": {"kind": "detection", "det_id": "D-SZ-live-karachi-2026-02-14-001-21", "zone_id": "SZ-live-karachi-2026-02-14-001", "scene_id": "S2C_MSIL2A_20260214T060941_R134_T42RTN_20260214T085315", "datetime": "2026-02-14T06:09:41.025000Z", "n_pixels": 2, "area_m2": 200, "prob_max": 0.9804, "prob_mean": 0.902, "threshold": 0.63, "in_strip": true, "artifact": "ship"}}, {"type": "Feature", "id": "D-SZ-live-karachi-2026-02-14-001-22", "geometry": {"type": "Polygon", "coordinates": [[[66.9680249, 24.8332168], [66.9680264, 24.8331266], [66.9681253, 24.8331279], [66.9681238, 24.8332182], [66.9680249, 24.8332168]]]}, "properties": {"kind": "detection", "det_id": "D-SZ-live-karachi-2026-02-14-001-22", "zone_id": "SZ-live-karachi-2026-02-14-001", "scene_id": "S2C_MSIL2A_20260214T060941_R134_T42RTN_20260214T085315", "datetime": "2026-02-14T06:09:41.025000Z", "n_pixels": 1, "area_m2": 100, "prob_max": 0.6353, "prob_mean": 0.6353, "threshold": 0.63, "in_strip": true, "artifact": null}}, {"type": "Feature", "id": "D-SZ-live-karachi-2026-02-14-001-23", "geometry": {"type": "Polygon", "coordinates": [[[66.966345, 24.8331037], [66.9663465, 24.8330134], [66.9664454, 24.8330148], [66.9664439, 24.833105], [66.966345, 24.8331037]]]}, "properties": {"kind": "detection", "det_id": "D-SZ-live-karachi-2026-02-14-001-23", "zone_id": "SZ-live-karachi-2026-02-14-001", "scene_id": "S2C_MSIL2A_20260214T060941_R134_T42RTN_20260214T085315", "datetime": "2026-02-14T06:09:41.025000Z", "n_pixels": 1, "area_m2": 100, "prob_max": 0.8863, "prob_mean": 0.8863, "threshold": 0.63, "in_strip": true, "artifact": "ship"}}, {"type": "Feature", "id": "D-SZ-live-karachi-2026-02-14-001-24", "geometry": {"type": "Polygon", "coordinates": [[[66.9678345, 24.8327628], [66.9678359, 24.8326726], [66.9679348, 24.8326739], [66.9679334, 24.8327642], [66.9678345, 24.8327628]]]}, "properties": {"kind": "detection", "det_id": "D-SZ-live-karachi-2026-02-14-001-24", "zone_id": "SZ-live-karachi-2026-02-14-001", "scene_id": "S2C_MSIL2A_20260214T060941_R134_T42RTN_20260214T085315", "datetime": "2026-02-14T06:09:41.025000Z", "n_pixels": 1, "area_m2": 100, "prob_max": 0.949, "prob_mean": 0.949, "threshold": 0.63, "in_strip": true, "artifact": null}}, {"type": "Feature", "id": "D-SZ-live-karachi-2026-02-14-001-25", "geometry": {"type": "Polygon", "coordinates": [[[66.9663568, 24.8323816], [66.9663598, 24.8322011], [66.9664587, 24.8322025], [66.9664557, 24.832383], [66.9663568, 24.8323816]]]}, "properties": {"kind": "detection", "det_id": "D-SZ-live-karachi-2026-02-14-001-25", "zone_id": "SZ-live-karachi-2026-02-14-001", "scene_id": "S2C_MSIL2A_20260214T060941_R134_T42RTN_20260214T085315", "datetime": "2026-02-14T06:09:41.025000Z", "n_pixels": 2, "area_m2": 200, "prob_max": 0.9922, "prob_mean": 0.8725, "threshold": 0.63, "in_strip": true, "artifact": null}}, {"type": "Feature", "id": "D-SZ-live-karachi-2026-02-14-001-26", "geometry": {"type": "Polygon", "coordinates": [[[66.9664631, 24.8319317], [66.9664661, 24.8317512], [66.966565, 24.8317525], [66.9665709, 24.8313915], [66.9666698, 24.8313929], [66.9666639, 24.8317539], [66.966565, 24.8317525], [66.966562, 24.8319331], [66.9664631, 24.8319317]]]}, "properties": {"kind": "detection", "det_id": "D-SZ-live-karachi-2026-02-14-001-26", "zone_id": "SZ-live-karachi-2026-02-14-001", "scene_id": "S2C_MSIL2A_20260214T060941_R134_T42RTN_20260214T085315", "datetime": "2026-02-14T06:09:41.025000Z", "n_pixels": 6, "area_m2": 600, "prob_max": 0.9961, "prob_mean": 0.8817, "threshold": 0.63, "in_strip": true, "artifact": null}}, {"type": "Feature", "id": "D-SZ-live-karachi-2026-02-14-001-27", "geometry": {"type": "Polygon", "coordinates": [[[66.9664734, 24.8312999], [66.9664764, 24.8311194], [66.9665753, 24.8311208], [66.9665723, 24.8313013], [66.9664734, 24.8312999]]]}, "properties": {"kind": "detection", "det_id": "D-SZ-live-karachi-2026-02-14-001-27", "zone_id": "SZ-live-karachi-2026-02-14-001", "scene_id": "S2C_MSIL2A_20260214T060941_R134_T42RTN_20260214T085315", "datetime": "2026-02-14T06:09:41.025000Z", "n_pixels": 2, "area_m2": 200, "prob_max": 0.9843, "prob_mean": 0.9843, "threshold": 0.63, "in_strip": true, "artifact": null}}, {"type": "Feature", "id": "D-SZ-live-karachi-2026-02-14-001-28", "geometry": {"type": "Polygon", "coordinates": [[[66.9680765, 24.8300579], [66.968078, 24.8299676], [66.9681769, 24.8299689], [66.9681754, 24.8300592], [66.9680765, 24.8300579]]]}, "properties": {"kind": "detection", "det_id": "D-SZ-live-karachi-2026-02-14-001-28", "zone_id": "SZ-live-karachi-2026-02-14-001", "scene_id": "S2C_MSIL2A_20260214T060941_R134_T42RTN_20260214T085315", "datetime": "2026-02-14T06:09:41.025000Z", "n_pixels": 1, "area_m2": 100, "prob_max": 0.9608, "prob_mean": 0.9608, "threshold": 0.63, "in_strip": true, "artifact": "ship"}}, {"type": "Feature", "id": "D-SZ-live-karachi-2026-02-14-001-29", "geometry": {"type": "Polygon", "coordinates": [[[66.9665103, 24.8290435], [66.9665133, 24.828863], [66.9666122, 24.8288644], [66.9666107, 24.8289546], [66.9667096, 24.828956], [66.9667081, 24.8290462], [66.9665103, 24.8290435]]]}, "properties": {"kind": "detection", "det_id": "D-SZ-live-karachi-2026-02-14-001-29", "zone_id": "SZ-live-karachi-2026-02-14-001", "scene_id": "S2C_MSIL2A_20260214T060941_R134_T42RTN_20260214T085315", "datetime": "2026-02-14T06:09:41.025000Z", "n_pixels": 3, "area_m2": 300, "prob_max": 0.9882, "prob_mean": 0.8928, "threshold": 0.63, "in_strip": true, "artifact": "ship"}}, {"type": "Feature", "id": "D-SZ-live-karachi-2026-02-14-001-30", "geometry": {"type": "Polygon", "coordinates": [[[66.9662298, 24.8280467], [66.9662313, 24.8279564], [66.9663302, 24.8279578], [66.9663287, 24.828048], [66.9662298, 24.8280467]]]}, "properties": {"kind": "detection", "det_id": "D-SZ-live-karachi-2026-02-14-001-30", "zone_id": "SZ-live-karachi-2026-02-14-001", "scene_id": "S2C_MSIL2A_20260214T060941_R134_T42RTN_20260214T085315", "datetime": "2026-02-14T06:09:41.025000Z", "n_pixels": 1, "area_m2": 100, "prob_max": 0.9098, "prob_mean": 0.9098, "threshold": 0.63, "in_strip": true, "artifact": "ship"}}, {"type": "Feature", "id": "D-SZ-live-karachi-2026-02-14-002-33", "geometry": {"type": "Polygon", "coordinates": [[[66.9690859, 24.8227592], [66.9690873, 24.822669], [66.9691862, 24.8226703], [66.9691848, 24.8227606], [66.9690859, 24.8227592]]]}, "properties": {"kind": "detection", "det_id": "D-SZ-live-karachi-2026-02-14-002-33", "zone_id": "SZ-live-karachi-2026-02-14-002", "scene_id": "S2C_MSIL2A_20260214T060941_R134_T42RTN_20260214T085315", "datetime": "2026-02-14T06:09:41.025000Z", "n_pixels": 1, "area_m2": 100, "prob_max": 0.8941, "prob_mean": 0.8941, "threshold": 0.63, "in_strip": true, "artifact": null}}, {"type": "Feature", "id": "D-SZ-live-karachi-2026-02-14-002-34", "geometry": {"type": "Polygon", "coordinates": [[[66.9668467, 24.8205622], [66.9668496, 24.8203816], [66.9669485, 24.820383], [66.9669456, 24.8205635], [66.9668467, 24.8205622]]]}, "properties": {"kind": "detection", "det_id": "D-SZ-live-karachi-2026-02-14-002-34", "zone_id": "SZ-live-karachi-2026-02-14-002", "scene_id": "S2C_MSIL2A_20260214T060941_R134_T42RTN_20260214T085315", "datetime": "2026-02-14T06:09:41.025000Z", "n_pixels": 2, "area_m2": 200, "prob_max": 0.7137, "prob_mean": 0.6863, "threshold": 0.63, "in_strip": true, "artifact": "ship"}}, {"type": "Feature", "id": "D-SZ-live-karachi-2026-02-14-002-35", "geometry": {"type": "Polygon", "coordinates": [[[66.9685337, 24.820224], [66.9685352, 24.8201337], [66.9686341, 24.8201351], [66.9686326, 24.8202253], [66.9685337, 24.820224]]]}, "properties": {"kind": "detection", "det_id": "D-SZ-live-karachi-2026-02-14-002-35", "zone_id": "SZ-live-karachi-2026-02-14-002", "scene_id": "S2C_MSIL2A_20260214T060941_R134_T42RTN_20260214T085315", "datetime": "2026-02-14T06:09:41.025000Z", "n_pixels": 1, "area_m2": 100, "prob_max": 0.6863, "prob_mean": 0.6863, "threshold": 0.63, "in_strip": true, "artifact": "ship"}}, {"type": "Feature", "id": "D-SZ-live-karachi-2026-02-14-002-36", "geometry": {"type": "Polygon", "coordinates": [[[66.9680569, 24.8191342], [66.9680584, 24.8190439], [66.9681573, 24.8190453], [66.9681558, 24.8191355], [66.9680569, 24.8191342]]]}, "properties": {"kind": "detection", "det_id": "D-SZ-live-karachi-2026-02-14-002-36", "zone_id": "SZ-live-karachi-2026-02-14-002", "scene_id": "S2C_MSIL2A_20260214T060941_R134_T42RTN_20260214T085315", "datetime": "2026-02-14T06:09:41.025000Z", "n_pixels": 1, "area_m2": 100, "prob_max": 0.8588, "prob_mean": 0.8588, "threshold": 0.63, "in_strip": true, "artifact": "ship"}}, {"type": "Feature", "id": "D-SZ-live-karachi-2026-02-14-002-37", "geometry": {"type": "Polygon", "coordinates": [[[66.9701572, 24.8177183], [66.9701601, 24.8175378], [66.970259, 24.8175391], [66.9702561, 24.8177196], [66.9701572, 24.8177183]]]}, "properties": {"kind": "detection", "det_id": "D-SZ-live-karachi-2026-02-14-002-37", "zone_id": "SZ-live-karachi-2026-02-14-002", "scene_id": "S2C_MSIL2A_20260214T060941_R134_T42RTN_20260214T085315", "datetime": "2026-02-14T06:09:41.025000Z", "n_pixels": 2, "area_m2": 200, "prob_max": 0.8588, "prob_mean": 0.8373, "threshold": 0.63, "in_strip": true, "artifact": null}}, {"type": "Feature", "id": "D-SZ-live-karachi-2026-02-14-002-38", "geometry": {"type": "Polygon", "coordinates": [[[66.9693734, 24.8172563], [66.9693749, 24.817166], [66.9694738, 24.8171674], [66.9694723, 24.8172576], [66.9693734, 24.8172563]]]}, "properties": {"kind": "detection", "det_id": "D-SZ-live-karachi-2026-02-14-002-38", "zone_id": "SZ-live-karachi-2026-02-14-002", "scene_id": "S2C_MSIL2A_20260214T060941_R134_T42RTN_20260214T085315", "datetime": "2026-02-14T06:09:41.025000Z", "n_pixels": 1, "area_m2": 100, "prob_max": 0.7765, "prob_mean": 0.7765, "threshold": 0.63, "in_strip": true, "artifact": "ship"}}, {"type": "Feature", "id": "D-SZ-live-karachi-2026-02-14-002-39", "geometry": {"type": "Polygon", "coordinates": [[[66.9699668, 24.8172643], [66.9699683, 24.8171741], [66.9700671, 24.8171754], [66.9700657, 24.8172657], [66.9699668, 24.8172643]]]}, "properties": {"kind": "detection", "det_id": "D-SZ-live-karachi-2026-02-14-002-39", "zone_id": "SZ-live-karachi-2026-02-14-002", "scene_id": "S2C_MSIL2A_20260214T060941_R134_T42RTN_20260214T085315", "datetime": "2026-02-14T06:09:41.025000Z", "n_pixels": 1, "area_m2": 100, "prob_max": 0.9804, "prob_mean": 0.9804, "threshold": 0.63, "in_strip": true, "artifact": null}}, {"type": "Feature", "id": "D-SZ-live-karachi-2026-02-14-003-42", "geometry": {"type": "Polygon", "coordinates": [[[67.0002909, 24.807562], [67.0002924, 24.8074717], [67.0003913, 24.807473], [67.0003898, 24.8075633], [67.0002909, 24.807562]]]}, "properties": {"kind": "detection", "det_id": "D-SZ-live-karachi-2026-02-14-003-42", "zone_id": "SZ-live-karachi-2026-02-14-003", "scene_id": "S2C_MSIL2A_20260214T060941_R134_T42RTN_20260214T085315", "datetime": "2026-02-14T06:09:41.025000Z", "n_pixels": 1, "area_m2": 100, "prob_max": 0.6667, "prob_mean": 0.6667, "threshold": 0.63, "in_strip": true, "artifact": null}}, {"type": "Feature", "id": "D-SZ-live-karachi-2026-02-14-003-43", "geometry": {"type": "Polygon", "coordinates": [[[67.0009016, 24.8064868], [67.0009031, 24.8063965], [67.0010019, 24.8063979], [67.0010005, 24.8064881], [67.0009016, 24.8064868]]]}, "properties": {"kind": "detection", "det_id": "D-SZ-live-karachi-2026-02-14-003-43", "zone_id": "SZ-live-karachi-2026-02-14-003", "scene_id": "S2C_MSIL2A_20260214T060941_R134_T42RTN_20260214T085315", "datetime": "2026-02-14T06:09:41.025000Z", "n_pixels": 1, "area_m2": 100, "prob_max": 0.7176, "prob_mean": 0.7176, "threshold": 0.63, "in_strip": true, "artifact": null}}, {"type": "Feature", "id": "D-SZ-live-karachi-2026-02-14-003-44", "geometry": {"type": "Polygon", "coordinates": [[[67.0010994, 24.8064894], [67.0011037, 24.8062187], [67.0012026, 24.80622], [67.0012041, 24.8061297], [67.0014018, 24.8061324], [67.0013989, 24.8063129], [67.0012012, 24.8063102], [67.0011983, 24.8064908], [67.0010994, 24.8064894]]]}, "properties": {"kind": "detection", "det_id": "D-SZ-live-karachi-2026-02-14-003-44", "zone_id": "SZ-live-karachi-2026-02-14-003", "scene_id": "S2C_MSIL2A_20260214T060941_R134_T42RTN_20260214T085315", "datetime": "2026-02-14T06:09:41.025000Z", "n_pixels": 7, "area_m2": 700, "prob_max": 0.9216, "prob_mean": 0.8359, "threshold": 0.63, "in_strip": true, "artifact": "seam"}}, {"type": "Feature", "id": "D-SZ-live-karachi-2026-02-14-004-46", "geometry": {"type": "Polygon", "coordinates": [[[67.0027524, 24.8020879], [67.0027567, 24.8018172], [67.0028556, 24.8018185], [67.0028542, 24.8019087], [67.0029531, 24.8019101], [67.0029502, 24.8020906], [67.0027524, 24.8020879]]]}, "properties": {"kind": "detection", "det_id": "D-SZ-live-karachi-2026-02-14-004-46", "zone_id": "SZ-live-karachi-2026-02-14-004", "scene_id": "S2C_MSIL2A_20260214T060941_R134_T42RTN_20260214T085315", "datetime": "2026-02-14T06:09:41.025000Z", "n_pixels": 5, "area_m2": 500, "prob_max": 0.9451, "prob_mean": 0.8965, "threshold": 0.63, "in_strip": true, "artifact": "seam"}}, {"type": "Feature", "id": "D-SZ-live-karachi-2026-02-14-005-62", "geometry": {"type": "Polygon", "coordinates": [[[66.9351821, 24.7795044], [66.9351851, 24.7793238], [66.935284, 24.7793252], [66.935281, 24.7795057], [66.9351821, 24.7795044]]]}, "properties": {"kind": "detection", "det_id": "D-SZ-live-karachi-2026-02-14-005-62", "zone_id": "SZ-live-karachi-2026-02-14-005", "scene_id": "S2C_MSIL2A_20260214T060941_R134_T42RTN_20260214T085315", "datetime": "2026-02-14T06:09:41.025000Z", "n_pixels": 2, "area_m2": 200, "prob_max": 0.9843, "prob_mean": 0.951, "threshold": 0.63, "in_strip": true, "artifact": null}}, {"type": "Feature", "id": "D-SZ-live-karachi-2026-02-14-005-68", "geometry": {"type": "Polygon", "coordinates": [[[66.9331315, 24.7779414], [66.9331345, 24.7777609], [66.9332334, 24.7777622], [66.9332304, 24.7779427], [66.9331315, 24.7779414]]]}, "properties": {"kind": "detection", "det_id": "D-SZ-live-karachi-2026-02-14-005-68", "zone_id": "SZ-live-karachi-2026-02-14-005", "scene_id": "S2C_MSIL2A_20260214T060941_R134_T42RTN_20260214T085315", "datetime": "2026-02-14T06:09:41.025000Z", "n_pixels": 2, "area_m2": 200, "prob_max": 0.9961, "prob_mean": 0.9843, "threshold": 0.63, "in_strip": true, "artifact": null}}, {"type": "Feature", "id": "D-SZ-live-karachi-2026-02-14-005-69", "geometry": {"type": "Polygon", "coordinates": [[[66.9313596, 24.7774655], [66.9313611, 24.7773753], [66.9314599, 24.7773766], [66.9314584, 24.7774669], [66.9313596, 24.7774655]]]}, "properties": {"kind": "detection", "det_id": "D-SZ-live-karachi-2026-02-14-005-69", "zone_id": "SZ-live-karachi-2026-02-14-005", "scene_id": "S2C_MSIL2A_20260214T060941_R134_T42RTN_20260214T085315", "datetime": "2026-02-14T06:09:41.025000Z", "n_pixels": 1, "area_m2": 100, "prob_max": 0.9922, "prob_mean": 0.9922, "threshold": 0.63, "in_strip": true, "artifact": null}}, {"type": "Feature", "id": "D-SZ-live-karachi-2026-02-14-005-72", "geometry": {"type": "Polygon", "coordinates": [[[66.9310989, 24.7752953], [66.9311004, 24.7752051], [66.9311993, 24.7752064], [66.9311978, 24.7752967], [66.9310989, 24.7752953]]]}, "properties": {"kind": "detection", "det_id": "D-SZ-live-karachi-2026-02-14-005-72", "zone_id": "SZ-live-karachi-2026-02-14-005", "scene_id": "S2C_MSIL2A_20260214T060941_R134_T42RTN_20260214T085315", "datetime": "2026-02-14T06:09:41.025000Z", "n_pixels": 1, "area_m2": 100, "prob_max": 0.651, "prob_mean": 0.651, "threshold": 0.63, "in_strip": true, "artifact": null}}, {"type": "Feature", "id": "D-SZ-live-karachi-2026-02-14-006-84", "geometry": {"type": "Polygon", "coordinates": [[[67.0375198, 24.7610198], [67.0375226, 24.7608393], [67.0376215, 24.7608406], [67.0376186, 24.7610211], [67.0375198, 24.7610198]]]}, "properties": {"kind": "detection", "det_id": "D-SZ-live-karachi-2026-02-14-006-84", "zone_id": "SZ-live-karachi-2026-02-14-006", "scene_id": "S2C_MSIL2A_20260214T060941_R134_T42RTN_20260214T085315", "datetime": "2026-02-14T06:09:41.025000Z", "n_pixels": 2, "area_m2": 200, "prob_max": 0.9961, "prob_mean": 0.9745, "threshold": 0.63, "in_strip": true, "artifact": null}}, {"type": "Feature", "id": "D-SZ-live-karachi-2026-02-14-006-85", "geometry": {"type": "Polygon", "coordinates": [[[67.0382203, 24.7604873], [67.0382231, 24.7603068], [67.0383219, 24.7603081], [67.0383191, 24.7604886], [67.0382203, 24.7604873]]]}, "properties": {"kind": "detection", "det_id": "D-SZ-live-karachi-2026-02-14-006-85", "zone_id": "SZ-live-karachi-2026-02-14-006", "scene_id": "S2C_MSIL2A_20260214T060941_R134_T42RTN_20260214T085315", "datetime": "2026-02-14T06:09:41.025000Z", "n_pixels": 2, "area_m2": 200, "prob_max": 0.9882, "prob_mean": 0.9039, "threshold": 0.63, "in_strip": true, "artifact": null}}, {"type": "Feature", "id": "D-SZ-live-karachi-2026-02-14-006-88", "geometry": {"type": "Polygon", "coordinates": [[[67.0378419, 24.759399], [67.0378433, 24.7593087], [67.038041, 24.7593113], [67.0380396, 24.7594016], [67.0378419, 24.759399]]]}, "properties": {"kind": "detection", "det_id": "D-SZ-live-karachi-2026-02-14-006-88", "zone_id": "SZ-live-karachi-2026-02-14-006", "scene_id": "S2C_MSIL2A_20260214T060941_R134_T42RTN_20260214T085315", "datetime": "2026-02-14T06:09:41.025000Z", "n_pixels": 2, "area_m2": 200, "prob_max": 0.8431, "prob_mean": 0.8353, "threshold": 0.63, "in_strip": true, "artifact": null}}, {"type": "Feature", "id": "D-SZ-live-karachi-2026-02-14-007-90", "geometry": {"type": "Polygon", "coordinates": [[[67.0060519, 24.7565416], [67.0060563, 24.7562708], [67.0062539, 24.7562735], [67.0062496, 24.7565443], [67.0060519, 24.7565416]]]}, "properties": {"kind": "detection", "det_id": "D-SZ-live-karachi-2026-02-14-007-90", "zone_id": "SZ-live-karachi-2026-02-14-007", "scene_id": "S2C_MSIL2A_20260214T060941_R134_T42RTN_20260214T085315", "datetime": "2026-02-14T06:09:41.025000Z", "n_pixels": 6, "area_m2": 600, "prob_max": 0.9961, "prob_mean": 0.9203, "threshold": 0.63, "in_strip": true, "artifact": null}}]}