{"type": "FeatureCollection", "features": [{"type": "Feature", "id": "SZ-live-karachi-2026-02-14-001", "geometry": {"type": "Polygon", "coordinates": [[[66.969841, 24.843172], [66.968955, 24.842889], [66.968475, 24.84198], [66.967889, 24.84152], [66.967283, 24.842325], [66.966388, 24.842583], [66.965403, 24.842299], [66.964919, 24.84166], [66.964935, 24.840668], [66.96574, 24.839866], [66.965064, 24.838864], [66.964909, 24.836244], [66.965414, 24.835619], [66.966603, 24.835454], [66.966411, 24.835091], [66.965725, 24.83472], [66.964861, 24.833083], [66.965099, 24.830649], [66.965604, 24.830024], [66.965118, 24.829476], [66.964748, 24.827936], [66.965058, 24.827128], [66.965757, 24.826686], [66.966352, 24.826604], [66.967238, 24.826887], [66.967722, 24.827525], [66.968003, 24.828522], [66.969085, 24.828898], [66.969569, 24.829536], [66.969659, 24.830079], [66.969349, 24.830888], [66.968153, 24.831413], [66.969135, 24.831878], [66.969609, 24.833148], [66.969401, 24.833777], [66.969796, 24.833783], [66.970481, 24.834243], [66.970763, 24.83515], [66.970453, 24.835958], [66.969755, 24.83631], [66.969442, 24.837298], [66.969041, 24.837654], [66.968345, 24.837825], [66.968341, 24.838096], [66.969712, 24.838927], [66.9699, 24.839562], [66.970486, 24.840021], [66.970675, 24.840565], [66.971263, 24.840934], [66.971546, 24.841751], [66.971438, 24.842291], [66.970933, 24.842916], [66.969841, 24.843172]]]}, "properties": {"kind": "detection_zone", "layer_kind": "scene_zone", "zone_id": "SZ-live-karachi-2026-02-14-001", "scene_key": "live-karachi-2026-02-14", "scene_kind": "live", "scene_id": "S2C_MSIL2A_20260214T060941_R134_T42RTN_20260214T085315", "region": "karachi", "title": "Карачи (порт, устье Лиари) · зона 1", "mission": "Sentinel-2", "datetime": "2026-02-14T06:09:41.025000Z", "detection_status": "insufficient_data", "status": "insufficient_data", "concentration_status": "unavailable", "quantity": {"status": "not_confirmed", "label": "концентрация по снимку не подтверждена", "detail": "перевод площади в штуки не показываем: нет калибровочных пар (см. docs/QUANTITY.md)"}, "verification": "false_alarm_signs", "training_scene": null, "flags": ["coast", "shallow", "ship", "glint", "foam"], "n_cozar_filaments": 0, "crop_file": "crops/SZ-live-karachi-2026-02-14-001.jpg", "measured": {"zone_area_km2": 0.7844, "suspicious_area_m2": 8900, "n_pixels": 89, "n_objects": 26, "water_km2": 0.7699, "lwd_m2_km2": 11559.9, "quality": {"valid_water_fraction": 0.978, "cloud_fraction": 0.014, "glint_fraction": 0.0}, "model": {"weights": "weights/lgbm", "file": "weights/lgbm/model.txt", "sha256": "0eeebf43fcccd8c7c07f053b7ec723229d1a3c9b92d12eec1bdb269258c51470", "sha256_short": "0eeebf43fccc", "trained_at": "2026-09-25T01:35:55Z", "threshold": 0.63, "harmonize": "none", "class": "MARIDA Marine Debris (любой плавающий мусор, не только пластик)"}}, "probable": {"prob_max": 1.0, "prob_mean": 0.914, "signs": {"foam": {"flag": true, "white_ratio_b2_b8": 0.849, "wind10m_ms": 1.34, "rule": "прирост B2 над водой ≥ 0.8 прироста B8 («белый» спектр) или ветер ≥ 7.0 м/с"}, "glint": {"flag": true, "b11_water_median": 0.0111, "glint_share": 0.0, "rule": "медиана B11 воды зоны > 0.01 или ≥ 20 % пикселей зоны — блик (маска качества)"}, "ship": {"flag": true, "share": 0.371, "bright_target_px_within_500m": 2357, "rule": "≥ 30 % пикселей — у яркой цели или кильватера (reports/artifacts.md) или яркая цель с откликом в SWIR (судно, лодка: B11 ≥ 0,015) ближе 500 м"}, "coast": {"flag": true, "land_px_within_300m": 1323, "rule": "суша (маска качества) ближе 300 м — прибой, кромка берега"}, "shallow": {"flag": true, "b3_water_zone": 0.0482, "b3_ratio_to_scene_water": 2.46, "rule": "медиана B3 воды зоны ≥ 2× медианы воды снимка и ≥ 0,03 — мелководье или мутная вода"}, "seam": {"flag": false, "share": 0.045, "rule": "≥ 30 % пикселей — прямая линия вдоль трека/границы яркости (шов)"}, "cloud": {"flag": false, "cloud_fraction": 0.014, "rule": "облака или тени облаков (маска качества) ≥ 20 % зоны"}, "note": "эвристики, не классификатор; на размеченных данных не проверены"}, "n_cozar_filaments": 0}, "field_nearby": {"items": [{"source": "ADIS (4TU.ResearchData, судовая камера)", "segment_id": 335769, "ship": "Dallaporta", "date": "2023-04-09", "days_from_scene": -1042, "distance_km": 5172.1, "lon": 18.55051, "lat": 40.01099, "n_items": 1, "area_km2": 0.1613, "size_class": "> 5 см", "c_items_km2": 6.2, "ci95_lo": 0.16, "ci95_hi": 34.53, "ci95_method": "точный интервал Пуассона для N, делённый на A"}, {"source": "ADIS (4TU.ResearchData, судовая камера)", "segment_id": 335770, "ship": "Dallaporta", "date": "2023-04-09", "days_from_scene": -1042, "distance_km": 5172.6, "lon": 18.56195, "lat": 40.05698, "n_items": 0, "area_km2": 0.2555, "size_class": "> 5 см", "c_items_km2": 0.0, "ci95_lo": 0.0, "ci95_hi": 14.44, "ci95_method": "точный интервал Пуассона для N, делённый на A"}, {"source": "ADIS (4TU.ResearchData, судовая камера)", "segment_id": 335768, "ship": "Dallaporta", "date": "2023-04-09", "days_from_scene": -1042, "distance_km": 5172.7, "lon": 18.52174, "lat": 39.95216, "n_items": 4, "area_km2": 0.3999, "size_class": "> 5 см", "c_items_km2": 10.0, "ci95_lo": 2.73, "ci95_hi": 25.61, "ci95_method": "точный интервал Пуассона для N, делённый на A"}], "nearest_organizer_sample": {"sample_id": "MPL-0922", "source_id": "S4_BLACK_SEA_DOORS3", "distance_km": 3168.2}, "note": "Измерение ≠ оценка: это независимые полевые счёты C = N/A в другое время и в другом месте; со сценой они не связаны и не калибруют её. Ближайший отрезок ADIS — за 5172 км: только для порядка величин."}}}, {"type": "Feature", "id": "SZ-live-karachi-2026-02-14-002", "geometry": {"type": "Polygon", "coordinates": [[[66.969064, 24.824113], [66.968178, 24.82383], [66.967694, 24.823192], [66.96771, 24.822199], [66.968414, 24.821486], [66.96792, 24.82148], [66.966923, 24.821917], [66.966332, 24.821819], [66.965647, 24.821358], [66.965366, 24.820361], [66.965676, 24.819553], [66.966674, 24.819025], [66.966885, 24.818215], [66.967585, 24.817774], [66.968079, 24.81778], [66.967892, 24.817146], [66.968201, 24.816338], [66.968901, 24.815896], [66.970089, 24.815822], [66.971267, 24.816379], [66.971739, 24.81774], [66.971128, 24.818815], [66.970234, 24.819073], [66.969545, 24.818884], [66.970116, 24.820245], [66.969806, 24.821054], [66.969306, 24.821408], [66.969701, 24.821413], [66.970386, 24.821874], [66.970668, 24.822781], [66.970057, 24.823856], [66.969064, 24.824113]]]}, "properties": {"kind": "detection_zone", "layer_kind": "scene_zone", "zone_id": "SZ-live-karachi-2026-02-14-002", "scene_key": "live-karachi-2026-02-14", "scene_kind": "live", "scene_id": "S2C_MSIL2A_20260214T060941_R134_T42RTN_20260214T085315", "region": "karachi", "title": "Карачи (порт, устье Лиари) · зона 2", "mission": "Sentinel-2", "datetime": "2026-02-14T06:09:41.025000Z", "detection_status": "insufficient_data", "status": "insufficient_data", "concentration_status": "unavailable", "quantity": {"status": "not_confirmed", "label": "концентрация по снимку не подтверждена", "detail": "перевод площади в штуки не показываем: нет калибровочных пар (см. docs/QUANTITY.md)"}, "verification": "false_alarm_signs", "training_scene": null, "flags": ["coast", "shallow", "ship"], "n_cozar_filaments": 0, "crop_file": "crops/SZ-live-karachi-2026-02-14-002.jpg", "measured": {"zone_area_km2": 0.3182, "suspicious_area_m2": 900, "n_pixels": 9, "n_objects": 7, "water_km2": 0.3154, "lwd_m2_km2": 2853.5, "quality": {"valid_water_fraction": 0.983, "cloud_fraction": 0.017, "glint_fraction": 0.0}, "model": {"weights": "weights/lgbm", "file": "weights/lgbm/model.txt", "sha256": "0eeebf43fcccd8c7c07f053b7ec723229d1a3c9b92d12eec1bdb269258c51470", "sha256_short": "0eeebf43fccc", "trained_at": "2026-09-25T01:35:55Z", "threshold": 0.63, "harmonize": "none", "class": "MARIDA Marine Debris (любой плавающий мусор, не только пластик)"}}, "probable": {"prob_max": 0.98, "prob_mean": 0.805, "signs": {"foam": {"flag": false, "white_ratio_b2_b8": 0.704, "wind10m_ms": 1.34, "rule": "прирост B2 над водой ≥ 0.8 прироста B8 («белый» спектр) или ветер ≥ 7.0 м/с"}, "glint": {"flag": false, "b11_water_median": 0.01, "glint_share": 0.0, "rule": "медиана B11 воды зоны > 0.01 или ≥ 20 % пикселей зоны — блик (маска качества)"}, "ship": {"flag": true, "share": 0.556, "bright_target_px_within_500m": 1735, "rule": "≥ 30 % пикселей — у яркой цели или кильватера (reports/artifacts.md) или яркая цель с откликом в SWIR (судно, лодка: B11 ≥ 0,015) ближе 500 м"}, "coast": {"flag": true, "land_px_within_300m": 29, "rule": "суша (маска качества) ближе 300 м — прибой, кромка берега"}, "shallow": {"flag": true, "b3_water_zone": 0.0524, "b3_ratio_to_scene_water": 2.67, "rule": "медиана B3 воды зоны ≥ 2× медианы воды снимка и ≥ 0,03 — мелководье или мутная вода"}, "seam": {"flag": false, "share": 0, "rule": "≥ 30 % пикселей — прямая линия вдоль трека/границы яркости (шов)"}, "cloud": {"flag": false, "cloud_fraction": 0.017, "rule": "облака или тени облаков (маска качества) ≥ 20 % зоны"}, "note": "эвристики, не классификатор; на размеченных данных не проверены"}, "n_cozar_filaments": 0}, "field_nearby": {"items": [{"source": "ADIS (4TU.ResearchData, судовая камера)", "segment_id": 335769, "ship": "Dallaporta", "date": "2023-04-09", "days_from_scene": -1042, "distance_km": 5172.1, "lon": 18.55051, "lat": 40.01099, "n_items": 1, "area_km2": 0.1613, "size_class": "> 5 см", "c_items_km2": 6.2, "ci95_lo": 0.16, "ci95_hi": 34.53, "ci95_method": "точный интервал Пуассона для N, делённый на A"}, {"source": "ADIS (4TU.ResearchData, судовая камера)", "segment_id": 335770, "ship": "Dallaporta", "date": "2023-04-09", "days_from_scene": -1042, "distance_km": 5172.6, "lon": 18.56195, "lat": 40.05698, "n_items": 0, "area_km2": 0.2555, "size_class": "> 5 см", "c_items_km2": 0.0, "ci95_lo": 0.0, "ci95_hi": 14.44, "ci95_method": "точный интервал Пуассона для N, делённый на A"}, {"source": "ADIS (4TU.ResearchData, судовая камера)", "segment_id": 335768, "ship": "Dallaporta", "date": "2023-04-09", "days_from_scene": -1042, "distance_km": 5172.7, "lon": 18.52174, "lat": 39.95216, "n_items": 4, "area_km2": 0.3999, "size_class": "> 5 см", "c_items_km2": 10.0, "ci95_lo": 2.73, "ci95_hi": 25.61, "ci95_method": "точный интервал Пуассона для N, делённый на A"}], "nearest_organizer_sample": {"sample_id": "MPL-0922", "source_id": "S4_BLACK_SEA_DOORS3", "distance_km": 3168.2}, "note": "Измерение ≠ оценка: это независимые полевые счёты C = N/A в другое время и в другом месте; со сценой они не связаны и не калибруют её. Ближайший отрезок ADIS — за 5172 км: только для порядка величин."}}}, {"type": "Feature", "id": "SZ-live-karachi-2026-02-14-003", "geometry": {"type": "Polygon", "coordinates": [[[67.000269, 24.808916], [66.999091, 24.808358], [66.998808, 24.807542], [66.998915, 24.807002], [66.999519, 24.806378], [66.999729, 24.805568], [67.000331, 24.805035], [67.001226, 24.804776], [67.001917, 24.804875], [67.002793, 24.8057], [67.002776, 24.806783], [67.001773, 24.807672], [67.001767, 24.808033], [67.001262, 24.808658], [67.000269, 24.808916]]]}, "properties": {"kind": "detection_zone", "layer_kind": "scene_zone", "zone_id": "SZ-live-karachi-2026-02-14-003", "scene_key": "live-karachi-2026-02-14", "scene_kind": "live", "scene_id": "S2C_MSIL2A_20260214T060941_R134_T42RTN_20260214T085315", "region": "karachi", "title": "Карачи (порт, устье Лиари) · зона 3", "mission": "Sentinel-2", "datetime": "2026-02-14T06:09:41.025000Z", "detection_status": "insufficient_data", "status": "insufficient_data", "concentration_status": "unavailable", "quantity": {"status": "not_confirmed", "label": "концентрация по снимку не подтверждена", "detail": "перевод площади в штуки не показываем: нет калибровочных пар (см. docs/QUANTITY.md)"}, "verification": "false_alarm_signs", "training_scene": null, "flags": ["ship", "coast", "shallow", "seam", "glint"], "n_cozar_filaments": 0, "crop_file": "crops/SZ-live-karachi-2026-02-14-003.jpg", "measured": {"zone_area_km2": 0.1248, "suspicious_area_m2": 900, "n_pixels": 9, "n_objects": 3, "water_km2": 0.0873, "lwd_m2_km2": 10309.3, "quality": {"valid_water_fraction": 0.688, "cloud_fraction": 0.05, "glint_fraction": 0.0}, "model": {"weights": "weights/lgbm", "file": "weights/lgbm/model.txt", "sha256": "0eeebf43fcccd8c7c07f053b7ec723229d1a3c9b92d12eec1bdb269258c51470", "sha256_short": "0eeebf43fccc", "trained_at": "2026-09-25T01:35:55Z", "threshold": 0.63, "harmonize": "none", "class": "MARIDA Marine Debris (любой плавающий мусор, не только пластик)"}}, "probable": {"prob_max": 0.922, "prob_mean": 0.804, "signs": {"foam": {"flag": false, "white_ratio_b2_b8": 0.398, "wind10m_ms": 1.34, "rule": "прирост B2 над водой ≥ 0.8 прироста B8 («белый» спектр) или ветер ≥ 7.0 м/с"}, "glint": {"flag": true, "b11_water_median": 0.0151, "glint_share": 0.0, "rule": "медиана B11 воды зоны > 0.01 или ≥ 20 % пикселей зоны — блик (маска качества)"}, "ship": {"flag": true, "share": 0, "bright_target_px_within_500m": 1215, "rule": "≥ 30 % пикселей — у яркой цели или кильватера (reports/artifacts.md) или яркая цель с откликом в SWIR (судно, лодка: B11 ≥ 0,015) ближе 500 м"}, "coast": {"flag": true, "land_px_within_300m": 1355, "rule": "суша (маска качества) ближе 300 м — прибой, кромка берега"}, "shallow": {"flag": true, "b3_water_zone": 0.0668, "b3_ratio_to_scene_water": 3.41, "rule": "медиана B3 воды зоны ≥ 2× медианы воды снимка и ≥ 0,03 — мелководье или мутная вода"}, "seam": {"flag": true, "share": 0.778, "rule": "≥ 30 % пикселей — прямая линия вдоль трека/границы яркости (шов)"}, "cloud": {"flag": false, "cloud_fraction": 0.05, "rule": "облака или тени облаков (маска качества) ≥ 20 % зоны"}, "note": "эвристики, не классификатор; на размеченных данных не проверены"}, "n_cozar_filaments": 0}, "field_nearby": {"items": [{"source": "ADIS (4TU.ResearchData, судовая камера)", "segment_id": 335769, "ship": "Dallaporta", "date": "2023-04-09", "days_from_scene": -1042, "distance_km": 5172.1, "lon": 18.55051, "lat": 40.01099, "n_items": 1, "area_km2": 0.1613, "size_class": "> 5 см", "c_items_km2": 6.2, "ci95_lo": 0.16, "ci95_hi": 34.53, "ci95_method": "точный интервал Пуассона для N, делённый на A"}, {"source": "ADIS (4TU.ResearchData, судовая камера)", "segment_id": 335770, "ship": "Dallaporta", "date": "2023-04-09", "days_from_scene": -1042, "distance_km": 5172.6, "lon": 18.56195, "lat": 40.05698, "n_items": 0, "area_km2": 0.2555, "size_class": "> 5 см", "c_items_km2": 0.0, "ci95_lo": 0.0, "ci95_hi": 14.44, "ci95_method": "точный интервал Пуассона для N, делённый на A"}, {"source": "ADIS (4TU.ResearchData, судовая камера)", "segment_id": 335768, "ship": "Dallaporta", "date": "2023-04-09", "days_from_scene": -1042, "distance_km": 5172.7, "lon": 18.52174, "lat": 39.95216, "n_items": 4, "area_km2": 0.3999, "size_class": "> 5 см", "c_items_km2": 10.0, "ci95_lo": 2.73, "ci95_hi": 25.61, "ci95_method": "точный интервал Пуассона для N, делённый на A"}], "nearest_organizer_sample": {"sample_id": "MPL-0922", "source_id": "S4_BLACK_SEA_DOORS3", "distance_km": 3168.2}, "note": "Измерение ≠ оценка: это независимые полевые счёты C = N/A в другое время и в другом месте; со сценой они не связаны и не калибруют её. Ближайший отрезок ADIS — за 5172 км: только для порядка величин."}}}, {"type": "Feature", "id": "SZ-live-karachi-2026-02-14-004", "geometry": {"type": "Polygon", "coordinates": [[[67.002731, 24.803442], [67.001553, 24.802884], [67.001274, 24.801797], [67.001884, 24.800722], [67.002877, 24.800465], [67.003763, 24.800747], [67.004153, 24.801114], [67.004433, 24.80211], [67.003823, 24.803186], [67.002731, 24.803442]]]}, "properties": {"kind": "detection_zone", "layer_kind": "scene_zone", "zone_id": "SZ-live-karachi-2026-02-14-004", "scene_key": "live-karachi-2026-02-14", "scene_kind": "live", "scene_id": "S2C_MSIL2A_20260214T060941_R134_T42RTN_20260214T085315", "region": "karachi", "title": "Карачи (порт, устье Лиари) · зона 4", "mission": "Sentinel-2", "datetime": "2026-02-14T06:09:41.025000Z", "detection_status": "insufficient_data", "status": "insufficient_data", "concentration_status": "unavailable", "quantity": {"status": "not_confirmed", "label": "концентрация по снимку не подтверждена", "detail": "перевод площади в штуки не показываем: нет калибровочных пар (см. docs/QUANTITY.md)"}, "verification": "false_alarm_signs", "training_scene": null, "flags": ["ship", "coast", "shallow", "seam", "glint"], "n_cozar_filaments": 0, "crop_file": "crops/SZ-live-karachi-2026-02-14-004.jpg", "measured": {"zone_area_km2": 0.0773, "suspicious_area_m2": 500, "n_pixels": 5, "n_objects": 1, "water_km2": 0.0794, "lwd_m2_km2": 6297.2, "quality": {"valid_water_fraction": 1.0, "cloud_fraction": 0.0, "glint_fraction": 0.0}, "model": {"weights": "weights/lgbm", "file": "weights/lgbm/model.txt", "sha256": "0eeebf43fcccd8c7c07f053b7ec723229d1a3c9b92d12eec1bdb269258c51470", "sha256_short": "0eeebf43fccc", "trained_at": "2026-09-25T01:35:55Z", "threshold": 0.63, "harmonize": "none", "class": "MARIDA Marine Debris (любой плавающий мусор, не только пластик)"}}, "probable": {"prob_max": 0.945, "prob_mean": 0.896, "signs": {"foam": {"flag": false, "white_ratio_b2_b8": 0.542, "wind10m_ms": 1.34, "rule": "прирост B2 над водой ≥ 0.8 прироста B8 («белый» спектр) или ветер ≥ 7.0 м/с"}, "glint": {"flag": true, "b11_water_median": 0.0103, "glint_share": 0.0, "rule": "медиана B11 воды зоны > 0.01 или ≥ 20 % пикселей зоны — блик (маска качества)"}, "ship": {"flag": true, "share": 0, "bright_target_px_within_500m": 1596, "rule": "≥ 30 % пикселей — у яркой цели или кильватера (reports/artifacts.md) или яркая цель с откликом в SWIR (судно, лодка: B11 ≥ 0,015) ближе 500 м"}, "coast": {"flag": true, "land_px_within_300m": 16, "rule": "суша (маска качества) ближе 300 м — прибой, кромка берега"}, "shallow": {"flag": true, "b3_water_zone": 0.0742, "b3_ratio_to_scene_water": 3.79, "rule": "медиана B3 воды зоны ≥ 2× медианы воды снимка и ≥ 0,03 — мелководье или мутная вода"}, "seam": {"flag": true, "share": 1.0, "rule": "≥ 30 % пикселей — прямая линия вдоль трека/границы яркости (шов)"}, "cloud": {"flag": false, "cloud_fraction": 0.0, "rule": "облака или тени облаков (маска качества) ≥ 20 % зоны"}, "note": "эвристики, не классификатор; на размеченных данных не проверены"}, "n_cozar_filaments": 0}, "field_nearby": {"items": [{"source": "ADIS (4TU.ResearchData, судовая камера)", "segment_id": 335769, "ship": "Dallaporta", "date": "2023-04-09", "days_from_scene": -1042, "distance_km": 5172.1, "lon": 18.55051, "lat": 40.01099, "n_items": 1, "area_km2": 0.1613, "size_class": "> 5 см", "c_items_km2": 6.2, "ci95_lo": 0.16, "ci95_hi": 34.53, "ci95_method": "точный интервал Пуассона для N, делённый на A"}, {"source": "ADIS (4TU.ResearchData, судовая камера)", "segment_id": 335770, "ship": "Dallaporta", "date": "2023-04-09", "days_from_scene": -1042, "distance_km": 5172.6, "lon": 18.56195, "lat": 40.05698, "n_items": 0, "area_km2": 0.2555, "size_class": "> 5 см", "c_items_km2": 0.0, "ci95_lo": 0.0, "ci95_hi": 14.44, "ci95_method": "точный интервал Пуассона для N, делённый на A"}, {"source": "ADIS (4TU.ResearchData, судовая камера)", "segment_id": 335768, "ship": "Dallaporta", "date": "2023-04-09", "days_from_scene": -1042, "distance_km": 5172.7, "lon": 18.52174, "lat": 39.95216, "n_items": 4, "area_km2": 0.3999, "size_class": "> 5 см", "c_items_km2": 10.0, "ci95_lo": 2.73, "ci95_hi": 25.61, "ci95_method": "точный интервал Пуассона для N, делённый на A"}], "nearest_organizer_sample": {"sample_id": "MPL-0922", "source_id": "S4_BLACK_SEA_DOORS3", "distance_km": 3168.2}, "note": "Измерение ≠ оценка: это независимые полевые счёты C = N/A в другое время и в другом месте; со сценой они не связаны и не калибруют её. Ближайший отрезок ADIS — за 5172 км: только для порядка величин."}}}, {"type": "Feature", "id": "SZ-live-karachi-2026-02-14-005", "geometry": {"type": "Polygon", "coordinates": [[[66.93516, 24.780858], [66.933982, 24.7803], [66.933699, 24.779484], [66.933804, 24.779124], [66.932616, 24.779198], [66.932031, 24.778739], [66.930844, 24.778722], [66.93016, 24.778261], [66.929878, 24.777355], [66.930389, 24.776369], [66.929899, 24.776091], [66.929616, 24.775275], [66.929724, 24.774735], [66.930229, 24.77411], [66.931123, 24.773851], [66.932107, 24.774136], [66.932682, 24.775227], [66.93217, 24.776303], [66.932561, 24.776579], [66.933256, 24.776408], [66.934141, 24.776691], [66.934625, 24.77733], [66.934611, 24.778142], [66.935799, 24.778068], [66.936484, 24.778529], [66.936767, 24.779346], [66.936658, 24.779976], [66.936153, 24.780601], [66.93516, 24.780858]]]}, "properties": {"kind": "detection_zone", "layer_kind": "scene_zone", "zone_id": "SZ-live-karachi-2026-02-14-005", "scene_key": "live-karachi-2026-02-14", "scene_kind": "live", "scene_id": "S2C_MSIL2A_20260214T060941_R134_T42RTN_20260214T085315", "region": "karachi", "title": "Карачи (порт, устье Лиари) · зона 5", "mission": "Sentinel-2", "datetime": "2026-02-14T06:09:41.025000Z", "detection_status": "detected", "status": "detected", "concentration_status": "unavailable", "quantity": {"status": "not_confirmed", "label": "концентрация по снимку не подтверждена", "detail": "перевод площади в штуки не показываем: нет калибровочных пар (см. docs/QUANTITY.md)"}, "verification": "unverified", "training_scene": null, "flags": [], "n_cozar_filaments": 0, "crop_file": "crops/SZ-live-karachi-2026-02-14-005.jpg", "measured": {"zone_area_km2": 0.2564, "suspicious_area_m2": 600, "n_pixels": 6, "n_objects": 4, "water_km2": 0.2594, "lwd_m2_km2": 2313.0, "quality": {"valid_water_fraction": 1.0, "cloud_fraction": 0.0, "glint_fraction": 0.0}, "model": {"weights": "weights/lgbm", "file": "weights/lgbm/model.txt", "sha256": "0eeebf43fcccd8c7c07f053b7ec723229d1a3c9b92d12eec1bdb269258c51470", "sha256_short": "0eeebf43fccc", "trained_at": "2026-09-25T01:35:55Z", "threshold": 0.63, "harmonize": "none", "class": "MARIDA Marine Debris (любой плавающий мусор, не только пластик)"}}, "probable": {"prob_max": 0.996, "prob_mean": 0.919, "signs": {"foam": {"flag": false, "white_ratio_b2_b8": 0.717, "wind10m_ms": 1.34, "rule": "прирост B2 над водой ≥ 0.8 прироста B8 («белый» спектр) или ветер ≥ 7.0 м/с"}, "glint": {"flag": false, "b11_water_median": 0.0066, "glint_share": 0.0, "rule": "медиана B11 воды зоны > 0.01 или ≥ 20 % пикселей зоны — блик (маска качества)"}, "ship": {"flag": false, "share": 0, "bright_target_px_within_500m": 0, "rule": "≥ 30 % пикселей — у яркой цели или кильватера (reports/artifacts.md) или яркая цель с откликом в SWIR (судно, лодка: B11 ≥ 0,015) ближе 500 м"}, "coast": {"flag": false, "land_px_within_300m": 0, "rule": "суша (маска качества) ближе 300 м — прибой, кромка берега"}, "shallow": {"flag": false, "b3_water_zone": 0.0203, "b3_ratio_to_scene_water": 1.04, "rule": "медиана B3 воды зоны ≥ 2× медианы воды снимка и ≥ 0,03 — мелководье или мутная вода"}, "seam": {"flag": false, "share": 0, "rule": "≥ 30 % пикселей — прямая линия вдоль трека/границы яркости (шов)"}, "cloud": {"flag": false, "cloud_fraction": 0.0, "rule": "облака или тени облаков (маска качества) ≥ 20 % зоны"}, "note": "эвристики, не классификатор; на размеченных данных не проверены"}, "n_cozar_filaments": 0}, "field_nearby": {"items": [{"source": "ADIS (4TU.ResearchData, судовая камера)", "segment_id": 335769, "ship": "Dallaporta", "date": "2023-04-09", "days_from_scene": -1042, "distance_km": 5172.1, "lon": 18.55051, "lat": 40.01099, "n_items": 1, "area_km2": 0.1613, "size_class": "> 5 см", "c_items_km2": 6.2, "ci95_lo": 0.16, "ci95_hi": 34.53, "ci95_method": "точный интервал Пуассона для N, делённый на A"}, {"source": "ADIS (4TU.ResearchData, судовая камера)", "segment_id": 335770, "ship": "Dallaporta", "date": "2023-04-09", "days_from_scene": -1042, "distance_km": 5172.6, "lon": 18.56195, "lat": 40.05698, "n_items": 0, "area_km2": 0.2555, "size_class": "> 5 см", "c_items_km2": 0.0, "ci95_lo": 0.0, "ci95_hi": 14.44, "ci95_method": "точный интервал Пуассона для N, делённый на A"}, {"source": "ADIS (4TU.ResearchData, судовая камера)", "segment_id": 335768, "ship": "Dallaporta", "date": "2023-04-09", "days_from_scene": -1042, "distance_km": 5172.7, "lon": 18.52174, "lat": 39.95216, "n_items": 4, "area_km2": 0.3999, "size_class": "> 5 см", "c_items_km2": 10.0, "ci95_lo": 2.73, "ci95_hi": 25.61, "ci95_method": "точный интервал Пуассона для N, делённый на A"}], "nearest_organizer_sample": {"sample_id": "MPL-0922", "source_id": "S4_BLACK_SEA_DOORS3", "distance_km": 3168.2}, "note": "Измерение ≠ оценка: это независимые полевые счёты C = N/A в другое время и в другом месте; со сценой они не связаны и не калибруют её. Ближайший отрезок ADIS — за 5172 км: только для порядка величин."}}}, {"type": "Feature", "id": "SZ-live-karachi-2026-02-14-006", "geometry": {"type": "Polygon", "coordinates": [[[67.037499, 24.762374], [67.036321, 24.761817], [67.03604, 24.76082], [67.036548, 24.759924], [67.036361, 24.759289], [67.03667, 24.758481], [67.037369, 24.758039], [67.038062, 24.757957], [67.03924, 24.758515], [67.039802, 24.760508], [67.039192, 24.761583], [67.038795, 24.761668], [67.038491, 24.762116], [67.037499, 24.762374]]]}, "properties": {"kind": "detection_zone", "layer_kind": "scene_zone", "zone_id": "SZ-live-karachi-2026-02-14-006", "scene_key": "live-karachi-2026-02-14", "scene_kind": "live", "scene_id": "S2C_MSIL2A_20260214T060941_R134_T42RTN_20260214T085315", "region": "karachi", "title": "Карачи (порт, устье Лиари) · зона 6", "mission": "Sentinel-2", "datetime": "2026-02-14T06:09:41.025000Z", "detection_status": "detected", "status": "detected", "concentration_status": "unavailable", "quantity": {"status": "not_confirmed", "label": "концентрация по снимку не подтверждена", "detail": "перевод площади в штуки не показываем: нет калибровочных пар (см. docs/QUANTITY.md)"}, "verification": "unverified", "training_scene": null, "flags": [], "n_cozar_filaments": 0, "crop_file": "crops/SZ-live-karachi-2026-02-14-006.jpg", "measured": {"zone_area_km2": 0.134, "suspicious_area_m2": 600, "n_pixels": 6, "n_objects": 3, "water_km2": 0.1366, "lwd_m2_km2": 4392.4, "quality": {"valid_water_fraction": 1.0, "cloud_fraction": 0.0, "glint_fraction": 0.0}, "model": {"weights": "weights/lgbm", "file": "weights/lgbm/model.txt", "sha256": "0eeebf43fcccd8c7c07f053b7ec723229d1a3c9b92d12eec1bdb269258c51470", "sha256_short": "0eeebf43fccc", "trained_at": "2026-09-25T01:35:55Z", "threshold": 0.63, "harmonize": "none", "class": "MARIDA Marine Debris (любой плавающий мусор, не только пластик)"}}, "probable": {"prob_max": 0.996, "prob_mean": 0.905, "signs": {"foam": {"flag": false, "white_ratio_b2_b8": 0.516, "wind10m_ms": 1.34, "rule": "прирост B2 над водой ≥ 0.8 прироста B8 («белый» спектр) или ветер ≥ 7.0 м/с"}, "glint": {"flag": false, "b11_water_median": 0.0071, "glint_share": 0.0, "rule": "медиана B11 воды зоны > 0.01 или ≥ 20 % пикселей зоны — блик (маска качества)"}, "ship": {"flag": false, "share": 0, "bright_target_px_within_500m": 0, "rule": "≥ 30 % пикселей — у яркой цели или кильватера (reports/artifacts.md) или яркая цель с откликом в SWIR (судно, лодка: B11 ≥ 0,015) ближе 500 м"}, "coast": {"flag": false, "land_px_within_300m": 0, "rule": "суша (маска качества) ближе 300 м — прибой, кромка берега"}, "shallow": {"flag": false, "b3_water_zone": 0.0193, "b3_ratio_to_scene_water": 0.98, "rule": "медиана B3 воды зоны ≥ 2× медианы воды снимка и ≥ 0,03 — мелководье или мутная вода"}, "seam": {"flag": false, "share": 0, "rule": "≥ 30 % пикселей — прямая линия вдоль трека/границы яркости (шов)"}, "cloud": {"flag": false, "cloud_fraction": 0.0, "rule": "облака или тени облаков (маска качества) ≥ 20 % зоны"}, "note": "эвристики, не классификатор; на размеченных данных не проверены"}, "n_cozar_filaments": 0}, "field_nearby": {"items": [{"source": "ADIS (4TU.ResearchData, судовая камера)", "segment_id": 335769, "ship": "Dallaporta", "date": "2023-04-09", "days_from_scene": -1042, "distance_km": 5172.1, "lon": 18.55051, "lat": 40.01099, "n_items": 1, "area_km2": 0.1613, "size_class": "> 5 см", "c_items_km2": 6.2, "ci95_lo": 0.16, "ci95_hi": 34.53, "ci95_method": "точный интервал Пуассона для N, делённый на A"}, {"source": "ADIS (4TU.ResearchData, судовая камера)", "segment_id": 335770, "ship": "Dallaporta", "date": "2023-04-09", "days_from_scene": -1042, "distance_km": 5172.6, "lon": 18.56195, "lat": 40.05698, "n_items": 0, "area_km2": 0.2555, "size_class": "> 5 см", "c_items_km2": 0.0, "ci95_lo": 0.0, "ci95_hi": 14.44, "ci95_method": "точный интервал Пуассона для N, делённый на A"}, {"source": "ADIS (4TU.ResearchData, судовая камера)", "segment_id": 335768, "ship": "Dallaporta", "date": "2023-04-09", "days_from_scene": -1042, "distance_km": 5172.7, "lon": 18.52174, "lat": 39.95216, "n_items": 4, "area_km2": 0.3999, "size_class": "> 5 см", "c_items_km2": 10.0, "ci95_lo": 2.73, "ci95_hi": 25.61, "ci95_method": "точный интервал Пуассона для N, делённый на A"}], "nearest_organizer_sample": {"sample_id": "MPL-0922", "source_id": "S4_BLACK_SEA_DOORS3", "distance_km": 3168.2}, "note": "Измерение ≠ оценка: это независимые полевые счёты C = N/A в другое время и в другом месте; со сценой они не связаны и не калибруют её. Ближайший отрезок ADIS — за 5172 км: только для порядка величин."}}}, {"type": "Feature", "id": "SZ-live-karachi-2026-02-14-007", "geometry": {"type": "Polygon", "coordinates": [[[67.00603, 24.757896], [67.004853, 24.757338], [67.004574, 24.756251], [67.005184, 24.755176], [67.006276, 24.75492], [67.007453, 24.755477], [67.007732, 24.756564], [67.007122, 24.757639], [67.00603, 24.757896]]]}, "properties": {"kind": "detection_zone", "layer_kind": "scene_zone", "zone_id": "SZ-live-karachi-2026-02-14-007", "scene_key": "live-karachi-2026-02-14", "scene_kind": "live", "scene_id": "S2C_MSIL2A_20260214T060941_R134_T42RTN_20260214T085315", "region": "karachi", "title": "Карачи (порт, устье Лиари) · зона 7", "mission": "Sentinel-2", "datetime": "2026-02-14T06:09:41.025000Z", "detection_status": "detected", "status": "detected", "concentration_status": "unavailable", "quantity": {"status": "not_confirmed", "label": "концентрация по снимку не подтверждена", "detail": "перевод площади в штуки не показываем: нет калибровочных пар (см. docs/QUANTITY.md)"}, "verification": "unverified", "training_scene": null, "flags": [], "n_cozar_filaments": 0, "crop_file": "crops/SZ-live-karachi-2026-02-14-007.jpg", "measured": {"zone_area_km2": 0.0771, "suspicious_area_m2": 600, "n_pixels": 6, "n_objects": 1, "water_km2": 0.0804, "lwd_m2_km2": 7462.7, "quality": {"valid_water_fraction": 1.0, "cloud_fraction": 0.0, "glint_fraction": 0.0}, "model": {"weights": "weights/lgbm", "file": "weights/lgbm/model.txt", "sha256": "0eeebf43fcccd8c7c07f053b7ec723229d1a3c9b92d12eec1bdb269258c51470", "sha256_short": "0eeebf43fccc", "trained_at": "2026-09-25T01:35:55Z", "threshold": 0.63, "harmonize": "none", "class": "MARIDA Marine Debris (любой плавающий мусор, не только пластик)"}}, "probable": {"prob_max": 0.996, "prob_mean": 0.92, "signs": {"foam": {"flag": false, "white_ratio_b2_b8": 0.414, "wind10m_ms": 1.34, "rule": "прирост B2 над водой ≥ 0.8 прироста B8 («белый» спектр) или ветер ≥ 7.0 м/с"}, "glint": {"flag": false, "b11_water_median": 0.0069, "glint_share": 0.0, "rule": "медиана B11 воды зоны > 0.01 или ≥ 20 % пикселей зоны — блик (маска качества)"}, "ship": {"flag": false, "share": 0, "bright_target_px_within_500m": 0, "rule": "≥ 30 % пикселей — у яркой цели или кильватера (reports/artifacts.md) или яркая цель с откликом в SWIR (судно, лодка: B11 ≥ 0,015) ближе 500 м"}, "coast": {"flag": false, "land_px_within_300m": 0, "rule": "суша (маска качества) ближе 300 м — прибой, кромка берега"}, "shallow": {"flag": false, "b3_water_zone": 0.0177, "b3_ratio_to_scene_water": 0.9, "rule": "медиана B3 воды зоны ≥ 2× медианы воды снимка и ≥ 0,03 — мелководье или мутная вода"}, "seam": {"flag": false, "share": 0, "rule": "≥ 30 % пикселей — прямая линия вдоль трека/границы яркости (шов)"}, "cloud": {"flag": false, "cloud_fraction": 0.0, "rule": "облака или тени облаков (маска качества) ≥ 20 % зоны"}, "note": "эвристики, не классификатор; на размеченных данных не проверены"}, "n_cozar_filaments": 0}, "field_nearby": {"items": [{"source": "ADIS (4TU.ResearchData, судовая камера)", "segment_id": 335769, "ship": "Dallaporta", "date": "2023-04-09", "days_from_scene": -1042, "distance_km": 5172.1, "lon": 18.55051, "lat": 40.01099, "n_items": 1, "area_km2": 0.1613, "size_class": "> 5 см", "c_items_km2": 6.2, "ci95_lo": 0.16, "ci95_hi": 34.53, "ci95_method": "точный интервал Пуассона для N, делённый на A"}, {"source": "ADIS (4TU.ResearchData, судовая камера)", "segment_id": 335770, "ship": "Dallaporta", "date": "2023-04-09", "days_from_scene": -1042, "distance_km": 5172.6, "lon": 18.56195, "lat": 40.05698, "n_items": 0, "area_km2": 0.2555, "size_class": "> 5 см", "c_items_km2": 0.0, "ci95_lo": 0.0, "ci95_hi": 14.44, "ci95_method": "точный интервал Пуассона для N, делённый на A"}, {"source": "ADIS (4TU.ResearchData, судовая камера)", "segment_id": 335768, "ship": "Dallaporta", "date": "2023-04-09", "days_from_scene": -1042, "distance_km": 5172.7, "lon": 18.52174, "lat": 39.95216, "n_items": 4, "area_km2": 0.3999, "size_class": "> 5 см", "c_items_km2": 10.0, "ci95_lo": 2.73, "ci95_hi": 25.61, "ci95_method": "точный интервал Пуассона для N, делённый на A"}], "nearest_organizer_sample": {"sample_id": "MPL-0922", "source_id": "S4_BLACK_SEA_DOORS3", "distance_km": 3168.2}, "note": "Измерение ≠ оценка: это независимые полевые счёты C = N/A в другое время и в другом месте; со сценой они не связаны и не калибруют её. Ближайший отрезок ADIS — за 5172 км: только для порядка величин."}}}]}