{"type": "FeatureCollection", "features": [{"type": "Feature", "id": "SZ-live-ganges-2026-01-13-001", "geometry": {"type": "Polygon", "coordinates": [[[88.1982, 21.529076], [88.197328, 21.528812], [88.196939, 21.528453], [88.196643, 21.527642], [88.196735, 21.527099], [88.197597, 21.52628], [88.199239, 21.526268], [88.200114, 21.527075], [88.200122, 21.528069], [88.199549, 21.528796], [88.1982, 21.529076]]]}, "properties": {"kind": "detection_zone", "layer_kind": "scene_zone", "zone_id": "SZ-live-ganges-2026-01-13-001", "scene_key": "live-ganges-2026-01-13", "scene_kind": "live", "scene_id": "S2B_MSIL2A_20260113T044039_R033_T45QXD_20260113T070956", "region": "ganges", "title": "Устье Хугли (дельта Ганга, остров Сагар) · зона 1", "mission": "Sentinel-2", "datetime": "2026-01-13T04:40:39.024000Z", "detection_status": "insufficient_data", "status": "insufficient_data", "concentration_status": "unavailable", "quantity": {"status": "not_confirmed", "label": "концентрация по снимку не подтверждена", "detail": "перевод площади в штуки не показываем: нет калибровочных пар (см. docs/QUANTITY.md)"}, "verification": "false_alarm_signs", "training_scene": null, "flags": ["ship", "seam"], "n_cozar_filaments": 0, "crop_file": "crops/SZ-live-ganges-2026-01-13-001.jpg", "wind_high": true, "measured": {"zone_area_km2": 0.0892, "suspicious_area_m2": 700, "n_pixels": 7, "n_objects": 2, "water_km2": 0.0907, "lwd_m2_km2": 7717.8, "lwd_note": "ветер ≥ 5 м/с: Cózar 2024 исключают такую воду из наблюдаемой площади (нити не формируются) — LWD не сравнимо с их значениями", "quality": {"valid_water_fraction": 1.0, "cloud_fraction": 0.0, "glint_fraction": 0.0}, "model": {"weights": "weights/lgbm", "file": "weights/lgbm/model.txt", "sha256": "0eeebf43fcccd8c7c07f053b7ec723229d1a3c9b92d12eec1bdb269258c51470", "sha256_short": "0eeebf43fccc", "trained_at": "2026-09-25T01:35:55Z", "threshold": 0.63, "harmonize": "none", "class": "MARIDA Marine Debris (любой плавающий мусор, не только пластик)"}}, "probable": {"prob_max": 0.871, "prob_mean": 0.76, "signs": {"foam": {"flag": false, "white_ratio_b2_b8": 0.263, "wind10m_ms": 5.79, "rule": "прирост B2 над водой ≥ 0.8 прироста B8 («белый» спектр) или ветер ≥ 7.0 м/с"}, "glint": {"flag": false, "b11_water_median": 0.0096, "glint_share": 0.0, "rule": "медиана B11 воды зоны > 0.01 или ≥ 20 % пикселей зоны — блик (маска качества)"}, "ship": {"flag": true, "share": 0, "bright_target_px_within_500m": 566, "rule": "≥ 30 % пикселей — у яркой цели или кильватера (reports/artifacts.md) или яркая цель с откликом в SWIR (судно, лодка: B11 ≥ 0,015) ближе 500 м"}, "coast": {"flag": false, "land_px_within_300m": 0, "rule": "суша (маска качества) ближе 300 м — прибой, кромка берега"}, "shallow": {"flag": false, "b3_water_zone": 0.0938, "b3_ratio_to_scene_water": 1.42, "rule": "медиана B3 воды зоны ≥ 2× медианы воды снимка и ≥ 0,03 — мелководье или мутная вода"}, "seam": {"flag": true, "share": 1.0, "rule": "≥ 30 % пикселей — прямая линия вдоль трека/границы яркости (шов)"}, "cloud": {"flag": false, "cloud_fraction": 0.0, "rule": "облака или тени облаков (маска качества) ≥ 20 % зоны"}, "note": "эвристики, не классификатор; на размеченных данных не проверены"}, "n_cozar_filaments": 0}, "field_nearby": {"items": [{"source": "ADIS (4TU.ResearchData, судовая камера)", "segment_id": 339924, "ship": "R/V Tinro", "date": "2022-02-07", "days_from_scene": -1436, "distance_km": 5730.3, "lon": 139.33376, "lat": 41.2048, "n_items": 0, "area_km2": 0.8103, "size_class": "> 5 см", "c_items_km2": 0.0, "ci95_lo": 0.0, "ci95_hi": 4.55, "ci95_method": "точный интервал Пуассона для N, делённый на A", "raw_10cm_items_km2": 0.0, "authors_cal_10cm_items_km2": 0.0, "authors_cal_10cm_lo95": null, "authors_cal_10cm_hi95": null}, {"source": "ADIS (4TU.ResearchData, судовая камера)", "segment_id": 339927, "ship": "R/V Tinro", "date": "2022-02-07", "days_from_scene": -1436, "distance_km": 5752.7, "lon": 139.59261, "lat": 41.14731, "n_items": 0, "area_km2": 0.8108, "size_class": "> 5 см", "c_items_km2": 0.0, "ci95_lo": 0.0, "ci95_hi": 4.55, "ci95_method": "точный интервал Пуассона для N, делённый на A", "raw_10cm_items_km2": 0.0, "authors_cal_10cm_items_km2": 0.0, "authors_cal_10cm_lo95": null, "authors_cal_10cm_hi95": null}, {"source": "ADIS (4TU.ResearchData, судовая камера)", "segment_id": 339928, "ship": "R/V Tinro", "date": "2022-02-07", "days_from_scene": -1436, "distance_km": 5762.7, "lon": 139.70705, "lat": 41.12296, "n_items": 0, "area_km2": 0.8112, "size_class": "> 5 см", "c_items_km2": 0.0, "ci95_lo": 0.0, "ci95_hi": 4.55, "ci95_method": "точный интервал Пуассона для N, делённый на A", "raw_10cm_items_km2": 0.0, "authors_cal_10cm_items_km2": 0.0, "authors_cal_10cm_lo95": null, "authors_cal_10cm_hi95": null}], "nearest_organizer_sample": {"sample_id": "MPL-0923", "source_id": "S4_BLACK_SEA_DOORS3", "distance_km": 5300.4}, "note": "Измерение ≠ оценка: это независимые полевые счёты C = N/A в другое время и в другом месте; со сценой они не связаны и не калибруют её. Ближайший отрезок ADIS — за 5730 км: только для порядка величин."}}}]}