{"type":"FeatureCollection","features":[{"type":"Feature","geometry":{"type":"Polygon","coordinates":[[[-69.890604,18.454932],[-69.890603,18.454751],[-69.890508,18.454752],[-69.890509,18.454932],[-69.890604,18.454932]]]},"properties":{"id":"santo_domingo_2025-12-30_lgbm_0","region":"santo_domingo","date":"2025-12-30","area_m2":200.0,"mean_prob":0.8412,"max_prob":0.8784,"model":"lgbm","n_px":2,"px_area_m2":100.0,"confirmed":false,"confirmed_by":null,"lon":-69.890556,"lat":18.454842}},{"type":"Feature","geometry":{"type":"Polygon","coordinates":[[[-69.892113,18.45375],[-69.892112,18.453569],[-69.892017,18.45357],[-69.892018,18.45375],[-69.892113,18.45375]]]},"properties":{"id":"santo_domingo_2025-12-30_lgbm_1","region":"santo_domingo","date":"2025-12-30","area_m2":200.0,"mean_prob":0.7784,"max_prob":0.8078,"model":"lgbm","n_px":2,"px_area_m2":100.0,"confirmed":false,"confirmed_by":null,"lon":-69.892065,"lat":18.45366}},{"type":"Feature","geometry":{"type":"Polygon","coordinates":[[[-69.881818,18.440423],[-69.881817,18.440242],[-69.881722,18.440242],[-69.881723,18.440423],[-69.881818,18.440423]]]},"properties":{"id":"santo_domingo_2025-12-30_lgbm_2","region":"santo_domingo","date":"2025-12-30","area_m2":200.0,"mean_prob":0.8451,"max_prob":0.8549,"model":"lgbm","n_px":2,"px_area_m2":100.0,"confirmed":false,"confirmed_by":null,"lon":-69.88177,"lat":18.440333}},{"type":"Feature","geometry":{"type":"Polygon","coordinates":[[[-69.902799,18.396403],[-69.902798,18.396222],[-69.902703,18.396222],[-69.902704,18.396403],[-69.902799,18.396403]]]},"properties":{"id":"santo_domingo_2025-12-30_lgbm_3","region":"santo_domingo","date":"2025-12-30","area_m2":200.0,"mean_prob":0.949,"max_prob":0.9765,"model":"lgbm","n_px":2,"px_area_m2":100.0,"confirmed":false,"confirmed_by":null,"lon":-69.902751,"lat":18.396312}},{"type":"Feature","geometry":{"type":"Polygon","coordinates":[[[-69.913183,18.39084],[-69.913182,18.39066],[-69.913087,18.39066],[-69.913088,18.39075],[-69.912993,18.390751],[-69.912993,18.390841],[-69.913183,18.39084]]]},"properties":{"id":"santo_domingo_2025-12-30_lgbm_4","region":"santo_domingo","date":"2025-12-30","area_m2":300.0,"mean_prob":0.8157,"max_prob":0.9686,"model":"lgbm","n_px":3,"px_area_m2":100.0,"confirmed":false,"confirmed_by":null,"lon":-69.913103,"lat":18.390765}},{"type":"Feature","geometry":{"type":"Polygon","coordinates":[[[-69.915451,18.390106],[-69.91545,18.389926],[-69.915355,18.389926],[-69.915356,18.390107],[-69.915451,18.390106]]]},"properties":{"id":"santo_domingo_2025-12-30_lgbm_5","region":"santo_domingo","date":"2025-12-30","area_m2":200.0,"mean_prob":0.8549,"max_prob":0.9569,"model":"lgbm","n_px":2,"px_area_m2":100.0,"confirmed":false,"confirmed_by":null,"lon":-69.915403,"lat":18.390016}},{"type":"Feature","geometry":{"type":"Polygon","coordinates":[[[-69.930592,18.38922],[-69.930591,18.389039],[-69.930496,18.389039],[-69.930497,18.38913],[-69.930402,18.38913],[-69.930403,18.38922],[-69.930592,18.38922]]]},"properties":{"id":"santo_domingo_2025-12-30_lgbm_6","region":"santo_domingo","date":"2025-12-30","area_m2":300.0,"mean_prob":0.8327,"max_prob":0.9843,"model":"lgbm","n_px":3,"px_area_m2":100.0,"confirmed":false,"confirmed_by":null,"lon":-69.930513,"lat":18.389145}},{"type":"Feature","geometry":{"type":"Polygon","coordinates":[[[-69.934189,18.389112],[-69.934188,18.388931],[-69.934093,18.388931],[-69.934094,18.389112],[-69.934189,18.389112]]]},"properties":{"id":"santo_domingo_2025-12-30_lgbm_7","region":"santo_domingo","date":"2025-12-30","area_m2":200.0,"mean_prob":0.898,"max_prob":0.9725,"model":"lgbm","n_px":2,"px_area_m2":100.0,"confirmed":false,"confirmed_by":null,"lon":-69.934141,"lat":18.389021}},{"type":"Feature","geometry":{"type":"Polygon","coordinates":[[[-69.9268,18.388154],[-69.926799,18.388063],[-69.926894,18.388063],[-69.926893,18.387972],[-69.926704,18.387973],[-69.926705,18.388154],[-69.9268,18.388154]]]},"properties":{"id":"santo_domingo_2025-12-30_lgbm_8","region":"santo_domingo","date":"2025-12-30","area_m2":300.0,"mean_prob":0.915,"max_prob":0.9294,"model":"lgbm","n_px":3,"px_area_m2":100.0,"confirmed":false,"confirmed_by":null,"lon":-69.926783,"lat":18.388048}},{"type":"Feature","geometry":{"type":"Polygon","coordinates":[[[-69.921545,18.307656],[-69.921544,18.307475],[-69.921639,18.307475],[-69.921638,18.307385],[-69.921544,18.307385],[-69.921544,18.307475],[-69.92145,18.307476],[-69.921451,18.307657],[-69.921545,18.307656]]]},"properties":{"id":"santo_domingo_2025-12-30_lgbm_9","region":"santo_domingo","date":"2025-12-30","area_m2":300.0,"mean_prob":0.8471,"max_prob":0.9098,"model":"lgbm","n_px":3,"px_area_m2":100.0,"confirmed":false,"confirmed_by":null,"lon":-69.921529,"lat":18.307521}},{"type":"Feature","geometry":{"type":"Polygon","coordinates":[[[-69.923516,18.304664],[-69.923515,18.304484],[-69.923421,18.304484],[-69.923422,18.304665],[-69.923516,18.304664]]]},"properties":{"id":"santo_domingo_2025-12-30_lgbm_10","region":"santo_domingo","date":"2025-12-30","area_m2":200.0,"mean_prob":0.9784,"max_prob":0.9922,"model":"lgbm","n_px":2,"px_area_m2":100.0,"confirmed":false,"confirmed_by":null,"lon":-69.923468,"lat":18.304574}},{"type":"Feature","geometry":{"type":"Polygon","coordinates":[[[-69.923702,18.30394],[-69.923701,18.30385],[-69.923796,18.30385],[-69.923795,18.303759],[-69.923606,18.30376],[-69.923607,18.303941],[-69.923702,18.30394]]]},"properties":{"id":"santo_domingo_2025-12-30_lgbm_11","region":"santo_domingo","date":"2025-12-30","area_m2":300.0,"mean_prob":0.881,"max_prob":0.9922,"model":"lgbm","n_px":3,"px_area_m2":100.0,"confirmed":false,"confirmed_by":null,"lon":-69.923685,"lat":18.303835}}]}