{"type": "FeatureCollection", "features": [{"type": "Feature", "id": "D-SZ-live-nile-2026-01-05-001-9", "geometry": {"type": "Polygon", "coordinates": [[[30.2820923, 31.4485321], [30.2820975, 31.4483518], [30.2822026, 31.4483541], [30.2821974, 31.4485343], [30.2820923, 31.4485321]]]}, "properties": {"kind": "detection", "det_id": "D-SZ-live-nile-2026-01-05-001-9", "zone_id": "SZ-live-nile-2026-01-05-001", "scene_id": "S2B_MSIL2A_20260105T084239_R064_T36RTV_20260105T123702", "datetime": "2026-01-05T08:42:39.024000Z", "n_pixels": 2, "area_m2": 200, "prob_max": 0.8667, "prob_mean": 0.8216, "threshold": 0.63, "in_strip": true, "artifact": null}}, {"type": "Feature", "id": "D-SZ-live-nile-2026-01-05-001-10", "geometry": {"type": "Polygon", "coordinates": [[[30.2828959, 31.4462045], [30.2829011, 31.4460242], [30.2830062, 31.4460265], [30.283001, 31.4462067], [30.2828959, 31.4462045]]]}, "properties": {"kind": "detection", "det_id": "D-SZ-live-nile-2026-01-05-001-10", "zone_id": "SZ-live-nile-2026-01-05-001", "scene_id": "S2B_MSIL2A_20260105T084239_R064_T36RTV_20260105T123702", "datetime": "2026-01-05T08:42:39.024000Z", "n_pixels": 2, "area_m2": 200, "prob_max": 0.9373, "prob_mean": 0.8765, "threshold": 0.63, "in_strip": true, "artifact": null}}, {"type": "Feature", "id": "D-SZ-live-nile-2026-01-05-001-11", "geometry": {"type": "Polygon", "coordinates": [[[30.2781705, 31.4459237], [30.2781731, 31.4458336], [30.2783834, 31.4458381], [30.2783808, 31.4459282], [30.2781705, 31.4459237]]]}, "properties": {"kind": "detection", "det_id": "D-SZ-live-nile-2026-01-05-001-11", "zone_id": "SZ-live-nile-2026-01-05-001", "scene_id": "S2B_MSIL2A_20260105T084239_R064_T36RTV_20260105T123702", "datetime": "2026-01-05T08:42:39.024000Z", "n_pixels": 2, "area_m2": 200, "prob_max": 0.9255, "prob_mean": 0.8549, "threshold": 0.63, "in_strip": true, "artifact": null}}, {"type": "Feature", "id": "D-SZ-live-nile-2026-01-05-001-12", "geometry": {"type": "Polygon", "coordinates": [[[30.2806352, 31.4443529], [30.2806405, 31.4441726], [30.2807456, 31.4441749], [30.2807404, 31.4443551], [30.2806352, 31.4443529]]]}, "properties": {"kind": "detection", "det_id": "D-SZ-live-nile-2026-01-05-001-12", "zone_id": "SZ-live-nile-2026-01-05-001", "scene_id": "S2B_MSIL2A_20260105T084239_R064_T36RTV_20260105T123702", "datetime": "2026-01-05T08:42:39.024000Z", "n_pixels": 2, "area_m2": 200, "prob_max": 0.8314, "prob_mean": 0.7412, "threshold": 0.63, "in_strip": true, "artifact": null}}, {"type": "Feature", "id": "D-SZ-live-nile-2026-01-05-001-13", "geometry": {"type": "Polygon", "coordinates": [[[30.2838149, 31.4435186], [30.2838175, 31.4434285], [30.2839226, 31.4434307], [30.2839252, 31.4433406], [30.2841355, 31.443345], [30.2841329, 31.4434352], [30.2840278, 31.4434329], [30.2840252, 31.4435231], [30.2838149, 31.4435186]]]}, "properties": {"kind": "detection", "det_id": "D-SZ-live-nile-2026-01-05-001-13", "zone_id": "SZ-live-nile-2026-01-05-001", "scene_id": "S2B_MSIL2A_20260105T084239_R064_T36RTV_20260105T123702", "datetime": "2026-01-05T08:42:39.024000Z", "n_pixels": 4, "area_m2": 400, "prob_max": 0.8706, "prob_mean": 0.7941, "threshold": 0.63, "in_strip": true, "artifact": null}}]}