{"type": "FeatureCollection", "features": [{"type": "Feature", "id": "SZ-live-nile-2026-01-05-001", "geometry": {"type": "Polygon", "coordinates": [[[30.282053, 31.449884], [30.281115, 31.449593], [30.280515, 31.448499], [30.280859, 31.447514], [30.281713, 31.447081], [30.281319, 31.446171], [30.281442, 31.445542], [30.280701, 31.445707], [30.279866, 31.445509], [30.279958, 31.445962], [30.279619, 31.446766], [30.27887, 31.447201], [30.278131, 31.447276], [30.276886, 31.446708], [30.276594, 31.44589], [30.276714, 31.445352], [30.277684, 31.444561], [30.279153, 31.444682], [30.279064, 31.444139], [30.279402, 31.443335], [30.28068, 31.442821], [30.281308, 31.442924], [30.28203, 31.443391], [30.282322, 31.444208], [30.282199, 31.444837], [30.282938, 31.444762], [30.283048, 31.444584], [30.28253, 31.444303], [30.282238, 31.443485], [30.282579, 31.442591], [30.283436, 31.442068], [30.284697, 31.442094], [30.28562, 31.442926], [30.285592, 31.443917], [30.28494, 31.444625], [30.283776, 31.44487], [30.284491, 31.445607], [30.28446, 31.446689], [30.283916, 31.447308], [30.283385, 31.447477], [30.28378, 31.448388], [30.283436, 31.449372], [30.282687, 31.449807], [30.282053, 31.449884]], [[30.281445, 31.445452], [30.281547, 31.445545], [30.28155, 31.445454], [30.281445, 31.445452]], [[30.282094, 31.444835], [30.282196, 31.444927], [30.282199, 31.444837], [30.282094, 31.444835]], [[30.283568, 31.444776], [30.283776, 31.44487], [30.283778, 31.44478], [30.283568, 31.444776]], [[30.283045, 31.444675], [30.283253, 31.444769], [30.283255, 31.444679], [30.283045, 31.444675]]]}, "properties": {"kind": "detection_zone", "layer_kind": "scene_zone", "zone_id": "SZ-live-nile-2026-01-05-001", "scene_key": "live-nile-2026-01-05", "scene_kind": "live", "scene_id": "S2B_MSIL2A_20260105T084239_R064_T36RTV_20260105T123702", "region": "nile", "title": "Дельта Нила (устье Розетты) · зона 1", "mission": "Sentinel-2", "datetime": "2026-01-05T08:42:39.024000Z", "detection_status": "insufficient_data", "status": "insufficient_data", "concentration_status": "unavailable", "quantity": {"status": "not_confirmed", "label": "концентрация по снимку не подтверждена", "detail": "перевод площади в штуки не показываем: нет калибровочных пар (см. docs/QUANTITY.md)"}, "verification": "false_alarm_signs", "training_scene": null, "flags": ["ship"], "n_cozar_filaments": 0, "crop_file": "crops/SZ-live-nile-2026-01-05-001.jpg", "wind_high": false, "measured": {"zone_area_km2": 0.3653, "suspicious_area_m2": 1200, "n_pixels": 12, "n_objects": 5, "water_km2": 0.3683, "lwd_m2_km2": 3258.2, "lwd_note": null, "quality": {"valid_water_fraction": 1.0, "cloud_fraction": 0.0, "glint_fraction": 0.0}, "model": {"weights": "weights/lgbm", "file": "weights/lgbm/model.txt", "sha256": "0eeebf43fcccd8c7c07f053b7ec723229d1a3c9b92d12eec1bdb269258c51470", "sha256_short": "0eeebf43fccc", "trained_at": "2026-09-25T01:35:55Z", "threshold": 0.63, "harmonize": "none", "class": "MARIDA Marine Debris (любой плавающий мусор, не только пластик)"}}, "probable": {"prob_max": 0.937, "prob_mean": 0.814, "signs": {"foam": {"flag": false, "white_ratio_b2_b8": 0.146, "wind10m_ms": 1.95, "rule": "прирост B2 над водой ≥ 0.8 прироста B8 («белый» спектр) или ветер ≥ 7.0 м/с"}, "glint": {"flag": false, "b11_water_median": 0.003, "glint_share": 0.0, "rule": "медиана B11 воды зоны > 0.01 или ≥ 20 % пикселей зоны — блик (маска качества)"}, "ship": {"flag": true, "share": 0, "bright_target_px_within_500m": 25, "rule": "≥ 30 % пикселей — у яркой цели или кильватера (reports/artifacts.md) или яркая цель с откликом в SWIR (судно, лодка: B11 ≥ 0,015) ближе 500 м, или малый яркий объект (≤ 40 пикс.) с B11 ≥ 0,01 ближе 500 м (лодка с кильватером)"}, "coast": {"flag": false, "land_px_within_300m": 0, "rule": "суша (маска качества) ближе 300 м — прибой, кромка берега"}, "shallow": {"flag": false, "b3_water_zone": 0.0544, "b3_ratio_to_scene_water": 1.05, "rule": "медиана B3 воды зоны ≥ 2× медианы воды снимка и ≥ 0,03, или B4 воды зоны ≥ 0,02 и (≥ 2× воды снимка или B8 ≥ 0,013) — мелководье, яркое дно, илистая банка"}, "seam": {"flag": false, "share": 0, "rule": "≥ 30 % пикселей — прямая линия вдоль трека/границы яркости (шов)"}, "cloud": {"flag": false, "cloud_fraction": 0.0, "rule": "облака или тени облаков (маска качества) ≥ 20 % зоны"}, "diag": {"dist_land_m": null, "dist_bright_m": 78, "n_bright_px_500m": 68, "b11_bright_max_500m": 0.0218, "b4_water_zone": 0.0213, "b8_water_zone": 0.0071, "b11_det_median": 0.0116, "b8_det_median": 0.0437, "water_scene_b3": 0.0518, "water_scene_b4": 0.0185, "n_det_px": 12, "n_obj": 5}, "note": "эвристики, не классификатор; на размеченных данных не проверены"}, "n_cozar_filaments": 0}, "field_nearby": {"items": [{"source": "ADIS (4TU.ResearchData, судовая камера)", "segment_id": 335682, "ship": "Gaia Blu", "date": "2023-12-05", "days_from_scene": -762, "distance_km": 1453.5, "lon": 17.96852, "lat": 39.18272, "n_items": 0, "area_km2": 0.4995, "size_class": "> 5 см", "c_items_km2": 0.0, "ci95_lo": 0.0, "ci95_hi": 7.39, "ci95_method": "точный интервал Пуассона для N, делённый на A", "raw_10cm_items_km2": 0.0, "authors_cal_10cm_items_km2": 0.0, "authors_cal_10cm_lo95": null, "authors_cal_10cm_hi95": null}, {"source": "ADIS (4TU.ResearchData, судовая камера)", "segment_id": 335764, "ship": "Dallaporta", "date": "2023-04-09", "days_from_scene": -1002, "distance_km": 1456.4, "lon": 18.32136, "lat": 39.62843, "n_items": 7, "area_km2": 0.3998, "size_class": "> 5 см", "c_items_km2": 17.51, "ci95_lo": 7.04, "ci95_hi": 36.08, "ci95_method": "точный интервал Пуассона для N, делённый на A", "raw_10cm_items_km2": 17.51, "authors_cal_10cm_items_km2": 61.23, "authors_cal_10cm_lo95": null, "authors_cal_10cm_hi95": null}, {"source": "ADIS (4TU.ResearchData, судовая камера)", "segment_id": 335763, "ship": "Dallaporta", "date": "2023-04-09", "days_from_scene": -1002, "distance_km": 1456.4, "lon": 18.25448, "lat": 39.555, "n_items": 0, "area_km2": 0.4, "size_class": "> 5 см", "c_items_km2": 0.0, "ci95_lo": 0.0, "ci95_hi": 9.22, "ci95_method": "точный интервал Пуассона для N, делённый на A", "raw_10cm_items_km2": 0.0, "authors_cal_10cm_items_km2": 0.0, "authors_cal_10cm_lo95": null, "authors_cal_10cm_hi95": null}], "nearest_organizer_sample": {"sample_id": "MPL-0932", "source_id": "S4_BLACK_SEA_DOORS3", "distance_km": 1215.3}, "note": "Измерение ≠ оценка: это независимые полевые счёты C = N/A в другое время и в другом месте; со сценой они не связаны и не калибруют её. Ближайший отрезок ADIS — за 1454 км: только для порядка величин."}}}]}