{"type": "FeatureCollection", "features": [{"type": "Feature", "id": "D-SZ-fresh-guanabara-2026-07-26-001-5", "geometry": {"type": "Polygon", "coordinates": [[[-43.1135793, -22.7160578], [-43.1135781, -22.7161481], [-43.1134807, -22.716147], [-43.113482, -22.7160567], [-43.1135793, -22.7160578]]]}, "properties": {"kind": "detection", "det_id": "D-SZ-fresh-guanabara-2026-07-26-001-5", "zone_id": "SZ-fresh-guanabara-2026-07-26-001", "scene_id": "S2B_MSIL2A_20260726T130249_R095_T23KPQ_20260726T152052", "datetime": "2026-07-26T13:02:49.024000Z", "n_pixels": 1, "area_m2": 100, "prob_max": 0.7804, "prob_mean": 0.7804, "threshold": 0.63, "in_strip": true, "artifact": "ship"}}, {"type": "Feature", "id": "D-SZ-fresh-guanabara-2026-07-26-001-6", "geometry": {"type": "Polygon", "coordinates": [[[-43.1135719, -22.7165996], [-43.1135706, -22.7166899], [-43.1134733, -22.7166887], [-43.1134746, -22.7165984], [-43.1135719, -22.7165996]]]}, "properties": {"kind": "detection", "det_id": "D-SZ-fresh-guanabara-2026-07-26-001-6", "zone_id": "SZ-fresh-guanabara-2026-07-26-001", "scene_id": "S2B_MSIL2A_20260726T130249_R095_T23KPQ_20260726T152052", "datetime": "2026-07-26T13:02:49.024000Z", "n_pixels": 1, "area_m2": 100, "prob_max": 0.6549, "prob_mean": 0.6549, "threshold": 0.63, "in_strip": true, "artifact": "ship"}}, {"type": "Feature", "id": "D-SZ-fresh-guanabara-2026-07-26-001-7", "geometry": {"type": "Polygon", "coordinates": [[[-43.1133748, -22.7167778], [-43.113371, -22.7170487], [-43.1132737, -22.7170476], [-43.1132774, -22.7167767], [-43.1133748, -22.7167778]]]}, "properties": {"kind": "detection", "det_id": "D-SZ-fresh-guanabara-2026-07-26-001-7", "zone_id": "SZ-fresh-guanabara-2026-07-26-001", "scene_id": "S2B_MSIL2A_20260726T130249_R095_T23KPQ_20260726T152052", "datetime": "2026-07-26T13:02:49.024000Z", "n_pixels": 3, "area_m2": 300, "prob_max": 0.8824, "prob_mean": 0.8719, "threshold": 0.63, "in_strip": true, "artifact": null}}, {"type": "Feature", "id": "D-SZ-fresh-guanabara-2026-07-26-001-8", "geometry": {"type": "Polygon", "coordinates": [[[-43.1130754, -22.7173161], [-43.1130741, -22.7174064], [-43.1129768, -22.7174053], [-43.112978, -22.717315], [-43.1130754, -22.7173161]]]}, "properties": {"kind": "detection", "det_id": "D-SZ-fresh-guanabara-2026-07-26-001-8", "zone_id": "SZ-fresh-guanabara-2026-07-26-001", "scene_id": "S2B_MSIL2A_20260726T130249_R095_T23KPQ_20260726T152052", "datetime": "2026-07-26T13:02:49.024000Z", "n_pixels": 1, "area_m2": 100, "prob_max": 0.7804, "prob_mean": 0.7804, "threshold": 0.63, "in_strip": true, "artifact": null}}, {"type": "Feature", "id": "D-SZ-fresh-guanabara-2026-07-26-002-9", "geometry": {"type": "Polygon", "coordinates": [[[-43.0376075, -22.7194778], [-43.0376049, -22.7196583], [-43.0375076, -22.7196571], [-43.0375101, -22.7194766], [-43.0376075, -22.7194778]]]}, "properties": {"kind": "detection", "det_id": "D-SZ-fresh-guanabara-2026-07-26-002-9", "zone_id": "SZ-fresh-guanabara-2026-07-26-002", "scene_id": "S2B_MSIL2A_20260726T130249_R095_T23KPQ_20260726T152052", "datetime": "2026-07-26T13:02:49.024000Z", "n_pixels": 2, "area_m2": 200, "prob_max": 0.8627, "prob_mean": 0.8353, "threshold": 0.63, "in_strip": true, "artifact": null}}, {"type": "Feature", "id": "D-SZ-fresh-guanabara-2026-07-26-002-10", "geometry": {"type": "Polygon", "coordinates": [[[-43.0381837, -22.7200266], [-43.0381811, -22.7202072], [-43.0379864, -22.7202048], [-43.0379877, -22.7201145], [-43.0378904, -22.7201133], [-43.0378917, -22.7200231], [-43.0381837, -22.7200266]]]}, "properties": {"kind": "detection", "det_id": "D-SZ-fresh-guanabara-2026-07-26-002-10", "zone_id": "SZ-fresh-guanabara-2026-07-26-002", "scene_id": "S2B_MSIL2A_20260726T130249_R095_T23KPQ_20260726T152052", "datetime": "2026-07-26T13:02:49.024000Z", "n_pixels": 5, "area_m2": 500, "prob_max": 1.0, "prob_mean": 0.9231, "threshold": 0.63, "in_strip": true, "artifact": null}}, {"type": "Feature", "id": "D-SZ-fresh-guanabara-2026-07-26-002-12", "geometry": {"type": "Polygon", "coordinates": [[[-43.0379852, -22.7202951], [-43.0379839, -22.7203854], [-43.0377892, -22.720383], [-43.0377905, -22.7202927], [-43.0379852, -22.7202951]]]}, "properties": {"kind": "detection", "det_id": "D-SZ-fresh-guanabara-2026-07-26-002-12", "zone_id": "SZ-fresh-guanabara-2026-07-26-002", "scene_id": "S2B_MSIL2A_20260726T130249_R095_T23KPQ_20260726T152052", "datetime": "2026-07-26T13:02:49.024000Z", "n_pixels": 2, "area_m2": 200, "prob_max": 0.9765, "prob_mean": 0.9627, "threshold": 0.63, "in_strip": true, "artifact": null}}, {"type": "Feature", "id": "D-SZ-fresh-guanabara-2026-07-26-002-13", "geometry": {"type": "Polygon", "coordinates": [[[-43.0381785, -22.7203878], [-43.0381772, -22.7204781], [-43.0380799, -22.7204769], [-43.0380812, -22.7203866], [-43.0381785, -22.7203878]]]}, "properties": {"kind": "detection", "det_id": "D-SZ-fresh-guanabara-2026-07-26-002-13", "zone_id": "SZ-fresh-guanabara-2026-07-26-002", "scene_id": "S2B_MSIL2A_20260726T130249_R095_T23KPQ_20260726T152052", "datetime": "2026-07-26T13:02:49.024000Z", "n_pixels": 1, "area_m2": 100, "prob_max": 0.749, "prob_mean": 0.749, "threshold": 0.63, "in_strip": true, "artifact": null}}, {"type": "Feature", "id": "D-SZ-fresh-guanabara-2026-07-26-003-11", "geometry": {"type": "Polygon", "coordinates": [[[-43.1140939, -22.7211209], [-43.1140927, -22.7212112], [-43.1139954, -22.72121], [-43.1139966, -22.7211197], [-43.1140939, -22.7211209]]]}, "properties": {"kind": "detection", "det_id": "D-SZ-fresh-guanabara-2026-07-26-003-11", "zone_id": "SZ-fresh-guanabara-2026-07-26-003", "scene_id": "S2B_MSIL2A_20260726T130249_R095_T23KPQ_20260726T152052", "datetime": "2026-07-26T13:02:49.024000Z", "n_pixels": 1, "area_m2": 100, "prob_max": 0.7529, "prob_mean": 0.7529, "threshold": 0.63, "in_strip": true, "artifact": "ship"}}, {"type": "Feature", "id": "D-SZ-fresh-guanabara-2026-07-26-003-14", "geometry": {"type": "Polygon", "coordinates": [[[-43.1135714, -22.7237335], [-43.1135702, -22.7238238], [-43.1134728, -22.7238226], [-43.1134741, -22.7237324], [-43.1135714, -22.7237335]]]}, "properties": {"kind": "detection", "det_id": "D-SZ-fresh-guanabara-2026-07-26-003-14", "zone_id": "SZ-fresh-guanabara-2026-07-26-003", "scene_id": "S2B_MSIL2A_20260726T130249_R095_T23KPQ_20260726T152052", "datetime": "2026-07-26T13:02:49.024000Z", "n_pixels": 1, "area_m2": 100, "prob_max": 0.9961, "prob_mean": 0.9961, "threshold": 0.63, "in_strip": true, "artifact": null}}, {"type": "Feature", "id": "D-SZ-fresh-guanabara-2026-07-26-003-15", "geometry": {"type": "Polygon", "coordinates": [[[-43.1134629, -22.7245449], [-43.1134592, -22.7248158], [-43.1133619, -22.7248147], [-43.1133656, -22.7245438], [-43.1134629, -22.7245449]]]}, "properties": {"kind": "detection", "det_id": "D-SZ-fresh-guanabara-2026-07-26-003-15", "zone_id": "SZ-fresh-guanabara-2026-07-26-003", "scene_id": "S2B_MSIL2A_20260726T130249_R095_T23KPQ_20260726T152052", "datetime": "2026-07-26T13:02:49.024000Z", "n_pixels": 3, "area_m2": 300, "prob_max": 1.0, "prob_mean": 0.9072, "threshold": 0.63, "in_strip": true, "artifact": null}}, {"type": "Feature", "id": "D-SZ-fresh-guanabara-2026-07-26-004-17", "geometry": {"type": "Polygon", "coordinates": [[[-43.2063785, -22.7284142], [-43.2063773, -22.7285045], [-43.2060853, -22.7285012], [-43.2060865, -22.7284109], [-43.2063785, -22.7284142]]]}, "properties": {"kind": "detection", "det_id": "D-SZ-fresh-guanabara-2026-07-26-004-17", "zone_id": "SZ-fresh-guanabara-2026-07-26-004", "scene_id": "S2B_MSIL2A_20260726T130249_R095_T23KPQ_20260726T152052", "datetime": "2026-07-26T13:02:49.024000Z", "n_pixels": 3, "area_m2": 300, "prob_max": 0.7765, "prob_mean": 0.6915, "threshold": 0.63, "in_strip": true, "artifact": null}}, {"type": "Feature", "id": "D-SZ-fresh-guanabara-2026-07-26-004-19", "geometry": {"type": "Polygon", "coordinates": [[[-43.2046134, -22.7293877], [-43.2046111, -22.7295683], [-43.2044164, -22.7295661], [-43.2044176, -22.7294758], [-43.2043203, -22.7294747], [-43.2043214, -22.7293845], [-43.2046134, -22.7293877]]]}, "properties": {"kind": "detection", "det_id": "D-SZ-fresh-guanabara-2026-07-26-004-19", "zone_id": "SZ-fresh-guanabara-2026-07-26-004", "scene_id": "S2B_MSIL2A_20260726T130249_R095_T23KPQ_20260726T152052", "datetime": "2026-07-26T13:02:49.024000Z", "n_pixels": 5, "area_m2": 500, "prob_max": 0.9843, "prob_mean": 0.931, "threshold": 0.63, "in_strip": true, "artifact": null}}, {"type": "Feature", "id": "D-SZ-fresh-guanabara-2026-07-26-004-21", "geometry": {"type": "Polygon", "coordinates": [[[-43.2053886, -22.7296674], [-43.2053874, -22.7297577], [-43.2052901, -22.7297566], [-43.2052913, -22.7296663], [-43.2053886, -22.7296674]]]}, "properties": {"kind": "detection", "det_id": "D-SZ-fresh-guanabara-2026-07-26-004-21", "zone_id": "SZ-fresh-guanabara-2026-07-26-004", "scene_id": "S2B_MSIL2A_20260726T130249_R095_T23KPQ_20260726T152052", "datetime": "2026-07-26T13:02:49.024000Z", "n_pixels": 1, "area_m2": 100, "prob_max": 0.8471, "prob_mean": 0.8471, "threshold": 0.63, "in_strip": true, "artifact": "ship"}}, {"type": "Feature", "id": "D-SZ-fresh-guanabara-2026-07-26-004-22", "geometry": {"type": "Polygon", "coordinates": [[[-43.2051939, -22.7296652], [-43.2051928, -22.7297555], [-43.2050954, -22.7297544], [-43.2050966, -22.7296641], [-43.2051939, -22.7296652]]]}, "properties": {"kind": "detection", "det_id": "D-SZ-fresh-guanabara-2026-07-26-004-22", "zone_id": "SZ-fresh-guanabara-2026-07-26-004", "scene_id": "S2B_MSIL2A_20260726T130249_R095_T23KPQ_20260726T152052", "datetime": "2026-07-26T13:02:49.024000Z", "n_pixels": 1, "area_m2": 100, "prob_max": 0.7137, "prob_mean": 0.7137, "threshold": 0.63, "in_strip": true, "artifact": "ship"}}, {"type": "Feature", "id": "D-SZ-fresh-guanabara-2026-07-26-005-30", "geometry": {"type": "Polygon", "coordinates": [[[-43.0328819, -22.7436201], [-43.0328806, -22.7437103], [-43.0327832, -22.7437091], [-43.0327845, -22.7436189], [-43.0328819, -22.7436201]]]}, "properties": {"kind": "detection", "det_id": "D-SZ-fresh-guanabara-2026-07-26-005-30", "zone_id": "SZ-fresh-guanabara-2026-07-26-005", "scene_id": "S2B_MSIL2A_20260726T130249_R095_T23KPQ_20260726T152052", "datetime": "2026-07-26T13:02:49.024000Z", "n_pixels": 1, "area_m2": 100, "prob_max": 0.851, "prob_mean": 0.851, "threshold": 0.63, "in_strip": true, "artifact": null}}, {"type": "Feature", "id": "D-SZ-fresh-guanabara-2026-07-26-005-32", "geometry": {"type": "Polygon", "coordinates": [[[-43.0350194, -22.7439173], [-43.0350181, -22.7440076], [-43.0351155, -22.7440088], [-43.0351142, -22.744099], [-43.0352115, -22.7441002], [-43.0352102, -22.7441905], [-43.0351129, -22.7441893], [-43.0351142, -22.744099], [-43.0349195, -22.7440966], [-43.0349208, -22.7440064], [-43.0347261, -22.744004], [-43.0347274, -22.7439137], [-43.0350194, -22.7439173]]]}, "properties": {"kind": "detection", "det_id": "D-SZ-fresh-guanabara-2026-07-26-005-32", "zone_id": "SZ-fresh-guanabara-2026-07-26-005", "scene_id": "S2B_MSIL2A_20260726T130249_R095_T23KPQ_20260726T152052", "datetime": "2026-07-26T13:02:49.024000Z", "n_pixels": 6, "area_m2": 600, "prob_max": 0.902, "prob_mean": 0.8007, "threshold": 0.63, "in_strip": true, "artifact": null}}, {"type": "Feature", "id": "D-SZ-fresh-guanabara-2026-07-26-006-41", "geometry": {"type": "Polygon", "coordinates": [[[-43.1573634, -22.7537739], [-43.1573622, -22.7538642], [-43.1574595, -22.7538653], [-43.1574583, -22.7539556], [-43.1572636, -22.7539534], [-43.157266, -22.7537728], [-43.1573634, -22.7537739]]]}, "properties": {"kind": "detection", "det_id": "D-SZ-fresh-guanabara-2026-07-26-006-41", "zone_id": "SZ-fresh-guanabara-2026-07-26-006", "scene_id": "S2B_MSIL2A_20260726T130249_R095_T23KPQ_20260726T152052", "datetime": "2026-07-26T13:02:49.024000Z", "n_pixels": 3, "area_m2": 300, "prob_max": 0.8157, "prob_mean": 0.7778, "threshold": 0.63, "in_strip": true, "artifact": null}}, {"type": "Feature", "id": "D-SZ-fresh-guanabara-2026-07-26-006-42", "geometry": {"type": "Polygon", "coordinates": [[[-43.1591925, -22.7553302], [-43.1591913, -22.7554205], [-43.1592886, -22.7554216], [-43.1592862, -22.7556022], [-43.1591889, -22.7556011], [-43.1591901, -22.7555108], [-43.1590927, -22.7555097], [-43.1590952, -22.7553291], [-43.1591925, -22.7553302]]]}, "properties": {"kind": "detection", "det_id": "D-SZ-fresh-guanabara-2026-07-26-006-42", "zone_id": "SZ-fresh-guanabara-2026-07-26-006", "scene_id": "S2B_MSIL2A_20260726T130249_R095_T23KPQ_20260726T152052", "datetime": "2026-07-26T13:02:49.024000Z", "n_pixels": 4, "area_m2": 400, "prob_max": 0.9529, "prob_mean": 0.8127, "threshold": 0.63, "in_strip": true, "artifact": null}}, {"type": "Feature", "id": "D-SZ-fresh-guanabara-2026-07-26-007-80", "geometry": {"type": "Polygon", "coordinates": [[[-43.2712416, -22.7881906], [-43.2712404, -22.7882809], [-43.2711431, -22.7882798], [-43.2711442, -22.7881895], [-43.2712416, -22.7881906]]]}, "properties": {"kind": "detection", "det_id": "D-SZ-fresh-guanabara-2026-07-26-007-80", "zone_id": "SZ-fresh-guanabara-2026-07-26-007", "scene_id": "S2B_MSIL2A_20260726T130249_R095_T23KPQ_20260726T152052", "datetime": "2026-07-26T13:02:49.024000Z", "n_pixels": 1, "area_m2": 100, "prob_max": 0.8941, "prob_mean": 0.8941, "threshold": 0.63, "in_strip": true, "artifact": null}}, {"type": "Feature", "id": "D-SZ-fresh-guanabara-2026-07-26-007-81", "geometry": {"type": "Polygon", "coordinates": [[[-43.2703629, -22.7883617], [-43.2703606, -22.7885423], [-43.2702632, -22.7885412], [-43.2702655, -22.7883606], [-43.2703629, -22.7883617]]]}, "properties": {"kind": "detection", "det_id": "D-SZ-fresh-guanabara-2026-07-26-007-81", "zone_id": "SZ-fresh-guanabara-2026-07-26-007", "scene_id": "S2B_MSIL2A_20260726T130249_R095_T23KPQ_20260726T152052", "datetime": "2026-07-26T13:02:49.024000Z", "n_pixels": 2, "area_m2": 200, "prob_max": 0.9255, "prob_mean": 0.8451, "threshold": 0.63, "in_strip": true, "artifact": null}}, {"type": "Feature", "id": "D-SZ-fresh-guanabara-2026-07-26-007-82", "geometry": {"type": "Polygon", "coordinates": [[[-43.2700684, -22.7885391], [-43.2700673, -22.7886294], [-43.2697751, -22.7886262], [-43.2697763, -22.7885359], [-43.2700684, -22.7885391]]]}, "properties": {"kind": "detection", "det_id": "D-SZ-fresh-guanabara-2026-07-26-007-82", "zone_id": "SZ-fresh-guanabara-2026-07-26-007", "scene_id": "S2B_MSIL2A_20260726T130249_R095_T23KPQ_20260726T152052", "datetime": "2026-07-26T13:02:49.024000Z", "n_pixels": 3, "area_m2": 300, "prob_max": 0.9176, "prob_mean": 0.8183, "threshold": 0.63, "in_strip": true, "artifact": null}}, {"type": "Feature", "id": "D-SZ-fresh-guanabara-2026-07-26-008-89", "geometry": {"type": "Polygon", "coordinates": [[[-43.1427741, -22.7957767], [-43.1427728, -22.7958669], [-43.1426755, -22.7958658], [-43.1426767, -22.7957755], [-43.1427741, -22.7957767]]]}, "properties": {"kind": "detection", "det_id": "D-SZ-fresh-guanabara-2026-07-26-008-89", "zone_id": "SZ-fresh-guanabara-2026-07-26-008", "scene_id": "S2B_MSIL2A_20260726T130249_R095_T23KPQ_20260726T152052", "datetime": "2026-07-26T13:02:49.024000Z", "n_pixels": 1, "area_m2": 100, "prob_max": 0.9216, "prob_mean": 0.9216, "threshold": 0.63, "in_strip": true, "artifact": null}}, {"type": "Feature", "id": "D-SZ-fresh-guanabara-2026-07-26-008-90", "geometry": {"type": "Polygon", "coordinates": [[[-43.143351, -22.7963252], [-43.1433498, -22.7964155], [-43.1432524, -22.7964144], [-43.1432536, -22.7963241], [-43.143351, -22.7963252]]]}, "properties": {"kind": "detection", "det_id": "D-SZ-fresh-guanabara-2026-07-26-008-90", "zone_id": "SZ-fresh-guanabara-2026-07-26-008", "scene_id": "S2B_MSIL2A_20260726T130249_R095_T23KPQ_20260726T152052", "datetime": "2026-07-26T13:02:49.024000Z", "n_pixels": 1, "area_m2": 100, "prob_max": 0.9608, "prob_mean": 0.9608, "threshold": 0.63, "in_strip": true, "artifact": null}}, {"type": "Feature", "id": "D-SZ-fresh-guanabara-2026-07-26-008-91", "geometry": {"type": "Polygon", "coordinates": [[[-43.1427667, -22.7963184], [-43.1427655, -22.7964087], [-43.1426681, -22.7964075], [-43.1426693, -22.7963173], [-43.1427667, -22.7963184]]]}, "properties": {"kind": "detection", "det_id": "D-SZ-fresh-guanabara-2026-07-26-008-91", "zone_id": "SZ-fresh-guanabara-2026-07-26-008", "scene_id": "S2B_MSIL2A_20260726T130249_R095_T23KPQ_20260726T152052", "datetime": "2026-07-26T13:02:49.024000Z", "n_pixels": 1, "area_m2": 100, "prob_max": 0.9804, "prob_mean": 0.9804, "threshold": 0.63, "in_strip": true, "artifact": null}}, {"type": "Feature", "id": "D-SZ-fresh-guanabara-2026-07-26-008-92", "geometry": {"type": "Polygon", "coordinates": [[[-43.142662, -22.796859], [-43.1426608, -22.7969493], [-43.1425634, -22.7969481], [-43.1425646, -22.7968579], [-43.142662, -22.796859]]]}, "properties": {"kind": "detection", "det_id": "D-SZ-fresh-guanabara-2026-07-26-008-92", "zone_id": "SZ-fresh-guanabara-2026-07-26-008", "scene_id": "S2B_MSIL2A_20260726T130249_R095_T23KPQ_20260726T152052", "datetime": "2026-07-26T13:02:49.024000Z", "n_pixels": 1, "area_m2": 100, "prob_max": 0.8471, "prob_mean": 0.8471, "threshold": 0.63, "in_strip": true, "artifact": null}}, {"type": "Feature", "id": "D-SZ-fresh-guanabara-2026-07-26-008-93", "geometry": {"type": "Polygon", "coordinates": [[[-43.1419742, -22.7973025], [-43.141973, -22.7973928], [-43.1418756, -22.7973917], [-43.1418768, -22.7973014], [-43.1419742, -22.7973025]]]}, "properties": {"kind": "detection", "det_id": "D-SZ-fresh-guanabara-2026-07-26-008-93", "zone_id": "SZ-fresh-guanabara-2026-07-26-008", "scene_id": "S2B_MSIL2A_20260726T130249_R095_T23KPQ_20260726T152052", "datetime": "2026-07-26T13:02:49.024000Z", "n_pixels": 1, "area_m2": 100, "prob_max": 0.9294, "prob_mean": 0.9294, "threshold": 0.63, "in_strip": true, "artifact": null}}, {"type": "Feature", "id": "D-SZ-fresh-guanabara-2026-07-26-008-94", "geometry": {"type": "Polygon", "coordinates": [[[-43.1429456, -22.7974944], [-43.1429444, -22.7975847], [-43.1427496, -22.7975824], [-43.1427508, -22.7974922], [-43.1429456, -22.7974944]]]}, "properties": {"kind": "detection", "det_id": "D-SZ-fresh-guanabara-2026-07-26-008-94", "zone_id": "SZ-fresh-guanabara-2026-07-26-008", "scene_id": "S2B_MSIL2A_20260726T130249_R095_T23KPQ_20260726T152052", "datetime": "2026-07-26T13:02:49.024000Z", "n_pixels": 2, "area_m2": 200, "prob_max": 0.8353, "prob_mean": 0.7353, "threshold": 0.63, "in_strip": true, "artifact": null}}, {"type": "Feature", "id": "D-SZ-fresh-guanabara-2026-07-26-008-95", "geometry": {"type": "Polygon", "coordinates": [[[-43.1422517, -22.7983894], [-43.1422504, -22.7984797], [-43.1421531, -22.7984785], [-43.1421543, -22.7983882], [-43.1422517, -22.7983894]]]}, "properties": {"kind": "detection", "det_id": "D-SZ-fresh-guanabara-2026-07-26-008-95", "zone_id": "SZ-fresh-guanabara-2026-07-26-008", "scene_id": "S2B_MSIL2A_20260726T130249_R095_T23KPQ_20260726T152052", "datetime": "2026-07-26T13:02:49.024000Z", "n_pixels": 1, "area_m2": 100, "prob_max": 0.9333, "prob_mean": 0.9333, "threshold": 0.63, "in_strip": true, "artifact": null}}, {"type": "Feature", "id": "D-SZ-fresh-guanabara-2026-07-26-009-114", "geometry": {"type": "Polygon", "coordinates": [[[-43.1648738, -22.811023], [-43.1648714, -22.8112036], [-43.164774, -22.8112025], [-43.1647764, -22.8110219], [-43.1648738, -22.811023]]]}, "properties": {"kind": "detection", "det_id": "D-SZ-fresh-guanabara-2026-07-26-009-114", "zone_id": "SZ-fresh-guanabara-2026-07-26-009", "scene_id": "S2B_MSIL2A_20260726T130249_R095_T23KPQ_20260726T152052", "datetime": "2026-07-26T13:02:49.024000Z", "n_pixels": 2, "area_m2": 200, "prob_max": 0.8431, "prob_mean": 0.7608, "threshold": 0.63, "in_strip": true, "artifact": "ship"}}, {"type": "Feature", "id": "D-SZ-fresh-guanabara-2026-07-26-009-116", "geometry": {"type": "Polygon", "coordinates": [[[-43.1660377, -22.8113976], [-43.1660352, -22.8115782], [-43.1659378, -22.8115771], [-43.1659403, -22.8113965], [-43.1660377, -22.8113976]]]}, "properties": {"kind": "detection", "det_id": "D-SZ-fresh-guanabara-2026-07-26-009-116", "zone_id": "SZ-fresh-guanabara-2026-07-26-009", "scene_id": "S2B_MSIL2A_20260726T130249_R095_T23KPQ_20260726T152052", "datetime": "2026-07-26T13:02:49.024000Z", "n_pixels": 2, "area_m2": 200, "prob_max": 0.9922, "prob_mean": 0.9686, "threshold": 0.63, "in_strip": true, "artifact": "ship"}}, {"type": "Feature", "id": "D-SZ-fresh-guanabara-2026-07-26-009-119", "geometry": {"type": "Polygon", "coordinates": [[[-43.167769, -22.813043], [-43.1677666, -22.8132236], [-43.1676692, -22.8132225], [-43.1676716, -22.8130419], [-43.167769, -22.813043]]]}, "properties": {"kind": "detection", "det_id": "D-SZ-fresh-guanabara-2026-07-26-009-119", "zone_id": "SZ-fresh-guanabara-2026-07-26-009", "scene_id": "S2B_MSIL2A_20260726T130249_R095_T23KPQ_20260726T152052", "datetime": "2026-07-26T13:02:49.024000Z", "n_pixels": 2, "area_m2": 200, "prob_max": 0.9176, "prob_mean": 0.8588, "threshold": 0.63, "in_strip": true, "artifact": null}}, {"type": "Feature", "id": "D-SZ-fresh-guanabara-2026-07-26-010-121", "geometry": {"type": "Polygon", "coordinates": [[[-43.1752576, -22.8139417], [-43.1752552, -22.8141223], [-43.1751578, -22.8141212], [-43.1751602, -22.8139406], [-43.1752576, -22.8139417]]]}, "properties": {"kind": "detection", "det_id": "D-SZ-fresh-guanabara-2026-07-26-010-121", "zone_id": "SZ-fresh-guanabara-2026-07-26-010", "scene_id": "S2B_MSIL2A_20260726T130249_R095_T23KPQ_20260726T152052", "datetime": "2026-07-26T13:02:49.024000Z", "n_pixels": 2, "area_m2": 200, "prob_max": 0.9961, "prob_mean": 0.9961, "threshold": 0.63, "in_strip": true, "artifact": null}}, {"type": "Feature", "id": "D-SZ-fresh-guanabara-2026-07-26-010-122", "geometry": {"type": "Polygon", "coordinates": [[[-43.1757374, -22.814489], [-43.1757361, -22.8145793], [-43.1756388, -22.8145782], [-43.17564, -22.8144879], [-43.1757374, -22.814489]]]}, "properties": {"kind": "detection", "det_id": "D-SZ-fresh-guanabara-2026-07-26-010-122", "zone_id": "SZ-fresh-guanabara-2026-07-26-010", "scene_id": "S2B_MSIL2A_20260726T130249_R095_T23KPQ_20260726T152052", "datetime": "2026-07-26T13:02:49.024000Z", "n_pixels": 1, "area_m2": 100, "prob_max": 0.6431, "prob_mean": 0.6431, "threshold": 0.63, "in_strip": true, "artifact": null}}, {"type": "Feature", "id": "D-SZ-fresh-guanabara-2026-07-26-010-123", "geometry": {"type": "Polygon", "coordinates": [[[-43.1749558, -22.8146607], [-43.1749546, -22.814751], [-43.1748572, -22.8147499], [-43.1748584, -22.8146596], [-43.1749558, -22.8146607]]]}, "properties": {"kind": "detection", "det_id": "D-SZ-fresh-guanabara-2026-07-26-010-123", "zone_id": "SZ-fresh-guanabara-2026-07-26-010", "scene_id": "S2B_MSIL2A_20260726T130249_R095_T23KPQ_20260726T152052", "datetime": "2026-07-26T13:02:49.024000Z", "n_pixels": 1, "area_m2": 100, "prob_max": 0.9216, "prob_mean": 0.9216, "threshold": 0.63, "in_strip": true, "artifact": "ship"}}, {"type": "Feature", "id": "D-SZ-fresh-guanabara-2026-07-26-010-124", "geometry": {"type": "Polygon", "coordinates": [[[-43.1754404, -22.8148468], [-43.1754391, -22.8149371], [-43.1753418, -22.814936], [-43.175343, -22.8148457], [-43.1754404, -22.8148468]]]}, "properties": {"kind": "detection", "det_id": "D-SZ-fresh-guanabara-2026-07-26-010-124", "zone_id": "SZ-fresh-guanabara-2026-07-26-010", "scene_id": "S2B_MSIL2A_20260726T130249_R095_T23KPQ_20260726T152052", "datetime": "2026-07-26T13:02:49.024000Z", "n_pixels": 1, "area_m2": 100, "prob_max": 0.8824, "prob_mean": 0.8824, "threshold": 0.63, "in_strip": true, "artifact": "ship"}}, {"type": "Feature", "id": "D-SZ-fresh-guanabara-2026-07-26-011-125", "geometry": {"type": "Polygon", "coordinates": [[[-43.0876432, -22.8170681], [-43.0876419, -22.8171584], [-43.0875446, -22.8171573], [-43.0875458, -22.817067], [-43.0876432, -22.8170681]]]}, "properties": {"kind": "detection", "det_id": "D-SZ-fresh-guanabara-2026-07-26-011-125", "zone_id": "SZ-fresh-guanabara-2026-07-26-011", "scene_id": "S2B_MSIL2A_20260726T130249_R095_T23KPQ_20260726T152052", "datetime": "2026-07-26T13:02:49.024000Z", "n_pixels": 1, "area_m2": 100, "prob_max": 0.851, "prob_mean": 0.851, "threshold": 0.63, "in_strip": true, "artifact": null}}, {"type": "Feature", "id": "D-SZ-fresh-guanabara-2026-07-26-011-126", "geometry": {"type": "Polygon", "coordinates": [[[-43.0866604, -22.8176884], [-43.0866579, -22.817869], [-43.0864631, -22.8178667], [-43.0864657, -22.8176861], [-43.0866604, -22.8176884]]]}, "properties": {"kind": "detection", "det_id": "D-SZ-fresh-guanabara-2026-07-26-011-126", "zone_id": "SZ-fresh-guanabara-2026-07-26-011", "scene_id": "S2B_MSIL2A_20260726T130249_R095_T23KPQ_20260726T152052", "datetime": "2026-07-26T13:02:49.024000Z", "n_pixels": 4, "area_m2": 400, "prob_max": 0.9412, "prob_mean": 0.8049, "threshold": 0.63, "in_strip": true, "artifact": null}}, {"type": "Feature", "id": "D-SZ-fresh-guanabara-2026-07-26-011-130", "geometry": {"type": "Polygon", "coordinates": [[[-43.0874207, -22.8190521], [-43.0874194, -22.8191424], [-43.087322, -22.8191412], [-43.0873233, -22.8190509], [-43.0874207, -22.8190521]]]}, "properties": {"kind": "detection", "det_id": "D-SZ-fresh-guanabara-2026-07-26-011-130", "zone_id": "SZ-fresh-guanabara-2026-07-26-011", "scene_id": "S2B_MSIL2A_20260726T130249_R095_T23KPQ_20260726T152052", "datetime": "2026-07-26T13:02:49.024000Z", "n_pixels": 1, "area_m2": 100, "prob_max": 0.9686, "prob_mean": 0.9686, "threshold": 0.63, "in_strip": true, "artifact": null}}, {"type": "Feature", "id": "D-SZ-fresh-guanabara-2026-07-26-011-131", "geometry": {"type": "Polygon", "coordinates": [[[-43.0864404, -22.8194918], [-43.0864392, -22.8195821], [-43.0863418, -22.8195809], [-43.0863405, -22.8196712], [-43.0862431, -22.8196701], [-43.0862456, -22.8194895], [-43.0864404, -22.8194918]]]}, "properties": {"kind": "detection", "det_id": "D-SZ-fresh-guanabara-2026-07-26-011-131", "zone_id": "SZ-fresh-guanabara-2026-07-26-011", "scene_id": "S2B_MSIL2A_20260726T130249_R095_T23KPQ_20260726T152052", "datetime": "2026-07-26T13:02:49.024000Z", "n_pixels": 3, "area_m2": 300, "prob_max": 0.902, "prob_mean": 0.8157, "threshold": 0.63, "in_strip": true, "artifact": null}}, {"type": "Feature", "id": "D-SZ-fresh-guanabara-2026-07-26-012-157", "geometry": {"type": "Polygon", "coordinates": [[[-43.120696, -22.857375], [-43.1206948, -22.8574653], [-43.1205974, -22.8574641], [-43.1205986, -22.8573738], [-43.120696, -22.857375]]]}, "properties": {"kind": "detection", "det_id": "D-SZ-fresh-guanabara-2026-07-26-012-157", "zone_id": "SZ-fresh-guanabara-2026-07-26-012", "scene_id": "S2B_MSIL2A_20260726T130249_R095_T23KPQ_20260726T152052", "datetime": "2026-07-26T13:02:49.024000Z", "n_pixels": 1, "area_m2": 100, "prob_max": 0.698, "prob_mean": 0.698, "threshold": 0.63, "in_strip": true, "artifact": null}}, {"type": "Feature", "id": "D-SZ-fresh-guanabara-2026-07-26-012-158", "geometry": {"type": "Polygon", "coordinates": [[[-43.1208871, -22.8576482], [-43.1208822, -22.8580093], [-43.1207848, -22.8580082], [-43.1207897, -22.857647], [-43.1208871, -22.8576482]]]}, "properties": {"kind": "detection", "det_id": "D-SZ-fresh-guanabara-2026-07-26-012-158", "zone_id": "SZ-fresh-guanabara-2026-07-26-012", "scene_id": "S2B_MSIL2A_20260726T130249_R095_T23KPQ_20260726T152052", "datetime": "2026-07-26T13:02:49.024000Z", "n_pixels": 4, "area_m2": 400, "prob_max": 0.8941, "prob_mean": 0.7882, "threshold": 0.63, "in_strip": true, "artifact": "ship"}}, {"type": "Feature", "id": "D-SZ-fresh-guanabara-2026-07-26-012-159", "geometry": {"type": "Polygon", "coordinates": [[[-43.121077, -22.8580116], [-43.1210745, -22.8581922], [-43.1209771, -22.858191], [-43.1209796, -22.8580105], [-43.121077, -22.8580116]]]}, "properties": {"kind": "detection", "det_id": "D-SZ-fresh-guanabara-2026-07-26-012-159", "zone_id": "SZ-fresh-guanabara-2026-07-26-012", "scene_id": "S2B_MSIL2A_20260726T130249_R095_T23KPQ_20260726T152052", "datetime": "2026-07-26T13:02:49.024000Z", "n_pixels": 2, "area_m2": 200, "prob_max": 0.9098, "prob_mean": 0.8588, "threshold": 0.63, "in_strip": true, "artifact": "ship"}}, {"type": "Feature", "id": "D-SZ-fresh-guanabara-2026-07-26-013-163", "geometry": {"type": "Polygon", "coordinates": [[[-43.148078, -22.8644688], [-43.1480755, -22.8646494], [-43.1479781, -22.8646482], [-43.1479806, -22.8644677], [-43.148078, -22.8644688]]]}, "properties": {"kind": "detection", "det_id": "D-SZ-fresh-guanabara-2026-07-26-013-163", "zone_id": "SZ-fresh-guanabara-2026-07-26-013", "scene_id": "S2B_MSIL2A_20260726T130249_R095_T23KPQ_20260726T152052", "datetime": "2026-07-26T13:02:49.024000Z", "n_pixels": 2, "area_m2": 200, "prob_max": 0.8706, "prob_mean": 0.798, "threshold": 0.63, "in_strip": true, "artifact": "ship"}}, {"type": "Feature", "id": "D-SZ-fresh-guanabara-2026-07-26-013-164", "geometry": {"type": "Polygon", "coordinates": [[[-43.1542904, -22.8662567], [-43.1542879, -22.8664373], [-43.1541905, -22.8664362], [-43.1541929, -22.8662556], [-43.1542904, -22.8662567]]]}, "properties": {"kind": "detection", "det_id": "D-SZ-fresh-guanabara-2026-07-26-013-164", "zone_id": "SZ-fresh-guanabara-2026-07-26-013", "scene_id": "S2B_MSIL2A_20260726T130249_R095_T23KPQ_20260726T152052", "datetime": "2026-07-26T13:02:49.024000Z", "n_pixels": 2, "area_m2": 200, "prob_max": 0.9098, "prob_mean": 0.8745, "threshold": 0.63, "in_strip": true, "artifact": null}}, {"type": "Feature", "id": "D-SZ-fresh-guanabara-2026-07-26-013-165", "geometry": {"type": "Polygon", "coordinates": [[[-43.1525317, -22.8665975], [-43.1525305, -22.8666878], [-43.152433, -22.8666867], [-43.1524343, -22.8665964], [-43.1525317, -22.8665975]]]}, "properties": {"kind": "detection", "det_id": "D-SZ-fresh-guanabara-2026-07-26-013-165", "zone_id": "SZ-fresh-guanabara-2026-07-26-013", "scene_id": "S2B_MSIL2A_20260726T130249_R095_T23KPQ_20260726T152052", "datetime": "2026-07-26T13:02:49.024000Z", "n_pixels": 1, "area_m2": 100, "prob_max": 0.8431, "prob_mean": 0.8431, "threshold": 0.63, "in_strip": true, "artifact": null}}, {"type": "Feature", "id": "D-SZ-fresh-guanabara-2026-07-26-013-166", "geometry": {"type": "Polygon", "coordinates": [[[-43.1522382, -22.8666844], [-43.152237, -22.8667747], [-43.1521395, -22.8667736], [-43.1521407, -22.8666833], [-43.1522382, -22.8666844]]]}, "properties": {"kind": "detection", "det_id": "D-SZ-fresh-guanabara-2026-07-26-013-166", "zone_id": "SZ-fresh-guanabara-2026-07-26-013", "scene_id": "S2B_MSIL2A_20260726T130249_R095_T23KPQ_20260726T152052", "datetime": "2026-07-26T13:02:49.024000Z", "n_pixels": 1, "area_m2": 100, "prob_max": 0.7333, "prob_mean": 0.7333, "threshold": 0.63, "in_strip": true, "artifact": null}}, {"type": "Feature", "id": "D-SZ-fresh-guanabara-2026-07-26-013-167", "geometry": {"type": "Polygon", "coordinates": [[[-43.1494114, -22.8667419], [-43.1494102, -22.8668322], [-43.1493128, -22.866831], [-43.149314, -22.8667407], [-43.1494114, -22.8667419]]]}, "properties": {"kind": "detection", "det_id": "D-SZ-fresh-guanabara-2026-07-26-013-167", "zone_id": "SZ-fresh-guanabara-2026-07-26-013", "scene_id": "S2B_MSIL2A_20260726T130249_R095_T23KPQ_20260726T152052", "datetime": "2026-07-26T13:02:49.024000Z", "n_pixels": 1, "area_m2": 100, "prob_max": 0.9529, "prob_mean": 0.9529, "threshold": 0.63, "in_strip": true, "artifact": null}}, {"type": "Feature", "id": "D-SZ-fresh-guanabara-2026-07-26-013-168", "geometry": {"type": "Polygon", "coordinates": [[[-43.1513552, -22.8671257], [-43.1513527, -22.8673063], [-43.1512553, -22.8673051], [-43.1512578, -22.8671246], [-43.1513552, -22.8671257]]]}, "properties": {"kind": "detection", "det_id": "D-SZ-fresh-guanabara-2026-07-26-013-168", "zone_id": "SZ-fresh-guanabara-2026-07-26-013", "scene_id": "S2B_MSIL2A_20260726T130249_R095_T23KPQ_20260726T152052", "datetime": "2026-07-26T13:02:49.024000Z", "n_pixels": 2, "area_m2": 200, "prob_max": 0.7882, "prob_mean": 0.7843, "threshold": 0.63, "in_strip": true, "artifact": null}}, {"type": "Feature", "id": "D-SZ-fresh-guanabara-2026-07-26-013-169", "geometry": {"type": "Polygon", "coordinates": [[[-43.1489108, -22.8677294], [-43.1489096, -22.8678197], [-43.1488122, -22.8678185], [-43.1488134, -22.8677282], [-43.1489108, -22.8677294]]]}, "properties": {"kind": "detection", "det_id": "D-SZ-fresh-guanabara-2026-07-26-013-169", "zone_id": "SZ-fresh-guanabara-2026-07-26-013", "scene_id": "S2B_MSIL2A_20260726T130249_R095_T23KPQ_20260726T152052", "datetime": "2026-07-26T13:02:49.024000Z", "n_pixels": 1, "area_m2": 100, "prob_max": 0.8941, "prob_mean": 0.8941, "threshold": 0.63, "in_strip": true, "artifact": null}}, {"type": "Feature", "id": "D-SZ-fresh-guanabara-2026-07-26-013-170", "geometry": {"type": "Polygon", "coordinates": [[[-43.1511444, -22.8682972], [-43.1511432, -22.8683875], [-43.1509483, -22.8683852], [-43.1509496, -22.8682949], [-43.1511444, -22.8682972]]]}, "properties": {"kind": "detection", "det_id": "D-SZ-fresh-guanabara-2026-07-26-013-170", "zone_id": "SZ-fresh-guanabara-2026-07-26-013", "scene_id": "S2B_MSIL2A_20260726T130249_R095_T23KPQ_20260726T152052", "datetime": "2026-07-26T13:02:49.024000Z", "n_pixels": 2, "area_m2": 200, "prob_max": 0.9647, "prob_mean": 0.8902, "threshold": 0.63, "in_strip": true, "artifact": "ship"}}, {"type": "Feature", "id": "D-SZ-fresh-guanabara-2026-07-26-013-171", "geometry": {"type": "Polygon", "coordinates": [[[-43.1528885, -22.8690399], [-43.1528872, -22.8691302], [-43.1526924, -22.8691279], [-43.1526936, -22.8690376], [-43.1528885, -22.8690399]]]}, "properties": {"kind": "detection", "det_id": "D-SZ-fresh-guanabara-2026-07-26-013-171", "zone_id": "SZ-fresh-guanabara-2026-07-26-013", "scene_id": "S2B_MSIL2A_20260726T130249_R095_T23KPQ_20260726T152052", "datetime": "2026-07-26T13:02:49.024000Z", "n_pixels": 2, "area_m2": 200, "prob_max": 0.9412, "prob_mean": 0.902, "threshold": 0.63, "in_strip": true, "artifact": null}}, {"type": "Feature", "id": "D-SZ-fresh-guanabara-2026-07-26-013-172", "geometry": {"type": "Polygon", "coordinates": [[[-43.1517107, -22.8696583], [-43.1517083, -22.8698389], [-43.1516108, -22.8698378], [-43.151612, -22.8697475], [-43.1515146, -22.8697463], [-43.1515158, -22.869656], [-43.1517107, -22.8696583]]]}, "properties": {"kind": "detection", "det_id": "D-SZ-fresh-guanabara-2026-07-26-013-172", "zone_id": "SZ-fresh-guanabara-2026-07-26-013", "scene_id": "S2B_MSIL2A_20260726T130249_R095_T23KPQ_20260726T152052", "datetime": "2026-07-26T13:02:49.024000Z", "n_pixels": 3, "area_m2": 300, "prob_max": 0.7882, "prob_mean": 0.7516, "threshold": 0.63, "in_strip": true, "artifact": null}}]}