{"type": "FeatureCollection", "features": [{"type": "Feature", "id": "SZ-fresh-guanabara-2026-07-26-001", "geometry": {"type": "Polygon", "coordinates": [[[-43.113598, -22.714704], [-43.114758, -22.715259], [-43.11503, -22.716707], [-43.114231, -22.718233], [-43.113543, -22.718676], [-43.112958, -22.71876], [-43.111798, -22.718204], [-43.111518, -22.717298], [-43.112325, -22.71523], [-43.113013, -22.714787], [-43.113598, -22.714704]]]}, "properties": {"kind": "detection_zone", "layer_kind": "scene_zone", "zone_id": "SZ-fresh-guanabara-2026-07-26-001", "scene_key": "fresh-guanabara-2026-07-26", "scene_kind": "fresh_s2", "scene_id": "S2B_MSIL2A_20260726T130249_R095_T23KPQ_20260726T152052", "region": "guanabara", "title": "Залив Гуанабара (Рио-де-Жанейро) · зона 1", "mission": "Sentinel-2", "datetime": "2026-07-26T13:02:49.024000Z", "detection_status": "insufficient_data", "status": "insufficient_data", "concentration_status": "unavailable", "quantity": {"status": "not_confirmed", "label": "концентрация по снимку не подтверждена", "detail": "перевод площади в штуки не показываем: нет калибровочных пар (см. docs/QUANTITY.md)"}, "verification": "false_alarm_signs", "training_scene": null, "flags": ["ship", "foam"], "n_cozar_filaments": 0, "crop_file": "crops/SZ-fresh-guanabara-2026-07-26-001.jpg", "wind_high": false, "measured": {"zone_area_km2": 0.1162, "suspicious_area_m2": 600, "n_pixels": 6, "n_objects": 4, "water_km2": 0.1173, "lwd_m2_km2": 5115.1, "lwd_note": null, "quality": {"valid_water_fraction": 1.0, "cloud_fraction": 0.0, "glint_fraction": 0.0}, "model": {"weights": "weights/lgbm", "file": "weights/lgbm/model.txt", "sha256": "0eeebf43fcccd8c7c07f053b7ec723229d1a3c9b92d12eec1bdb269258c51470", "sha256_short": "0eeebf43fccc", "trained_at": "2026-09-25T01:36:30Z", "threshold": 0.63, "harmonize": "none", "class": "MARIDA Marine Debris (любой плавающий мусор, не только пластик)"}}, "probable": {"prob_max": 0.882, "prob_mean": 0.805, "signs": {"foam": {"flag": true, "white_ratio_b2_b8": 1.019, "wind10m_ms": 1.06, "rule": "прирост B2 над водой ≥ 0.8 прироста B8 («белый» спектр) или ветер ≥ 7.0 м/с"}, "glint": {"flag": false, "b11_water_median": 0.0041, "glint_share": 0.0, "rule": "медиана B11 воды зоны > 0.01 или ≥ 20 % пикселей зоны — блик (маска качества)"}, "ship": {"flag": true, "share": 0.333, "bright_target_px_within_500m": 30, "rule": "≥ 30 % пикселей — у яркой цели или кильватера (reports/artifacts.md) или яркая цель с откликом в SWIR (судно, лодка: B11 ≥ 0,015) ближе 500 м, или малый яркий объект (≤ 40 пикс.) с B11 ≥ 0,01 ближе 500 м (лодка с кильватером)"}, "coast": {"flag": false, "land_px_within_300m": 0, "rule": "суша (маска качества) ближе 300 м — прибой, кромка берега"}, "shallow": {"flag": false, "b3_water_zone": 0.0277, "b3_ratio_to_scene_water": 1.53, "rule": "медиана B3 воды зоны ≥ 2× медианы воды снимка и ≥ 0,03, или B4 воды зоны ≥ 0,02 и (≥ 2× воды снимка или B8 ≥ 0,013) — мелководье, яркое дно, илистая банка"}, "seam": {"flag": false, "share": 0, "rule": "≥ 30 % пикселей — прямая линия вдоль трека/границы яркости (шов)"}, "cloud": {"flag": false, "cloud_fraction": 0.0, "rule": "облака или тени облаков (маска качества) ≥ 20 % зоны"}, "diag": {"dist_land_m": 1055, "dist_bright_m": 870, "n_bright_px_500m": 0, "b11_bright_max_500m": null, "b4_water_zone": 0.0186, "b8_water_zone": 0.0122, "b11_det_median": 0.0224, "b8_det_median": 0.0535, "water_scene_b3": 0.0181, "water_scene_b4": 0.0116, "n_det_px": 6, "n_obj": 4}, "note": "эвристики, не классификатор; на размеченных данных не проверены"}, "n_cozar_filaments": 0}, "field_nearby": {"items": [{"source": "ADIS (4TU.ResearchData, судовая камера)", "segment_id": 336436, "ship": "Bark Europa", "date": "2022-10-31", "days_from_scene": -1364, "distance_km": 347.4, "lon": -40.0369, "lat": -24.05508, "n_items": 0, "area_km2": 0.3704, "size_class": "> 5 см", "c_items_km2": 0.0, "ci95_lo": 0.0, "ci95_hi": 9.96, "ci95_method": "точный интервал Пуассона для N, делённый на A", "raw_10cm_items_km2": 0.0, "authors_cal_10cm_items_km2": 0.0, "authors_cal_10cm_lo95": null, "authors_cal_10cm_hi95": null}, {"source": "ADIS (4TU.ResearchData, судовая камера)", "segment_id": 336437, "ship": "Bark Europa", "date": "2022-10-31", "days_from_scene": -1364, "distance_km": 348.5, "lon": -40.06524, "lat": -24.14022, "n_items": 0, "area_km2": 0.3705, "size_class": "> 5 см", "c_items_km2": 0.0, "ci95_lo": 0.0, "ci95_hi": 9.96, "ci95_method": "точный интервал Пуассона для N, делённый на A", "raw_10cm_items_km2": 0.0, "authors_cal_10cm_items_km2": 0.0, "authors_cal_10cm_lo95": null, "authors_cal_10cm_hi95": null}, {"source": "ADIS (4TU.ResearchData, судовая камера)", "segment_id": 336438, "ship": "Bark Europa", "date": "2022-10-31", "days_from_scene": -1364, "distance_km": 349.7, "lon": -40.09594, "lat": -24.22453, "n_items": 0, "area_km2": 0.3702, "size_class": "> 5 см", "c_items_km2": 0.0, "ci95_lo": 0.0, "ci95_hi": 9.96, "ci95_method": "точный интервал Пуассона для N, делённый на A", "raw_10cm_items_km2": 0.0, "authors_cal_10cm_items_km2": 0.0, "authors_cal_10cm_lo95": null, "authors_cal_10cm_hi95": null}], "nearest_organizer_sample": {"sample_id": "MPL-0513", "source_id": "S2_SARGASSO_MSM41", "distance_km": 5301.6}, "note": "Измерение ≠ оценка: это независимые полевые счёты C = N/A в другое время и в другом месте; со сценой они не связаны и не калибруют её. Ближайший отрезок ADIS — за 347 км: только для порядка величин."}, "acquired_at": "2026-07-26T13:02:49.024000Z", "acquisition_date": "2026-07-26", "processed_at": "2026-09-26T20:18:54Z", "human_checked": false, "auto_label": "автоматически, не проверено человеком"}}, {"type": "Feature", "id": "SZ-fresh-guanabara-2026-07-26-002", "geometry": {"type": "Polygon", "coordinates": [[[-43.037627, -22.718123], [-43.038499, -22.718405], [-43.039553, -22.719592], [-43.039533, -22.720946], [-43.038646, -22.721748], [-43.038061, -22.721831], [-43.036898, -22.721456], [-43.036139, -22.720092], [-43.03605, -22.719459], [-43.036354, -22.71865], [-43.037042, -22.718207], [-43.037627, -22.718123]]]}, "properties": {"kind": "detection_zone", "layer_kind": "scene_zone", "zone_id": "SZ-fresh-guanabara-2026-07-26-002", "scene_key": "fresh-guanabara-2026-07-26", "scene_kind": "fresh_s2", "scene_id": "S2B_MSIL2A_20260726T130249_R095_T23KPQ_20260726T152052", "region": "guanabara", "title": "Залив Гуанабара (Рио-де-Жанейро) · зона 2", "mission": "Sentinel-2", "datetime": "2026-07-26T13:02:49.024000Z", "detection_status": "insufficient_data", "status": "insufficient_data", "concentration_status": "unavailable", "quantity": {"status": "not_confirmed", "label": "концентрация по снимку не подтверждена", "detail": "перевод площади в штуки не показываем: нет калибровочных пар (см. docs/QUANTITY.md)"}, "verification": "false_alarm_signs", "training_scene": null, "flags": ["ship"], "n_cozar_filaments": 0, "crop_file": "crops/SZ-fresh-guanabara-2026-07-26-002.jpg", "wind_high": false, "measured": {"zone_area_km2": 0.1108, "suspicious_area_m2": 1000, "n_pixels": 10, "n_objects": 4, "water_km2": 0.1111, "lwd_m2_km2": 9000.9, "lwd_note": null, "quality": {"valid_water_fraction": 1.0, "cloud_fraction": 0.0, "glint_fraction": 0.0}, "model": {"weights": "weights/lgbm", "file": "weights/lgbm/model.txt", "sha256": "0eeebf43fcccd8c7c07f053b7ec723229d1a3c9b92d12eec1bdb269258c51470", "sha256_short": "0eeebf43fccc", "trained_at": "2026-09-25T01:36:30Z", "threshold": 0.63, "harmonize": "none", "class": "MARIDA Marine Debris (любой плавающий мусор, не только пластик)"}}, "probable": {"prob_max": 1.0, "prob_mean": 0.896, "signs": {"foam": {"flag": false, "white_ratio_b2_b8": 0.63, "wind10m_ms": 1.06, "rule": "прирост B2 над водой ≥ 0.8 прироста B8 («белый» спектр) или ветер ≥ 7.0 м/с"}, "glint": {"flag": false, "b11_water_median": 0.0013, "glint_share": 0.0, "rule": "медиана B11 воды зоны > 0.01 или ≥ 20 % пикселей зоны — блик (маска качества)"}, "ship": {"flag": true, "share": 0, "bright_target_px_within_500m": 0, "rule": "≥ 30 % пикселей — у яркой цели или кильватера (reports/artifacts.md) или яркая цель с откликом в SWIR (судно, лодка: B11 ≥ 0,015) ближе 500 м, или малый яркий объект (≤ 40 пикс.) с B11 ≥ 0,01 ближе 500 м (лодка с кильватером)"}, "coast": {"flag": false, "land_px_within_300m": 0, "rule": "суша (маска качества) ближе 300 м — прибой, кромка берега"}, "shallow": {"flag": false, "b3_water_zone": 0.0237, "b3_ratio_to_scene_water": 1.31, "rule": "медиана B3 воды зоны ≥ 2× медианы воды снимка и ≥ 0,03, или B4 воды зоны ≥ 0,02 и (≥ 2× воды снимка или B8 ≥ 0,013) — мелководье, яркое дно, илистая банка"}, "seam": {"flag": false, "share": 0, "rule": "≥ 30 % пикселей — прямая линия вдоль трека/границы яркости (шов)"}, "cloud": {"flag": false, "cloud_fraction": 0.0, "rule": "облака или тени облаков (маска качества) ≥ 20 % зоны"}, "diag": {"dist_land_m": 461, "dist_bright_m": 441, "n_bright_px_500m": 4, "b11_bright_max_500m": 0.0158, "b4_water_zone": 0.0199, "b8_water_zone": 0.0155, "b11_det_median": 0.0052, "b8_det_median": 0.027, "water_scene_b3": 0.0181, "water_scene_b4": 0.0116, "n_det_px": 10, "n_obj": 4}, "note": "эвристики, не классификатор; на размеченных данных не проверены"}, "n_cozar_filaments": 0}, "field_nearby": {"items": [{"source": "ADIS (4TU.ResearchData, судовая камера)", "segment_id": 336436, "ship": "Bark Europa", "date": "2022-10-31", "days_from_scene": -1364, "distance_km": 347.4, "lon": -40.0369, "lat": -24.05508, "n_items": 0, "area_km2": 0.3704, "size_class": "> 5 см", "c_items_km2": 0.0, "ci95_lo": 0.0, "ci95_hi": 9.96, "ci95_method": "точный интервал Пуассона для N, делённый на A", "raw_10cm_items_km2": 0.0, "authors_cal_10cm_items_km2": 0.0, "authors_cal_10cm_lo95": null, "authors_cal_10cm_hi95": null}, {"source": "ADIS (4TU.ResearchData, судовая камера)", "segment_id": 336437, "ship": "Bark Europa", "date": "2022-10-31", "days_from_scene": -1364, "distance_km": 348.5, "lon": -40.06524, "lat": -24.14022, "n_items": 0, "area_km2": 0.3705, "size_class": "> 5 см", "c_items_km2": 0.0, "ci95_lo": 0.0, "ci95_hi": 9.96, "ci95_method": "точный интервал Пуассона для N, делённый на A", "raw_10cm_items_km2": 0.0, "authors_cal_10cm_items_km2": 0.0, "authors_cal_10cm_lo95": null, "authors_cal_10cm_hi95": null}, {"source": "ADIS (4TU.ResearchData, судовая камера)", "segment_id": 336438, "ship": "Bark Europa", "date": "2022-10-31", "days_from_scene": -1364, "distance_km": 349.7, "lon": -40.09594, "lat": -24.22453, "n_items": 0, "area_km2": 0.3702, "size_class": "> 5 см", "c_items_km2": 0.0, "ci95_lo": 0.0, "ci95_hi": 9.96, "ci95_method": "точный интервал Пуассона для N, делённый на A", "raw_10cm_items_km2": 0.0, "authors_cal_10cm_items_km2": 0.0, "authors_cal_10cm_lo95": null, "authors_cal_10cm_hi95": null}], "nearest_organizer_sample": {"sample_id": "MPL-0513", "source_id": "S2_SARGASSO_MSM41", "distance_km": 5301.6}, "note": "Измерение ≠ оценка: это независимые полевые счёты C = N/A в другое время и в другом месте; со сценой они не связаны и не калибруют её. Ближайший отрезок ADIS — за 347 км: только для порядка величин."}, "acquired_at": "2026-07-26T13:02:49.024000Z", "acquisition_date": "2026-07-26", "processed_at": "2026-09-26T20:18:54Z", "human_checked": false, "auto_label": "автоматически, не проверено человеком"}}, {"type": "Feature", "id": "SZ-fresh-guanabara-2026-07-26-003", "geometry": {"type": "Polygon", "coordinates": [[[-43.114113, -22.719767], [-43.115273, -22.720322], [-43.115553, -22.721228], [-43.114954, -22.722305], [-43.114075, -22.722475], [-43.11494, -22.723298], [-43.114816, -22.725283], [-43.11432, -22.72591], [-43.113343, -22.726169], [-43.112183, -22.725613], [-43.111906, -22.724527], [-43.112317, -22.722906], [-43.113005, -22.722463], [-43.113491, -22.722468], [-43.112627, -22.721645], [-43.11264, -22.720652], [-43.113136, -22.720026], [-43.114113, -22.719767]]]}, "properties": {"kind": "detection_zone", "layer_kind": "scene_zone", "zone_id": "SZ-fresh-guanabara-2026-07-26-003", "scene_key": "fresh-guanabara-2026-07-26", "scene_kind": "fresh_s2", "scene_id": "S2B_MSIL2A_20260726T130249_R095_T23KPQ_20260726T152052", "region": "guanabara", "title": "Залив Гуанабара (Рио-де-Жанейро) · зона 3", "mission": "Sentinel-2", "datetime": "2026-07-26T13:02:49.024000Z", "detection_status": "insufficient_data", "status": "insufficient_data", "concentration_status": "unavailable", "quantity": {"status": "not_confirmed", "label": "концентрация по снимку не подтверждена", "detail": "перевод площади в штуки не показываем: нет калибровочных пар (см. docs/QUANTITY.md)"}, "verification": "false_alarm_signs", "training_scene": null, "flags": ["ship", "foam"], "n_cozar_filaments": 0, "crop_file": "crops/SZ-fresh-guanabara-2026-07-26-003.jpg", "wind_high": false, "measured": {"zone_area_km2": 0.1702, "suspicious_area_m2": 500, "n_pixels": 5, "n_objects": 3, "water_km2": 0.1743, "lwd_m2_km2": 2868.6, "lwd_note": null, "quality": {"valid_water_fraction": 1.0, "cloud_fraction": 0.0, "glint_fraction": 0.0}, "model": {"weights": "weights/lgbm", "file": "weights/lgbm/model.txt", "sha256": "0eeebf43fcccd8c7c07f053b7ec723229d1a3c9b92d12eec1bdb269258c51470", "sha256_short": "0eeebf43fccc", "trained_at": "2026-09-25T01:36:30Z", "threshold": 0.63, "harmonize": "none", "class": "MARIDA Marine Debris (любой плавающий мусор, не только пластик)"}}, "probable": {"prob_max": 1.0, "prob_mean": 0.894, "signs": {"foam": {"flag": true, "white_ratio_b2_b8": 0.971, "wind10m_ms": 1.06, "rule": "прирост B2 над водой ≥ 0.8 прироста B8 («белый» спектр) или ветер ≥ 7.0 м/с"}, "glint": {"flag": false, "b11_water_median": 0.0037, "glint_share": 0.0, "rule": "медиана B11 воды зоны > 0.01 или ≥ 20 % пикселей зоны — блик (маска качества)"}, "ship": {"flag": true, "share": 0.2, "bright_target_px_within_500m": 16, "rule": "≥ 30 % пикселей — у яркой цели или кильватера (reports/artifacts.md) или яркая цель с откликом в SWIR (судно, лодка: B11 ≥ 0,015) ближе 500 м, или малый яркий объект (≤ 40 пикс.) с B11 ≥ 0,01 ближе 500 м (лодка с кильватером)"}, "coast": {"flag": false, "land_px_within_300m": 0, "rule": "суша (маска качества) ближе 300 м — прибой, кромка берега"}, "shallow": {"flag": false, "b3_water_zone": 0.0284, "b3_ratio_to_scene_water": 1.57, "rule": "медиана B3 воды зоны ≥ 2× медианы воды снимка и ≥ 0,03, или B4 воды зоны ≥ 0,02 и (≥ 2× воды снимка или B8 ≥ 0,013) — мелководье, яркое дно, илистая банка"}, "seam": {"flag": false, "share": 0, "rule": "≥ 30 % пикселей — прямая линия вдоль трека/границы яркости (шов)"}, "cloud": {"flag": false, "cloud_fraction": 0.0, "rule": "облака или тени облаков (маска качества) ≥ 20 % зоны"}, "diag": {"dist_land_m": null, "dist_bright_m": 979, "n_bright_px_500m": 0, "b11_bright_max_500m": null, "b4_water_zone": 0.0193, "b8_water_zone": 0.0117, "b11_det_median": 0.007, "b8_det_median": 0.0261, "water_scene_b3": 0.0181, "water_scene_b4": 0.0116, "n_det_px": 5, "n_obj": 3}, "note": "эвристики, не классификатор; на размеченных данных не проверены"}, "n_cozar_filaments": 0}, "field_nearby": {"items": [{"source": "ADIS (4TU.ResearchData, судовая камера)", "segment_id": 336436, "ship": "Bark Europa", "date": "2022-10-31", "days_from_scene": -1364, "distance_km": 347.4, "lon": -40.0369, "lat": -24.05508, "n_items": 0, "area_km2": 0.3704, "size_class": "> 5 см", "c_items_km2": 0.0, "ci95_lo": 0.0, "ci95_hi": 9.96, "ci95_method": "точный интервал Пуассона для N, делённый на A", "raw_10cm_items_km2": 0.0, "authors_cal_10cm_items_km2": 0.0, "authors_cal_10cm_lo95": null, "authors_cal_10cm_hi95": null}, {"source": "ADIS (4TU.ResearchData, судовая камера)", "segment_id": 336437, "ship": "Bark Europa", "date": "2022-10-31", "days_from_scene": -1364, "distance_km": 348.5, "lon": -40.06524, "lat": -24.14022, "n_items": 0, "area_km2": 0.3705, "size_class": "> 5 см", "c_items_km2": 0.0, "ci95_lo": 0.0, "ci95_hi": 9.96, "ci95_method": "точный интервал Пуассона для N, делённый на A", "raw_10cm_items_km2": 0.0, "authors_cal_10cm_items_km2": 0.0, "authors_cal_10cm_lo95": null, "authors_cal_10cm_hi95": null}, {"source": "ADIS (4TU.ResearchData, судовая камера)", "segment_id": 336438, "ship": "Bark Europa", "date": "2022-10-31", "days_from_scene": -1364, "distance_km": 349.7, "lon": -40.09594, "lat": -24.22453, "n_items": 0, "area_km2": 0.3702, "size_class": "> 5 см", "c_items_km2": 0.0, "ci95_lo": 0.0, "ci95_hi": 9.96, "ci95_method": "точный интервал Пуассона для N, делённый на A", "raw_10cm_items_km2": 0.0, "authors_cal_10cm_items_km2": 0.0, "authors_cal_10cm_lo95": null, "authors_cal_10cm_hi95": null}], "nearest_organizer_sample": {"sample_id": "MPL-0513", "source_id": "S2_SARGASSO_MSM41", "distance_km": 5301.6}, "note": "Измерение ≠ оценка: это независимые полевые счёты C = N/A в другое время и в другом месте; со сценой они не связаны и не калибруют её. Ближайший отрезок ADIS — за 347 км: только для порядка величин."}, "acquired_at": "2026-07-26T13:02:49.024000Z", "acquisition_date": "2026-07-26", "processed_at": "2026-09-26T20:18:54Z", "human_checked": false, "auto_label": "автоматически, не проверено человеком"}}, {"type": "Feature", "id": "SZ-fresh-guanabara-2026-07-26-004", "geometry": {"type": "Polygon", "coordinates": [[[-43.206396, -22.72706], [-43.207269, -22.72734], [-43.207839, -22.728431], [-43.207535, -22.72933], [-43.20675, -22.729773], [-43.206545, -22.730583], [-43.20537, -22.731112], [-43.203526, -22.73064], [-43.203142, -22.730274], [-43.20286, -22.729458], [-43.203164, -22.728559], [-43.203851, -22.728115], [-43.204727, -22.728125], [-43.205225, -22.727318], [-43.206396, -22.72706]]]}, "properties": {"kind": "detection_zone", "layer_kind": "scene_zone", "zone_id": "SZ-fresh-guanabara-2026-07-26-004", "scene_key": "fresh-guanabara-2026-07-26", "scene_kind": "fresh_s2", "scene_id": "S2B_MSIL2A_20260726T130249_R095_T23KPQ_20260726T152052", "region": "guanabara", "title": "Залив Гуанабара (Рио-де-Жанейро) · зона 4", "mission": "Sentinel-2", "datetime": "2026-07-26T13:02:49.024000Z", "detection_status": "insufficient_data", "status": "insufficient_data", "concentration_status": "unavailable", "quantity": {"status": "not_confirmed", "label": "концентрация по снимку не подтверждена", "detail": "перевод площади в штуки не показываем: нет калибровочных пар (см. docs/QUANTITY.md)"}, "verification": "false_alarm_signs", "training_scene": null, "flags": ["ship", "coast", "shallow", "foam"], "n_cozar_filaments": 0, "crop_file": "crops/SZ-fresh-guanabara-2026-07-26-004.jpg", "wind_high": false, "measured": {"zone_area_km2": 0.1508, "suspicious_area_m2": 1000, "n_pixels": 10, "n_objects": 4, "water_km2": 0.1108, "lwd_m2_km2": 9025.3, "lwd_note": null, "quality": {"valid_water_fraction": 0.722, "cloud_fraction": 0.089, "glint_fraction": 0.0}, "model": {"weights": "weights/lgbm", "file": "weights/lgbm/model.txt", "sha256": "0eeebf43fcccd8c7c07f053b7ec723229d1a3c9b92d12eec1bdb269258c51470", "sha256_short": "0eeebf43fccc", "trained_at": "2026-09-25T01:36:30Z", "threshold": 0.63, "harmonize": "none", "class": "MARIDA Marine Debris (любой плавающий мусор, не только пластик)"}}, "probable": {"prob_max": 0.984, "prob_mean": 0.829, "signs": {"foam": {"flag": true, "white_ratio_b2_b8": 0.953, "wind10m_ms": 1.06, "rule": "прирост B2 над водой ≥ 0.8 прироста B8 («белый» спектр) или ветер ≥ 7.0 м/с"}, "glint": {"flag": false, "b11_water_median": 0.0076, "glint_share": 0.0, "rule": "медиана B11 воды зоны > 0.01 или ≥ 20 % пикселей зоны — блик (маска качества)"}, "ship": {"flag": true, "share": 0.2, "bright_target_px_within_500m": 3255, "rule": "≥ 30 % пикселей — у яркой цели или кильватера (reports/artifacts.md) или яркая цель с откликом в SWIR (судно, лодка: B11 ≥ 0,015) ближе 500 м, или малый яркий объект (≤ 40 пикс.) с B11 ≥ 0,01 ближе 500 м (лодка с кильватером)"}, "coast": {"flag": true, "land_px_within_300m": 141, "rule": "суша (маска качества) ближе 300 м — прибой, кромка берега"}, "shallow": {"flag": true, "b3_water_zone": 0.043, "b3_ratio_to_scene_water": 2.38, "rule": "медиана B3 воды зоны ≥ 2× медианы воды снимка и ≥ 0,03, или B4 воды зоны ≥ 0,02 и (≥ 2× воды снимка или B8 ≥ 0,013) — мелководье, яркое дно, илистая банка"}, "seam": {"flag": false, "share": 0, "rule": "≥ 30 % пикселей — прямая линия вдоль трека/границы яркости (шов)"}, "cloud": {"flag": false, "cloud_fraction": 0.089, "rule": "облака или тени облаков (маска качества) ≥ 20 % зоны"}, "diag": {"dist_land_m": 120, "dist_bright_m": 40, "n_bright_px_500m": 45, "b11_bright_max_500m": 0.0395, "b4_water_zone": 0.0293, "b8_water_zone": 0.0234, "b11_det_median": 0.0167, "b8_det_median": 0.056, "water_scene_b3": 0.0181, "water_scene_b4": 0.0116, "n_det_px": 10, "n_obj": 4}, "note": "эвристики, не классификатор; на размеченных данных не проверены"}, "n_cozar_filaments": 0}, "field_nearby": {"items": [{"source": "ADIS (4TU.ResearchData, судовая камера)", "segment_id": 336436, "ship": "Bark Europa", "date": "2022-10-31", "days_from_scene": -1364, "distance_km": 347.4, "lon": -40.0369, "lat": -24.05508, "n_items": 0, "area_km2": 0.3704, "size_class": "> 5 см", "c_items_km2": 0.0, "ci95_lo": 0.0, "ci95_hi": 9.96, "ci95_method": "точный интервал Пуассона для N, делённый на A", "raw_10cm_items_km2": 0.0, "authors_cal_10cm_items_km2": 0.0, "authors_cal_10cm_lo95": null, "authors_cal_10cm_hi95": null}, {"source": "ADIS (4TU.ResearchData, судовая камера)", "segment_id": 336437, "ship": "Bark Europa", "date": "2022-10-31", "days_from_scene": -1364, "distance_km": 348.5, "lon": -40.06524, "lat": -24.14022, "n_items": 0, "area_km2": 0.3705, "size_class": "> 5 см", "c_items_km2": 0.0, "ci95_lo": 0.0, "ci95_hi": 9.96, "ci95_method": "точный интервал Пуассона для N, делённый на A", "raw_10cm_items_km2": 0.0, "authors_cal_10cm_items_km2": 0.0, "authors_cal_10cm_lo95": null, "authors_cal_10cm_hi95": null}, {"source": "ADIS (4TU.ResearchData, судовая камера)", "segment_id": 336438, "ship": "Bark Europa", "date": "2022-10-31", "days_from_scene": -1364, "distance_km": 349.7, "lon": -40.09594, "lat": -24.22453, "n_items": 0, "area_km2": 0.3702, "size_class": "> 5 см", "c_items_km2": 0.0, "ci95_lo": 0.0, "ci95_hi": 9.96, "ci95_method": "точный интервал Пуассона для N, делённый на A", "raw_10cm_items_km2": 0.0, "authors_cal_10cm_items_km2": 0.0, "authors_cal_10cm_lo95": null, "authors_cal_10cm_hi95": null}], "nearest_organizer_sample": {"sample_id": "MPL-0513", "source_id": "S2_SARGASSO_MSM41", "distance_km": 5301.6}, "note": "Измерение ≠ оценка: это независимые полевые счёты C = N/A в другое время и в другом месте; со сценой они не связаны и не калибруют её. Ближайший отрезок ADIS — за 347 км: только для порядка величин."}, "acquired_at": "2026-07-26T13:02:49.024000Z", "acquisition_date": "2026-07-26", "processed_at": "2026-09-26T20:18:54Z", "human_checked": false, "auto_label": "автоматически, не проверено человеком"}}, {"type": "Feature", "id": "SZ-fresh-guanabara-2026-07-26-005", "geometry": {"type": "Polygon", "coordinates": [[[-43.032901, -22.742266], [-43.033773, -22.742547], [-43.033964, -22.742821], [-43.034747, -22.742559], [-43.035911, -22.742845], [-43.036581, -22.743666], [-43.03667, -22.744208], [-43.036367, -22.745017], [-43.035679, -22.74546], [-43.035094, -22.745544], [-43.033835, -22.745077], [-43.033644, -22.744803], [-43.032861, -22.745065], [-43.031892, -22.744782], [-43.031414, -22.744144], [-43.031428, -22.743151], [-43.031924, -22.742525], [-43.032901, -22.742266]]]}, "properties": {"kind": "detection_zone", "layer_kind": "scene_zone", "zone_id": "SZ-fresh-guanabara-2026-07-26-005", "scene_key": "fresh-guanabara-2026-07-26", "scene_kind": "fresh_s2", "scene_id": "S2B_MSIL2A_20260726T130249_R095_T23KPQ_20260726T152052", "region": "guanabara", "title": "Залив Гуанабара (Рио-де-Жанейро) · зона 5", "mission": "Sentinel-2", "datetime": "2026-07-26T13:02:49.024000Z", "detection_status": "insufficient_data", "status": "insufficient_data", "concentration_status": "unavailable", "quantity": {"status": "not_confirmed", "label": "концентрация по снимку не подтверждена", "detail": "перевод площади в штуки не показываем: нет калибровочных пар (см. docs/QUANTITY.md)"}, "verification": "false_alarm_signs", "training_scene": null, "flags": ["ship", "coast", "shallow", "foam"], "n_cozar_filaments": 0, "crop_file": "crops/SZ-fresh-guanabara-2026-07-26-005.jpg", "wind_high": false, "measured": {"zone_area_km2": 0.1413, "suspicious_area_m2": 700, "n_pixels": 7, "n_objects": 2, "water_km2": 0.1114, "lwd_m2_km2": 6283.7, "lwd_note": null, "quality": {"valid_water_fraction": 0.791, "cloud_fraction": 0.0, "glint_fraction": 0.0}, "model": {"weights": "weights/lgbm", "file": "weights/lgbm/model.txt", "sha256": "0eeebf43fcccd8c7c07f053b7ec723229d1a3c9b92d12eec1bdb269258c51470", "sha256_short": "0eeebf43fccc", "trained_at": "2026-09-25T01:36:30Z", "threshold": 0.63, "harmonize": "none", "class": "MARIDA Marine Debris (любой плавающий мусор, не только пластик)"}}, "probable": {"prob_max": 0.902, "prob_mean": 0.808, "signs": {"foam": {"flag": true, "white_ratio_b2_b8": 0.908, "wind10m_ms": 1.06, "rule": "прирост B2 над водой ≥ 0.8 прироста B8 («белый» спектр) или ветер ≥ 7.0 м/с"}, "glint": {"flag": false, "b11_water_median": 0.002, "glint_share": 0.0, "rule": "медиана B11 воды зоны > 0.01 или ≥ 20 % пикселей зоны — блик (маска качества)"}, "ship": {"flag": true, "share": 0, "bright_target_px_within_500m": 0, "rule": "≥ 30 % пикселей — у яркой цели или кильватера (reports/artifacts.md) или яркая цель с откликом в SWIR (судно, лодка: B11 ≥ 0,015) ближе 500 м, или малый яркий объект (≤ 40 пикс.) с B11 ≥ 0,01 ближе 500 м (лодка с кильватером)"}, "coast": {"flag": true, "land_px_within_300m": 1016, "rule": "суша (маска качества) ближе 300 м — прибой, кромка берега"}, "shallow": {"flag": true, "b3_water_zone": 0.0257, "b3_ratio_to_scene_water": 1.42, "rule": "медиана B3 воды зоны ≥ 2× медианы воды снимка и ≥ 0,03, или B4 воды зоны ≥ 0,02 и (≥ 2× воды снимка или B8 ≥ 0,013) — мелководье, яркое дно, илистая банка"}, "seam": {"flag": false, "share": 0, "rule": "≥ 30 % пикселей — прямая линия вдоль трека/границы яркости (шов)"}, "cloud": {"flag": false, "cloud_fraction": 0.0, "rule": "облака или тени облаков (маска качества) ≥ 20 % зоны"}, "diag": {"dist_land_m": 40, "dist_bright_m": 36, "n_bright_px_500m": 30, "b11_bright_max_500m": 0.0285, "b4_water_zone": 0.0259, "b8_water_zone": 0.0146, "b11_det_median": 0.0052, "b8_det_median": 0.0274, "water_scene_b3": 0.0181, "water_scene_b4": 0.0116, "n_det_px": 7, "n_obj": 2}, "note": "эвристики, не классификатор; на размеченных данных не проверены"}, "n_cozar_filaments": 0}, "field_nearby": {"items": [{"source": "ADIS (4TU.ResearchData, судовая камера)", "segment_id": 336436, "ship": "Bark Europa", "date": "2022-10-31", "days_from_scene": -1364, "distance_km": 347.4, "lon": -40.0369, "lat": -24.05508, "n_items": 0, "area_km2": 0.3704, "size_class": "> 5 см", "c_items_km2": 0.0, "ci95_lo": 0.0, "ci95_hi": 9.96, "ci95_method": "точный интервал Пуассона для N, делённый на A", "raw_10cm_items_km2": 0.0, "authors_cal_10cm_items_km2": 0.0, "authors_cal_10cm_lo95": null, "authors_cal_10cm_hi95": null}, {"source": "ADIS (4TU.ResearchData, судовая камера)", "segment_id": 336437, "ship": "Bark Europa", "date": "2022-10-31", "days_from_scene": -1364, "distance_km": 348.5, "lon": -40.06524, "lat": -24.14022, "n_items": 0, "area_km2": 0.3705, "size_class": "> 5 см", "c_items_km2": 0.0, "ci95_lo": 0.0, "ci95_hi": 9.96, "ci95_method": "точный интервал Пуассона для N, делённый на A", "raw_10cm_items_km2": 0.0, "authors_cal_10cm_items_km2": 0.0, "authors_cal_10cm_lo95": null, "authors_cal_10cm_hi95": null}, {"source": "ADIS (4TU.ResearchData, судовая камера)", "segment_id": 336438, "ship": "Bark Europa", "date": "2022-10-31", "days_from_scene": -1364, "distance_km": 349.7, "lon": -40.09594, "lat": -24.22453, "n_items": 0, "area_km2": 0.3702, "size_class": "> 5 см", "c_items_km2": 0.0, "ci95_lo": 0.0, "ci95_hi": 9.96, "ci95_method": "точный интервал Пуассона для N, делённый на A", "raw_10cm_items_km2": 0.0, "authors_cal_10cm_items_km2": 0.0, "authors_cal_10cm_lo95": null, "authors_cal_10cm_hi95": null}], "nearest_organizer_sample": {"sample_id": "MPL-0513", "source_id": "S2_SARGASSO_MSM41", "distance_km": 5301.6}, "note": "Измерение ≠ оценка: это независимые полевые счёты C = N/A в другое время и в другом месте; со сценой они не связаны и не калибруют её. Ближайший отрезок ADIS — за 347 км: только для порядка величин."}, "acquired_at": "2026-07-26T13:02:49.024000Z", "acquisition_date": "2026-07-26", "processed_at": "2026-09-26T20:18:54Z", "human_checked": false, "auto_label": "автоматически, не проверено человеком"}}, {"type": "Feature", "id": "SZ-fresh-guanabara-2026-07-26-006", "geometry": {"type": "Polygon", "coordinates": [[[-43.157382, -22.75242], [-43.158254, -22.752701], [-43.158639, -22.753066], [-43.15882, -22.754062], [-43.159696, -22.754072], [-43.160468, -22.754622], [-43.160747, -22.755619], [-43.160148, -22.756696], [-43.159268, -22.756957], [-43.158685, -22.75686], [-43.157914, -22.756309], [-43.157733, -22.755223], [-43.15676, -22.755212], [-43.156084, -22.754753], [-43.155803, -22.753937], [-43.155909, -22.753306], [-43.156404, -22.752679], [-43.157382, -22.75242]]]}, "properties": {"kind": "detection_zone", "layer_kind": "scene_zone", "zone_id": "SZ-fresh-guanabara-2026-07-26-006", "scene_key": "fresh-guanabara-2026-07-26", "scene_kind": "fresh_s2", "scene_id": "S2B_MSIL2A_20260726T130249_R095_T23KPQ_20260726T152052", "region": "guanabara", "title": "Залив Гуанабара (Рио-де-Жанейро) · зона 6", "mission": "Sentinel-2", "datetime": "2026-07-26T13:02:49.024000Z", "detection_status": "detected", "status": "detected", "concentration_status": "unavailable", "quantity": {"status": "not_confirmed", "label": "концентрация по снимку не подтверждена", "detail": "перевод площади в штуки не показываем: нет калибровочных пар (см. docs/QUANTITY.md)"}, "verification": "unverified", "training_scene": null, "flags": [], "n_cozar_filaments": 0, "crop_file": "crops/SZ-fresh-guanabara-2026-07-26-006.jpg", "wind_high": false, "measured": {"zone_area_km2": 0.1457, "suspicious_area_m2": 700, "n_pixels": 7, "n_objects": 2, "water_km2": 0.1471, "lwd_m2_km2": 4758.7, "lwd_note": null, "quality": {"valid_water_fraction": 1.0, "cloud_fraction": 0.0, "glint_fraction": 0.0}, "model": {"weights": "weights/lgbm", "file": "weights/lgbm/model.txt", "sha256": "0eeebf43fcccd8c7c07f053b7ec723229d1a3c9b92d12eec1bdb269258c51470", "sha256_short": "0eeebf43fccc", "trained_at": "2026-09-25T01:36:30Z", "threshold": 0.63, "harmonize": "none", "class": "MARIDA Marine Debris (любой плавающий мусор, не только пластик)"}}, "probable": {"prob_max": 0.953, "prob_mean": 0.798, "signs": {"foam": {"flag": false, "white_ratio_b2_b8": 0.242, "wind10m_ms": 1.06, "rule": "прирост B2 над водой ≥ 0.8 прироста B8 («белый» спектр) или ветер ≥ 7.0 м/с"}, "glint": {"flag": false, "b11_water_median": 0.0023, "glint_share": 0.0, "rule": "медиана B11 воды зоны > 0.01 или ≥ 20 % пикселей зоны — блик (маска качества)"}, "ship": {"flag": false, "share": 0, "bright_target_px_within_500m": 0, "rule": "≥ 30 % пикселей — у яркой цели или кильватера (reports/artifacts.md) или яркая цель с откликом в SWIR (судно, лодка: B11 ≥ 0,015) ближе 500 м, или малый яркий объект (≤ 40 пикс.) с B11 ≥ 0,01 ближе 500 м (лодка с кильватером)"}, "coast": {"flag": false, "land_px_within_300m": 0, "rule": "суша (маска качества) ближе 300 м — прибой, кромка берега"}, "shallow": {"flag": false, "b3_water_zone": 0.0176, "b3_ratio_to_scene_water": 0.97, "rule": "медиана B3 воды зоны ≥ 2× медианы воды снимка и ≥ 0,03, или B4 воды зоны ≥ 0,02 и (≥ 2× воды снимка или B8 ≥ 0,013) — мелководье, яркое дно, илистая банка"}, "seam": {"flag": false, "share": 0, "rule": "≥ 30 % пикселей — прямая линия вдоль трека/границы яркости (шов)"}, "cloud": {"flag": false, "cloud_fraction": 0.0, "rule": "облака или тени облаков (маска качества) ≥ 20 % зоны"}, "diag": {"dist_land_m": null, "dist_bright_m": 1002, "n_bright_px_500m": 0, "b11_bright_max_500m": null, "b4_water_zone": 0.0112, "b8_water_zone": 0.006, "b11_det_median": 0.0034, "b8_det_median": 0.0156, "water_scene_b3": 0.0181, "water_scene_b4": 0.0116, "n_det_px": 7, "n_obj": 2}, "note": "эвристики, не классификатор; на размеченных данных не проверены"}, "n_cozar_filaments": 0}, "field_nearby": {"items": [{"source": "ADIS (4TU.ResearchData, судовая камера)", "segment_id": 336436, "ship": "Bark Europa", "date": "2022-10-31", "days_from_scene": -1364, "distance_km": 347.4, "lon": -40.0369, "lat": -24.05508, "n_items": 0, "area_km2": 0.3704, "size_class": "> 5 см", "c_items_km2": 0.0, "ci95_lo": 0.0, "ci95_hi": 9.96, "ci95_method": "точный интервал Пуассона для N, делённый на A", "raw_10cm_items_km2": 0.0, "authors_cal_10cm_items_km2": 0.0, "authors_cal_10cm_lo95": null, "authors_cal_10cm_hi95": null}, {"source": "ADIS (4TU.ResearchData, судовая камера)", "segment_id": 336437, "ship": "Bark Europa", "date": "2022-10-31", "days_from_scene": -1364, "distance_km": 348.5, "lon": -40.06524, "lat": -24.14022, "n_items": 0, "area_km2": 0.3705, "size_class": "> 5 см", "c_items_km2": 0.0, "ci95_lo": 0.0, "ci95_hi": 9.96, "ci95_method": "точный интервал Пуассона для N, делённый на A", "raw_10cm_items_km2": 0.0, "authors_cal_10cm_items_km2": 0.0, "authors_cal_10cm_lo95": null, "authors_cal_10cm_hi95": null}, {"source": "ADIS (4TU.ResearchData, судовая камера)", "segment_id": 336438, "ship": "Bark Europa", "date": "2022-10-31", "days_from_scene": -1364, "distance_km": 349.7, "lon": -40.09594, "lat": -24.22453, "n_items": 0, "area_km2": 0.3702, "size_class": "> 5 см", "c_items_km2": 0.0, "ci95_lo": 0.0, "ci95_hi": 9.96, "ci95_method": "точный интервал Пуассона для N, делённый на A", "raw_10cm_items_km2": 0.0, "authors_cal_10cm_items_km2": 0.0, "authors_cal_10cm_lo95": null, "authors_cal_10cm_hi95": null}], "nearest_organizer_sample": {"sample_id": "MPL-0513", "source_id": "S2_SARGASSO_MSM41", "distance_km": 5301.6}, "note": "Измерение ≠ оценка: это независимые полевые счёты C = N/A в другое время и в другом месте; со сценой они не связаны и не калибруют её. Ближайший отрезок ADIS — за 347 км: только для порядка величин."}, "acquired_at": "2026-07-26T13:02:49.024000Z", "acquisition_date": "2026-07-26", "processed_at": "2026-09-26T20:18:54Z", "human_checked": false, "auto_label": "автоматически, не проверено человеком"}}, {"type": "Feature", "id": "SZ-fresh-guanabara-2026-07-26-007", "geometry": {"type": "Polygon", "coordinates": [[[-43.271259, -22.786836], [-43.27242, -22.787391], [-43.272399, -22.789106], [-43.271711, -22.78955], [-43.27005, -22.789984], [-43.268885, -22.7897], [-43.268314, -22.78861], [-43.268618, -22.787711], [-43.269795, -22.787091], [-43.271259, -22.786836]]]}, "properties": {"kind": "detection_zone", "layer_kind": "scene_zone", "zone_id": "SZ-fresh-guanabara-2026-07-26-007", "scene_key": "fresh-guanabara-2026-07-26", "scene_kind": "fresh_s2", "scene_id": "S2B_MSIL2A_20260726T130249_R095_T23KPQ_20260726T152052", "region": "guanabara", "title": "Залив Гуанабара (Рио-де-Жанейро) · зона 7", "mission": "Sentinel-2", "datetime": "2026-07-26T13:02:49.024000Z", "detection_status": "insufficient_data", "status": "insufficient_data", "concentration_status": "unavailable", "quantity": {"status": "not_confirmed", "label": "концентрация по снимку не подтверждена", "detail": "перевод площади в штуки не показываем: нет калибровочных пар (см. docs/QUANTITY.md)"}, "verification": "false_alarm_signs", "training_scene": null, "flags": ["ship", "shallow", "foam"], "n_cozar_filaments": 0, "crop_file": "crops/SZ-fresh-guanabara-2026-07-26-007.jpg", "wind_high": false, "measured": {"zone_area_km2": 0.1122, "suspicious_area_m2": 600, "n_pixels": 6, "n_objects": 3, "water_km2": 0.0866, "lwd_m2_km2": 6928.4, "lwd_note": null, "quality": {"valid_water_fraction": 0.77, "cloud_fraction": 0.077, "glint_fraction": 0.0}, "model": {"weights": "weights/lgbm", "file": "weights/lgbm/model.txt", "sha256": "0eeebf43fcccd8c7c07f053b7ec723229d1a3c9b92d12eec1bdb269258c51470", "sha256_short": "0eeebf43fccc", "trained_at": "2026-09-25T01:36:30Z", "threshold": 0.63, "harmonize": "none", "class": "MARIDA Marine Debris (любой плавающий мусор, не только пластик)"}}, "probable": {"prob_max": 0.925, "prob_mean": 0.84, "signs": {"foam": {"flag": true, "white_ratio_b2_b8": 1.044, "wind10m_ms": 1.06, "rule": "прирост B2 над водой ≥ 0.8 прироста B8 («белый» спектр) или ветер ≥ 7.0 м/с"}, "glint": {"flag": false, "b11_water_median": 0.0088, "glint_share": 0.0, "rule": "медиана B11 воды зоны > 0.01 или ≥ 20 % пикселей зоны — блик (маска качества)"}, "ship": {"flag": true, "share": 0, "bright_target_px_within_500m": 590, "rule": "≥ 30 % пикселей — у яркой цели или кильватера (reports/artifacts.md) или яркая цель с откликом в SWIR (судно, лодка: B11 ≥ 0,015) ближе 500 м, или малый яркий объект (≤ 40 пикс.) с B11 ≥ 0,01 ближе 500 м (лодка с кильватером)"}, "coast": {"flag": false, "land_px_within_300m": 0, "rule": "суша (маска качества) ближе 300 м — прибой, кромка берега"}, "shallow": {"flag": true, "b3_water_zone": 0.0425, "b3_ratio_to_scene_water": 2.35, "rule": "медиана B3 воды зоны ≥ 2× медианы воды снимка и ≥ 0,03, или B4 воды зоны ≥ 0,02 и (≥ 2× воды снимка или B8 ≥ 0,013) — мелководье, яркое дно, илистая банка"}, "seam": {"flag": false, "share": 0, "rule": "≥ 30 % пикселей — прямая линия вдоль трека/границы яркости (шов)"}, "cloud": {"flag": false, "cloud_fraction": 0.077, "rule": "облака или тени облаков (маска качества) ≥ 20 % зоны"}, "diag": {"dist_land_m": 808, "dist_bright_m": 10, "n_bright_px_500m": 22, "b11_bright_max_500m": 0.0311, "b4_water_zone": 0.0332, "b8_water_zone": 0.0227, "b11_det_median": 0.0168, "b8_det_median": 0.0464, "water_scene_b3": 0.0181, "water_scene_b4": 0.0116, "n_det_px": 6, "n_obj": 3}, "note": "эвристики, не классификатор; на размеченных данных не проверены"}, "n_cozar_filaments": 0}, "field_nearby": {"items": [{"source": "ADIS (4TU.ResearchData, судовая камера)", "segment_id": 336436, "ship": "Bark Europa", "date": "2022-10-31", "days_from_scene": -1364, "distance_km": 347.4, "lon": -40.0369, "lat": -24.05508, "n_items": 0, "area_km2": 0.3704, "size_class": "> 5 см", "c_items_km2": 0.0, "ci95_lo": 0.0, "ci95_hi": 9.96, "ci95_method": "точный интервал Пуассона для N, делённый на A", "raw_10cm_items_km2": 0.0, "authors_cal_10cm_items_km2": 0.0, "authors_cal_10cm_lo95": null, "authors_cal_10cm_hi95": null}, {"source": "ADIS (4TU.ResearchData, судовая камера)", "segment_id": 336437, "ship": "Bark Europa", "date": "2022-10-31", "days_from_scene": -1364, "distance_km": 348.5, "lon": -40.06524, "lat": -24.14022, "n_items": 0, "area_km2": 0.3705, "size_class": "> 5 см", "c_items_km2": 0.0, "ci95_lo": 0.0, "ci95_hi": 9.96, "ci95_method": "точный интервал Пуассона для N, делённый на A", "raw_10cm_items_km2": 0.0, "authors_cal_10cm_items_km2": 0.0, "authors_cal_10cm_lo95": null, "authors_cal_10cm_hi95": null}, {"source": "ADIS (4TU.ResearchData, судовая камера)", "segment_id": 336438, "ship": "Bark Europa", "date": "2022-10-31", "days_from_scene": -1364, "distance_km": 349.7, "lon": -40.09594, "lat": -24.22453, "n_items": 0, "area_km2": 0.3702, "size_class": "> 5 см", "c_items_km2": 0.0, "ci95_lo": 0.0, "ci95_hi": 9.96, "ci95_method": "точный интервал Пуассона для N, делённый на A", "raw_10cm_items_km2": 0.0, "authors_cal_10cm_items_km2": 0.0, "authors_cal_10cm_lo95": null, "authors_cal_10cm_hi95": null}], "nearest_organizer_sample": {"sample_id": "MPL-0513", "source_id": "S2_SARGASSO_MSM41", "distance_km": 5301.6}, "note": "Измерение ≠ оценка: это независимые полевые счёты C = N/A в другое время и в другом месте; со сценой они не связаны и не калибруют её. Ближайший отрезок ADIS — за 347 км: только для порядка величин."}, "acquired_at": "2026-07-26T13:02:49.024000Z", "acquisition_date": "2026-07-26", "processed_at": "2026-09-26T20:18:54Z", "human_checked": false, "auto_label": "автоматически, не проверено человеком"}}, {"type": "Feature", "id": "SZ-fresh-guanabara-2026-07-26-008", "geometry": {"type": "Polygon", "coordinates": [[[-43.142792, -22.794422], [-43.143665, -22.794703], [-43.144531, -22.795526], [-43.144811, -22.796432], [-43.144311, -22.79733], [-43.144302, -22.798052], [-43.143611, -22.798676], [-43.143408, -22.799306], [-43.14272, -22.799749], [-43.142135, -22.799833], [-43.140973, -22.799278], [-43.140416, -22.797284], [-43.140719, -22.796475], [-43.141308, -22.796121], [-43.141216, -22.795759], [-43.141519, -22.794949], [-43.142207, -22.794506], [-43.142792, -22.794422]]]}, "properties": {"kind": "detection_zone", "layer_kind": "scene_zone", "zone_id": "SZ-fresh-guanabara-2026-07-26-008", "scene_key": "fresh-guanabara-2026-07-26", "scene_kind": "fresh_s2", "scene_id": "S2B_MSIL2A_20260726T130249_R095_T23KPQ_20260726T152052", "region": "guanabara", "title": "Залив Гуанабара (Рио-де-Жанейро) · зона 8", "mission": "Sentinel-2", "datetime": "2026-07-26T13:02:49.024000Z", "detection_status": "insufficient_data", "status": "insufficient_data", "concentration_status": "unavailable", "quantity": {"status": "not_confirmed", "label": "концентрация по снимку не подтверждена", "detail": "перевод площади в штуки не показываем: нет калибровочных пар (см. docs/QUANTITY.md)"}, "verification": "false_alarm_signs", "training_scene": null, "flags": ["ship", "foam"], "n_cozar_filaments": 0, "crop_file": "crops/SZ-fresh-guanabara-2026-07-26-008.jpg", "wind_high": false, "measured": {"zone_area_km2": 0.1852, "suspicious_area_m2": 800, "n_pixels": 8, "n_objects": 7, "water_km2": 0.1855, "lwd_m2_km2": 4312.7, "lwd_note": null, "quality": {"valid_water_fraction": 1.0, "cloud_fraction": 0.0, "glint_fraction": 0.0}, "model": {"weights": "weights/lgbm", "file": "weights/lgbm/model.txt", "sha256": "0eeebf43fcccd8c7c07f053b7ec723229d1a3c9b92d12eec1bdb269258c51470", "sha256_short": "0eeebf43fccc", "trained_at": "2026-09-25T01:36:30Z", "threshold": 0.63, "harmonize": "none", "class": "MARIDA Marine Debris (любой плавающий мусор, не только пластик)"}}, "probable": {"prob_max": 0.98, "prob_mean": 0.88, "signs": {"foam": {"flag": true, "white_ratio_b2_b8": 0.848, "wind10m_ms": 1.06, "rule": "прирост B2 над водой ≥ 0.8 прироста B8 («белый» спектр) или ветер ≥ 7.0 м/с"}, "glint": {"flag": false, "b11_water_median": 0.0028, "glint_share": 0.0, "rule": "медиана B11 воды зоны > 0.01 или ≥ 20 % пикселей зоны — блик (маска качества)"}, "ship": {"flag": true, "share": 0, "bright_target_px_within_500m": 0, "rule": "≥ 30 % пикселей — у яркой цели или кильватера (reports/artifacts.md) или яркая цель с откликом в SWIR (судно, лодка: B11 ≥ 0,015) ближе 500 м, или малый яркий объект (≤ 40 пикс.) с B11 ≥ 0,01 ближе 500 м (лодка с кильватером)"}, "coast": {"flag": false, "land_px_within_300m": 0, "rule": "суша (маска качества) ближе 300 м — прибой, кромка берега"}, "shallow": {"flag": false, "b3_water_zone": 0.016, "b3_ratio_to_scene_water": 0.88, "rule": "медиана B3 воды зоны ≥ 2× медианы воды снимка и ≥ 0,03, или B4 воды зоны ≥ 0,02 и (≥ 2× воды снимка или B8 ≥ 0,013) — мелководье, яркое дно, илистая банка"}, "seam": {"flag": false, "share": 0, "rule": "≥ 30 % пикселей — прямая линия вдоль трека/границы яркости (шов)"}, "cloud": {"flag": false, "cloud_fraction": 0.0, "rule": "облака или тени облаков (маска качества) ≥ 20 % зоны"}, "diag": {"dist_land_m": 957, "dist_bright_m": 10, "n_bright_px_500m": 2, "b11_bright_max_500m": 0.0149, "b4_water_zone": 0.0111, "b8_water_zone": 0.0059, "b11_det_median": 0.0082, "b8_det_median": 0.0248, "water_scene_b3": 0.0181, "water_scene_b4": 0.0116, "n_det_px": 8, "n_obj": 7}, "note": "эвристики, не классификатор; на размеченных данных не проверены"}, "n_cozar_filaments": 0}, "field_nearby": {"items": [{"source": "ADIS (4TU.ResearchData, судовая камера)", "segment_id": 336436, "ship": "Bark Europa", "date": "2022-10-31", "days_from_scene": -1364, "distance_km": 347.4, "lon": -40.0369, "lat": -24.05508, "n_items": 0, "area_km2": 0.3704, "size_class": "> 5 см", "c_items_km2": 0.0, "ci95_lo": 0.0, "ci95_hi": 9.96, "ci95_method": "точный интервал Пуассона для N, делённый на A", "raw_10cm_items_km2": 0.0, "authors_cal_10cm_items_km2": 0.0, "authors_cal_10cm_lo95": null, "authors_cal_10cm_hi95": null}, {"source": "ADIS (4TU.ResearchData, судовая камера)", "segment_id": 336437, "ship": "Bark Europa", "date": "2022-10-31", "days_from_scene": -1364, "distance_km": 348.5, "lon": -40.06524, "lat": -24.14022, "n_items": 0, "area_km2": 0.3705, "size_class": "> 5 см", "c_items_km2": 0.0, "ci95_lo": 0.0, "ci95_hi": 9.96, "ci95_method": "точный интервал Пуассона для N, делённый на A", "raw_10cm_items_km2": 0.0, "authors_cal_10cm_items_km2": 0.0, "authors_cal_10cm_lo95": null, "authors_cal_10cm_hi95": null}, {"source": "ADIS (4TU.ResearchData, судовая камера)", "segment_id": 336438, "ship": "Bark Europa", "date": "2022-10-31", "days_from_scene": -1364, "distance_km": 349.7, "lon": -40.09594, "lat": -24.22453, "n_items": 0, "area_km2": 0.3702, "size_class": "> 5 см", "c_items_km2": 0.0, "ci95_lo": 0.0, "ci95_hi": 9.96, "ci95_method": "точный интервал Пуассона для N, делённый на A", "raw_10cm_items_km2": 0.0, "authors_cal_10cm_items_km2": 0.0, "authors_cal_10cm_lo95": null, "authors_cal_10cm_hi95": null}], "nearest_organizer_sample": {"sample_id": "MPL-0513", "source_id": "S2_SARGASSO_MSM41", "distance_km": 5301.6}, "note": "Измерение ≠ оценка: это независимые полевые счёты C = N/A в другое время и в другом месте; со сценой они не связаны и не калибруют её. Ближайший отрезок ADIS — за 347 км: только для порядка величин."}, "acquired_at": "2026-07-26T13:02:49.024000Z", "acquisition_date": "2026-07-26", "processed_at": "2026-09-26T20:18:54Z", "human_checked": false, "auto_label": "автоматически, не проверено человеком"}}, {"type": "Feature", "id": "SZ-fresh-guanabara-2026-07-26-009", "geometry": {"type": "Polygon", "coordinates": [[[-43.164892, -22.809669], [-43.16586, -22.810131], [-43.166929, -22.810324], [-43.167407, -22.810962], [-43.167396, -22.811774], [-43.168273, -22.811785], [-43.168949, -22.812244], [-43.169228, -22.81324], [-43.168629, -22.814317], [-43.167748, -22.814578], [-43.167165, -22.814481], [-43.16649, -22.814022], [-43.166208, -22.813206], [-43.16631, -22.812846], [-43.165434, -22.812836], [-43.164952, -22.812469], [-43.16427, -22.812461], [-43.163594, -22.812002], [-43.163313, -22.811186], [-43.163419, -22.810555], [-43.163914, -22.809928], [-43.164892, -22.809669]]]}, "properties": {"kind": "detection_zone", "layer_kind": "scene_zone", "zone_id": "SZ-fresh-guanabara-2026-07-26-009", "scene_key": "fresh-guanabara-2026-07-26", "scene_kind": "fresh_s2", "scene_id": "S2B_MSIL2A_20260726T130249_R095_T23KPQ_20260726T152052", "region": "guanabara", "title": "Залив Гуанабара (Рио-де-Жанейро) · зона 9", "mission": "Sentinel-2", "datetime": "2026-07-26T13:02:49.024000Z", "detection_status": "insufficient_data", "status": "insufficient_data", "concentration_status": "unavailable", "quantity": {"status": "not_confirmed", "label": "концентрация по снимку не подтверждена", "detail": "перевод площади в штуки не показываем: нет калибровочных пар (см. docs/QUANTITY.md)"}, "verification": "false_alarm_signs", "training_scene": null, "flags": ["coast", "ship"], "n_cozar_filaments": 0, "crop_file": "crops/SZ-fresh-guanabara-2026-07-26-009.jpg", "wind_high": false, "measured": {"zone_area_km2": 0.1781, "suspicious_area_m2": 600, "n_pixels": 6, "n_objects": 3, "water_km2": 0.168, "lwd_m2_km2": 3571.4, "lwd_note": null, "quality": {"valid_water_fraction": 0.935, "cloud_fraction": 0.0, "glint_fraction": 0.0}, "model": {"weights": "weights/lgbm", "file": "weights/lgbm/model.txt", "sha256": "0eeebf43fcccd8c7c07f053b7ec723229d1a3c9b92d12eec1bdb269258c51470", "sha256_short": "0eeebf43fccc", "trained_at": "2026-09-25T01:36:30Z", "threshold": 0.63, "harmonize": "none", "class": "MARIDA Marine Debris (любой плавающий мусор, не только пластик)"}}, "probable": {"prob_max": 0.992, "prob_mean": 0.863, "signs": {"foam": {"flag": false, "white_ratio_b2_b8": 0.526, "wind10m_ms": 1.06, "rule": "прирост B2 над водой ≥ 0.8 прироста B8 («белый» спектр) или ветер ≥ 7.0 м/с"}, "glint": {"flag": false, "b11_water_median": 0.0047, "glint_share": 0.0, "rule": "медиана B11 воды зоны > 0.01 или ≥ 20 % пикселей зоны — блик (маска качества)"}, "ship": {"flag": true, "share": 0.667, "bright_target_px_within_500m": 636, "rule": "≥ 30 % пикселей — у яркой цели или кильватера (reports/artifacts.md) или яркая цель с откликом в SWIR (судно, лодка: B11 ≥ 0,015) ближе 500 м, или малый яркий объект (≤ 40 пикс.) с B11 ≥ 0,01 ближе 500 м (лодка с кильватером)"}, "coast": {"flag": true, "land_px_within_300m": 496, "rule": "суша (маска качества) ближе 300 м — прибой, кромка берега"}, "shallow": {"flag": false, "b3_water_zone": 0.0247, "b3_ratio_to_scene_water": 1.36, "rule": "медиана B3 воды зоны ≥ 2× медианы воды снимка и ≥ 0,03, или B4 воды зоны ≥ 0,02 и (≥ 2× воды снимка или B8 ≥ 0,013) — мелководье, яркое дно, илистая банка"}, "seam": {"flag": false, "share": 0, "rule": "≥ 30 % пикселей — прямая линия вдоль трека/границы яркости (шов)"}, "cloud": {"flag": false, "cloud_fraction": 0.0, "rule": "облака или тени облаков (маска качества) ≥ 20 % зоны"}, "diag": {"dist_land_m": 94, "dist_bright_m": 10, "n_bright_px_500m": 81, "b11_bright_max_500m": 0.3334, "b4_water_zone": 0.0159, "b8_water_zone": 0.0086, "b11_det_median": 0.0146, "b8_det_median": 0.0507, "water_scene_b3": 0.0181, "water_scene_b4": 0.0116, "n_det_px": 6, "n_obj": 3}, "note": "эвристики, не классификатор; на размеченных данных не проверены"}, "n_cozar_filaments": 0}, "field_nearby": {"items": [{"source": "ADIS (4TU.ResearchData, судовая камера)", "segment_id": 336436, "ship": "Bark Europa", "date": "2022-10-31", "days_from_scene": -1364, "distance_km": 347.4, "lon": -40.0369, "lat": -24.05508, "n_items": 0, "area_km2": 0.3704, "size_class": "> 5 см", "c_items_km2": 0.0, "ci95_lo": 0.0, "ci95_hi": 9.96, "ci95_method": "точный интервал Пуассона для N, делённый на A", "raw_10cm_items_km2": 0.0, "authors_cal_10cm_items_km2": 0.0, "authors_cal_10cm_lo95": null, "authors_cal_10cm_hi95": null}, {"source": "ADIS (4TU.ResearchData, судовая камера)", "segment_id": 336437, "ship": "Bark Europa", "date": "2022-10-31", "days_from_scene": -1364, "distance_km": 348.5, "lon": -40.06524, "lat": -24.14022, "n_items": 0, "area_km2": 0.3705, "size_class": "> 5 см", "c_items_km2": 0.0, "ci95_lo": 0.0, "ci95_hi": 9.96, "ci95_method": "точный интервал Пуассона для N, делённый на A", "raw_10cm_items_km2": 0.0, "authors_cal_10cm_items_km2": 0.0, "authors_cal_10cm_lo95": null, "authors_cal_10cm_hi95": null}, {"source": "ADIS (4TU.ResearchData, судовая камера)", "segment_id": 336438, "ship": "Bark Europa", "date": "2022-10-31", "days_from_scene": -1364, "distance_km": 349.7, "lon": -40.09594, "lat": -24.22453, "n_items": 0, "area_km2": 0.3702, "size_class": "> 5 см", "c_items_km2": 0.0, "ci95_lo": 0.0, "ci95_hi": 9.96, "ci95_method": "точный интервал Пуассона для N, делённый на A", "raw_10cm_items_km2": 0.0, "authors_cal_10cm_items_km2": 0.0, "authors_cal_10cm_lo95": null, "authors_cal_10cm_hi95": null}], "nearest_organizer_sample": {"sample_id": "MPL-0513", "source_id": "S2_SARGASSO_MSM41", "distance_km": 5301.6}, "note": "Измерение ≠ оценка: это независимые полевые счёты C = N/A в другое время и в другом месте; со сценой они не связаны и не калибруют её. Ближайший отрезок ADIS — за 347 км: только для порядка величин."}, "acquired_at": "2026-07-26T13:02:49.024000Z", "acquisition_date": "2026-07-26", "processed_at": "2026-09-26T20:18:54Z", "human_checked": false, "auto_label": "автоматически, не проверено человеком"}}, {"type": "Feature", "id": "SZ-fresh-guanabara-2026-07-26-010", "geometry": {"type": "Polygon", "coordinates": [[[-43.175276, -22.812587], [-43.176437, -22.813142], [-43.176917, -22.81369], [-43.177198, -22.814506], [-43.176597, -22.815763], [-43.175421, -22.816291], [-43.173966, -22.815823], [-43.173396, -22.814733], [-43.174002, -22.813115], [-43.17469, -22.812671], [-43.175276, -22.812587]]]}, "properties": {"kind": "detection_zone", "layer_kind": "scene_zone", "zone_id": "SZ-fresh-guanabara-2026-07-26-010", "scene_key": "fresh-guanabara-2026-07-26", "scene_kind": "fresh_s2", "scene_id": "S2B_MSIL2A_20260726T130249_R095_T23KPQ_20260726T152052", "region": "guanabara", "title": "Залив Гуанабара (Рио-де-Жанейро) · зона 10", "mission": "Sentinel-2", "datetime": "2026-07-26T13:02:49.024000Z", "detection_status": "insufficient_data", "status": "insufficient_data", "concentration_status": "unavailable", "quantity": {"status": "not_confirmed", "label": "концентрация по снимку не подтверждена", "detail": "перевод площади в штуки не показываем: нет калибровочных пар (см. docs/QUANTITY.md)"}, "verification": "false_alarm_signs", "training_scene": null, "flags": ["coast", "ship", "glint"], "n_cozar_filaments": 0, "crop_file": "crops/SZ-fresh-guanabara-2026-07-26-010.jpg", "wind_high": false, "measured": {"zone_area_km2": 0.1133, "suspicious_area_m2": 500, "n_pixels": 5, "n_objects": 4, "water_km2": 0.0899, "lwd_m2_km2": 5561.7, "lwd_note": null, "quality": {"valid_water_fraction": 0.781, "cloud_fraction": 0.0, "glint_fraction": 0.0}, "model": {"weights": "weights/lgbm", "file": "weights/lgbm/model.txt", "sha256": "0eeebf43fcccd8c7c07f053b7ec723229d1a3c9b92d12eec1bdb269258c51470", "sha256_short": "0eeebf43fccc", "trained_at": "2026-09-25T01:36:30Z", "threshold": 0.63, "harmonize": "none", "class": "MARIDA Marine Debris (любой плавающий мусор, не только пластик)"}}, "probable": {"prob_max": 0.996, "prob_mean": 0.888, "signs": {"foam": {"flag": false, "white_ratio_b2_b8": 0.789, "wind10m_ms": 1.06, "rule": "прирост B2 над водой ≥ 0.8 прироста B8 («белый» спектр) или ветер ≥ 7.0 м/с"}, "glint": {"flag": true, "b11_water_median": 0.0101, "glint_share": 0.0, "rule": "медиана B11 воды зоны > 0.01 или ≥ 20 % пикселей зоны — блик (маска качества)"}, "ship": {"flag": true, "share": 0.4, "bright_target_px_within_500m": 1694, "rule": "≥ 30 % пикселей — у яркой цели или кильватера (reports/artifacts.md) или яркая цель с откликом в SWIR (судно, лодка: B11 ≥ 0,015) ближе 500 м, или малый яркий объект (≤ 40 пикс.) с B11 ≥ 0,01 ближе 500 м (лодка с кильватером)"}, "coast": {"flag": true, "land_px_within_300m": 1111, "rule": "суша (маска качества) ближе 300 м — прибой, кромка берега"}, "shallow": {"flag": false, "b3_water_zone": 0.0291, "b3_ratio_to_scene_water": 1.61, "rule": "медиана B3 воды зоны ≥ 2× медианы воды снимка и ≥ 0,03, или B4 воды зоны ≥ 0,02 и (≥ 2× воды снимка или B8 ≥ 0,013) — мелководье, яркое дно, илистая банка"}, "seam": {"flag": false, "share": 0, "rule": "≥ 30 % пикселей — прямая линия вдоль трека/границы яркости (шов)"}, "cloud": {"flag": false, "cloud_fraction": 0.0, "rule": "облака или тени облаков (маска качества) ≥ 20 % зоны"}, "diag": {"dist_land_m": 80, "dist_bright_m": 10, "n_bright_px_500m": 120, "b11_bright_max_500m": 0.2806, "b4_water_zone": 0.0191, "b8_water_zone": 0.014, "b11_det_median": 0.0174, "b8_det_median": 0.0398, "water_scene_b3": 0.0181, "water_scene_b4": 0.0116, "n_det_px": 5, "n_obj": 4}, "note": "эвристики, не классификатор; на размеченных данных не проверены"}, "n_cozar_filaments": 0}, "field_nearby": {"items": [{"source": "ADIS (4TU.ResearchData, судовая камера)", "segment_id": 336436, "ship": "Bark Europa", "date": "2022-10-31", "days_from_scene": -1364, "distance_km": 347.4, "lon": -40.0369, "lat": -24.05508, "n_items": 0, "area_km2": 0.3704, "size_class": "> 5 см", "c_items_km2": 0.0, "ci95_lo": 0.0, "ci95_hi": 9.96, "ci95_method": "точный интервал Пуассона для N, делённый на A", "raw_10cm_items_km2": 0.0, "authors_cal_10cm_items_km2": 0.0, "authors_cal_10cm_lo95": null, "authors_cal_10cm_hi95": null}, {"source": "ADIS (4TU.ResearchData, судовая камера)", "segment_id": 336437, "ship": "Bark Europa", "date": "2022-10-31", "days_from_scene": -1364, "distance_km": 348.5, "lon": -40.06524, "lat": -24.14022, "n_items": 0, "area_km2": 0.3705, "size_class": "> 5 см", "c_items_km2": 0.0, "ci95_lo": 0.0, "ci95_hi": 9.96, "ci95_method": "точный интервал Пуассона для N, делённый на A", "raw_10cm_items_km2": 0.0, "authors_cal_10cm_items_km2": 0.0, "authors_cal_10cm_lo95": null, "authors_cal_10cm_hi95": null}, {"source": "ADIS (4TU.ResearchData, судовая камера)", "segment_id": 336438, "ship": "Bark Europa", "date": "2022-10-31", "days_from_scene": -1364, "distance_km": 349.7, "lon": -40.09594, "lat": -24.22453, "n_items": 0, "area_km2": 0.3702, "size_class": "> 5 см", "c_items_km2": 0.0, "ci95_lo": 0.0, "ci95_hi": 9.96, "ci95_method": "точный интервал Пуассона для N, делённый на A", "raw_10cm_items_km2": 0.0, "authors_cal_10cm_items_km2": 0.0, "authors_cal_10cm_lo95": null, "authors_cal_10cm_hi95": null}], "nearest_organizer_sample": {"sample_id": "MPL-0513", "source_id": "S2_SARGASSO_MSM41", "distance_km": 5301.6}, "note": "Измерение ≠ оценка: это независимые полевые счёты C = N/A в другое время и в другом месте; со сценой они не связаны и не калибруют её. Ближайший отрезок ADIS — за 347 км: только для порядка величин."}, "acquired_at": "2026-07-26T13:02:49.024000Z", "acquisition_date": "2026-07-26", "processed_at": "2026-09-26T20:18:54Z", "human_checked": false, "auto_label": "автоматически, не проверено человеком"}}, {"type": "Feature", "id": "SZ-fresh-guanabara-2026-07-26-011", "geometry": {"type": "Polygon", "coordinates": [[[-43.087662, -22.815714], [-43.088535, -22.815995], [-43.089013, -22.816633], [-43.088999, -22.817626], [-43.088505, -22.818162], [-43.088882, -22.81907], [-43.088777, -22.81961], [-43.088281, -22.820236], [-43.087499, -22.820408], [-43.08681, -22.820941], [-43.085738, -22.820928], [-43.085063, -22.820469], [-43.084782, -22.819652], [-43.084888, -22.819022], [-43.085284, -22.818575], [-43.085002, -22.817849], [-43.085108, -22.817218], [-43.085604, -22.816592], [-43.086386, -22.816421], [-43.087077, -22.815797], [-43.087662, -22.815714]]]}, "properties": {"kind": "detection_zone", "layer_kind": "scene_zone", "zone_id": "SZ-fresh-guanabara-2026-07-26-011", "scene_key": "fresh-guanabara-2026-07-26", "scene_kind": "fresh_s2", "scene_id": "S2B_MSIL2A_20260726T130249_R095_T23KPQ_20260726T152052", "region": "guanabara", "title": "Залив Гуанабара (Рио-де-Жанейро) · зона 11", "mission": "Sentinel-2", "datetime": "2026-07-26T13:02:49.024000Z", "detection_status": "insufficient_data", "status": "insufficient_data", "concentration_status": "unavailable", "quantity": {"status": "not_confirmed", "label": "концентрация по снимку не подтверждена", "detail": "перевод площади в штуки не показываем: нет калибровочных пар (см. docs/QUANTITY.md)"}, "verification": "false_alarm_signs", "training_scene": null, "flags": ["ship", "coast"], "n_cozar_filaments": 0, "crop_file": "crops/SZ-fresh-guanabara-2026-07-26-011.jpg", "wind_high": false, "measured": {"zone_area_km2": 0.1894, "suspicious_area_m2": 900, "n_pixels": 9, "n_objects": 4, "water_km2": 0.1902, "lwd_m2_km2": 4731.9, "lwd_note": null, "quality": {"valid_water_fraction": 1.0, "cloud_fraction": 0.0, "glint_fraction": 0.0}, "model": {"weights": "weights/lgbm", "file": "weights/lgbm/model.txt", "sha256": "0eeebf43fcccd8c7c07f053b7ec723229d1a3c9b92d12eec1bdb269258c51470", "sha256_short": "0eeebf43fccc", "trained_at": "2026-09-25T01:36:30Z", "threshold": 0.63, "harmonize": "none", "class": "MARIDA Marine Debris (любой плавающий мусор, не только пластик)"}}, "probable": {"prob_max": 0.969, "prob_mean": 0.832, "signs": {"foam": {"flag": false, "white_ratio_b2_b8": 0.401, "wind10m_ms": 1.06, "rule": "прирост B2 над водой ≥ 0.8 прироста B8 («белый» спектр) или ветер ≥ 7.0 м/с"}, "glint": {"flag": false, "b11_water_median": 0.003, "glint_share": 0.0, "rule": "медиана B11 воды зоны > 0.01 или ≥ 20 % пикселей зоны — блик (маска качества)"}, "ship": {"flag": true, "share": 0, "bright_target_px_within_500m": 160, "rule": "≥ 30 % пикселей — у яркой цели или кильватера (reports/artifacts.md) или яркая цель с откликом в SWIR (судно, лодка: B11 ≥ 0,015) ближе 500 м, или малый яркий объект (≤ 40 пикс.) с B11 ≥ 0,01 ближе 500 м (лодка с кильватером)"}, "coast": {"flag": true, "land_px_within_300m": 331, "rule": "суша (маска качества) ближе 300 м — прибой, кромка берега"}, "shallow": {"flag": false, "b3_water_zone": 0.0206, "b3_ratio_to_scene_water": 1.14, "rule": "медиана B3 воды зоны ≥ 2× медианы воды снимка и ≥ 0,03, или B4 воды зоны ≥ 0,02 и (≥ 2× воды снимка или B8 ≥ 0,013) — мелководье, яркое дно, илистая банка"}, "seam": {"flag": false, "share": 0, "rule": "≥ 30 % пикселей — прямая линия вдоль трека/границы яркости (шов)"}, "cloud": {"flag": false, "cloud_fraction": 0.0, "rule": "облака или тени облаков (маска качества) ≥ 20 % зоны"}, "diag": {"dist_land_m": 179, "dist_bright_m": 130, "n_bright_px_500m": 71, "b11_bright_max_500m": 0.2261, "b4_water_zone": 0.0175, "b8_water_zone": 0.006, "b11_det_median": 0.0111, "b8_det_median": 0.0411, "water_scene_b3": 0.0181, "water_scene_b4": 0.0116, "n_det_px": 9, "n_obj": 4}, "note": "эвристики, не классификатор; на размеченных данных не проверены"}, "n_cozar_filaments": 0}, "field_nearby": {"items": [{"source": "ADIS (4TU.ResearchData, судовая камера)", "segment_id": 336436, "ship": "Bark Europa", "date": "2022-10-31", "days_from_scene": -1364, "distance_km": 347.4, "lon": -40.0369, "lat": -24.05508, "n_items": 0, "area_km2": 0.3704, "size_class": "> 5 см", "c_items_km2": 0.0, "ci95_lo": 0.0, "ci95_hi": 9.96, "ci95_method": "точный интервал Пуассона для N, делённый на A", "raw_10cm_items_km2": 0.0, "authors_cal_10cm_items_km2": 0.0, "authors_cal_10cm_lo95": null, "authors_cal_10cm_hi95": null}, {"source": "ADIS (4TU.ResearchData, судовая камера)", "segment_id": 336437, "ship": "Bark Europa", "date": "2022-10-31", "days_from_scene": -1364, "distance_km": 348.5, "lon": -40.06524, "lat": -24.14022, "n_items": 0, "area_km2": 0.3705, "size_class": "> 5 см", "c_items_km2": 0.0, "ci95_lo": 0.0, "ci95_hi": 9.96, "ci95_method": "точный интервал Пуассона для N, делённый на A", "raw_10cm_items_km2": 0.0, "authors_cal_10cm_items_km2": 0.0, "authors_cal_10cm_lo95": null, "authors_cal_10cm_hi95": null}, {"source": "ADIS (4TU.ResearchData, судовая камера)", "segment_id": 336438, "ship": "Bark Europa", "date": "2022-10-31", "days_from_scene": -1364, "distance_km": 349.7, "lon": -40.09594, "lat": -24.22453, "n_items": 0, "area_km2": 0.3702, "size_class": "> 5 см", "c_items_km2": 0.0, "ci95_lo": 0.0, "ci95_hi": 9.96, "ci95_method": "точный интервал Пуассона для N, делённый на A", "raw_10cm_items_km2": 0.0, "authors_cal_10cm_items_km2": 0.0, "authors_cal_10cm_lo95": null, "authors_cal_10cm_hi95": null}], "nearest_organizer_sample": {"sample_id": "MPL-0513", "source_id": "S2_SARGASSO_MSM41", "distance_km": 5301.6}, "note": "Измерение ≠ оценка: это независимые полевые счёты C = N/A в другое время и в другом месте; со сценой они не связаны и не калибруют её. Ближайший отрезок ADIS — за 347 км: только для порядка величин."}, "acquired_at": "2026-07-26T13:02:49.024000Z", "acquisition_date": "2026-07-26", "processed_at": "2026-09-26T20:18:54Z", "human_checked": false, "auto_label": "автоматически, не проверено человеком"}}, {"type": "Feature", "id": "SZ-fresh-guanabara-2026-07-26-012", "geometry": {"type": "Polygon", "coordinates": [[[-43.120715, -22.856021], [-43.121876, -22.856576], [-43.122538, -22.858029], [-43.122232, -22.859019], [-43.121056, -22.859546], [-43.120085, -22.859264], [-43.119604, -22.858807], [-43.119136, -22.857447], [-43.119441, -22.856547], [-43.120129, -22.856104], [-43.120715, -22.856021]]]}, "properties": {"kind": "detection_zone", "layer_kind": "scene_zone", "zone_id": "SZ-fresh-guanabara-2026-07-26-012", "scene_key": "fresh-guanabara-2026-07-26", "scene_kind": "fresh_s2", "scene_id": "S2B_MSIL2A_20260726T130249_R095_T23KPQ_20260726T152052", "region": "guanabara", "title": "Залив Гуанабара (Рио-де-Жанейро) · зона 12", "mission": "Sentinel-2", "datetime": "2026-07-26T13:02:49.024000Z", "detection_status": "insufficient_data", "status": "insufficient_data", "concentration_status": "unavailable", "quantity": {"status": "not_confirmed", "label": "концентрация по снимку не подтверждена", "detail": "перевод площади в штуки не показываем: нет калибровочных пар (см. docs/QUANTITY.md)"}, "verification": "false_alarm_signs", "training_scene": null, "flags": ["coast", "ship", "foam"], "n_cozar_filaments": 0, "crop_file": "crops/SZ-fresh-guanabara-2026-07-26-012.jpg", "wind_high": false, "measured": {"zone_area_km2": 0.098, "suspicious_area_m2": 700, "n_pixels": 7, "n_objects": 3, "water_km2": 0.0934, "lwd_m2_km2": 7494.6, "lwd_note": null, "quality": {"valid_water_fraction": 0.943, "cloud_fraction": 0.0, "glint_fraction": 0.0}, "model": {"weights": "weights/lgbm", "file": "weights/lgbm/model.txt", "sha256": "0eeebf43fcccd8c7c07f053b7ec723229d1a3c9b92d12eec1bdb269258c51470", "sha256_short": "0eeebf43fccc", "trained_at": "2026-09-25T01:36:30Z", "threshold": 0.63, "harmonize": "none", "class": "MARIDA Marine Debris (любой плавающий мусор, не только пластик)"}}, "probable": {"prob_max": 0.91, "prob_mean": 0.796, "signs": {"foam": {"flag": true, "white_ratio_b2_b8": 1.147, "wind10m_ms": 1.06, "rule": "прирост B2 над водой ≥ 0.8 прироста B8 («белый» спектр) или ветер ≥ 7.0 м/с"}, "glint": {"flag": false, "b11_water_median": 0.0028, "glint_share": 0.0, "rule": "медиана B11 воды зоны > 0.01 или ≥ 20 % пикселей зоны — блик (маска качества)"}, "ship": {"flag": true, "share": 0.857, "bright_target_px_within_500m": 186, "rule": "≥ 30 % пикселей — у яркой цели или кильватера (reports/artifacts.md) или яркая цель с откликом в SWIR (судно, лодка: B11 ≥ 0,015) ближе 500 м, или малый яркий объект (≤ 40 пикс.) с B11 ≥ 0,01 ближе 500 м (лодка с кильватером)"}, "coast": {"flag": true, "land_px_within_300m": 762, "rule": "суша (маска качества) ближе 300 м — прибой, кромка берега"}, "shallow": {"flag": false, "b3_water_zone": 0.0128, "b3_ratio_to_scene_water": 0.71, "rule": "медиана B3 воды зоны ≥ 2× медианы воды снимка и ≥ 0,03, или B4 воды зоны ≥ 0,02 и (≥ 2× воды снимка или B8 ≥ 0,013) — мелководье, яркое дно, илистая банка"}, "seam": {"flag": false, "share": 0, "rule": "≥ 30 % пикселей — прямая линия вдоль трека/границы яркости (шов)"}, "cloud": {"flag": false, "cloud_fraction": 0.0, "rule": "облака или тени облаков (маска качества) ≥ 20 % зоны"}, "diag": {"dist_land_m": 141, "dist_bright_m": 42, "n_bright_px_500m": 69, "b11_bright_max_500m": 0.18, "b4_water_zone": 0.0095, "b8_water_zone": 0.004, "b11_det_median": 0.0061, "b8_det_median": 0.0309, "water_scene_b3": 0.0181, "water_scene_b4": 0.0116, "n_det_px": 7, "n_obj": 3}, "note": "эвристики, не классификатор; на размеченных данных не проверены"}, "n_cozar_filaments": 0}, "field_nearby": {"items": [{"source": "ADIS (4TU.ResearchData, судовая камера)", "segment_id": 336436, "ship": "Bark Europa", "date": "2022-10-31", "days_from_scene": -1364, "distance_km": 347.4, "lon": -40.0369, "lat": -24.05508, "n_items": 0, "area_km2": 0.3704, "size_class": "> 5 см", "c_items_km2": 0.0, "ci95_lo": 0.0, "ci95_hi": 9.96, "ci95_method": "точный интервал Пуассона для N, делённый на A", "raw_10cm_items_km2": 0.0, "authors_cal_10cm_items_km2": 0.0, "authors_cal_10cm_lo95": null, "authors_cal_10cm_hi95": null}, {"source": "ADIS (4TU.ResearchData, судовая камера)", "segment_id": 336437, "ship": "Bark Europa", "date": "2022-10-31", "days_from_scene": -1364, "distance_km": 348.5, "lon": -40.06524, "lat": -24.14022, "n_items": 0, "area_km2": 0.3705, "size_class": "> 5 см", "c_items_km2": 0.0, "ci95_lo": 0.0, "ci95_hi": 9.96, "ci95_method": "точный интервал Пуассона для N, делённый на A", "raw_10cm_items_km2": 0.0, "authors_cal_10cm_items_km2": 0.0, "authors_cal_10cm_lo95": null, "authors_cal_10cm_hi95": null}, {"source": "ADIS (4TU.ResearchData, судовая камера)", "segment_id": 336438, "ship": "Bark Europa", "date": "2022-10-31", "days_from_scene": -1364, "distance_km": 349.7, "lon": -40.09594, "lat": -24.22453, "n_items": 0, "area_km2": 0.3702, "size_class": "> 5 см", "c_items_km2": 0.0, "ci95_lo": 0.0, "ci95_hi": 9.96, "ci95_method": "точный интервал Пуассона для N, делённый на A", "raw_10cm_items_km2": 0.0, "authors_cal_10cm_items_km2": 0.0, "authors_cal_10cm_lo95": null, "authors_cal_10cm_hi95": null}], "nearest_organizer_sample": {"sample_id": "MPL-0513", "source_id": "S2_SARGASSO_MSM41", "distance_km": 5301.6}, "note": "Измерение ≠ оценка: это независимые полевые счёты C = N/A в другое время и в другом месте; со сценой они не связаны и не калибруют её. Ближайший отрезок ADIS — за 347 км: только для порядка величин."}, "acquired_at": "2026-07-26T13:02:49.024000Z", "acquisition_date": "2026-07-26", "processed_at": "2026-09-26T20:18:54Z", "human_checked": false, "auto_label": "автоматически, не проверено человеком"}}, {"type": "Feature", "id": "SZ-fresh-guanabara-2026-07-26-013", "geometry": {"type": "Polygon", "coordinates": [[[-43.148096, -22.863114], [-43.14897, -22.863396], [-43.149448, -22.864033], [-43.149537, -22.864666], [-43.149234, -22.865476], [-43.149916, -22.865484], [-43.150494, -22.865942], [-43.15108, -22.865858], [-43.151964, -22.865327], [-43.153132, -22.865431], [-43.153331, -22.865162], [-43.154211, -22.864901], [-43.154795, -22.864998], [-43.155471, -22.865458], [-43.155752, -22.866274], [-43.155446, -22.867263], [-43.154758, -22.867707], [-43.153394, -22.867691], [-43.154259, -22.868604], [-43.154245, -22.869597], [-43.153749, -22.870224], [-43.152968, -22.870395], [-43.152571, -22.870933], [-43.15169, -22.871193], [-43.151107, -22.871096], [-43.150334, -22.870545], [-43.150154, -22.86946], [-43.149674, -22.868912], [-43.148794, -22.869173], [-43.147632, -22.868618], [-43.147352, -22.867711], [-43.148156, -22.865915], [-43.147087, -22.865721], [-43.146608, -22.865084], [-43.146519, -22.864451], [-43.147118, -22.863374], [-43.148096, -22.863114]]]}, "properties": {"kind": "detection_zone", "layer_kind": "scene_zone", "zone_id": "SZ-fresh-guanabara-2026-07-26-013", "scene_key": "fresh-guanabara-2026-07-26", "scene_kind": "fresh_s2", "scene_id": "S2B_MSIL2A_20260726T130249_R095_T23KPQ_20260726T152052", "region": "guanabara", "title": "Залив Гуанабара (Рио-де-Жанейро) · зона 13", "mission": "Sentinel-2", "datetime": "2026-07-26T13:02:49.024000Z", "detection_status": "insufficient_data", "status": "insufficient_data", "concentration_status": "unavailable", "quantity": {"status": "not_confirmed", "label": "концентрация по снимку не подтверждена", "detail": "перевод площади в штуки не показываем: нет калибровочных пар (см. docs/QUANTITY.md)"}, "verification": "false_alarm_signs", "training_scene": null, "flags": ["ship"], "n_cozar_filaments": 0, "crop_file": "crops/SZ-fresh-guanabara-2026-07-26-013.jpg", "wind_high": false, "measured": {"zone_area_km2": 0.442, "suspicious_area_m2": 1700, "n_pixels": 17, "n_objects": 10, "water_km2": 0.445, "lwd_m2_km2": 3820.2, "lwd_note": null, "quality": {"valid_water_fraction": 1.0, "cloud_fraction": 0.0, "glint_fraction": 0.0}, "model": {"weights": "weights/lgbm", "file": "weights/lgbm/model.txt", "sha256": "0eeebf43fcccd8c7c07f053b7ec723229d1a3c9b92d12eec1bdb269258c51470", "sha256_short": "0eeebf43fccc", "trained_at": "2026-09-25T01:36:30Z", "threshold": 0.63, "harmonize": "none", "class": "MARIDA Marine Debris (любой плавающий мусор, не только пластик)"}}, "probable": {"prob_max": 0.965, "prob_mean": 0.834, "signs": {"foam": {"flag": false, "white_ratio_b2_b8": 0.682, "wind10m_ms": 1.06, "rule": "прирост B2 над водой ≥ 0.8 прироста B8 («белый» спектр) или ветер ≥ 7.0 м/с"}, "glint": {"flag": false, "b11_water_median": 0.0017, "glint_share": 0.0, "rule": "медиана B11 воды зоны > 0.01 или ≥ 20 % пикселей зоны — блик (маска качества)"}, "ship": {"flag": true, "share": 0.235, "bright_target_px_within_500m": 320, "rule": "≥ 30 % пикселей — у яркой цели или кильватера (reports/artifacts.md) или яркая цель с откликом в SWIR (судно, лодка: B11 ≥ 0,015) ближе 500 м, или малый яркий объект (≤ 40 пикс.) с B11 ≥ 0,01 ближе 500 м (лодка с кильватером)"}, "coast": {"flag": false, "land_px_within_300m": 0, "rule": "суша (маска качества) ближе 300 м — прибой, кромка берега"}, "shallow": {"flag": false, "b3_water_zone": 0.0121, "b3_ratio_to_scene_water": 0.67, "rule": "медиана B3 воды зоны ≥ 2× медианы воды снимка и ≥ 0,03, или B4 воды зоны ≥ 0,02 и (≥ 2× воды снимка или B8 ≥ 0,013) — мелководье, яркое дно, илистая банка"}, "seam": {"flag": false, "share": 0, "rule": "≥ 30 % пикселей — прямая линия вдоль трека/границы яркости (шов)"}, "cloud": {"flag": false, "cloud_fraction": 0.0, "rule": "облака или тени облаков (маска качества) ≥ 20 % зоны"}, "diag": {"dist_land_m": 934, "dist_bright_m": 14, "n_bright_px_500m": 7, "b11_bright_max_500m": 0.0436, "b4_water_zone": 0.007, "b8_water_zone": 0.0026, "b11_det_median": 0.0092, "b8_det_median": 0.0349, "water_scene_b3": 0.0181, "water_scene_b4": 0.0116, "n_det_px": 17, "n_obj": 10}, "note": "эвристики, не классификатор; на размеченных данных не проверены"}, "n_cozar_filaments": 0}, "field_nearby": {"items": [{"source": "ADIS (4TU.ResearchData, судовая камера)", "segment_id": 336436, "ship": "Bark Europa", "date": "2022-10-31", "days_from_scene": -1364, "distance_km": 347.4, "lon": -40.0369, "lat": -24.05508, "n_items": 0, "area_km2": 0.3704, "size_class": "> 5 см", "c_items_km2": 0.0, "ci95_lo": 0.0, "ci95_hi": 9.96, "ci95_method": "точный интервал Пуассона для N, делённый на A", "raw_10cm_items_km2": 0.0, "authors_cal_10cm_items_km2": 0.0, "authors_cal_10cm_lo95": null, "authors_cal_10cm_hi95": null}, {"source": "ADIS (4TU.ResearchData, судовая камера)", "segment_id": 336437, "ship": "Bark Europa", "date": "2022-10-31", "days_from_scene": -1364, "distance_km": 348.5, "lon": -40.06524, "lat": -24.14022, "n_items": 0, "area_km2": 0.3705, "size_class": "> 5 см", "c_items_km2": 0.0, "ci95_lo": 0.0, "ci95_hi": 9.96, "ci95_method": "точный интервал Пуассона для N, делённый на A", "raw_10cm_items_km2": 0.0, "authors_cal_10cm_items_km2": 0.0, "authors_cal_10cm_lo95": null, "authors_cal_10cm_hi95": null}, {"source": "ADIS (4TU.ResearchData, судовая камера)", "segment_id": 336438, "ship": "Bark Europa", "date": "2022-10-31", "days_from_scene": -1364, "distance_km": 349.7, "lon": -40.09594, "lat": -24.22453, "n_items": 0, "area_km2": 0.3702, "size_class": "> 5 см", "c_items_km2": 0.0, "ci95_lo": 0.0, "ci95_hi": 9.96, "ci95_method": "точный интервал Пуассона для N, делённый на A", "raw_10cm_items_km2": 0.0, "authors_cal_10cm_items_km2": 0.0, "authors_cal_10cm_lo95": null, "authors_cal_10cm_hi95": null}], "nearest_organizer_sample": {"sample_id": "MPL-0513", "source_id": "S2_SARGASSO_MSM41", "distance_km": 5301.6}, "note": "Измерение ≠ оценка: это независимые полевые счёты C = N/A в другое время и в другом месте; со сценой они не связаны и не калибруют её. Ближайший отрезок ADIS — за 347 км: только для порядка величин."}, "acquired_at": "2026-07-26T13:02:49.024000Z", "acquisition_date": "2026-07-26", "processed_at": "2026-09-26T20:18:54Z", "human_checked": false, "auto_label": "автоматически, не проверено человеком"}}]}