{"type": "FeatureCollection", "features": [{"type": "Feature", "id": "D-SZ-fresh-bali-2026-07-15-001-4", "geometry": {"type": "Polygon", "coordinates": [[[115.278118, -8.7390046], [115.2781176, -8.739095], [115.2780267, -8.7390946], [115.2780263, -8.739185], [115.2779354, -8.7391846], [115.277935, -8.739275], [115.2782076, -8.7392763], [115.2782089, -8.739005], [115.278118, -8.7390046]]]}, "properties": {"kind": "detection", "det_id": "D-SZ-fresh-bali-2026-07-15-001-4", "zone_id": "SZ-fresh-bali-2026-07-15-001", "scene_id": "S2C_MSIL2A_20260715T021531_R003_T50LLR_20260715T063113", "datetime": "2026-07-15T02:15:31.025000Z", "n_pixels": 6, "area_m2": 600, "prob_max": 0.9922, "prob_mean": 0.9693, "threshold": 0.63, "in_strip": true, "artifact": "ship"}}, {"type": "Feature", "id": "D-SZ-fresh-bali-2026-07-15-002-7", "geometry": {"type": "Polygon", "coordinates": [[[115.4515941, -8.7425562], [115.4515937, -8.7426467], [115.4516846, -8.742647], [115.4516849, -8.7425566], [115.4515941, -8.7425562]]]}, "properties": {"kind": "detection", "det_id": "D-SZ-fresh-bali-2026-07-15-002-7", "zone_id": "SZ-fresh-bali-2026-07-15-002", "scene_id": "S2C_MSIL2A_20260715T021531_R003_T50LLR_20260715T063113", "datetime": "2026-07-15T02:15:31.025000Z", "n_pixels": 1, "area_m2": 100, "prob_max": 0.8235, "prob_mean": 0.8235, "threshold": 0.63, "in_strip": true, "artifact": "ship"}}, {"type": "Feature", "id": "D-SZ-fresh-bali-2026-07-15-002-9", "geometry": {"type": "Polygon", "coordinates": [[[115.4513195, -8.7430072], [115.4513192, -8.7430976], [115.4515009, -8.7430984], [115.4515013, -8.743008], [115.4513195, -8.7430072]]]}, "properties": {"kind": "detection", "det_id": "D-SZ-fresh-bali-2026-07-15-002-9", "zone_id": "SZ-fresh-bali-2026-07-15-002", "scene_id": "S2C_MSIL2A_20260715T021531_R003_T50LLR_20260715T063113", "datetime": "2026-07-15T02:15:31.025000Z", "n_pixels": 2, "area_m2": 200, "prob_max": 0.6627, "prob_mean": 0.6569, "threshold": 0.63, "in_strip": true, "artifact": "ship"}}, {"type": "Feature", "id": "D-SZ-fresh-bali-2026-07-15-002-10", "geometry": {"type": "Polygon", "coordinates": [[[115.4493197, -8.7430895], [115.4493194, -8.7431799], [115.4495011, -8.7431806], [115.4495015, -8.7430902], [115.4493197, -8.7430895]]]}, "properties": {"kind": "detection", "det_id": "D-SZ-fresh-bali-2026-07-15-002-10", "zone_id": "SZ-fresh-bali-2026-07-15-002", "scene_id": "S2C_MSIL2A_20260715T021531_R003_T50LLR_20260715T063113", "datetime": "2026-07-15T02:15:31.025000Z", "n_pixels": 2, "area_m2": 200, "prob_max": 0.9255, "prob_mean": 0.7843, "threshold": 0.63, "in_strip": true, "artifact": null}}]}