{"type":"FeatureCollection","features":[{"type":"Feature","geometry":{"type":"Polygon","coordinates":[[[72.875809,19.312823],[72.87581,19.312733],[72.876095,19.312736],[72.876094,19.312827],[72.875809,19.312823]]]},"properties":{"id":"mumbai_2026-01-01_mdd_0","region":"mumbai","date":"2026-01-01","area_m2":300.0,"mean_prob":0.5085,"max_prob":0.5137,"model":"mdd","n_px":3,"px_area_m2":100.0,"confirmed":true,"confirmed_by":"lgbm","lon":72.875952,"lat":19.31278}},{"type":"Feature","geometry":{"type":"Polygon","coordinates":[[[72.877145,19.312478],[72.877146,19.312387],[72.877242,19.312388],[72.877243,19.312298],[72.877338,19.312299],[72.877339,19.312209],[72.877624,19.312212],[72.877626,19.312122],[72.877816,19.312124],[72.877817,19.312034],[72.878007,19.312036],[72.878008,19.311946],[72.878104,19.311947],[72.878105,19.311856],[72.878295,19.311859],[72.878296,19.311768],[72.878486,19.311771],[72.878488,19.31168],[72.878583,19.311681],[72.878584,19.311591],[72.878679,19.311592],[72.87868,19.311502],[72.878775,19.311503],[72.878776,19.311413],[72.878872,19.311414],[72.878873,19.311323],[72.878968,19.311325],[72.878969,19.311234],[72.879064,19.311235],[72.879065,19.311145],[72.87916,19.311146],[72.879162,19.311056],[72.879352,19.311058],[72.879353,19.310968],[72.879448,19.310969],[72.879449,19.310879],[72.879925,19.310884],[72.879926,19.310794],[72.880021,19.310795],[72.880022,19.310705],[72.880117,19.310706],[72.880119,19.310615],[72.880309,19.310618],[72.88031,19.310527],[72.880405,19.310528],[72.880404,19.310619],[72.880309,19.310618],[72.880307,19.310798],[72.880211,19.310797],[72.88021,19.310887],[72.880115,19.310886],[72.880114,19.310977],[72.880019,19.310975],[72.880018,19.311066],[72.879827,19.311064],[72.879826,19.311154],[72.879636,19.311152],[72.879635,19.311242],[72.879445,19.31124],[72.879443,19.31133],[72.879348,19.311329],[72.879347,19.311419],[72.879252,19.311418],[72.879251,19.311509],[72.879156,19.311507],[72.879155,19.311598],[72.879059,19.311597],[72.879058,19.311687],[72.878963,19.311686],[72.878962,19.311776],[72.878867,19.311775],[72.878866,19.311865],[72.878675,19.311863],[72.878674,19.311953],[72.878579,19.311952],[72.878578,19.312043],[72.878388,19.31204],[72.878387,19.312131],[72.878196,19.312129],[72.878195,19.312219],[72.87791,19.312216],[72.877909,19.312306],[72.877623,19.312303],[72.877622,19.312393],[72.877432,19.312391],[72.877431,19.312481],[72.877145,19.312478]]]},"properties":{"id":"mumbai_2026-01-01_mdd_1","region":"mumbai","date":"2026-01-01","area_m2":10900.0,"mean_prob":0.5521,"max_prob":0.6196,"model":"mdd","n_px":109,"px_area_m2":100.0,"confirmed":true,"confirmed_by":"lgbm","lon":72.878846,"lat":19.311563}},{"type":"Feature","geometry":{"type":"Polygon","coordinates":[[[72.882526,19.308385],[72.882529,19.308114],[72.882624,19.308115],[72.882626,19.308025],[72.882721,19.308026],[72.882722,19.307936],[72.882817,19.307937],[72.882819,19.307756],[72.882914,19.307757],[72.882917,19.307577],[72.883012,19.307578],[72.883013,19.307488],[72.883108,19.307489],[72.883109,19.307398],[72.8833,19.307401],[72.883302,19.30722],[72.883397,19.307221],[72.883398,19.307131],[72.883493,19.307132],[72.883495,19.307042],[72.88359,19.307043],[72.883591,19.306952],[72.883686,19.306953],[72.883687,19.306863],[72.883782,19.306864],[72.883786,19.306593],[72.883881,19.306594],[72.883882,19.306504],[72.884358,19.30651],[72.884359,19.306419],[72.884454,19.30642],[72.884455,19.30633],[72.88455,19.306331],[72.884551,19.306241],[72.884646,19.306242],[72.884648,19.306152],[72.884743,19.306153],[72.884745,19.305972],[72.88484,19.305973],[72.884841,19.305883],[72.884936,19.305884],[72.884939,19.305703],[72.885034,19.305705],[72.885035,19.305614],[72.88513,19.305615],[72.885131,19.305525],[72.885226,19.305526],[72.885229,19.305345],[72.885419,19.305348],[72.88542,19.305257],[72.885515,19.305258],[72.885513,19.305439],[72.885418,19.305438],[72.885416,19.305619],[72.88532,19.305618],[72.885318,19.305798],[72.885223,19.305797],[72.885221,19.305978],[72.885126,19.305977],[72.885123,19.306157],[72.885028,19.306156],[72.885026,19.306337],[72.884931,19.306336],[72.884929,19.306426],[72.884834,19.306425],[72.884832,19.306605],[72.884737,19.306604],[72.884736,19.306695],[72.884641,19.306694],[72.884634,19.307235],[72.884539,19.307234],[72.884536,19.307415],[72.884441,19.307414],[72.884439,19.307594],[72.884344,19.307593],[72.884342,19.307684],[72.884247,19.307683],[72.884246,19.307773],[72.884056,19.307771],[72.884058,19.30759],[72.884153,19.307591],[72.884156,19.307411],[72.884251,19.307412],[72.884257,19.30696],[72.883876,19.306956],[72.883875,19.307046],[72.88378,19.307045],[72.883776,19.307316],[72.883681,19.307315],[72.88368,19.307405],[72.883585,19.307404],[72.883584,19.307494],[72.883489,19.307493],[72.883488,19.307583],[72.883392,19.307582],[72.88339,19.307763],[72.883295,19.307762],[72.883294,19.307852],[72.883199,19.307851],[72.883198,19.307941],[72.883007,19.307939],[72.883006,19.308029],[72.882911,19.308028],[72.88291,19.308119],[72.882815,19.308118],[72.882814,19.308208],[72.882718,19.308207],[72.882716,19.308387],[72.882526,19.308385]]]},"properties":{"id":"mumbai_2026-01-01_mdd_2","region":"mumbai","date":"2026-01-01","area_m2":18800.0,"mean_prob":0.5703,"max_prob":0.6941,"model":"mdd","n_px":188,"px_area_m2":100.0,"confirmed":true,"confirmed_by":"lgbm","lon":72.884117,"lat":19.306914}},{"type":"Feature","geometry":{"type":"Polygon","coordinates":[[[72.781633,19.305019],[72.781637,19.304748],[72.781827,19.30475],[72.781823,19.305021],[72.781633,19.305019]]]},"properties":{"id":"mumbai_2026-01-01_mdd_3","region":"mumbai","date":"2026-01-01","area_m2":600.0,"mean_prob":0.5301,"max_prob":0.5569,"model":"mdd","n_px":6,"px_area_m2":100.0,"artifact":"ship","confirmed":false,"confirmed_by":null,"lon":72.78173,"lat":19.304884}},{"type":"Feature","geometry":{"type":"Polygon","coordinates":[[[72.780693,19.304194],[72.780696,19.303923],[72.780791,19.303924],[72.780793,19.303834],[72.780983,19.303836],[72.780978,19.304198],[72.780693,19.304194]]]},"properties":{"id":"mumbai_2026-01-01_mdd_4","region":"mumbai","date":"2026-01-01","area_m2":1100.0,"mean_prob":0.5761,"max_prob":0.6353,"model":"mdd","n_px":11,"px_area_m2":100.0,"confirmed":false,"confirmed_by":null,"lon":72.780846,"lat":19.304028}},{"type":"Feature","geometry":{"type":"Polygon","coordinates":[[[72.78155,19.304114],[72.781551,19.304024],[72.781456,19.304023],[72.781457,19.303933],[72.781362,19.303931],[72.781363,19.303841],[72.781173,19.303839],[72.781174,19.303748],[72.781079,19.303747],[72.78108,19.303657],[72.781366,19.30366],[72.781365,19.303751],[72.78146,19.303752],[72.781459,19.303842],[72.781744,19.303846],[72.78174,19.304117],[72.78155,19.304114]]]},"properties":{"id":"mumbai_2026-01-01_mdd_5","region":"mumbai","date":"2026-01-01","area_m2":1500.0,"mean_prob":0.5226,"max_prob":0.5608,"model":"mdd","n_px":15,"px_area_m2":100.0,"confirmed":false,"confirmed_by":null,"lon":72.781461,"lat":19.303875}},{"type":"Feature","geometry":{"type":"Polygon","coordinates":[[[72.771259,19.291344],[72.771262,19.291073],[72.771357,19.291074],[72.771361,19.290803],[72.771456,19.290805],[72.771459,19.290624],[72.771554,19.290625],[72.771556,19.290444],[72.771651,19.290446],[72.771654,19.290265],[72.771749,19.290266],[72.771751,19.290086],[72.771846,19.290087],[72.771849,19.289906],[72.771944,19.289907],[72.771945,19.289817],[72.77204,19.289818],[72.772043,19.289638],[72.772138,19.289639],[72.772139,19.289548],[72.772234,19.28955],[72.772235,19.289459],[72.772331,19.28946],[72.772333,19.28928],[72.772428,19.289281],[72.772429,19.289191],[72.772524,19.289192],[72.772526,19.289102],[72.772621,19.289103],[72.772622,19.289012],[72.772717,19.289014],[72.772718,19.288923],[72.772908,19.288926],[72.77291,19.288835],[72.773005,19.288836],[72.773006,19.288746],[72.773196,19.288748],[72.773195,19.288839],[72.7731,19.288838],[72.773099,19.288928],[72.773004,19.288927],[72.773002,19.289017],[72.772907,19.289016],[72.772906,19.289106],[72.772811,19.289105],[72.77281,19.289195],[72.772715,19.289194],[72.772713,19.289284],[72.772618,19.289283],[72.772616,19.289464],[72.772521,19.289463],[72.77252,19.289553],[72.772424,19.289552],[72.772423,19.289642],[72.772328,19.289641],[72.772326,19.289822],[72.772231,19.28982],[72.772229,19.289911],[72.772134,19.28991],[72.772133,19.29],[72.772038,19.289999],[72.772035,19.290179],[72.77194,19.290178],[72.771938,19.290359],[72.771843,19.290358],[72.77184,19.290538],[72.771745,19.290537],[72.771744,19.290627],[72.771649,19.290626],[72.771646,19.290807],[72.771551,19.290806],[72.771549,19.290986],[72.771454,19.290985],[72.771451,19.291166],[72.771356,19.291165],[72.771354,19.291345],[72.771259,19.291344]]]},"properties":{"id":"mumbai_2026-01-01_mdd_6","region":"mumbai","date":"2026-01-01","area_m2":7000.0,"mean_prob":0.5375,"max_prob":0.5843,"model":"mdd","n_px":70,"px_area_m2":100.0,"confirmed":false,"confirmed_by":null,"lon":72.772118,"lat":19.289907}},{"type":"Feature","geometry":{"type":"Polygon","coordinates":[[[72.775475,19.246777],[72.775477,19.246596],[72.775573,19.246598],[72.77557,19.246778],[72.775475,19.246777]]]},"properties":{"id":"mumbai_2026-01-01_mdd_7","region":"mumbai","date":"2026-01-01","area_m2":200.0,"mean_prob":0.5157,"max_prob":0.5216,"model":"mdd","n_px":2,"px_area_m2":100.0,"confirmed":false,"confirmed_by":null,"lon":72.775524,"lat":19.246687}},{"type":"Feature","geometry":{"type":"Polygon","coordinates":[[[72.773622,19.243142],[72.773625,19.242961],[72.77372,19.242962],[72.773718,19.243053],[72.773814,19.243054],[72.773812,19.243144],[72.773622,19.243142]]]},"properties":{"id":"mumbai_2026-01-01_mdd_8","region":"mumbai","date":"2026-01-01","area_m2":300.0,"mean_prob":0.5255,"max_prob":0.549,"model":"mdd","n_px":3,"px_area_m2":100.0,"artifact":"ship","confirmed":false,"confirmed_by":null,"lon":72.773702,"lat":19.243067}},{"type":"Feature","geometry":{"type":"Polygon","coordinates":[[[72.772874,19.242229],[72.772876,19.242049],[72.772971,19.24205],[72.772969,19.242231],[72.772874,19.242229]]]},"properties":{"id":"mumbai_2026-01-01_mdd_9","region":"mumbai","date":"2026-01-01","area_m2":200.0,"mean_prob":0.5373,"max_prob":0.5412,"model":"mdd","n_px":2,"px_area_m2":100.0,"artifact":"ship","confirmed":false,"confirmed_by":null,"lon":72.772922,"lat":19.24214}},{"type":"Feature","geometry":{"type":"Polygon","coordinates":[[[72.730834,19.215159],[72.730839,19.214798],[72.730934,19.214799],[72.730938,19.214528],[72.731033,19.214529],[72.731039,19.214078],[72.731134,19.214079],[72.731138,19.213808],[72.731233,19.213809],[72.731237,19.213538],[72.731332,19.21354],[72.731333,19.213449],[72.731428,19.21345],[72.731424,19.213721],[72.731329,19.21372],[72.731324,19.214081],[72.731229,19.21408],[72.731224,19.214441],[72.731129,19.21444],[72.731124,19.214801],[72.731029,19.2148],[72.731027,19.214981],[72.730932,19.21498],[72.730929,19.21516],[72.730834,19.215159]]]},"properties":{"id":"mumbai_2026-01-01_mdd_10","region":"mumbai","date":"2026-01-01","area_m2":3300.0,"mean_prob":0.5239,"max_prob":0.549,"model":"mdd","n_px":33,"px_area_m2":100.0,"confirmed":false,"confirmed_by":null,"lon":72.731127,"lat":19.214294}},{"type":"Feature","geometry":{"type":"Polygon","coordinates":[[[72.767751,19.149678],[72.767754,19.149498],[72.767849,19.149499],[72.767846,19.14968],[72.767751,19.149678]]]},"properties":{"id":"mumbai_2026-01-01_mdd_11","region":"mumbai","date":"2026-01-01","area_m2":200.0,"mean_prob":0.5176,"max_prob":0.5176,"model":"mdd","n_px":2,"px_area_m2":100.0,"confirmed":true,"confirmed_by":"lgbm","lon":72.7678,"lat":19.149589}},{"type":"Feature","geometry":{"type":"Polygon","coordinates":[[[72.815665,19.119815],[72.815666,19.119725],[72.815571,19.119724],[72.815572,19.119634],[72.815857,19.119637],[72.815856,19.119727],[72.815951,19.119728],[72.81595,19.119819],[72.815665,19.119815]]]},"properties":{"id":"mumbai_2026-01-01_mdd_12","region":"mumbai","date":"2026-01-01","area_m2":600.0,"mean_prob":0.5255,"max_prob":0.5412,"model":"mdd","n_px":6,"px_area_m2":100.0,"artifact":"ship","confirmed":false,"confirmed_by":null,"lon":72.815761,"lat":19.119726}},{"type":"Feature","geometry":{"type":"Polygon","coordinates":[[[72.815288,19.11954],[72.815291,19.119359],[72.815196,19.119358],[72.815197,19.119268],[72.815387,19.11927],[72.815385,19.119451],[72.81548,19.119452],[72.815478,19.119542],[72.815288,19.11954]]]},"properties":{"id":"mumbai_2026-01-01_mdd_13","region":"mumbai","date":"2026-01-01","area_m2":500.0,"mean_prob":0.52,"max_prob":0.5412,"model":"mdd","n_px":5,"px_area_m2":100.0,"artifact":"ship","confirmed":false,"confirmed_by":null,"lon":72.815338,"lat":19.119405}},{"type":"Feature","geometry":{"type":"Polygon","coordinates":[[[72.81526,19.107256],[72.815261,19.107165],[72.815356,19.107166],[72.815358,19.106986],[72.815453,19.106987],[72.815455,19.106897],[72.81555,19.106898],[72.815552,19.106717],[72.815647,19.106718],[72.815648,19.106628],[72.815838,19.10663],[72.815839,19.10654],[72.815934,19.106541],[72.815936,19.106451],[72.816031,19.106452],[72.816033,19.106271],[72.816128,19.106272],[72.816129,19.106182],[72.816224,19.106183],[72.816225,19.106093],[72.81632,19.106094],[72.816321,19.106004],[72.816511,19.106006],[72.816514,19.105825],[72.816609,19.105826],[72.81661,19.105736],[72.816705,19.105737],[72.816706,19.105647],[72.816801,19.105648],[72.816802,19.105558],[72.816897,19.105559],[72.816899,19.105469],[72.816994,19.10547],[72.816995,19.105379],[72.81709,19.10538],[72.817091,19.10529],[72.817186,19.105291],[72.817187,19.105201],[72.817282,19.105202],[72.817283,19.105112],[72.817378,19.105113],[72.81738,19.105023],[72.817475,19.105024],[72.817477,19.104843],[72.817572,19.104844],[72.817573,19.104754],[72.817668,19.104755],[72.817669,19.104665],[72.817764,19.104666],[72.817765,19.104576],[72.81786,19.104577],[72.817862,19.104486],[72.817957,19.104488],[72.817958,19.104397],[72.818053,19.104398],[72.818054,19.104308],[72.818149,19.104309],[72.81815,19.104219],[72.81834,19.104221],[72.818341,19.104131],[72.818436,19.104132],[72.818438,19.104042],[72.818533,19.104043],[72.818534,19.103952],[72.818629,19.103954],[72.81863,19.103863],[72.81882,19.103866],[72.818821,19.103775],[72.818916,19.103776],[72.818917,19.103686],[72.819012,19.103687],[72.819014,19.103597],[72.819204,19.103599],[72.819205,19.103509],[72.8193,19.10351],[72.819301,19.10342],[72.819491,19.103422],[72.819492,19.103332],[72.819587,19.103333],[72.819588,19.103242],[72.819683,19.103243],[72.819684,19.103153],[72.819874,19.103155],[72.819876,19.103065],[72.819971,19.103066],[72.819972,19.102976],[72.820162,19.102978],[72.820163,19.102888],[72.820258,19.102889],[72.820259,19.102799],[72.820354,19.1028],[72.820352,19.10298],[72.820257,19.102979],[72.820256,19.10307],[72.820066,19.103067],[72.820064,19.103158],[72.819969,19.103157],[72.819968,19.103247],[72.819873,19.103246],[72.819872,19.103336],[72.819777,19.103335],[72.819776,19.103425],[72.819681,19.103424],[72.81968,19.103514],[72.819585,19.103513],[72.819584,19.103604],[72.819489,19.103602],[72.819487,19.103693],[72.819392,19.103692],[72.819391,19.103782],[72.819201,19.10378],[72.8192,19.10387],[72.819105,19.103869],[72.819104,19.103959],[72.819009,19.103958],[72.819008,19.104048],[72.818913,19.104047],[72.818911,19.104138],[72.818816,19.104136],[72.818815,19.104227],[72.818625,19.104224],[72.818624,19.104315],[72.818529,19.104314],[72.818528,19.104404],[72.818433,19.104403],[72.818432,19.104493],[72.818337,19.104492],[72.818335,19.104582],[72.818145,19.10458],[72.818144,19.10467],[72.818049,19.104669],[72.818048,19.10476],[72.817858,19.104757],[72.817857,19.104848],[72.817762,19.104847],[72.817761,19.104937],[72.817666,19.104936],[72.817665,19.105026],[72.81757,19.105025],[72.817568,19.105115],[72.817473,19.105114],[72.817472,19.105204],[72.817377,19.105203],[72.817376,19.105294],[72.817281,19.105292],[72.81728,19.105383],[72.817185,19.105382],[72.817184,19.105472],[72.817089,19.105471],[72.817087,19.105561],[72.816992,19.10556],[72.816991,19.10565],[72.816896,19.105649],[72.816894,19.10583],[72.816799,19.105829],[72.816796,19.106009],[72.816701,19.106008],[72.8167,19.106098],[72.816605,19.106097],[72.816603,19.106278],[72.816508,19.106277],[72.816507,19.106367],[72.816412,19.106366],[72.816411,19.106456],[72.816316,19.106455],[72.816313,19.106636],[72.816218,19.106635],[72.816217,19.106725],[72.816122,19.106724],[72.816121,19.106814],[72.815931,19.106812],[72.81593,19.106902],[72.815835,19.106901],[72.815833,19.106991],[72.815643,19.106989],[72.815642,19.107079],[72.815547,19.107078],[72.815546,19.107169],[72.815356,19.107166],[72.815355,19.107257],[72.81526,19.107256]]]},"properties":{"id":"mumbai_2026-01-01_mdd_14","region":"mumbai","date":"2026-01-01","area_m2":17700.0,"mean_prob":0.5557,"max_prob":0.6275,"model":"mdd","n_px":177,"px_area_m2":100.0,"artifact":"seam","confirmed":false,"confirmed_by":null,"lon":72.817649,"lat":19.105043}},{"type":"Feature","geometry":{"type":"Polygon","coordinates":[[[72.814415,19.099207],[72.814418,19.099026],[72.814608,19.099028],[72.814605,19.099209],[72.814415,19.099207]]]},"properties":{"id":"mumbai_2026-01-01_mdd_15","region":"mumbai","date":"2026-01-01","area_m2":400.0,"mean_prob":0.5363,"max_prob":0.5412,"model":"mdd","n_px":4,"px_area_m2":100.0,"artifact":"ship","confirmed":false,"confirmed_by":null,"lon":72.814512,"lat":19.099118}},{"type":"Feature","geometry":{"type":"Polygon","coordinates":[[[72.812261,19.096833],[72.812264,19.096652],[72.812169,19.096651],[72.812176,19.096109],[72.812271,19.09611],[72.812274,19.095839],[72.812369,19.09584],[72.812373,19.09557],[72.812563,19.095572],[72.812557,19.096023],[72.812462,19.096022],[72.812452,19.096745],[72.812357,19.096744],[72.812356,19.096834],[72.812261,19.096833]]]},"properties":{"id":"mumbai_2026-01-01_mdd_16","region":"mumbai","date":"2026-01-01","area_m2":3500.0,"mean_prob":0.538,"max_prob":0.5843,"model":"mdd","n_px":35,"px_area_m2":100.0,"confirmed":false,"confirmed_by":null,"lon":72.812363,"lat":19.0962}},{"type":"Feature","geometry":{"type":"Polygon","coordinates":[[[72.81203,19.092765],[72.812033,19.092494],[72.812128,19.092496],[72.812125,19.092767],[72.81203,19.092765]]]},"properties":{"id":"mumbai_2026-01-01_mdd_17","region":"mumbai","date":"2026-01-01","area_m2":300.0,"mean_prob":0.5098,"max_prob":0.5137,"model":"mdd","n_px":3,"px_area_m2":100.0,"confirmed":true,"confirmed_by":"lgbm","lon":72.812079,"lat":19.092631}},{"type":"Feature","geometry":{"type":"Polygon","coordinates":[[[72.812037,19.092224],[72.812039,19.092043],[72.811944,19.092042],[72.811948,19.091771],[72.812043,19.091772],[72.81204,19.091953],[72.812135,19.091954],[72.812132,19.092225],[72.812037,19.092224]]]},"properties":{"id":"mumbai_2026-01-01_mdd_18","region":"mumbai","date":"2026-01-01","area_m2":600.0,"mean_prob":0.5118,"max_prob":0.5176,"model":"mdd","n_px":6,"px_area_m2":100.0,"confirmed":false,"confirmed_by":null,"lon":72.81204,"lat":19.091998}}]}