{"type": "FeatureCollection", "features": [{"type": "Feature", "id": "D-SZ-fresh-scotland-2026-09-05-001-49", "geometry": {"type": "Polygon", "coordinates": [[[-2.3425455, 56.182714], [-2.342547, 56.1826242], [-2.3423859, 56.1826233], [-2.3423844, 56.1827132], [-2.3425455, 56.182714]]]}, "properties": {"kind": "detection", "det_id": "D-SZ-fresh-scotland-2026-09-05-001-49", "zone_id": "SZ-fresh-scotland-2026-09-05-001", "scene_id": "S2C_MSIL2A_20260905T112111_R037_T30VWH_20260905T143917", "datetime": "2026-09-05T11:21:11.025000Z", "n_pixels": 1, "area_m2": 100, "prob_max": 0.9569, "prob_mean": 0.9569, "threshold": 0.63, "in_strip": true, "artifact": null}}, {"type": "Feature", "id": "D-SZ-fresh-scotland-2026-09-05-001-50", "geometry": {"type": "Polygon", "coordinates": [[[-2.3393268, 56.1825172], [-2.3393298, 56.1823375], [-2.3391688, 56.1823366], [-2.3391657, 56.1825163], [-2.3393268, 56.1825172]]]}, "properties": {"kind": "detection", "det_id": "D-SZ-fresh-scotland-2026-09-05-001-50", "zone_id": "SZ-fresh-scotland-2026-09-05-001", "scene_id": "S2C_MSIL2A_20260905T112111_R037_T30VWH_20260905T143917", "datetime": "2026-09-05T11:21:11.025000Z", "n_pixels": 2, "area_m2": 200, "prob_max": 0.9804, "prob_mean": 0.9647, "threshold": 0.63, "in_strip": true, "artifact": null}}, {"type": "Feature", "id": "D-SZ-fresh-scotland-2026-09-05-001-51", "geometry": {"type": "Polygon", "coordinates": [[[-2.3399727, 56.1824308], [-2.3399757, 56.1822511], [-2.3398146, 56.1822502], [-2.3398116, 56.1824299], [-2.3399727, 56.1824308]]]}, "properties": {"kind": "detection", "det_id": "D-SZ-fresh-scotland-2026-09-05-001-51", "zone_id": "SZ-fresh-scotland-2026-09-05-001", "scene_id": "S2C_MSIL2A_20260905T112111_R037_T30VWH_20260905T143917", "datetime": "2026-09-05T11:21:11.025000Z", "n_pixels": 2, "area_m2": 200, "prob_max": 0.8863, "prob_mean": 0.851, "threshold": 0.63, "in_strip": true, "artifact": null}}, {"type": "Feature", "id": "D-SZ-fresh-scotland-2026-09-05-002-85", "geometry": {"type": "Polygon", "coordinates": [[[-2.2633859, 56.1688802], [-2.2633876, 56.1687903], [-2.2632266, 56.1687894], [-2.2632248, 56.1688792], [-2.2633859, 56.1688802]]]}, "properties": {"kind": "detection", "det_id": "D-SZ-fresh-scotland-2026-09-05-002-85", "zone_id": "SZ-fresh-scotland-2026-09-05-002", "scene_id": "S2C_MSIL2A_20260905T112111_R037_T30VWH_20260905T143917", "datetime": "2026-09-05T11:21:11.025000Z", "n_pixels": 1, "area_m2": 100, "prob_max": 0.7569, "prob_mean": 0.7569, "threshold": 0.63, "in_strip": true, "artifact": null}}, {"type": "Feature", "id": "D-SZ-fresh-scotland-2026-09-05-002-87", "geometry": {"type": "Polygon", "coordinates": [[[-2.2651658, 56.1684415], [-2.2651692, 56.1682619], [-2.2650082, 56.1682609], [-2.2650047, 56.1684406], [-2.2651658, 56.1684415]]]}, "properties": {"kind": "detection", "det_id": "D-SZ-fresh-scotland-2026-09-05-002-87", "zone_id": "SZ-fresh-scotland-2026-09-05-002", "scene_id": "S2C_MSIL2A_20260905T112111_R037_T30VWH_20260905T143917", "datetime": "2026-09-05T11:21:11.025000Z", "n_pixels": 2, "area_m2": 200, "prob_max": 0.9922, "prob_mean": 0.9824, "threshold": 0.63, "in_strip": true, "artifact": null}}, {"type": "Feature", "id": "D-SZ-fresh-scotland-2026-09-05-002-89", "geometry": {"type": "Polygon", "coordinates": [[[-2.269683, 56.1680191], [-2.2696847, 56.1679292], [-2.2695237, 56.1679283], [-2.269522, 56.1680181], [-2.269683, 56.1680191]]]}, "properties": {"kind": "detection", "det_id": "D-SZ-fresh-scotland-2026-09-05-002-89", "zone_id": "SZ-fresh-scotland-2026-09-05-002", "scene_id": "S2C_MSIL2A_20260905T112111_R037_T30VWH_20260905T143917", "datetime": "2026-09-05T11:21:11.025000Z", "n_pixels": 1, "area_m2": 100, "prob_max": 0.9843, "prob_mean": 0.9843, "threshold": 0.63, "in_strip": true, "artifact": null}}, {"type": "Feature", "id": "D-SZ-fresh-scotland-2026-09-05-002-90", "geometry": {"type": "Polygon", "coordinates": [[[-2.2625979, 56.167977], [-2.2625997, 56.1678872], [-2.2624386, 56.1678862], [-2.2624369, 56.167976], [-2.2625979, 56.167977]]]}, "properties": {"kind": "detection", "det_id": "D-SZ-fresh-scotland-2026-09-05-002-90", "zone_id": "SZ-fresh-scotland-2026-09-05-002", "scene_id": "S2C_MSIL2A_20260905T112111_R037_T30VWH_20260905T143917", "datetime": "2026-09-05T11:21:11.025000Z", "n_pixels": 1, "area_m2": 100, "prob_max": 0.949, "prob_mean": 0.949, "threshold": 0.63, "in_strip": true, "artifact": null}}, {"type": "Feature", "id": "D-SZ-fresh-scotland-2026-09-05-002-91", "geometry": {"type": "Polygon", "coordinates": [[[-2.264854, 56.1679006], [-2.2648557, 56.1678107], [-2.2646947, 56.1678098], [-2.264693, 56.1678996], [-2.264854, 56.1679006]]]}, "properties": {"kind": "detection", "det_id": "D-SZ-fresh-scotland-2026-09-05-002-91", "zone_id": "SZ-fresh-scotland-2026-09-05-002", "scene_id": "S2C_MSIL2A_20260905T112111_R037_T30VWH_20260905T143917", "datetime": "2026-09-05T11:21:11.025000Z", "n_pixels": 1, "area_m2": 100, "prob_max": 0.9882, "prob_mean": 0.9882, "threshold": 0.63, "in_strip": true, "artifact": null}}, {"type": "Feature", "id": "D-SZ-fresh-scotland-2026-09-05-002-95", "geometry": {"type": "Polygon", "coordinates": [[[-2.2727782, 56.1661505], [-2.2727799, 56.1660606], [-2.2726189, 56.1660597], [-2.2726172, 56.1661495], [-2.2727782, 56.1661505]]]}, "properties": {"kind": "detection", "det_id": "D-SZ-fresh-scotland-2026-09-05-002-95", "zone_id": "SZ-fresh-scotland-2026-09-05-002", "scene_id": "S2C_MSIL2A_20260905T112111_R037_T30VWH_20260905T143917", "datetime": "2026-09-05T11:21:11.025000Z", "n_pixels": 1, "area_m2": 100, "prob_max": 0.8667, "prob_mean": 0.8667, "threshold": 0.63, "in_strip": true, "artifact": null}}, {"type": "Feature", "id": "D-SZ-fresh-scotland-2026-09-05-003-168", "geometry": {"type": "Polygon", "coordinates": [[[-2.3314963, 56.1417733], [-2.3314979, 56.1416835], [-2.331337, 56.1416826], [-2.3313354, 56.1417724], [-2.3314963, 56.1417733]]]}, "properties": {"kind": "detection", "det_id": "D-SZ-fresh-scotland-2026-09-05-003-168", "zone_id": "SZ-fresh-scotland-2026-09-05-003", "scene_id": "S2C_MSIL2A_20260905T112111_R037_T30VWH_20260905T143917", "datetime": "2026-09-05T11:21:11.025000Z", "n_pixels": 1, "area_m2": 100, "prob_max": 0.6863, "prob_mean": 0.6863, "threshold": 0.63, "in_strip": true, "artifact": null}}, {"type": "Feature", "id": "D-SZ-fresh-scotland-2026-09-05-003-172", "geometry": {"type": "Polygon", "coordinates": [[[-2.3281468, 56.140048], [-2.3281484, 56.1399582], [-2.3279875, 56.1399573], [-2.3279859, 56.1400471], [-2.3281468, 56.140048]]]}, "properties": {"kind": "detection", "det_id": "D-SZ-fresh-scotland-2026-09-05-003-172", "zone_id": "SZ-fresh-scotland-2026-09-05-003", "scene_id": "S2C_MSIL2A_20260905T112111_R037_T30VWH_20260905T143917", "datetime": "2026-09-05T11:21:11.025000Z", "n_pixels": 1, "area_m2": 100, "prob_max": 0.8902, "prob_mean": 0.8902, "threshold": 0.63, "in_strip": true, "artifact": null}}, {"type": "Feature", "id": "D-SZ-fresh-scotland-2026-09-05-003-175", "geometry": {"type": "Polygon", "coordinates": [[[-2.3249632, 56.138054], [-2.3249648, 56.1379641], [-2.3248039, 56.1379632], [-2.3248055, 56.1378734], [-2.3246446, 56.1378725], [-2.3246414, 56.1380522], [-2.3249632, 56.138054]]]}, "properties": {"kind": "detection", "det_id": "D-SZ-fresh-scotland-2026-09-05-003-175", "zone_id": "SZ-fresh-scotland-2026-09-05-003", "scene_id": "S2C_MSIL2A_20260905T112111_R037_T30VWH_20260905T143917", "datetime": "2026-09-05T11:21:11.025000Z", "n_pixels": 3, "area_m2": 300, "prob_max": 0.9412, "prob_mean": 0.7739, "threshold": 0.63, "in_strip": true, "artifact": null}}, {"type": "Feature", "id": "D-SZ-fresh-scotland-2026-09-05-004-236", "geometry": {"type": "Polygon", "coordinates": [[[-2.4603441, 56.1229958], [-2.4603454, 56.1229059], [-2.4601845, 56.1229052], [-2.4601833, 56.1229951], [-2.4603441, 56.1229958]]]}, "properties": {"kind": "detection", "det_id": "D-SZ-fresh-scotland-2026-09-05-004-236", "zone_id": "SZ-fresh-scotland-2026-09-05-004", "scene_id": "S2C_MSIL2A_20260905T112111_R037_T30VWH_20260905T143917", "datetime": "2026-09-05T11:21:11.025000Z", "n_pixels": 1, "area_m2": 100, "prob_max": 0.8314, "prob_mean": 0.8314, "threshold": 0.63, "in_strip": true, "artifact": null}}, {"type": "Feature", "id": "D-SZ-fresh-scotland-2026-09-05-004-239", "geometry": {"type": "Polygon", "coordinates": [[[-2.459398, 56.1216439], [-2.4593992, 56.1215541], [-2.4592384, 56.1215534], [-2.4592371, 56.1216432], [-2.459398, 56.1216439]]]}, "properties": {"kind": "detection", "det_id": "D-SZ-fresh-scotland-2026-09-05-004-239", "zone_id": "SZ-fresh-scotland-2026-09-05-004", "scene_id": "S2C_MSIL2A_20260905T112111_R037_T30VWH_20260905T143917", "datetime": "2026-09-05T11:21:11.025000Z", "n_pixels": 1, "area_m2": 100, "prob_max": 0.8784, "prob_mean": 0.8784, "threshold": 0.63, "in_strip": true, "artifact": null}}, {"type": "Feature", "id": "D-SZ-fresh-scotland-2026-09-05-004-245", "geometry": {"type": "Polygon", "coordinates": [[[-2.4512183, 56.1199906], [-2.4512196, 56.1199007], [-2.4510587, 56.1199], [-2.4510575, 56.1199898], [-2.4512183, 56.1199906]]]}, "properties": {"kind": "detection", "det_id": "D-SZ-fresh-scotland-2026-09-05-004-245", "zone_id": "SZ-fresh-scotland-2026-09-05-004", "scene_id": "S2C_MSIL2A_20260905T112111_R037_T30VWH_20260905T143917", "datetime": "2026-09-05T11:21:11.025000Z", "n_pixels": 1, "area_m2": 100, "prob_max": 0.698, "prob_mean": 0.698, "threshold": 0.63, "in_strip": true, "artifact": null}}, {"type": "Feature", "id": "D-SZ-fresh-scotland-2026-09-05-004-249", "geometry": {"type": "Polygon", "coordinates": [[[-2.4620027, 56.119409], [-2.462004, 56.1193192], [-2.4618431, 56.1193185], [-2.4618419, 56.1194083], [-2.4620027, 56.119409]]]}, "properties": {"kind": "detection", "det_id": "D-SZ-fresh-scotland-2026-09-05-004-249", "zone_id": "SZ-fresh-scotland-2026-09-05-004", "scene_id": "S2C_MSIL2A_20260905T112111_R037_T30VWH_20260905T143917", "datetime": "2026-09-05T11:21:11.025000Z", "n_pixels": 1, "area_m2": 100, "prob_max": 0.9529, "prob_mean": 0.9529, "threshold": 0.63, "in_strip": true, "artifact": null}}, {"type": "Feature", "id": "D-SZ-fresh-scotland-2026-09-05-004-250", "geometry": {"type": "Polygon", "coordinates": [[[-2.4550896, 56.119199], [-2.4550909, 56.1191092], [-2.4549301, 56.1191085], [-2.4549288, 56.1191983], [-2.4550896, 56.119199]]]}, "properties": {"kind": "detection", "det_id": "D-SZ-fresh-scotland-2026-09-05-004-250", "zone_id": "SZ-fresh-scotland-2026-09-05-004", "scene_id": "S2C_MSIL2A_20260905T112111_R037_T30VWH_20260905T143917", "datetime": "2026-09-05T11:21:11.025000Z", "n_pixels": 1, "area_m2": 100, "prob_max": 0.9137, "prob_mean": 0.9137, "threshold": 0.63, "in_strip": true, "artifact": null}}, {"type": "Feature", "id": "D-SZ-fresh-scotland-2026-09-05-004-252", "geometry": {"type": "Polygon", "coordinates": [[[-2.45928, 56.1185885], [-2.4592812, 56.1184987], [-2.4591204, 56.118498], [-2.4591192, 56.1185878], [-2.45928, 56.1185885]]]}, "properties": {"kind": "detection", "det_id": "D-SZ-fresh-scotland-2026-09-05-004-252", "zone_id": "SZ-fresh-scotland-2026-09-05-004", "scene_id": "S2C_MSIL2A_20260905T112111_R037_T30VWH_20260905T143917", "datetime": "2026-09-05T11:21:11.025000Z", "n_pixels": 1, "area_m2": 100, "prob_max": 0.7882, "prob_mean": 0.7882, "threshold": 0.63, "in_strip": true, "artifact": null}}, {"type": "Feature", "id": "D-SZ-fresh-scotland-2026-09-05-004-253", "geometry": {"type": "Polygon", "coordinates": [[[-2.4518833, 56.1184661], [-2.4518859, 56.1182864], [-2.4517251, 56.1182857], [-2.4517225, 56.1184654], [-2.4518833, 56.1184661]]]}, "properties": {"kind": "detection", "det_id": "D-SZ-fresh-scotland-2026-09-05-004-253", "zone_id": "SZ-fresh-scotland-2026-09-05-004", "scene_id": "S2C_MSIL2A_20260905T112111_R037_T30VWH_20260905T143917", "datetime": "2026-09-05T11:21:11.025000Z", "n_pixels": 2, "area_m2": 200, "prob_max": 0.9529, "prob_mean": 0.9118, "threshold": 0.63, "in_strip": true, "artifact": null}}, {"type": "Feature", "id": "D-SZ-fresh-scotland-2026-09-05-004-255", "geometry": {"type": "Polygon", "coordinates": [[[-2.4612224, 56.1176985], [-2.4612249, 56.1175188], [-2.4610641, 56.1175181], [-2.4610616, 56.1176978], [-2.4612224, 56.1176985]]]}, "properties": {"kind": "detection", "det_id": "D-SZ-fresh-scotland-2026-09-05-004-255", "zone_id": "SZ-fresh-scotland-2026-09-05-004", "scene_id": "S2C_MSIL2A_20260905T112111_R037_T30VWH_20260905T143917", "datetime": "2026-09-05T11:21:11.025000Z", "n_pixels": 2, "area_m2": 200, "prob_max": 0.9608, "prob_mean": 0.8588, "threshold": 0.63, "in_strip": true, "artifact": null}}, {"type": "Feature", "id": "D-SZ-fresh-scotland-2026-09-05-004-257", "geometry": {"type": "Polygon", "coordinates": [[[-2.4602613, 56.1174248], [-2.4602625, 56.1173349], [-2.4601017, 56.1173342], [-2.4601005, 56.1174241], [-2.4602613, 56.1174248]]]}, "properties": {"kind": "detection", "det_id": "D-SZ-fresh-scotland-2026-09-05-004-257", "zone_id": "SZ-fresh-scotland-2026-09-05-004", "scene_id": "S2C_MSIL2A_20260905T112111_R037_T30VWH_20260905T143917", "datetime": "2026-09-05T11:21:11.025000Z", "n_pixels": 1, "area_m2": 100, "prob_max": 0.698, "prob_mean": 0.698, "threshold": 0.63, "in_strip": true, "artifact": null}}, {"type": "Feature", "id": "D-SZ-fresh-scotland-2026-09-05-005-243", "geometry": {"type": "Polygon", "coordinates": [[[-2.4093916, 56.1205165], [-2.4093944, 56.1203368], [-2.4092335, 56.120336], [-2.4092308, 56.1205157], [-2.4093916, 56.1205165]]]}, "properties": {"kind": "detection", "det_id": "D-SZ-fresh-scotland-2026-09-05-005-243", "zone_id": "SZ-fresh-scotland-2026-09-05-005", "scene_id": "S2C_MSIL2A_20260905T112111_R037_T30VWH_20260905T143917", "datetime": "2026-09-05T11:21:11.025000Z", "n_pixels": 2, "area_m2": 200, "prob_max": 0.8353, "prob_mean": 0.8059, "threshold": 0.63, "in_strip": true, "artifact": null}}, {"type": "Feature", "id": "D-SZ-fresh-scotland-2026-09-05-005-248", "geometry": {"type": "Polygon", "coordinates": [[[-2.413914, 56.1192801], [-2.4139154, 56.1191903], [-2.4135937, 56.1191887], [-2.4135924, 56.1192786], [-2.413914, 56.1192801]]]}, "properties": {"kind": "detection", "det_id": "D-SZ-fresh-scotland-2026-09-05-005-248", "zone_id": "SZ-fresh-scotland-2026-09-05-005", "scene_id": "S2C_MSIL2A_20260905T112111_R037_T30VWH_20260905T143917", "datetime": "2026-09-05T11:21:11.025000Z", "n_pixels": 2, "area_m2": 200, "prob_max": 0.8824, "prob_mean": 0.8569, "threshold": 0.63, "in_strip": true, "artifact": null}}, {"type": "Feature", "id": "D-SZ-fresh-scotland-2026-09-05-005-251", "geometry": {"type": "Polygon", "coordinates": [[[-2.4148872, 56.1187456], [-2.4148885, 56.1186558], [-2.4147277, 56.118655], [-2.4147263, 56.1187449], [-2.4148872, 56.1187456]]]}, "properties": {"kind": "detection", "det_id": "D-SZ-fresh-scotland-2026-09-05-005-251", "zone_id": "SZ-fresh-scotland-2026-09-05-005", "scene_id": "S2C_MSIL2A_20260905T112111_R037_T30VWH_20260905T143917", "datetime": "2026-09-05T11:21:11.025000Z", "n_pixels": 1, "area_m2": 100, "prob_max": 0.6549, "prob_mean": 0.6549, "threshold": 0.63, "in_strip": true, "artifact": null}}, {"type": "Feature", "id": "D-SZ-fresh-scotland-2026-09-05-005-258", "geometry": {"type": "Polygon", "coordinates": [[[-2.414432, 56.1169465], [-2.4144333, 56.1168566], [-2.4142725, 56.1168559], [-2.4142712, 56.1169457], [-2.414432, 56.1169465]]]}, "properties": {"kind": "detection", "det_id": "D-SZ-fresh-scotland-2026-09-05-005-258", "zone_id": "SZ-fresh-scotland-2026-09-05-005", "scene_id": "S2C_MSIL2A_20260905T112111_R037_T30VWH_20260905T143917", "datetime": "2026-09-05T11:21:11.025000Z", "n_pixels": 1, "area_m2": 100, "prob_max": 0.9373, "prob_mean": 0.9373, "threshold": 0.63, "in_strip": true, "artifact": null}}, {"type": "Feature", "id": "D-SZ-fresh-scotland-2026-09-05-006-272", "geometry": {"type": "Polygon", "coordinates": [[[-2.3743068, 56.1118979], [-2.3743082, 56.111808], [-2.3741475, 56.1118072], [-2.374146, 56.1118971], [-2.3743068, 56.1118979]]]}, "properties": {"kind": "detection", "det_id": "D-SZ-fresh-scotland-2026-09-05-006-272", "zone_id": "SZ-fresh-scotland-2026-09-05-006", "scene_id": "S2C_MSIL2A_20260905T112111_R037_T30VWH_20260905T143917", "datetime": "2026-09-05T11:21:11.025000Z", "n_pixels": 1, "area_m2": 100, "prob_max": 0.9843, "prob_mean": 0.9843, "threshold": 0.63, "in_strip": true, "artifact": null}}, {"type": "Feature", "id": "D-SZ-fresh-scotland-2026-09-05-006-273", "geometry": {"type": "Polygon", "coordinates": [[[-2.3709316, 56.1117909], [-2.370933, 56.111701], [-2.3707722, 56.1117002], [-2.3707708, 56.1117901], [-2.3709316, 56.1117909]]]}, "properties": {"kind": "detection", "det_id": "D-SZ-fresh-scotland-2026-09-05-006-273", "zone_id": "SZ-fresh-scotland-2026-09-05-006", "scene_id": "S2C_MSIL2A_20260905T112111_R037_T30VWH_20260905T143917", "datetime": "2026-09-05T11:21:11.025000Z", "n_pixels": 1, "area_m2": 100, "prob_max": 0.8706, "prob_mean": 0.8706, "threshold": 0.63, "in_strip": true, "artifact": null}}, {"type": "Feature", "id": "D-SZ-fresh-scotland-2026-09-05-006-275", "geometry": {"type": "Polygon", "coordinates": [[[-2.3743126, 56.1115385], [-2.3743141, 56.1114487], [-2.3741533, 56.1114478], [-2.3741518, 56.1115377], [-2.3743126, 56.1115385]]]}, "properties": {"kind": "detection", "det_id": "D-SZ-fresh-scotland-2026-09-05-006-275", "zone_id": "SZ-fresh-scotland-2026-09-05-006", "scene_id": "S2C_MSIL2A_20260905T112111_R037_T30VWH_20260905T143917", "datetime": "2026-09-05T11:21:11.025000Z", "n_pixels": 1, "area_m2": 100, "prob_max": 0.9804, "prob_mean": 0.9804, "threshold": 0.63, "in_strip": true, "artifact": null}}, {"type": "Feature", "id": "D-SZ-fresh-scotland-2026-09-05-006-278", "geometry": {"type": "Polygon", "coordinates": [[[-2.3756237, 56.1100177], [-2.3756266, 56.109838], [-2.3754658, 56.1098372], [-2.3754629, 56.1100169], [-2.3756237, 56.1100177]]]}, "properties": {"kind": "detection", "det_id": "D-SZ-fresh-scotland-2026-09-05-006-278", "zone_id": "SZ-fresh-scotland-2026-09-05-006", "scene_id": "S2C_MSIL2A_20260905T112111_R037_T30VWH_20260905T143917", "datetime": "2026-09-05T11:21:11.025000Z", "n_pixels": 2, "area_m2": 200, "prob_max": 0.9843, "prob_mean": 0.9294, "threshold": 0.63, "in_strip": true, "artifact": null}}, {"type": "Feature", "id": "D-SZ-fresh-scotland-2026-09-05-006-288", "geometry": {"type": "Polygon", "coordinates": [[[-2.3729181, 56.1082968], [-2.3729195, 56.108207], [-2.3730803, 56.1082078], [-2.3730832, 56.1080281], [-2.3729225, 56.1080273], [-2.3729195, 56.108207], [-2.3727588, 56.1082062], [-2.3727602, 56.1081163], [-2.3725994, 56.1081155], [-2.372598, 56.1082054], [-2.3727588, 56.1082062], [-2.3727573, 56.108296], [-2.3729181, 56.1082968]]]}, "properties": {"kind": "detection", "det_id": "D-SZ-fresh-scotland-2026-09-05-006-288", "zone_id": "SZ-fresh-scotland-2026-09-05-006", "scene_id": "S2C_MSIL2A_20260905T112111_R037_T30VWH_20260905T143917", "datetime": "2026-09-05T11:21:11.025000Z", "n_pixels": 4, "area_m2": 400, "prob_max": 0.7216, "prob_mean": 0.6941, "threshold": 0.63, "in_strip": true, "artifact": null}}, {"type": "Feature", "id": "D-SZ-fresh-scotland-2026-09-05-007-298", "geometry": {"type": "Polygon", "coordinates": [[[-2.4256943, 56.105858], [-2.4256956, 56.1057682], [-2.4255349, 56.1057674], [-2.4255335, 56.1058573], [-2.4256943, 56.105858]]]}, "properties": {"kind": "detection", "det_id": "D-SZ-fresh-scotland-2026-09-05-007-298", "zone_id": "SZ-fresh-scotland-2026-09-05-007", "scene_id": "S2C_MSIL2A_20260905T112111_R037_T30VWH_20260905T143917", "datetime": "2026-09-05T11:21:11.025000Z", "n_pixels": 1, "area_m2": 100, "prob_max": 0.7176, "prob_mean": 0.7176, "threshold": 0.63, "in_strip": true, "artifact": null}}, {"type": "Feature", "id": "D-SZ-fresh-scotland-2026-09-05-007-306", "geometry": {"type": "Polygon", "coordinates": [[[-2.4266883, 56.1038859], [-2.4266896, 56.1037961], [-2.4265289, 56.1037953], [-2.4265275, 56.1038852], [-2.4266883, 56.1038859]]]}, "properties": {"kind": "detection", "det_id": "D-SZ-fresh-scotland-2026-09-05-007-306", "zone_id": "SZ-fresh-scotland-2026-09-05-007", "scene_id": "S2C_MSIL2A_20260905T112111_R037_T30VWH_20260905T143917", "datetime": "2026-09-05T11:21:11.025000Z", "n_pixels": 1, "area_m2": 100, "prob_max": 0.8824, "prob_mean": 0.8824, "threshold": 0.63, "in_strip": true, "artifact": null}}, {"type": "Feature", "id": "D-SZ-fresh-scotland-2026-09-05-007-311", "geometry": {"type": "Polygon", "coordinates": [[[-2.4300736, 56.1032727], [-2.4300749, 56.1031828], [-2.4299142, 56.1031821], [-2.4299128, 56.1032719], [-2.4300736, 56.1032727]]]}, "properties": {"kind": "detection", "det_id": "D-SZ-fresh-scotland-2026-09-05-007-311", "zone_id": "SZ-fresh-scotland-2026-09-05-007", "scene_id": "S2C_MSIL2A_20260905T112111_R037_T30VWH_20260905T143917", "datetime": "2026-09-05T11:21:11.025000Z", "n_pixels": 1, "area_m2": 100, "prob_max": 0.7961, "prob_mean": 0.7961, "threshold": 0.63, "in_strip": true, "artifact": null}}, {"type": "Feature", "id": "D-SZ-fresh-scotland-2026-09-05-007-317", "geometry": {"type": "Polygon", "coordinates": [[[-2.4265596, 56.1017289], [-2.4265609, 56.1016391], [-2.4264002, 56.1016384], [-2.4263988, 56.1017282], [-2.4265596, 56.1017289]]]}, "properties": {"kind": "detection", "det_id": "D-SZ-fresh-scotland-2026-09-05-007-317", "zone_id": "SZ-fresh-scotland-2026-09-05-007", "scene_id": "S2C_MSIL2A_20260905T112111_R037_T30VWH_20260905T143917", "datetime": "2026-09-05T11:21:11.025000Z", "n_pixels": 1, "area_m2": 100, "prob_max": 0.7333, "prob_mean": 0.7333, "threshold": 0.63, "in_strip": true, "artifact": null}}, {"type": "Feature", "id": "D-SZ-fresh-scotland-2026-09-05-007-327", "geometry": {"type": "Polygon", "coordinates": [[[-2.4256231, 56.0998378], [-2.4256245, 56.0997479], [-2.4254637, 56.0997472], [-2.4254624, 56.099837], [-2.4256231, 56.0998378]]]}, "properties": {"kind": "detection", "det_id": "D-SZ-fresh-scotland-2026-09-05-007-327", "zone_id": "SZ-fresh-scotland-2026-09-05-007", "scene_id": "S2C_MSIL2A_20260905T112111_R037_T30VWH_20260905T143917", "datetime": "2026-09-05T11:21:11.025000Z", "n_pixels": 1, "area_m2": 100, "prob_max": 0.9765, "prob_mean": 0.9765, "threshold": 0.63, "in_strip": true, "artifact": null}}, {"type": "Feature", "id": "D-SZ-fresh-scotland-2026-09-05-007-333", "geometry": {"type": "Polygon", "coordinates": [[[-2.4195364, 56.0983717], [-2.4195378, 56.0982819], [-2.4193771, 56.0982811], [-2.4193757, 56.0983709], [-2.4195364, 56.0983717]]]}, "properties": {"kind": "detection", "det_id": "D-SZ-fresh-scotland-2026-09-05-007-333", "zone_id": "SZ-fresh-scotland-2026-09-05-007", "scene_id": "S2C_MSIL2A_20260905T112111_R037_T30VWH_20260905T143917", "datetime": "2026-09-05T11:21:11.025000Z", "n_pixels": 1, "area_m2": 100, "prob_max": 0.9765, "prob_mean": 0.9765, "threshold": 0.63, "in_strip": true, "artifact": null}}, {"type": "Feature", "id": "D-SZ-fresh-scotland-2026-09-05-007-335", "geometry": {"type": "Polygon", "coordinates": [[[-2.4233955, 56.0982999], [-2.4233969, 56.0982101], [-2.4232361, 56.0982093], [-2.4232348, 56.0982992], [-2.4233955, 56.0982999]]]}, "properties": {"kind": "detection", "det_id": "D-SZ-fresh-scotland-2026-09-05-007-335", "zone_id": "SZ-fresh-scotland-2026-09-05-007", "scene_id": "S2C_MSIL2A_20260905T112111_R037_T30VWH_20260905T143917", "datetime": "2026-09-05T11:21:11.025000Z", "n_pixels": 1, "area_m2": 100, "prob_max": 0.8118, "prob_mean": 0.8118, "threshold": 0.63, "in_strip": true, "artifact": null}}, {"type": "Feature", "id": "D-SZ-fresh-scotland-2026-09-05-007-338", "geometry": {"type": "Polygon", "coordinates": [[[-2.4229187, 56.0979383], [-2.42292, 56.0978485], [-2.4227593, 56.0978477], [-2.422758, 56.0979376], [-2.4229187, 56.0979383]]]}, "properties": {"kind": "detection", "det_id": "D-SZ-fresh-scotland-2026-09-05-007-338", "zone_id": "SZ-fresh-scotland-2026-09-05-007", "scene_id": "S2C_MSIL2A_20260905T112111_R037_T30VWH_20260905T143917", "datetime": "2026-09-05T11:21:11.025000Z", "n_pixels": 1, "area_m2": 100, "prob_max": 0.9961, "prob_mean": 0.9961, "threshold": 0.63, "in_strip": true, "artifact": null}}, {"type": "Feature", "id": "D-SZ-fresh-scotland-2026-09-05-008-299", "geometry": {"type": "Polygon", "coordinates": [[[-2.3675031, 56.1051245], [-2.3675046, 56.1050346], [-2.3673439, 56.1050338], [-2.3673424, 56.1051237], [-2.3675031, 56.1051245]]]}, "properties": {"kind": "detection", "det_id": "D-SZ-fresh-scotland-2026-09-05-008-299", "zone_id": "SZ-fresh-scotland-2026-09-05-008", "scene_id": "S2C_MSIL2A_20260905T112111_R037_T30VWH_20260905T143917", "datetime": "2026-09-05T11:21:11.025000Z", "n_pixels": 1, "area_m2": 100, "prob_max": 0.9451, "prob_mean": 0.9451, "threshold": 0.63, "in_strip": true, "artifact": null}}, {"type": "Feature", "id": "D-SZ-fresh-scotland-2026-09-05-008-308", "geometry": {"type": "Polygon", "coordinates": [[[-2.3684972, 56.1033326], [-2.3684986, 56.1032427], [-2.3683379, 56.1032419], [-2.3683364, 56.1033317], [-2.3684972, 56.1033326]]]}, "properties": {"kind": "detection", "det_id": "D-SZ-fresh-scotland-2026-09-05-008-308", "zone_id": "SZ-fresh-scotland-2026-09-05-008", "scene_id": "S2C_MSIL2A_20260905T112111_R037_T30VWH_20260905T143917", "datetime": "2026-09-05T11:21:11.025000Z", "n_pixels": 1, "area_m2": 100, "prob_max": 0.7725, "prob_mean": 0.7725, "threshold": 0.63, "in_strip": true, "artifact": null}}, {"type": "Feature", "id": "D-SZ-fresh-scotland-2026-09-05-008-314", "geometry": {"type": "Polygon", "coordinates": [[[-2.3652983, 56.1023278], [-2.3652997, 56.102238], [-2.365139, 56.1022371], [-2.3651375, 56.102327], [-2.3652983, 56.1023278]]]}, "properties": {"kind": "detection", "det_id": "D-SZ-fresh-scotland-2026-09-05-008-314", "zone_id": "SZ-fresh-scotland-2026-09-05-008", "scene_id": "S2C_MSIL2A_20260905T112111_R037_T30VWH_20260905T143917", "datetime": "2026-09-05T11:21:11.025000Z", "n_pixels": 1, "area_m2": 100, "prob_max": 0.9137, "prob_mean": 0.9137, "threshold": 0.63, "in_strip": true, "artifact": null}}, {"type": "Feature", "id": "D-SZ-fresh-scotland-2026-09-05-008-316", "geometry": {"type": "Polygon", "coordinates": [[[-2.3694896, 56.1016305], [-2.3694911, 56.1015406], [-2.3693303, 56.1015398], [-2.3693289, 56.1016297], [-2.3694896, 56.1016305]]]}, "properties": {"kind": "detection", "det_id": "D-SZ-fresh-scotland-2026-09-05-008-316", "zone_id": "SZ-fresh-scotland-2026-09-05-008", "scene_id": "S2C_MSIL2A_20260905T112111_R037_T30VWH_20260905T143917", "datetime": "2026-09-05T11:21:11.025000Z", "n_pixels": 1, "area_m2": 100, "prob_max": 0.8235, "prob_mean": 0.8235, "threshold": 0.63, "in_strip": true, "artifact": null}}, {"type": "Feature", "id": "D-SZ-fresh-scotland-2026-09-05-008-320", "geometry": {"type": "Polygon", "coordinates": [[[-2.3740052, 56.100755], [-2.3740067, 56.1006651], [-2.3738459, 56.1006643], [-2.3738445, 56.1007541], [-2.3740052, 56.100755]]]}, "properties": {"kind": "detection", "det_id": "D-SZ-fresh-scotland-2026-09-05-008-320", "zone_id": "SZ-fresh-scotland-2026-09-05-008", "scene_id": "S2C_MSIL2A_20260905T112111_R037_T30VWH_20260905T143917", "datetime": "2026-09-05T11:21:11.025000Z", "n_pixels": 1, "area_m2": 100, "prob_max": 0.9686, "prob_mean": 0.9686, "threshold": 0.63, "in_strip": true, "artifact": null}}, {"type": "Feature", "id": "D-SZ-fresh-scotland-2026-09-05-008-328", "geometry": {"type": "Polygon", "coordinates": [[[-2.3759604, 56.0991475], [-2.3759618, 56.0990577], [-2.3758011, 56.0990569], [-2.3757996, 56.0991467], [-2.3759604, 56.0991475]]]}, "properties": {"kind": "detection", "det_id": "D-SZ-fresh-scotland-2026-09-05-008-328", "zone_id": "SZ-fresh-scotland-2026-09-05-008", "scene_id": "S2C_MSIL2A_20260905T112111_R037_T30VWH_20260905T143917", "datetime": "2026-09-05T11:21:11.025000Z", "n_pixels": 1, "area_m2": 100, "prob_max": 0.7412, "prob_mean": 0.7412, "threshold": 0.63, "in_strip": true, "artifact": null}}, {"type": "Feature", "id": "D-SZ-fresh-scotland-2026-09-05-009-303", "geometry": {"type": "Polygon", "coordinates": [[[-2.3861721, 56.1039608], [-2.3861735, 56.1038709], [-2.3860127, 56.1038701], [-2.3860113, 56.10396], [-2.3861721, 56.1039608]]]}, "properties": {"kind": "detection", "det_id": "D-SZ-fresh-scotland-2026-09-05-009-303", "zone_id": "SZ-fresh-scotland-2026-09-05-009", "scene_id": "S2C_MSIL2A_20260905T112111_R037_T30VWH_20260905T143917", "datetime": "2026-09-05T11:21:11.025000Z", "n_pixels": 1, "area_m2": 100, "prob_max": 0.8, "prob_mean": 0.8, "threshold": 0.63, "in_strip": true, "artifact": null}}, {"type": "Feature", "id": "D-SZ-fresh-scotland-2026-09-05-009-309", "geometry": {"type": "Polygon", "coordinates": [[[-2.3879504, 56.1033406], [-2.3879519, 56.1032508], [-2.3874696, 56.1032484], [-2.3874682, 56.1033383], [-2.3879504, 56.1033406]]]}, "properties": {"kind": "detection", "det_id": "D-SZ-fresh-scotland-2026-09-05-009-309", "zone_id": "SZ-fresh-scotland-2026-09-05-009", "scene_id": "S2C_MSIL2A_20260905T112111_R037_T30VWH_20260905T143917", "datetime": "2026-09-05T11:21:11.025000Z", "n_pixels": 3, "area_m2": 300, "prob_max": 0.9647, "prob_mean": 0.9163, "threshold": 0.63, "in_strip": true, "artifact": null}}, {"type": "Feature", "id": "D-SZ-fresh-scotland-2026-09-05-009-319", "geometry": {"type": "Polygon", "coordinates": [[[-2.3873416, 56.1011812], [-2.3873431, 56.1010914], [-2.3871823, 56.1010906], [-2.3871809, 56.1011804], [-2.3873416, 56.1011812]]]}, "properties": {"kind": "detection", "det_id": "D-SZ-fresh-scotland-2026-09-05-009-319", "zone_id": "SZ-fresh-scotland-2026-09-05-009", "scene_id": "S2C_MSIL2A_20260905T112111_R037_T30VWH_20260905T143917", "datetime": "2026-09-05T11:21:11.025000Z", "n_pixels": 1, "area_m2": 100, "prob_max": 0.9059, "prob_mean": 0.9059, "threshold": 0.63, "in_strip": true, "artifact": null}}, {"type": "Feature", "id": "D-SZ-fresh-scotland-2026-09-05-010-304", "geometry": {"type": "Polygon", "coordinates": [[[-2.3336065, 56.1035086], [-2.3336097, 56.103329], [-2.3334489, 56.1033281], [-2.3334473, 56.1034179], [-2.3332866, 56.1034171], [-2.333285, 56.1035069], [-2.3336065, 56.1035086]]]}, "properties": {"kind": "detection", "det_id": "D-SZ-fresh-scotland-2026-09-05-010-304", "zone_id": "SZ-fresh-scotland-2026-09-05-010", "scene_id": "S2C_MSIL2A_20260905T112111_R037_T30VWH_20260905T143917", "datetime": "2026-09-05T11:21:11.025000Z", "n_pixels": 3, "area_m2": 300, "prob_max": 0.9804, "prob_mean": 0.8889, "threshold": 0.63, "in_strip": true, "artifact": null}}, {"type": "Feature", "id": "D-SZ-fresh-scotland-2026-09-05-010-305", "geometry": {"type": "Polygon", "coordinates": [[[-2.3299091, 56.1034886], [-2.3299107, 56.1033988], [-2.3297499, 56.1033979], [-2.3297484, 56.1034878], [-2.3299091, 56.1034886]]]}, "properties": {"kind": "detection", "det_id": "D-SZ-fresh-scotland-2026-09-05-010-305", "zone_id": "SZ-fresh-scotland-2026-09-05-010", "scene_id": "S2C_MSIL2A_20260905T112111_R037_T30VWH_20260905T143917", "datetime": "2026-09-05T11:21:11.025000Z", "n_pixels": 1, "area_m2": 100, "prob_max": 0.8824, "prob_mean": 0.8824, "threshold": 0.63, "in_strip": true, "artifact": null}}, {"type": "Feature", "id": "D-SZ-fresh-scotland-2026-09-05-010-313", "geometry": {"type": "Polygon", "coordinates": [[[-2.3218902, 56.1023667], [-2.3218918, 56.1022768], [-2.321731, 56.1022759], [-2.3217294, 56.1023658], [-2.3218902, 56.1023667]]]}, "properties": {"kind": "detection", "det_id": "D-SZ-fresh-scotland-2026-09-05-010-313", "zone_id": "SZ-fresh-scotland-2026-09-05-010", "scene_id": "S2C_MSIL2A_20260905T112111_R037_T30VWH_20260905T143917", "datetime": "2026-09-05T11:21:11.025000Z", "n_pixels": 1, "area_m2": 100, "prob_max": 0.9804, "prob_mean": 0.9804, "threshold": 0.63, "in_strip": true, "artifact": null}}, {"type": "Feature", "id": "D-SZ-fresh-scotland-2026-09-05-010-315", "geometry": {"type": "Polygon", "coordinates": [[[-2.3260792, 56.1018505], [-2.3260807, 56.1017606], [-2.32592, 56.1017598], [-2.3259184, 56.1018496], [-2.3260792, 56.1018505]]]}, "properties": {"kind": "detection", "det_id": "D-SZ-fresh-scotland-2026-09-05-010-315", "zone_id": "SZ-fresh-scotland-2026-09-05-010", "scene_id": "S2C_MSIL2A_20260905T112111_R037_T30VWH_20260905T143917", "datetime": "2026-09-05T11:21:11.025000Z", "n_pixels": 1, "area_m2": 100, "prob_max": 0.902, "prob_mean": 0.902, "threshold": 0.63, "in_strip": true, "artifact": null}}, {"type": "Feature", "id": "D-SZ-fresh-scotland-2026-09-05-010-318", "geometry": {"type": "Polygon", "coordinates": [[[-2.3241659, 56.1009415], [-2.3241675, 56.1008517], [-2.3240067, 56.1008508], [-2.3240052, 56.1009407], [-2.3241659, 56.1009415]]]}, "properties": {"kind": "detection", "det_id": "D-SZ-fresh-scotland-2026-09-05-010-318", "zone_id": "SZ-fresh-scotland-2026-09-05-010", "scene_id": "S2C_MSIL2A_20260905T112111_R037_T30VWH_20260905T143917", "datetime": "2026-09-05T11:21:11.025000Z", "n_pixels": 1, "area_m2": 100, "prob_max": 0.9961, "prob_mean": 0.9961, "threshold": 0.63, "in_strip": true, "artifact": null}}, {"type": "Feature", "id": "D-SZ-fresh-scotland-2026-09-05-011-347", "geometry": {"type": "Polygon", "coordinates": [[[-2.4014134, 56.0956795], [-2.4014148, 56.0955897], [-2.4015755, 56.0955905], [-2.4015769, 56.0955006], [-2.4014162, 56.0954999], [-2.4014148, 56.0955897], [-2.401254, 56.0955889], [-2.4012526, 56.0956788], [-2.4014134, 56.0956795]]]}, "properties": {"kind": "detection", "det_id": "D-SZ-fresh-scotland-2026-09-05-011-347", "zone_id": "SZ-fresh-scotland-2026-09-05-011", "scene_id": "S2C_MSIL2A_20260905T112111_R037_T30VWH_20260905T143917", "datetime": "2026-09-05T11:21:11.025000Z", "n_pixels": 2, "area_m2": 200, "prob_max": 0.9961, "prob_mean": 0.9314, "threshold": 0.63, "in_strip": true, "artifact": null}}, {"type": "Feature", "id": "D-SZ-fresh-scotland-2026-09-05-011-350", "geometry": {"type": "Polygon", "coordinates": [[[-2.4007928, 56.0942389], [-2.4007956, 56.0940592], [-2.4006348, 56.0940585], [-2.4006321, 56.0942382], [-2.4007928, 56.0942389]]]}, "properties": {"kind": "detection", "det_id": "D-SZ-fresh-scotland-2026-09-05-011-350", "zone_id": "SZ-fresh-scotland-2026-09-05-011", "scene_id": "S2C_MSIL2A_20260905T112111_R037_T30VWH_20260905T143917", "datetime": "2026-09-05T11:21:11.025000Z", "n_pixels": 2, "area_m2": 200, "prob_max": 0.9961, "prob_mean": 0.8451, "threshold": 0.63, "in_strip": true, "artifact": null}}, {"type": "Feature", "id": "D-SZ-fresh-scotland-2026-09-05-011-351", "geometry": {"type": "Polygon", "coordinates": [[[-2.4004727, 56.0941475], [-2.4004741, 56.0940577], [-2.4003134, 56.0940569], [-2.400312, 56.0941468], [-2.4004727, 56.0941475]]]}, "properties": {"kind": "detection", "det_id": "D-SZ-fresh-scotland-2026-09-05-011-351", "zone_id": "SZ-fresh-scotland-2026-09-05-011", "scene_id": "S2C_MSIL2A_20260905T112111_R037_T30VWH_20260905T143917", "datetime": "2026-09-05T11:21:11.025000Z", "n_pixels": 1, "area_m2": 100, "prob_max": 0.902, "prob_mean": 0.902, "threshold": 0.63, "in_strip": true, "artifact": null}}, {"type": "Feature", "id": "D-SZ-fresh-scotland-2026-09-05-012-375", "geometry": {"type": "Polygon", "coordinates": [[[-2.3746695, 56.0895271], [-2.374671, 56.0894372], [-2.3745103, 56.0894364], [-2.3745088, 56.0895262], [-2.3746695, 56.0895271]]]}, "properties": {"kind": "detection", "det_id": "D-SZ-fresh-scotland-2026-09-05-012-375", "zone_id": "SZ-fresh-scotland-2026-09-05-012", "scene_id": "S2C_MSIL2A_20260905T112111_R037_T30VWH_20260905T143917", "datetime": "2026-09-05T11:21:11.025000Z", "n_pixels": 1, "area_m2": 100, "prob_max": 0.7529, "prob_mean": 0.7529, "threshold": 0.63, "in_strip": true, "artifact": null}}, {"type": "Feature", "id": "D-SZ-fresh-scotland-2026-09-05-012-383", "geometry": {"type": "Polygon", "coordinates": [[[-2.3743743, 56.0879083], [-2.3743772, 56.0877286], [-2.3742165, 56.0877278], [-2.3742136, 56.0879074], [-2.3743743, 56.0879083]]]}, "properties": {"kind": "detection", "det_id": "D-SZ-fresh-scotland-2026-09-05-012-383", "zone_id": "SZ-fresh-scotland-2026-09-05-012", "scene_id": "S2C_MSIL2A_20260905T112111_R037_T30VWH_20260905T143917", "datetime": "2026-09-05T11:21:11.025000Z", "n_pixels": 2, "area_m2": 200, "prob_max": 0.9804, "prob_mean": 0.8333, "threshold": 0.63, "in_strip": true, "artifact": null}}, {"type": "Feature", "id": "D-SZ-fresh-scotland-2026-09-05-012-384", "geometry": {"type": "Polygon", "coordinates": [[[-2.3740544, 56.0878168], [-2.3740558, 56.0877269], [-2.3738951, 56.0877261], [-2.3738937, 56.087816], [-2.3740544, 56.0878168]]]}, "properties": {"kind": "detection", "det_id": "D-SZ-fresh-scotland-2026-09-05-012-384", "zone_id": "SZ-fresh-scotland-2026-09-05-012", "scene_id": "S2C_MSIL2A_20260905T112111_R037_T30VWH_20260905T143917", "datetime": "2026-09-05T11:21:11.025000Z", "n_pixels": 1, "area_m2": 100, "prob_max": 0.9961, "prob_mean": 0.9961, "threshold": 0.63, "in_strip": true, "artifact": null}}, {"type": "Feature", "id": "D-SZ-fresh-scotland-2026-09-05-012-387", "geometry": {"type": "Polygon", "coordinates": [[[-2.3761492, 56.087468], [-2.3761507, 56.0873781], [-2.3758293, 56.0873765], [-2.3758278, 56.0874664], [-2.3761492, 56.087468]]]}, "properties": {"kind": "detection", "det_id": "D-SZ-fresh-scotland-2026-09-05-012-387", "zone_id": "SZ-fresh-scotland-2026-09-05-012", "scene_id": "S2C_MSIL2A_20260905T112111_R037_T30VWH_20260905T143917", "datetime": "2026-09-05T11:21:11.025000Z", "n_pixels": 2, "area_m2": 200, "prob_max": 0.902, "prob_mean": 0.898, "threshold": 0.63, "in_strip": true, "artifact": null}}, {"type": "Feature", "id": "D-SZ-fresh-scotland-2026-09-05-012-395", "geometry": {"type": "Polygon", "coordinates": [[[-2.3752127, 56.0857561], [-2.3752141, 56.0856663], [-2.3750535, 56.0856654], [-2.375052, 56.0857553], [-2.3752127, 56.0857561]]]}, "properties": {"kind": "detection", "det_id": "D-SZ-fresh-scotland-2026-09-05-012-395", "zone_id": "SZ-fresh-scotland-2026-09-05-012", "scene_id": "S2C_MSIL2A_20260905T112111_R037_T30VWH_20260905T143917", "datetime": "2026-09-05T11:21:11.025000Z", "n_pixels": 1, "area_m2": 100, "prob_max": 0.9333, "prob_mean": 0.9333, "threshold": 0.63, "in_strip": true, "artifact": null}}, {"type": "Feature", "id": "D-SZ-fresh-scotland-2026-09-05-012-397", "geometry": {"type": "Polygon", "coordinates": [[[-2.3776273, 56.0854987], [-2.3776288, 56.0854089], [-2.3774681, 56.0854081], [-2.3774666, 56.0854979], [-2.3776273, 56.0854987]]]}, "properties": {"kind": "detection", "det_id": "D-SZ-fresh-scotland-2026-09-05-012-397", "zone_id": "SZ-fresh-scotland-2026-09-05-012", "scene_id": "S2C_MSIL2A_20260905T112111_R037_T30VWH_20260905T143917", "datetime": "2026-09-05T11:21:11.025000Z", "n_pixels": 1, "area_m2": 100, "prob_max": 0.7843, "prob_mean": 0.7843, "threshold": 0.63, "in_strip": true, "artifact": null}}, {"type": "Feature", "id": "D-SZ-fresh-scotland-2026-09-05-013-411", "geometry": {"type": "Polygon", "coordinates": [[[-2.4464629, 56.0815137], [-2.4464642, 56.0814239], [-2.4463035, 56.0814232], [-2.4463022, 56.081513], [-2.4464629, 56.0815137]]]}, "properties": {"kind": "detection", "det_id": "D-SZ-fresh-scotland-2026-09-05-013-411", "zone_id": "SZ-fresh-scotland-2026-09-05-013", "scene_id": "S2C_MSIL2A_20260905T112111_R037_T30VWH_20260905T143917", "datetime": "2026-09-05T11:21:11.025000Z", "n_pixels": 1, "area_m2": 100, "prob_max": 0.6941, "prob_mean": 0.6941, "threshold": 0.63, "in_strip": true, "artifact": null}}, {"type": "Feature", "id": "D-SZ-fresh-scotland-2026-09-05-013-413", "geometry": {"type": "Polygon", "coordinates": [[[-2.4464693, 56.0810645], [-2.4464719, 56.0808848], [-2.4463112, 56.0808841], [-2.4463087, 56.0810638], [-2.4464693, 56.0810645]]]}, "properties": {"kind": "detection", "det_id": "D-SZ-fresh-scotland-2026-09-05-013-413", "zone_id": "SZ-fresh-scotland-2026-09-05-013", "scene_id": "S2C_MSIL2A_20260905T112111_R037_T30VWH_20260905T143917", "datetime": "2026-09-05T11:21:11.025000Z", "n_pixels": 2, "area_m2": 200, "prob_max": 0.9686, "prob_mean": 0.8902, "threshold": 0.63, "in_strip": true, "artifact": null}}, {"type": "Feature", "id": "D-SZ-fresh-scotland-2026-09-05-013-416", "geometry": {"type": "Polygon", "coordinates": [[[-2.4427817, 56.0805088], [-2.442783, 56.080419], [-2.4424617, 56.0804175], [-2.4424604, 56.0805074], [-2.4427817, 56.0805088]]]}, "properties": {"kind": "detection", "det_id": "D-SZ-fresh-scotland-2026-09-05-013-416", "zone_id": "SZ-fresh-scotland-2026-09-05-013", "scene_id": "S2C_MSIL2A_20260905T112111_R037_T30VWH_20260905T143917", "datetime": "2026-09-05T11:21:11.025000Z", "n_pixels": 2, "area_m2": 200, "prob_max": 0.9882, "prob_mean": 0.8824, "threshold": 0.63, "in_strip": true, "artifact": null}}, {"type": "Feature", "id": "D-SZ-fresh-scotland-2026-09-05-013-421", "geometry": {"type": "Polygon", "coordinates": [[[-2.4435941, 56.0798835], [-2.4435954, 56.0797937], [-2.4434348, 56.079793], [-2.4434335, 56.0798828], [-2.4435941, 56.0798835]]]}, "properties": {"kind": "detection", "det_id": "D-SZ-fresh-scotland-2026-09-05-013-421", "zone_id": "SZ-fresh-scotland-2026-09-05-013", "scene_id": "S2C_MSIL2A_20260905T112111_R037_T30VWH_20260905T143917", "datetime": "2026-09-05T11:21:11.025000Z", "n_pixels": 1, "area_m2": 100, "prob_max": 0.8078, "prob_mean": 0.8078, "threshold": 0.63, "in_strip": true, "artifact": null}}, {"type": "Feature", "id": "D-SZ-fresh-scotland-2026-09-05-013-422", "geometry": {"type": "Polygon", "coordinates": [[[-2.4479333, 56.0798132], [-2.4479346, 56.0797233], [-2.4477739, 56.0797226], [-2.4477727, 56.0798124], [-2.4479333, 56.0798132]]]}, "properties": {"kind": "detection", "det_id": "D-SZ-fresh-scotland-2026-09-05-013-422", "zone_id": "SZ-fresh-scotland-2026-09-05-013", "scene_id": "S2C_MSIL2A_20260905T112111_R037_T30VWH_20260905T143917", "datetime": "2026-09-05T11:21:11.025000Z", "n_pixels": 1, "area_m2": 100, "prob_max": 0.949, "prob_mean": 0.949, "threshold": 0.63, "in_strip": true, "artifact": null}}, {"type": "Feature", "id": "D-SZ-fresh-scotland-2026-09-05-014-428", "geometry": {"type": "Polygon", "coordinates": [[[-2.3647405, 56.0776161], [-2.364742, 56.0775263], [-2.3645813, 56.0775255], [-2.3645799, 56.0776153], [-2.3647405, 56.0776161]]]}, "properties": {"kind": "detection", "det_id": "D-SZ-fresh-scotland-2026-09-05-014-428", "zone_id": "SZ-fresh-scotland-2026-09-05-014", "scene_id": "S2C_MSIL2A_20260905T112111_R037_T30VWH_20260905T143917", "datetime": "2026-09-05T11:21:11.025000Z", "n_pixels": 1, "area_m2": 100, "prob_max": 0.7137, "prob_mean": 0.7137, "threshold": 0.63, "in_strip": true, "artifact": null}}, {"type": "Feature", "id": "D-SZ-fresh-scotland-2026-09-05-014-441", "geometry": {"type": "Polygon", "coordinates": [[[-2.3634894, 56.0755431], [-2.3634909, 56.0754533], [-2.3633302, 56.0754525], [-2.3633287, 56.0755423], [-2.3634894, 56.0755431]]]}, "properties": {"kind": "detection", "det_id": "D-SZ-fresh-scotland-2026-09-05-014-441", "zone_id": "SZ-fresh-scotland-2026-09-05-014", "scene_id": "S2C_MSIL2A_20260905T112111_R037_T30VWH_20260905T143917", "datetime": "2026-09-05T11:21:11.025000Z", "n_pixels": 1, "area_m2": 100, "prob_max": 0.8784, "prob_mean": 0.8784, "threshold": 0.63, "in_strip": true, "artifact": null}}, {"type": "Feature", "id": "D-SZ-fresh-scotland-2026-09-05-014-442", "geometry": {"type": "Polygon", "coordinates": [[[-2.3631681, 56.0755415], [-2.3631711, 56.0753618], [-2.3630104, 56.075361], [-2.3630074, 56.0755407], [-2.3631681, 56.0755415]]]}, "properties": {"kind": "detection", "det_id": "D-SZ-fresh-scotland-2026-09-05-014-442", "zone_id": "SZ-fresh-scotland-2026-09-05-014", "scene_id": "S2C_MSIL2A_20260905T112111_R037_T30VWH_20260905T143917", "datetime": "2026-09-05T11:21:11.025000Z", "n_pixels": 2, "area_m2": 200, "prob_max": 0.9373, "prob_mean": 0.8765, "threshold": 0.63, "in_strip": true, "artifact": null}}, {"type": "Feature", "id": "D-SZ-fresh-scotland-2026-09-05-014-450", "geometry": {"type": "Polygon", "coordinates": [[[-2.3607882, 56.0737322], [-2.3607897, 56.0736423], [-2.360629, 56.0736415], [-2.3606276, 56.0737313], [-2.3607882, 56.0737322]]]}, "properties": {"kind": "detection", "det_id": "D-SZ-fresh-scotland-2026-09-05-014-450", "zone_id": "SZ-fresh-scotland-2026-09-05-014", "scene_id": "S2C_MSIL2A_20260905T112111_R037_T30VWH_20260905T143917", "datetime": "2026-09-05T11:21:11.025000Z", "n_pixels": 1, "area_m2": 100, "prob_max": 0.6863, "prob_mean": 0.6863, "threshold": 0.63, "in_strip": true, "artifact": null}}]}