{"type": "FeatureCollection", "features": [{"type": "Feature", "id": "SZ-fresh-scotland-2026-09-05-001", "geometry": {"type": "Polygon", "coordinates": [[[-2.342522, 56.184062], [-2.343977, 56.1838], [-2.344793, 56.183175], [-2.34481, 56.182187], [-2.344015, 56.181554], [-2.34257, 56.181277], [-2.341602, 56.181361], [-2.339999, 56.180903], [-2.338385, 56.181075], [-2.33725, 56.181518], [-2.336749, 56.182503], [-2.337697, 56.183587], [-2.339143, 56.183864], [-2.340918, 56.183694], [-2.342522, 56.184062]]]}, "properties": {"kind": "detection_zone", "layer_kind": "scene_zone", "zone_id": "SZ-fresh-scotland-2026-09-05-001", "scene_key": "fresh-scotland-2026-09-05", "scene_kind": "fresh_s2", "scene_id": "S2C_MSIL2A_20260905T112111_R037_T30VWH_20260905T143917", "region": "scotland", "title": "Шотландия (Ферт-оф-Форт) · зона 1", "mission": "Sentinel-2", "datetime": "2026-09-05T11:21:11.025000Z", "detection_status": "insufficient_data", "status": "insufficient_data", "concentration_status": "unavailable", "quantity": {"status": "not_confirmed", "label": "концентрация по снимку не подтверждена", "detail": "перевод площади в штуки не показываем: нет калибровочных пар (см. docs/QUANTITY.md)"}, "verification": "false_alarm_signs", "training_scene": null, "flags": ["ship", "foam"], "n_cozar_filaments": 0, "crop_file": "crops/SZ-fresh-scotland-2026-09-05-001.jpg", "wind_high": true, "measured": {"zone_area_km2": 0.1322, "suspicious_area_m2": 500, "n_pixels": 5, "n_objects": 3, "water_km2": 0.1325, "lwd_m2_km2": null, "lwd_note": "ветер > 5 м/с: по правилу Cózar 2024 эта вода не входит в знаменатель «обследовано» — LWD не считается", "quality": {"valid_water_fraction": 1.0, "cloud_fraction": 0.0, "glint_fraction": 0.0}, "model": {"weights": "weights/lgbm", "file": "weights/lgbm/model.txt", "sha256": "0eeebf43fcccd8c7c07f053b7ec723229d1a3c9b92d12eec1bdb269258c51470", "sha256_short": "0eeebf43fccc", "trained_at": "2026-09-25T01:36:30Z", "threshold": 0.63, "harmonize": "none", "class": "MARIDA Marine Debris (любой плавающий мусор, не только пластик)"}}, "probable": {"prob_max": 0.98, "prob_mean": 0.918, "signs": {"foam": {"flag": true, "white_ratio_b2_b8": 1.199, "wind10m_ms": 8.39, "rule": "прирост B2 над водой ≥ 0.8 прироста B8 («белый» спектр) или ветер ≥ 7.0 м/с"}, "glint": {"flag": false, "b11_water_median": 0.007, "glint_share": 0.0, "rule": "медиана B11 воды зоны > 0.01 или ≥ 20 % пикселей зоны — блик (маска качества)"}, "ship": {"flag": true, "share": 0, "bright_target_px_within_500m": 1069, "rule": "≥ 30 % пикселей — у яркой цели или кильватера (reports/artifacts.md) или яркая цель с откликом в SWIR (судно, лодка: B11 ≥ 0,015) ближе 500 м, или малый яркий объект (≤ 40 пикс.) с B11 ≥ 0,01 ближе 500 м (лодка с кильватером)"}, "coast": {"flag": false, "land_px_within_300m": 0, "rule": "суша (маска качества) ближе 300 м — прибой, кромка берега"}, "shallow": {"flag": false, "b3_water_zone": 0.017, "b3_ratio_to_scene_water": 0.85, "rule": "медиана B3 воды зоны ≥ 2× медианы воды снимка и ≥ 0,03, или B4 воды зоны ≥ 0,02 и (≥ 2× воды снимка или B8 ≥ 0,013) — мелководье, яркое дно, илистая банка"}, "seam": {"flag": false, "share": 0, "rule": "≥ 30 % пикселей — прямая линия вдоль трека/границы яркости (шов)"}, "cloud": {"flag": false, "cloud_fraction": 0.0, "rule": "облака или тени облаков (маска качества) ≥ 20 % зоны"}, "diag": {"dist_land_m": null, "dist_bright_m": 608, "n_bright_px_500m": 0, "b11_bright_max_500m": null, "b4_water_zone": 0.0089, "b8_water_zone": 0.0068, "b11_det_median": 0.0088, "b8_det_median": 0.0273, "water_scene_b3": 0.02, "water_scene_b4": 0.0096, "n_det_px": 5, "n_obj": 3}, "note": "эвристики, не классификатор; на размеченных данных не проверены"}, "n_cozar_filaments": 0}, "field_nearby": {"items": [{"source": "ADIS (4TU.ResearchData, судовая камера)", "segment_id": 338026, "ship": "R/V Akademik Mstislav Keldysh", "date": "2022-03-31", "days_from_scene": -1619, "distance_km": 445.8, "lon": -7.91336, "lat": 58.80967, "n_items": 0, "area_km2": 0.6996, "size_class": "> 5 см", "c_items_km2": 0.0, "ci95_lo": 0.0, "ci95_hi": 5.27, "ci95_method": "точный интервал Пуассона для N, делённый на A", "raw_10cm_items_km2": 0.0, "authors_cal_10cm_items_km2": 0.0, "authors_cal_10cm_lo95": null, "authors_cal_10cm_hi95": null}, {"source": "ADIS (4TU.ResearchData, судовая камера)", "segment_id": 338025, "ship": "R/V Akademik Mstislav Keldysh", "date": "2022-03-31", "days_from_scene": -1619, "distance_km": 446.3, "lon": -8.02644, "lat": 58.74178, "n_items": 0, "area_km2": 0.7, "size_class": "> 5 см", "c_items_km2": 0.0, "ci95_lo": 0.0, "ci95_hi": 5.27, "ci95_method": "точный интервал Пуассона для N, делённый на A", "raw_10cm_items_km2": 0.0, "authors_cal_10cm_items_km2": 0.0, "authors_cal_10cm_lo95": null, "authors_cal_10cm_hi95": null}, {"source": "ADIS (4TU.ResearchData, судовая камера)", "segment_id": 338475, "ship": "R/V Akademik Mstislav Keldysh", "date": "2022-03-31", "days_from_scene": -1619, "distance_km": 447.1, "lon": -8.13141, "lat": 58.679, "n_items": 0, "area_km2": 0.9498, "size_class": "> 5 см", "c_items_km2": 0.0, "ci95_lo": 0.0, "ci95_hi": 3.88, "ci95_method": "точный интервал Пуассона для N, делённый на A", "raw_10cm_items_km2": 0.0, "authors_cal_10cm_items_km2": 0.0, "authors_cal_10cm_lo95": null, "authors_cal_10cm_hi95": null}], "nearest_organizer_sample": {"sample_id": "MPL-0092", "source_id": "S3_SE_NORTH_SEA", "distance_km": 365.8}, "note": "Измерение ≠ оценка: это независимые полевые счёты C = N/A в другое время и в другом месте; со сценой они не связаны и не калибруют её. Ближайший отрезок ADIS — за 446 км: только для порядка величин."}, "acquired_at": "2026-09-05T11:21:11.025000Z", "acquisition_date": "2026-09-05", "processed_at": "2026-09-26T19:28:16Z", "human_checked": false, "auto_label": "автоматически, не проверено человеком"}}, {"type": "Feature", "id": "SZ-fresh-scotland-2026-09-05-002", "geometry": {"type": "Polygon", "coordinates": [[[-2.26336, 56.170228], [-2.266594, 56.169528], [-2.267417, 56.168635], [-2.268693, 56.169271], [-2.269657, 56.169367], [-2.271112, 56.169106], [-2.271929, 56.168482], [-2.271788, 56.167403], [-2.27356, 56.167413], [-2.274695, 56.16697], [-2.275193, 56.166165], [-2.274727, 56.165263], [-2.272805, 56.164713], [-2.27119, 56.164973], [-2.270373, 56.165597], [-2.270514, 56.166676], [-2.269549, 56.166581], [-2.268095, 56.166842], [-2.267275, 56.167645], [-2.266803, 56.167014], [-2.265685, 56.166558], [-2.26472, 56.166462], [-2.263588, 56.166725], [-2.262464, 56.166539], [-2.26101, 56.166799], [-2.260193, 56.167424], [-2.260174, 56.168412], [-2.260969, 56.168956], [-2.261277, 56.169676], [-2.262396, 56.170132], [-2.26336, 56.170228]]]}, "properties": {"kind": "detection_zone", "layer_kind": "scene_zone", "zone_id": "SZ-fresh-scotland-2026-09-05-002", "scene_key": "fresh-scotland-2026-09-05", "scene_kind": "fresh_s2", "scene_id": "S2C_MSIL2A_20260905T112111_R037_T30VWH_20260905T143917", "region": "scotland", "title": "Шотландия (Ферт-оф-Форт) · зона 2", "mission": "Sentinel-2", "datetime": "2026-09-05T11:21:11.025000Z", "detection_status": "insufficient_data", "status": "insufficient_data", "concentration_status": "unavailable", "quantity": {"status": "not_confirmed", "label": "концентрация по снимку не подтверждена", "detail": "перевод площади в штуки не показываем: нет калибровочных пар (см. docs/QUANTITY.md)"}, "verification": "false_alarm_signs", "training_scene": null, "flags": ["foam"], "n_cozar_filaments": 0, "crop_file": "crops/SZ-fresh-scotland-2026-09-05-002.jpg", "wind_high": true, "measured": {"zone_area_km2": 0.2839, "suspicious_area_m2": 700, "n_pixels": 7, "n_objects": 6, "water_km2": 0.2853, "lwd_m2_km2": null, "lwd_note": "ветер > 5 м/с: по правилу Cózar 2024 эта вода не входит в знаменатель «обследовано» — LWD не считается", "quality": {"valid_water_fraction": 1.0, "cloud_fraction": 0.0, "glint_fraction": 0.0}, "model": {"weights": "weights/lgbm", "file": "weights/lgbm/model.txt", "sha256": "0eeebf43fcccd8c7c07f053b7ec723229d1a3c9b92d12eec1bdb269258c51470", "sha256_short": "0eeebf43fccc", "trained_at": "2026-09-25T01:36:30Z", "threshold": 0.63, "harmonize": "none", "class": "MARIDA Marine Debris (любой плавающий мусор, не только пластик)"}}, "probable": {"prob_max": 0.992, "prob_mean": 0.93, "signs": {"foam": {"flag": true, "white_ratio_b2_b8": 0.935, "wind10m_ms": 8.39, "rule": "прирост B2 над водой ≥ 0.8 прироста B8 («белый» спектр) или ветер ≥ 7.0 м/с"}, "glint": {"flag": false, "b11_water_median": 0.006, "glint_share": 0.0, "rule": "медиана B11 воды зоны > 0.01 или ≥ 20 % пикселей зоны — блик (маска качества)"}, "ship": {"flag": false, "share": 0, "bright_target_px_within_500m": 0, "rule": "≥ 30 % пикселей — у яркой цели или кильватера (reports/artifacts.md) или яркая цель с откликом в SWIR (судно, лодка: B11 ≥ 0,015) ближе 500 м, или малый яркий объект (≤ 40 пикс.) с B11 ≥ 0,01 ближе 500 м (лодка с кильватером)"}, "coast": {"flag": false, "land_px_within_300m": 0, "rule": "суша (маска качества) ближе 300 м — прибой, кромка берега"}, "shallow": {"flag": false, "b3_water_zone": 0.0161, "b3_ratio_to_scene_water": 0.81, "rule": "медиана B3 воды зоны ≥ 2× медианы воды снимка и ≥ 0,03, или B4 воды зоны ≥ 0,02 и (≥ 2× воды снимка или B8 ≥ 0,013) — мелководье, яркое дно, илистая банка"}, "seam": {"flag": false, "share": 0, "rule": "≥ 30 % пикселей — прямая линия вдоль трека/границы яркости (шов)"}, "cloud": {"flag": false, "cloud_fraction": 0.0, "rule": "облака или тени облаков (маска качества) ≥ 20 % зоны"}, "diag": {"dist_land_m": null, "dist_bright_m": 875, "n_bright_px_500m": 0, "b11_bright_max_500m": null, "b4_water_zone": 0.0085, "b8_water_zone": 0.0061, "b11_det_median": 0.007, "b8_det_median": 0.0236, "water_scene_b3": 0.02, "water_scene_b4": 0.0096, "n_det_px": 7, "n_obj": 6}, "note": "эвристики, не классификатор; на размеченных данных не проверены"}, "n_cozar_filaments": 0}, "field_nearby": {"items": [{"source": "ADIS (4TU.ResearchData, судовая камера)", "segment_id": 338026, "ship": "R/V Akademik Mstislav Keldysh", "date": "2022-03-31", "days_from_scene": -1619, "distance_km": 445.8, "lon": -7.91336, "lat": 58.80967, "n_items": 0, "area_km2": 0.6996, "size_class": "> 5 см", "c_items_km2": 0.0, "ci95_lo": 0.0, "ci95_hi": 5.27, "ci95_method": "точный интервал Пуассона для N, делённый на A", "raw_10cm_items_km2": 0.0, "authors_cal_10cm_items_km2": 0.0, "authors_cal_10cm_lo95": null, "authors_cal_10cm_hi95": null}, {"source": "ADIS (4TU.ResearchData, судовая камера)", "segment_id": 338025, "ship": "R/V Akademik Mstislav Keldysh", "date": "2022-03-31", "days_from_scene": -1619, "distance_km": 446.3, "lon": -8.02644, "lat": 58.74178, "n_items": 0, "area_km2": 0.7, "size_class": "> 5 см", "c_items_km2": 0.0, "ci95_lo": 0.0, "ci95_hi": 5.27, "ci95_method": "точный интервал Пуассона для N, делённый на A", "raw_10cm_items_km2": 0.0, "authors_cal_10cm_items_km2": 0.0, "authors_cal_10cm_lo95": null, "authors_cal_10cm_hi95": null}, {"source": "ADIS (4TU.ResearchData, судовая камера)", "segment_id": 338475, "ship": "R/V Akademik Mstislav Keldysh", "date": "2022-03-31", "days_from_scene": -1619, "distance_km": 447.1, "lon": -8.13141, "lat": 58.679, "n_items": 0, "area_km2": 0.9498, "size_class": "> 5 см", "c_items_km2": 0.0, "ci95_lo": 0.0, "ci95_hi": 3.88, "ci95_method": "точный интервал Пуассона для N, делённый на A", "raw_10cm_items_km2": 0.0, "authors_cal_10cm_items_km2": 0.0, "authors_cal_10cm_lo95": null, "authors_cal_10cm_hi95": null}], "nearest_organizer_sample": {"sample_id": "MPL-0092", "source_id": "S3_SE_NORTH_SEA", "distance_km": 365.8}, "note": "Измерение ≠ оценка: это независимые полевые счёты C = N/A в другое время и в другом месте; со сценой они не связаны и не калибруют её. Ближайший отрезок ADIS — за 446 км: только для порядка величин."}, "acquired_at": "2026-09-05T11:21:11.025000Z", "acquisition_date": "2026-09-05", "processed_at": "2026-09-26T19:28:16Z", "human_checked": false, "auto_label": "автоматически, не проверено человеком"}}, {"type": "Feature", "id": "SZ-fresh-scotland-2026-09-05-003", "geometry": {"type": "Polygon", "coordinates": [[[-2.331473, 56.143121], [-2.332926, 56.142859], [-2.333741, 56.142235], [-2.333912, 56.141697], [-2.333443, 56.140885], [-2.332324, 56.14043], [-2.330392, 56.140509], [-2.330409, 56.139521], [-2.329615, 56.138888], [-2.328172, 56.138611], [-2.326882, 56.138783], [-2.327378, 56.137977], [-2.32691, 56.137166], [-2.326272, 56.136803], [-2.324829, 56.136526], [-2.323215, 56.136787], [-2.322231, 56.137859], [-2.322696, 56.13885], [-2.324618, 56.1394], [-2.326069, 56.139228], [-2.325574, 56.139944], [-2.326041, 56.140845], [-2.327159, 56.141301], [-2.329092, 56.141221], [-2.328922, 56.141759], [-2.32939, 56.142571], [-2.330509, 56.143026], [-2.331473, 56.143121]]]}, "properties": {"kind": "detection_zone", "layer_kind": "scene_zone", "zone_id": "SZ-fresh-scotland-2026-09-05-003", "scene_key": "fresh-scotland-2026-09-05", "scene_kind": "fresh_s2", "scene_id": "S2C_MSIL2A_20260905T112111_R037_T30VWH_20260905T143917", "region": "scotland", "title": "Шотландия (Ферт-оф-Форт) · зона 3", "mission": "Sentinel-2", "datetime": "2026-09-05T11:21:11.025000Z", "detection_status": "insufficient_data", "status": "insufficient_data", "concentration_status": "unavailable", "quantity": {"status": "not_confirmed", "label": "концентрация по снимку не подтверждена", "detail": "перевод площади в штуки не показываем: нет калибровочных пар (см. docs/QUANTITY.md)"}, "verification": "false_alarm_signs", "training_scene": null, "flags": ["ship", "foam"], "n_cozar_filaments": 0, "crop_file": "crops/SZ-fresh-scotland-2026-09-05-003.jpg", "wind_high": true, "measured": {"zone_area_km2": 0.2157, "suspicious_area_m2": 500, "n_pixels": 5, "n_objects": 3, "water_km2": 0.1969, "lwd_m2_km2": null, "lwd_note": "ветер > 5 м/с: по правилу Cózar 2024 эта вода не входит в знаменатель «обследовано» — LWD не считается", "quality": {"valid_water_fraction": 0.91, "cloud_fraction": 0.012, "glint_fraction": 0.0}, "model": {"weights": "weights/lgbm", "file": "weights/lgbm/model.txt", "sha256": "0eeebf43fcccd8c7c07f053b7ec723229d1a3c9b92d12eec1bdb269258c51470", "sha256_short": "0eeebf43fccc", "trained_at": "2026-09-25T01:36:30Z", "threshold": 0.63, "harmonize": "none", "class": "MARIDA Marine Debris (любой плавающий мусор, не только пластик)"}}, "probable": {"prob_max": 0.941, "prob_mean": 0.78, "signs": {"foam": {"flag": true, "white_ratio_b2_b8": 1.151, "wind10m_ms": 8.39, "rule": "прирост B2 над водой ≥ 0.8 прироста B8 («белый» спектр) или ветер ≥ 7.0 м/с"}, "glint": {"flag": false, "b11_water_median": 0.0086, "glint_share": 0.0, "rule": "медиана B11 воды зоны > 0.01 или ≥ 20 % пикселей зоны — блик (маска качества)"}, "ship": {"flag": true, "share": 0, "bright_target_px_within_500m": 0, "rule": "≥ 30 % пикселей — у яркой цели или кильватера (reports/artifacts.md) или яркая цель с откликом в SWIR (судно, лодка: B11 ≥ 0,015) ближе 500 м, или малый яркий объект (≤ 40 пикс.) с B11 ≥ 0,01 ближе 500 м (лодка с кильватером)"}, "coast": {"flag": false, "land_px_within_300m": 0, "rule": "суша (маска качества) ближе 300 м — прибой, кромка берега"}, "shallow": {"flag": false, "b3_water_zone": 0.0198, "b3_ratio_to_scene_water": 0.99, "rule": "медиана B3 воды зоны ≥ 2× медианы воды снимка и ≥ 0,03, или B4 воды зоны ≥ 0,02 и (≥ 2× воды снимка или B8 ≥ 0,013) — мелководье, яркое дно, илистая банка"}, "seam": {"flag": false, "share": 0, "rule": "≥ 30 % пикселей — прямая линия вдоль трека/границы яркости (шов)"}, "cloud": {"flag": false, "cloud_fraction": 0.012, "rule": "облака или тени облаков (маска качества) ≥ 20 % зоны"}, "diag": {"dist_land_m": null, "dist_bright_m": 453, "n_bright_px_500m": 2, "b11_bright_max_500m": 0.0125, "b4_water_zone": 0.0116, "b8_water_zone": 0.0089, "b11_det_median": 0.0091, "b8_det_median": 0.0299, "water_scene_b3": 0.02, "water_scene_b4": 0.0096, "n_det_px": 5, "n_obj": 3}, "note": "эвристики, не классификатор; на размеченных данных не проверены"}, "n_cozar_filaments": 0}, "field_nearby": {"items": [{"source": "ADIS (4TU.ResearchData, судовая камера)", "segment_id": 338026, "ship": "R/V Akademik Mstislav Keldysh", "date": "2022-03-31", "days_from_scene": -1619, "distance_km": 445.8, "lon": -7.91336, "lat": 58.80967, "n_items": 0, "area_km2": 0.6996, "size_class": "> 5 см", "c_items_km2": 0.0, "ci95_lo": 0.0, "ci95_hi": 5.27, "ci95_method": "точный интервал Пуассона для N, делённый на A", "raw_10cm_items_km2": 0.0, "authors_cal_10cm_items_km2": 0.0, "authors_cal_10cm_lo95": null, "authors_cal_10cm_hi95": null}, {"source": "ADIS (4TU.ResearchData, судовая камера)", "segment_id": 338025, "ship": "R/V Akademik Mstislav Keldysh", "date": "2022-03-31", "days_from_scene": -1619, "distance_km": 446.3, "lon": -8.02644, "lat": 58.74178, "n_items": 0, "area_km2": 0.7, "size_class": "> 5 см", "c_items_km2": 0.0, "ci95_lo": 0.0, "ci95_hi": 5.27, "ci95_method": "точный интервал Пуассона для N, делённый на A", "raw_10cm_items_km2": 0.0, "authors_cal_10cm_items_km2": 0.0, "authors_cal_10cm_lo95": null, "authors_cal_10cm_hi95": null}, {"source": "ADIS (4TU.ResearchData, судовая камера)", "segment_id": 338475, "ship": "R/V Akademik Mstislav Keldysh", "date": "2022-03-31", "days_from_scene": -1619, "distance_km": 447.1, "lon": -8.13141, "lat": 58.679, "n_items": 0, "area_km2": 0.9498, "size_class": "> 5 см", "c_items_km2": 0.0, "ci95_lo": 0.0, "ci95_hi": 3.88, "ci95_method": "точный интервал Пуассона для N, делённый на A", "raw_10cm_items_km2": 0.0, "authors_cal_10cm_items_km2": 0.0, "authors_cal_10cm_lo95": null, "authors_cal_10cm_hi95": null}], "nearest_organizer_sample": {"sample_id": "MPL-0092", "source_id": "S3_SE_NORTH_SEA", "distance_km": 365.8}, "note": "Измерение ≠ оценка: это независимые полевые счёты C = N/A в другое время и в другом месте; со сценой они не связаны и не калибруют её. Ближайший отрезок ADIS — за 446 км: только для порядка величин."}, "acquired_at": "2026-09-05T11:21:11.025000Z", "acquisition_date": "2026-09-05", "processed_at": "2026-09-26T19:28:16Z", "human_checked": false, "auto_label": "автоматически, не проверено человеком"}}, {"type": "Feature", "id": "SZ-fresh-scotland-2026-09-05-004", "geometry": {"type": "Polygon", "coordinates": [[[-2.460325, 56.124343], [-2.461777, 56.12408], [-2.462757, 56.123006], [-2.462287, 56.122106], [-2.461647, 56.121833], [-2.461657, 56.121115], [-2.461181, 56.120663], [-2.462789, 56.12067], [-2.464248, 56.119868], [-2.464262, 56.11888], [-2.463306, 56.118247], [-2.463637, 56.117529], [-2.463166, 56.116719], [-2.461084, 56.116081], [-2.459315, 56.116073], [-2.458183, 56.116517], [-2.45785, 56.117324], [-2.456873, 56.118219], [-2.455913, 56.117855], [-2.453983, 56.117846], [-2.453827, 56.117486], [-2.452708, 56.117032], [-2.451744, 56.116938], [-2.450293, 56.117201], [-2.44948, 56.117826], [-2.449463, 56.118994], [-2.448646, 56.119889], [-2.449116, 56.12079], [-2.450235, 56.121244], [-2.451199, 56.121338], [-2.45265, 56.121075], [-2.453466, 56.12027], [-2.45491, 56.120546], [-2.456522, 56.120284], [-2.457337, 56.119478], [-2.458297, 56.119842], [-2.459745, 56.119848], [-2.46006, 56.120299], [-2.459257, 56.120206], [-2.457806, 56.120469], [-2.456993, 56.121094], [-2.456825, 56.121633], [-2.457296, 56.122443], [-2.457935, 56.122716], [-2.458242, 56.123795], [-2.459361, 56.124249], [-2.460325, 56.124343]]]}, "properties": {"kind": "detection_zone", "layer_kind": "scene_zone", "zone_id": "SZ-fresh-scotland-2026-09-05-004", "scene_key": "fresh-scotland-2026-09-05", "scene_kind": "fresh_s2", "scene_id": "S2C_MSIL2A_20260905T112111_R037_T30VWH_20260905T143917", "region": "scotland", "title": "Шотландия (Ферт-оф-Форт) · зона 4", "mission": "Sentinel-2", "datetime": "2026-09-05T11:21:11.025000Z", "detection_status": "insufficient_data", "status": "insufficient_data", "concentration_status": "unavailable", "quantity": {"status": "not_confirmed", "label": "концентрация по снимку не подтверждена", "detail": "перевод площади в штуки не показываем: нет калибровочных пар (см. docs/QUANTITY.md)"}, "verification": "false_alarm_signs", "training_scene": null, "flags": ["foam"], "n_cozar_filaments": 0, "crop_file": "crops/SZ-fresh-scotland-2026-09-05-004.jpg", "wind_high": true, "measured": {"zone_area_km2": 0.4663, "suspicious_area_m2": 1100, "n_pixels": 11, "n_objects": 9, "water_km2": 0.4694, "lwd_m2_km2": null, "lwd_note": "ветер > 5 м/с: по правилу Cózar 2024 эта вода не входит в знаменатель «обследовано» — LWD не считается", "quality": {"valid_water_fraction": 1.0, "cloud_fraction": 0.0, "glint_fraction": 0.0}, "model": {"weights": "weights/lgbm", "file": "weights/lgbm/model.txt", "sha256": "0eeebf43fcccd8c7c07f053b7ec723229d1a3c9b92d12eec1bdb269258c51470", "sha256_short": "0eeebf43fccc", "trained_at": "2026-09-25T01:36:30Z", "threshold": 0.63, "harmonize": "none", "class": "MARIDA Marine Debris (любой плавающий мусор, не только пластик)"}}, "probable": {"prob_max": 0.961, "prob_mean": 0.846, "signs": {"foam": {"flag": true, "white_ratio_b2_b8": 1.158, "wind10m_ms": 8.39, "rule": "прирост B2 над водой ≥ 0.8 прироста B8 («белый» спектр) или ветер ≥ 7.0 м/с"}, "glint": {"flag": false, "b11_water_median": 0.006, "glint_share": 0.0, "rule": "медиана B11 воды зоны > 0.01 или ≥ 20 % пикселей зоны — блик (маска качества)"}, "ship": {"flag": false, "share": 0, "bright_target_px_within_500m": 0, "rule": "≥ 30 % пикселей — у яркой цели или кильватера (reports/artifacts.md) или яркая цель с откликом в SWIR (судно, лодка: B11 ≥ 0,015) ближе 500 м, или малый яркий объект (≤ 40 пикс.) с B11 ≥ 0,01 ближе 500 м (лодка с кильватером)"}, "coast": {"flag": false, "land_px_within_300m": 0, "rule": "суша (маска качества) ближе 300 м — прибой, кромка берега"}, "shallow": {"flag": false, "b3_water_zone": 0.0202, "b3_ratio_to_scene_water": 1.01, "rule": "медиана B3 воды зоны ≥ 2× медианы воды снимка и ≥ 0,03, или B4 воды зоны ≥ 0,02 и (≥ 2× воды снимка или B8 ≥ 0,013) — мелководье, яркое дно, илистая банка"}, "seam": {"flag": false, "share": 0, "rule": "≥ 30 % пикселей — прямая линия вдоль трека/границы яркости (шов)"}, "cloud": {"flag": false, "cloud_fraction": 0.0, "rule": "облака или тени облаков (маска качества) ≥ 20 % зоны"}, "diag": {"dist_land_m": null, "dist_bright_m": 133, "n_bright_px_500m": 3, "b11_bright_max_500m": 0.0083, "b4_water_zone": 0.0097, "b8_water_zone": 0.0067, "b11_det_median": 0.0066, "b8_det_median": 0.0232, "water_scene_b3": 0.02, "water_scene_b4": 0.0096, "n_det_px": 11, "n_obj": 9}, "note": "эвристики, не классификатор; на размеченных данных не проверены"}, "n_cozar_filaments": 0}, "field_nearby": {"items": [{"source": "ADIS (4TU.ResearchData, судовая камера)", "segment_id": 338026, "ship": "R/V Akademik Mstislav Keldysh", "date": "2022-03-31", "days_from_scene": -1619, "distance_km": 445.8, "lon": -7.91336, "lat": 58.80967, "n_items": 0, "area_km2": 0.6996, "size_class": "> 5 см", "c_items_km2": 0.0, "ci95_lo": 0.0, "ci95_hi": 5.27, "ci95_method": "точный интервал Пуассона для N, делённый на A", "raw_10cm_items_km2": 0.0, "authors_cal_10cm_items_km2": 0.0, "authors_cal_10cm_lo95": null, "authors_cal_10cm_hi95": null}, {"source": "ADIS (4TU.ResearchData, судовая камера)", "segment_id": 338025, "ship": "R/V Akademik Mstislav Keldysh", "date": "2022-03-31", "days_from_scene": -1619, "distance_km": 446.3, "lon": -8.02644, "lat": 58.74178, "n_items": 0, "area_km2": 0.7, "size_class": "> 5 см", "c_items_km2": 0.0, "ci95_lo": 0.0, "ci95_hi": 5.27, "ci95_method": "точный интервал Пуассона для N, делённый на A", "raw_10cm_items_km2": 0.0, "authors_cal_10cm_items_km2": 0.0, "authors_cal_10cm_lo95": null, "authors_cal_10cm_hi95": null}, {"source": "ADIS (4TU.ResearchData, судовая камера)", "segment_id": 338475, "ship": "R/V Akademik Mstislav Keldysh", "date": "2022-03-31", "days_from_scene": -1619, "distance_km": 447.1, "lon": -8.13141, "lat": 58.679, "n_items": 0, "area_km2": 0.9498, "size_class": "> 5 см", "c_items_km2": 0.0, "ci95_lo": 0.0, "ci95_hi": 3.88, "ci95_method": "точный интервал Пуассона для N, делённый на A", "raw_10cm_items_km2": 0.0, "authors_cal_10cm_items_km2": 0.0, "authors_cal_10cm_lo95": null, "authors_cal_10cm_hi95": null}], "nearest_organizer_sample": {"sample_id": "MPL-0092", "source_id": "S3_SE_NORTH_SEA", "distance_km": 365.8}, "note": "Измерение ≠ оценка: это независимые полевые счёты C = N/A в другое время и в другом месте; со сценой они не связаны и не калибруют её. Ближайший отрезок ADIS — за 446 км: только для порядка величин."}, "acquired_at": "2026-09-05T11:21:11.025000Z", "acquisition_date": "2026-09-05", "processed_at": "2026-09-26T19:28:16Z", "human_checked": false, "auto_label": "автоматически, не проверено человеком"}}, {"type": "Feature", "id": "SZ-fresh-scotland-2026-09-05-005", "geometry": {"type": "Polygon", "coordinates": [[[-2.409371, 56.121864], [-2.411309, 56.121334], [-2.411804, 56.120528], [-2.41165, 56.120078], [-2.412769, 56.120533], [-2.413894, 56.120628], [-2.415345, 56.120365], [-2.416805, 56.119563], [-2.417301, 56.118667], [-2.416831, 56.117856], [-2.416351, 56.117674], [-2.416844, 56.116958], [-2.416692, 56.116418], [-2.415897, 56.115785], [-2.414293, 56.115508], [-2.412355, 56.116038], [-2.411859, 56.116934], [-2.412807, 56.118017], [-2.411676, 56.118371], [-2.411181, 56.119177], [-2.411337, 56.119537], [-2.409415, 56.118989], [-2.408449, 56.119074], [-2.407316, 56.119518], [-2.406821, 56.120324], [-2.406972, 56.120954], [-2.407767, 56.121587], [-2.409371, 56.121864]]]}, "properties": {"kind": "detection_zone", "layer_kind": "scene_zone", "zone_id": "SZ-fresh-scotland-2026-09-05-005", "scene_key": "fresh-scotland-2026-09-05", "scene_kind": "fresh_s2", "scene_id": "S2C_MSIL2A_20260905T112111_R037_T30VWH_20260905T143917", "region": "scotland", "title": "Шотландия (Ферт-оф-Форт) · зона 5", "mission": "Sentinel-2", "datetime": "2026-09-05T11:21:11.025000Z", "detection_status": "insufficient_data", "status": "insufficient_data", "concentration_status": "unavailable", "quantity": {"status": "not_confirmed", "label": "концентрация по снимку не подтверждена", "detail": "перевод площади в штуки не показываем: нет калибровочных пар (см. docs/QUANTITY.md)"}, "verification": "false_alarm_signs", "training_scene": null, "flags": ["foam"], "n_cozar_filaments": 0, "crop_file": "crops/SZ-fresh-scotland-2026-09-05-005.jpg", "wind_high": true, "measured": {"zone_area_km2": 0.2288, "suspicious_area_m2": 600, "n_pixels": 6, "n_objects": 4, "water_km2": 0.2289, "lwd_m2_km2": null, "lwd_note": "ветер > 5 м/с: по правилу Cózar 2024 эта вода не входит в знаменатель «обследовано» — LWD не считается", "quality": {"valid_water_fraction": 1.0, "cloud_fraction": 0.0, "glint_fraction": 0.0}, "model": {"weights": "weights/lgbm", "file": "weights/lgbm/model.txt", "sha256": "0eeebf43fcccd8c7c07f053b7ec723229d1a3c9b92d12eec1bdb269258c51470", "sha256_short": "0eeebf43fccc", "trained_at": "2026-09-25T01:36:30Z", "threshold": 0.63, "harmonize": "none", "class": "MARIDA Marine Debris (любой плавающий мусор, не только пластик)"}}, "probable": {"prob_max": 0.937, "prob_mean": 0.82, "signs": {"foam": {"flag": true, "white_ratio_b2_b8": 1.008, "wind10m_ms": 8.39, "rule": "прирост B2 над водой ≥ 0.8 прироста B8 («белый» спектр) или ветер ≥ 7.0 м/с"}, "glint": {"flag": false, "b11_water_median": 0.006, "glint_share": 0.0, "rule": "медиана B11 воды зоны > 0.01 или ≥ 20 % пикселей зоны — блик (маска качества)"}, "ship": {"flag": false, "share": 0, "bright_target_px_within_500m": 0, "rule": "≥ 30 % пикселей — у яркой цели или кильватера (reports/artifacts.md) или яркая цель с откликом в SWIR (судно, лодка: B11 ≥ 0,015) ближе 500 м, или малый яркий объект (≤ 40 пикс.) с B11 ≥ 0,01 ближе 500 м (лодка с кильватером)"}, "coast": {"flag": false, "land_px_within_300m": 0, "rule": "суша (маска качества) ближе 300 м — прибой, кромка берега"}, "shallow": {"flag": false, "b3_water_zone": 0.0169, "b3_ratio_to_scene_water": 0.84, "rule": "медиана B3 воды зоны ≥ 2× медианы воды снимка и ≥ 0,03, или B4 воды зоны ≥ 0,02 и (≥ 2× воды снимка или B8 ≥ 0,013) — мелководье, яркое дно, илистая банка"}, "seam": {"flag": false, "share": 0, "rule": "≥ 30 % пикселей — прямая линия вдоль трека/границы яркости (шов)"}, "cloud": {"flag": false, "cloud_fraction": 0.0, "rule": "облака или тени облаков (маска качества) ≥ 20 % зоны"}, "diag": {"dist_land_m": null, "dist_bright_m": 775, "n_bright_px_500m": 0, "b11_bright_max_500m": null, "b4_water_zone": 0.0092, "b8_water_zone": 0.0067, "b11_det_median": 0.0064, "b8_det_median": 0.0194, "water_scene_b3": 0.02, "water_scene_b4": 0.0096, "n_det_px": 6, "n_obj": 4}, "note": "эвристики, не классификатор; на размеченных данных не проверены"}, "n_cozar_filaments": 0}, "field_nearby": {"items": [{"source": "ADIS (4TU.ResearchData, судовая камера)", "segment_id": 338026, "ship": "R/V Akademik Mstislav Keldysh", "date": "2022-03-31", "days_from_scene": -1619, "distance_km": 445.8, "lon": -7.91336, "lat": 58.80967, "n_items": 0, "area_km2": 0.6996, "size_class": "> 5 см", "c_items_km2": 0.0, "ci95_lo": 0.0, "ci95_hi": 5.27, "ci95_method": "точный интервал Пуассона для N, делённый на A", "raw_10cm_items_km2": 0.0, "authors_cal_10cm_items_km2": 0.0, "authors_cal_10cm_lo95": null, "authors_cal_10cm_hi95": null}, {"source": "ADIS (4TU.ResearchData, судовая камера)", "segment_id": 338025, "ship": "R/V Akademik Mstislav Keldysh", "date": "2022-03-31", "days_from_scene": -1619, "distance_km": 446.3, "lon": -8.02644, "lat": 58.74178, "n_items": 0, "area_km2": 0.7, "size_class": "> 5 см", "c_items_km2": 0.0, "ci95_lo": 0.0, "ci95_hi": 5.27, "ci95_method": "точный интервал Пуассона для N, делённый на A", "raw_10cm_items_km2": 0.0, "authors_cal_10cm_items_km2": 0.0, "authors_cal_10cm_lo95": null, "authors_cal_10cm_hi95": null}, {"source": "ADIS (4TU.ResearchData, судовая камера)", "segment_id": 338475, "ship": "R/V Akademik Mstislav Keldysh", "date": "2022-03-31", "days_from_scene": -1619, "distance_km": 447.1, "lon": -8.13141, "lat": 58.679, "n_items": 0, "area_km2": 0.9498, "size_class": "> 5 см", "c_items_km2": 0.0, "ci95_lo": 0.0, "ci95_hi": 3.88, "ci95_method": "точный интервал Пуассона для N, делённый на A", "raw_10cm_items_km2": 0.0, "authors_cal_10cm_items_km2": 0.0, "authors_cal_10cm_lo95": null, "authors_cal_10cm_hi95": null}], "nearest_organizer_sample": {"sample_id": "MPL-0092", "source_id": "S3_SE_NORTH_SEA", "distance_km": 365.8}, "note": "Измерение ≠ оценка: это независимые полевые счёты C = N/A в другое время и в другом месте; со сценой они не связаны и не калибруют её. Ближайший отрезок ADIS — за 446 км: только для порядка величин."}, "acquired_at": "2026-09-05T11:21:11.025000Z", "acquisition_date": "2026-09-05", "processed_at": "2026-09-26T19:28:16Z", "human_checked": false, "auto_label": "автоматически, не проверено человеком"}}, {"type": "Feature", "id": "SZ-fresh-scotland-2026-09-05-006", "geometry": {"type": "Polygon", "coordinates": [[[-2.374285, 56.113246], [-2.376223, 56.112716], [-2.376719, 56.11191], [-2.37657, 56.111191], [-2.37754, 56.110836], [-2.378038, 56.10985], [-2.377091, 56.108767], [-2.375325, 56.108579], [-2.375495, 56.10804], [-2.375026, 56.107229], [-2.373908, 56.106774], [-2.372944, 56.10668], [-2.37117, 56.10703], [-2.370356, 56.107655], [-2.370186, 56.108193], [-2.370655, 56.109004], [-2.371293, 56.109367], [-2.373219, 56.109556], [-2.373208, 56.110275], [-2.372398, 56.11063], [-2.370955, 56.110353], [-2.369343, 56.110615], [-2.368528, 56.11124], [-2.368359, 56.111778], [-2.368828, 56.112589], [-2.369946, 56.113044], [-2.37091, 56.113139], [-2.372523, 56.112787], [-2.373322, 56.113151], [-2.374285, 56.113246]]]}, "properties": {"kind": "detection_zone", "layer_kind": "scene_zone", "zone_id": "SZ-fresh-scotland-2026-09-05-006", "scene_key": "fresh-scotland-2026-09-05", "scene_kind": "fresh_s2", "scene_id": "S2C_MSIL2A_20260905T112111_R037_T30VWH_20260905T143917", "region": "scotland", "title": "Шотландия (Ферт-оф-Форт) · зона 6", "mission": "Sentinel-2", "datetime": "2026-09-05T11:21:11.025000Z", "detection_status": "insufficient_data", "status": "insufficient_data", "concentration_status": "unavailable", "quantity": {"status": "not_confirmed", "label": "концентрация по снимку не подтверждена", "detail": "перевод площади в штуки не показываем: нет калибровочных пар (см. docs/QUANTITY.md)"}, "verification": "false_alarm_signs", "training_scene": null, "flags": ["foam"], "n_cozar_filaments": 0, "crop_file": "crops/SZ-fresh-scotland-2026-09-05-006.jpg", "wind_high": true, "measured": {"zone_area_km2": 0.2672, "suspicious_area_m2": 900, "n_pixels": 9, "n_objects": 5, "water_km2": 0.2679, "lwd_m2_km2": null, "lwd_note": "ветер > 5 м/с: по правилу Cózar 2024 эта вода не входит в знаменатель «обследовано» — LWD не считается", "quality": {"valid_water_fraction": 1.0, "cloud_fraction": 0.0, "glint_fraction": 0.0}, "model": {"weights": "weights/lgbm", "file": "weights/lgbm/model.txt", "sha256": "0eeebf43fcccd8c7c07f053b7ec723229d1a3c9b92d12eec1bdb269258c51470", "sha256_short": "0eeebf43fccc", "trained_at": "2026-09-25T01:36:30Z", "threshold": 0.63, "harmonize": "none", "class": "MARIDA Marine Debris (любой плавающий мусор, не только пластик)"}}, "probable": {"prob_max": 0.984, "prob_mean": 0.83, "signs": {"foam": {"flag": true, "white_ratio_b2_b8": 1.144, "wind10m_ms": 8.39, "rule": "прирост B2 над водой ≥ 0.8 прироста B8 («белый» спектр) или ветер ≥ 7.0 м/с"}, "glint": {"flag": false, "b11_water_median": 0.006, "glint_share": 0.0, "rule": "медиана B11 воды зоны > 0.01 или ≥ 20 % пикселей зоны — блик (маска качества)"}, "ship": {"flag": false, "share": 0, "bright_target_px_within_500m": 0, "rule": "≥ 30 % пикселей — у яркой цели или кильватера (reports/artifacts.md) или яркая цель с откликом в SWIR (судно, лодка: B11 ≥ 0,015) ближе 500 м, или малый яркий объект (≤ 40 пикс.) с B11 ≥ 0,01 ближе 500 м (лодка с кильватером)"}, "coast": {"flag": false, "land_px_within_300m": 0, "rule": "суша (маска качества) ближе 300 м — прибой, кромка берега"}, "shallow": {"flag": false, "b3_water_zone": 0.0162, "b3_ratio_to_scene_water": 0.81, "rule": "медиана B3 воды зоны ≥ 2× медианы воды снимка и ≥ 0,03, или B4 воды зоны ≥ 0,02 и (≥ 2× воды снимка или B8 ≥ 0,013) — мелководье, яркое дно, илистая банка"}, "seam": {"flag": false, "share": 0, "rule": "≥ 30 % пикселей — прямая линия вдоль трека/границы яркости (шов)"}, "cloud": {"flag": false, "cloud_fraction": 0.0, "rule": "облака или тени облаков (маска качества) ≥ 20 % зоны"}, "diag": {"dist_land_m": null, "dist_bright_m": 426, "n_bright_px_500m": 2, "b11_bright_max_500m": 0.0081, "b4_water_zone": 0.0083, "b8_water_zone": 0.0063, "b11_det_median": 0.0075, "b8_det_median": 0.0234, "water_scene_b3": 0.02, "water_scene_b4": 0.0096, "n_det_px": 9, "n_obj": 5}, "note": "эвристики, не классификатор; на размеченных данных не проверены"}, "n_cozar_filaments": 0}, "field_nearby": {"items": [{"source": "ADIS (4TU.ResearchData, судовая камера)", "segment_id": 338026, "ship": "R/V Akademik Mstislav Keldysh", "date": "2022-03-31", "days_from_scene": -1619, "distance_km": 445.8, "lon": -7.91336, "lat": 58.80967, "n_items": 0, "area_km2": 0.6996, "size_class": "> 5 см", "c_items_km2": 0.0, "ci95_lo": 0.0, "ci95_hi": 5.27, "ci95_method": "точный интервал Пуассона для N, делённый на A", "raw_10cm_items_km2": 0.0, "authors_cal_10cm_items_km2": 0.0, "authors_cal_10cm_lo95": null, "authors_cal_10cm_hi95": null}, {"source": "ADIS (4TU.ResearchData, судовая камера)", "segment_id": 338025, "ship": "R/V Akademik Mstislav Keldysh", "date": "2022-03-31", "days_from_scene": -1619, "distance_km": 446.3, "lon": -8.02644, "lat": 58.74178, "n_items": 0, "area_km2": 0.7, "size_class": "> 5 см", "c_items_km2": 0.0, "ci95_lo": 0.0, "ci95_hi": 5.27, "ci95_method": "точный интервал Пуассона для N, делённый на A", "raw_10cm_items_km2": 0.0, "authors_cal_10cm_items_km2": 0.0, "authors_cal_10cm_lo95": null, "authors_cal_10cm_hi95": null}, {"source": "ADIS (4TU.ResearchData, судовая камера)", "segment_id": 338475, "ship": "R/V Akademik Mstislav Keldysh", "date": "2022-03-31", "days_from_scene": -1619, "distance_km": 447.1, "lon": -8.13141, "lat": 58.679, "n_items": 0, "area_km2": 0.9498, "size_class": "> 5 см", "c_items_km2": 0.0, "ci95_lo": 0.0, "ci95_hi": 3.88, "ci95_method": "точный интервал Пуассона для N, делённый на A", "raw_10cm_items_km2": 0.0, "authors_cal_10cm_items_km2": 0.0, "authors_cal_10cm_lo95": null, "authors_cal_10cm_hi95": null}], "nearest_organizer_sample": {"sample_id": "MPL-0092", "source_id": "S3_SE_NORTH_SEA", "distance_km": 365.8}, "note": "Измерение ≠ оценка: это независимые полевые счёты C = N/A в другое время и в другом месте; со сценой они не связаны и не калибруют её. Ближайший отрезок ADIS — за 446 км: только для порядка величин."}, "acquired_at": "2026-09-05T11:21:11.025000Z", "acquisition_date": "2026-09-05", "processed_at": "2026-09-26T19:28:16Z", "human_checked": false, "auto_label": "автоматически, не проверено человеком"}}, {"type": "Feature", "id": "SZ-fresh-scotland-2026-09-05-007", "geometry": {"type": "Polygon", "coordinates": [[[-2.425674, 56.107206], [-2.427612, 56.106676], [-2.428106, 56.105869], [-2.427636, 56.105058], [-2.42877, 56.104435], [-2.430054, 56.10462], [-2.431991, 56.10409], [-2.432485, 56.103284], [-2.432332, 56.102744], [-2.430897, 56.101929], [-2.428806, 56.102009], [-2.428818, 56.1012], [-2.427702, 56.100566], [-2.427882, 56.099309], [-2.427087, 56.098677], [-2.425643, 56.09849], [-2.425654, 56.097771], [-2.424383, 56.096777], [-2.422779, 56.0965], [-2.421329, 56.096763], [-2.42084, 56.09721], [-2.419558, 56.096934], [-2.418592, 56.09702], [-2.417133, 56.097821], [-2.416965, 56.09836], [-2.417435, 56.09917], [-2.419355, 56.099719], [-2.420321, 56.099633], [-2.421292, 56.099189], [-2.422412, 56.099553], [-2.423216, 56.099557], [-2.423205, 56.100276], [-2.424321, 56.10091], [-2.423988, 56.101717], [-2.424458, 56.102528], [-2.424937, 56.10271], [-2.424117, 56.103784], [-2.424588, 56.104595], [-2.423618, 56.10495], [-2.423122, 56.105846], [-2.42407, 56.106929], [-2.425674, 56.107206]]]}, "properties": {"kind": "detection_zone", "layer_kind": "scene_zone", "zone_id": "SZ-fresh-scotland-2026-09-05-007", "scene_key": "fresh-scotland-2026-09-05", "scene_kind": "fresh_s2", "scene_id": "S2C_MSIL2A_20260905T112111_R037_T30VWH_20260905T143917", "region": "scotland", "title": "Шотландия (Ферт-оф-Форт) · зона 7", "mission": "Sentinel-2", "datetime": "2026-09-05T11:21:11.025000Z", "detection_status": "insufficient_data", "status": "insufficient_data", "concentration_status": "unavailable", "quantity": {"status": "not_confirmed", "label": "концентрация по снимку не подтверждена", "detail": "перевод площади в штуки не показываем: нет калибровочных пар (см. docs/QUANTITY.md)"}, "verification": "false_alarm_signs", "training_scene": null, "flags": ["foam"], "n_cozar_filaments": 0, "crop_file": "crops/SZ-fresh-scotland-2026-09-05-007.jpg", "wind_high": true, "measured": {"zone_area_km2": 0.4407, "suspicious_area_m2": 800, "n_pixels": 8, "n_objects": 8, "water_km2": 0.4464, "lwd_m2_km2": null, "lwd_note": "ветер > 5 м/с: по правилу Cózar 2024 эта вода не входит в знаменатель «обследовано» — LWD не считается", "quality": {"valid_water_fraction": 1.0, "cloud_fraction": 0.0, "glint_fraction": 0.0}, "model": {"weights": "weights/lgbm", "file": "weights/lgbm/model.txt", "sha256": "0eeebf43fcccd8c7c07f053b7ec723229d1a3c9b92d12eec1bdb269258c51470", "sha256_short": "0eeebf43fccc", "trained_at": "2026-09-25T01:36:30Z", "threshold": 0.63, "harmonize": "none", "class": "MARIDA Marine Debris (любой плавающий мусор, не только пластик)"}}, "probable": {"prob_max": 0.996, "prob_mean": 0.861, "signs": {"foam": {"flag": true, "white_ratio_b2_b8": 1.036, "wind10m_ms": 8.39, "rule": "прирост B2 над водой ≥ 0.8 прироста B8 («белый» спектр) или ветер ≥ 7.0 м/с"}, "glint": {"flag": false, "b11_water_median": 0.0063, "glint_share": 0.0, "rule": "медиана B11 воды зоны > 0.01 или ≥ 20 % пикселей зоны — блик (маска качества)"}, "ship": {"flag": false, "share": 0, "bright_target_px_within_500m": 0, "rule": "≥ 30 % пикселей — у яркой цели или кильватера (reports/artifacts.md) или яркая цель с откликом в SWIR (судно, лодка: B11 ≥ 0,015) ближе 500 м, или малый яркий объект (≤ 40 пикс.) с B11 ≥ 0,01 ближе 500 м (лодка с кильватером)"}, "coast": {"flag": false, "land_px_within_300m": 0, "rule": "суша (маска качества) ближе 300 м — прибой, кромка берега"}, "shallow": {"flag": false, "b3_water_zone": 0.0178, "b3_ratio_to_scene_water": 0.89, "rule": "медиана B3 воды зоны ≥ 2× медианы воды снимка и ≥ 0,03, или B4 воды зоны ≥ 0,02 и (≥ 2× воды снимка или B8 ≥ 0,013) — мелководье, яркое дно, илистая банка"}, "seam": {"flag": false, "share": 0, "rule": "≥ 30 % пикселей — прямая линия вдоль трека/границы яркости (шов)"}, "cloud": {"flag": false, "cloud_fraction": 0.0, "rule": "облака или тени облаков (маска качества) ≥ 20 % зоны"}, "diag": {"dist_land_m": null, "dist_bright_m": 885, "n_bright_px_500m": 0, "b11_bright_max_500m": null, "b4_water_zone": 0.0093, "b8_water_zone": 0.0069, "b11_det_median": 0.0075, "b8_det_median": 0.0219, "water_scene_b3": 0.02, "water_scene_b4": 0.0096, "n_det_px": 8, "n_obj": 8}, "note": "эвристики, не классификатор; на размеченных данных не проверены"}, "n_cozar_filaments": 0}, "field_nearby": {"items": [{"source": "ADIS (4TU.ResearchData, судовая камера)", "segment_id": 338026, "ship": "R/V Akademik Mstislav Keldysh", "date": "2022-03-31", "days_from_scene": -1619, "distance_km": 445.8, "lon": -7.91336, "lat": 58.80967, "n_items": 0, "area_km2": 0.6996, "size_class": "> 5 см", "c_items_km2": 0.0, "ci95_lo": 0.0, "ci95_hi": 5.27, "ci95_method": "точный интервал Пуассона для N, делённый на A", "raw_10cm_items_km2": 0.0, "authors_cal_10cm_items_km2": 0.0, "authors_cal_10cm_lo95": null, "authors_cal_10cm_hi95": null}, {"source": "ADIS (4TU.ResearchData, судовая камера)", "segment_id": 338025, "ship": "R/V Akademik Mstislav Keldysh", "date": "2022-03-31", "days_from_scene": -1619, "distance_km": 446.3, "lon": -8.02644, "lat": 58.74178, "n_items": 0, "area_km2": 0.7, "size_class": "> 5 см", "c_items_km2": 0.0, "ci95_lo": 0.0, "ci95_hi": 5.27, "ci95_method": "точный интервал Пуассона для N, делённый на A", "raw_10cm_items_km2": 0.0, "authors_cal_10cm_items_km2": 0.0, "authors_cal_10cm_lo95": null, "authors_cal_10cm_hi95": null}, {"source": "ADIS (4TU.ResearchData, судовая камера)", "segment_id": 338475, "ship": "R/V Akademik Mstislav Keldysh", "date": "2022-03-31", "days_from_scene": -1619, "distance_km": 447.1, "lon": -8.13141, "lat": 58.679, "n_items": 0, "area_km2": 0.9498, "size_class": "> 5 см", "c_items_km2": 0.0, "ci95_lo": 0.0, "ci95_hi": 3.88, "ci95_method": "точный интервал Пуассона для N, делённый на A", "raw_10cm_items_km2": 0.0, "authors_cal_10cm_items_km2": 0.0, "authors_cal_10cm_lo95": null, "authors_cal_10cm_hi95": null}], "nearest_organizer_sample": {"sample_id": "MPL-0092", "source_id": "S3_SE_NORTH_SEA", "distance_km": 365.8}, "note": "Измерение ≠ оценка: это независимые полевые счёты C = N/A в другое время и в другом месте; со сценой они не связаны и не калибруют её. Ближайший отрезок ADIS — за 446 км: только для порядка величин."}, "acquired_at": "2026-09-05T11:21:11.025000Z", "acquisition_date": "2026-09-05", "processed_at": "2026-09-26T19:28:16Z", "human_checked": false, "auto_label": "автоматически, не проверено человеком"}}, {"type": "Feature", "id": "SZ-fresh-scotland-2026-09-05-008", "geometry": {"type": "Polygon", "coordinates": [[[-2.367481, 56.106472], [-2.368932, 56.10621], [-2.369747, 56.105585], [-2.369605, 56.104416], [-2.37074, 56.103793], [-2.370597, 56.102714], [-2.371405, 56.102449], [-2.37174, 56.101642], [-2.372063, 56.101554], [-2.37302, 56.102008], [-2.374789, 56.102017], [-2.375921, 56.101573], [-2.376416, 56.100767], [-2.376262, 56.100407], [-2.377876, 56.099966], [-2.378373, 56.09907], [-2.377426, 56.097987], [-2.375984, 56.09771], [-2.374372, 56.097971], [-2.373558, 56.098596], [-2.373545, 56.099405], [-2.37193, 56.099846], [-2.371433, 56.100742], [-2.370315, 56.100287], [-2.369352, 56.100192], [-2.367901, 56.100454], [-2.367083, 56.101349], [-2.365161, 56.10089], [-2.363223, 56.101419], [-2.362728, 56.102225], [-2.363195, 56.103126], [-2.364313, 56.103581], [-2.366081, 56.10359], [-2.366239, 56.10377], [-2.365101, 56.104573], [-2.365084, 56.105561], [-2.365878, 56.106194], [-2.367481, 56.106472]], [[-2.371905, 56.101373], [-2.371742, 56.101552], [-2.371745, 56.101372], [-2.371905, 56.101373]], [[-2.371594, 56.100743], [-2.37143, 56.100922], [-2.371433, 56.100742], [-2.371594, 56.100743]]]}, "properties": {"kind": "detection_zone", "layer_kind": "scene_zone", "zone_id": "SZ-fresh-scotland-2026-09-05-008", "scene_key": "fresh-scotland-2026-09-05", "scene_kind": "fresh_s2", "scene_id": "S2C_MSIL2A_20260905T112111_R037_T30VWH_20260905T143917", "region": "scotland", "title": "Шотландия (Ферт-оф-Форт) · зона 8", "mission": "Sentinel-2", "datetime": "2026-09-05T11:21:11.025000Z", "detection_status": "insufficient_data", "status": "insufficient_data", "concentration_status": "unavailable", "quantity": {"status": "not_confirmed", "label": "концентрация по снимку не подтверждена", "detail": "перевод площади в штуки не показываем: нет калибровочных пар (см. docs/QUANTITY.md)"}, "verification": "false_alarm_signs", "training_scene": null, "flags": ["foam"], "n_cozar_filaments": 0, "crop_file": "crops/SZ-fresh-scotland-2026-09-05-008.jpg", "wind_high": true, "measured": {"zone_area_km2": 0.3675, "suspicious_area_m2": 600, "n_pixels": 6, "n_objects": 6, "water_km2": 0.3725, "lwd_m2_km2": null, "lwd_note": "ветер > 5 м/с: по правилу Cózar 2024 эта вода не входит в знаменатель «обследовано» — LWD не считается", "quality": {"valid_water_fraction": 1.0, "cloud_fraction": 0.0, "glint_fraction": 0.0}, "model": {"weights": "weights/lgbm", "file": "weights/lgbm/model.txt", "sha256": "0eeebf43fcccd8c7c07f053b7ec723229d1a3c9b92d12eec1bdb269258c51470", "sha256_short": "0eeebf43fccc", "trained_at": "2026-09-25T01:36:30Z", "threshold": 0.63, "harmonize": "none", "class": "MARIDA Marine Debris (любой плавающий мусор, не только пластик)"}}, "probable": {"prob_max": 0.969, "prob_mean": 0.861, "signs": {"foam": {"flag": true, "white_ratio_b2_b8": 1.156, "wind10m_ms": 8.39, "rule": "прирост B2 над водой ≥ 0.8 прироста B8 («белый» спектр) или ветер ≥ 7.0 м/с"}, "glint": {"flag": false, "b11_water_median": 0.0061, "glint_share": 0.0, "rule": "медиана B11 воды зоны > 0.01 или ≥ 20 % пикселей зоны — блик (маска качества)"}, "ship": {"flag": false, "share": 0, "bright_target_px_within_500m": 0, "rule": "≥ 30 % пикселей — у яркой цели или кильватера (reports/artifacts.md) или яркая цель с откликом в SWIR (судно, лодка: B11 ≥ 0,015) ближе 500 м, или малый яркий объект (≤ 40 пикс.) с B11 ≥ 0,01 ближе 500 м (лодка с кильватером)"}, "coast": {"flag": false, "land_px_within_300m": 0, "rule": "суша (маска качества) ближе 300 м — прибой, кромка берега"}, "shallow": {"flag": false, "b3_water_zone": 0.0165, "b3_ratio_to_scene_water": 0.82, "rule": "медиана B3 воды зоны ≥ 2× медианы воды снимка и ≥ 0,03, или B4 воды зоны ≥ 0,02 и (≥ 2× воды снимка или B8 ≥ 0,013) — мелководье, яркое дно, илистая банка"}, "seam": {"flag": false, "share": 0, "rule": "≥ 30 % пикселей — прямая линия вдоль трека/границы яркости (шов)"}, "cloud": {"flag": false, "cloud_fraction": 0.0, "rule": "облака или тени облаков (маска качества) ≥ 20 % зоны"}, "diag": {"dist_land_m": null, "dist_bright_m": 382, "n_bright_px_500m": 1, "b11_bright_max_500m": 0.0084, "b4_water_zone": 0.0086, "b8_water_zone": 0.0066, "b11_det_median": 0.0066, "b8_det_median": 0.0214, "water_scene_b3": 0.02, "water_scene_b4": 0.0096, "n_det_px": 6, "n_obj": 6}, "note": "эвристики, не классификатор; на размеченных данных не проверены"}, "n_cozar_filaments": 0}, "field_nearby": {"items": [{"source": "ADIS (4TU.ResearchData, судовая камера)", "segment_id": 338026, "ship": "R/V Akademik Mstislav Keldysh", "date": "2022-03-31", "days_from_scene": -1619, "distance_km": 445.8, "lon": -7.91336, "lat": 58.80967, "n_items": 0, "area_km2": 0.6996, "size_class": "> 5 см", "c_items_km2": 0.0, "ci95_lo": 0.0, "ci95_hi": 5.27, "ci95_method": "точный интервал Пуассона для N, делённый на A", "raw_10cm_items_km2": 0.0, "authors_cal_10cm_items_km2": 0.0, "authors_cal_10cm_lo95": null, "authors_cal_10cm_hi95": null}, {"source": "ADIS (4TU.ResearchData, судовая камера)", "segment_id": 338025, "ship": "R/V Akademik Mstislav Keldysh", "date": "2022-03-31", "days_from_scene": -1619, "distance_km": 446.3, "lon": -8.02644, "lat": 58.74178, "n_items": 0, "area_km2": 0.7, "size_class": "> 5 см", "c_items_km2": 0.0, "ci95_lo": 0.0, "ci95_hi": 5.27, "ci95_method": "точный интервал Пуассона для N, делённый на A", "raw_10cm_items_km2": 0.0, "authors_cal_10cm_items_km2": 0.0, "authors_cal_10cm_lo95": null, "authors_cal_10cm_hi95": null}, {"source": "ADIS (4TU.ResearchData, судовая камера)", "segment_id": 338475, "ship": "R/V Akademik Mstislav Keldysh", "date": "2022-03-31", "days_from_scene": -1619, "distance_km": 447.1, "lon": -8.13141, "lat": 58.679, "n_items": 0, "area_km2": 0.9498, "size_class": "> 5 см", "c_items_km2": 0.0, "ci95_lo": 0.0, "ci95_hi": 3.88, "ci95_method": "точный интервал Пуассона для N, делённый на A", "raw_10cm_items_km2": 0.0, "authors_cal_10cm_items_km2": 0.0, "authors_cal_10cm_lo95": null, "authors_cal_10cm_hi95": null}], "nearest_organizer_sample": {"sample_id": "MPL-0092", "source_id": "S3_SE_NORTH_SEA", "distance_km": 365.8}, "note": "Измерение ≠ оценка: это независимые полевые счёты C = N/A в другое время и в другом месте; со сценой они не связаны и не калибруют её. Ближайший отрезок ADIS — за 446 км: только для порядка величин."}, "acquired_at": "2026-09-05T11:21:11.025000Z", "acquisition_date": "2026-09-05", "processed_at": "2026-09-26T19:28:16Z", "human_checked": false, "auto_label": "автоматически, не проверено человеком"}}, {"type": "Feature", "id": "SZ-fresh-scotland-2026-09-05-009", "geometry": {"type": "Polygon", "coordinates": [[[-2.386151, 56.105308], [-2.387602, 56.105046], [-2.388091, 56.104599], [-2.38938, 56.104426], [-2.390362, 56.103353], [-2.389894, 56.102452], [-2.389094, 56.102178], [-2.389753, 56.101193], [-2.389601, 56.100653], [-2.388807, 56.10002], [-2.387364, 56.099744], [-2.386399, 56.099829], [-2.385266, 56.100272], [-2.38477, 56.101168], [-2.385239, 56.101979], [-2.385876, 56.102342], [-2.384097, 56.103052], [-2.383601, 56.103858], [-2.384069, 56.104759], [-2.385187, 56.105214], [-2.386151, 56.105308]]]}, "properties": {"kind": "detection_zone", "layer_kind": "scene_zone", "zone_id": "SZ-fresh-scotland-2026-09-05-009", "scene_key": "fresh-scotland-2026-09-05", "scene_kind": "fresh_s2", "scene_id": "S2C_MSIL2A_20260905T112111_R037_T30VWH_20260905T143917", "region": "scotland", "title": "Шотландия (Ферт-оф-Форт) · зона 9", "mission": "Sentinel-2", "datetime": "2026-09-05T11:21:11.025000Z", "detection_status": "insufficient_data", "status": "insufficient_data", "concentration_status": "unavailable", "quantity": {"status": "not_confirmed", "label": "концентрация по снимку не подтверждена", "detail": "перевод площади в штуки не показываем: нет калибровочных пар (см. docs/QUANTITY.md)"}, "verification": "false_alarm_signs", "training_scene": null, "flags": ["foam"], "n_cozar_filaments": 0, "crop_file": "crops/SZ-fresh-scotland-2026-09-05-009.jpg", "wind_high": true, "measured": {"zone_area_km2": 0.1748, "suspicious_area_m2": 500, "n_pixels": 5, "n_objects": 3, "water_km2": 0.1739, "lwd_m2_km2": null, "lwd_note": "ветер > 5 м/с: по правилу Cózar 2024 эта вода не входит в знаменатель «обследовано» — LWD не считается", "quality": {"valid_water_fraction": 1.0, "cloud_fraction": 0.0, "glint_fraction": 0.0}, "model": {"weights": "weights/lgbm", "file": "weights/lgbm/model.txt", "sha256": "0eeebf43fcccd8c7c07f053b7ec723229d1a3c9b92d12eec1bdb269258c51470", "sha256_short": "0eeebf43fccc", "trained_at": "2026-09-25T01:36:30Z", "threshold": 0.63, "harmonize": "none", "class": "MARIDA Marine Debris (любой плавающий мусор, не только пластик)"}}, "probable": {"prob_max": 0.965, "prob_mean": 0.891, "signs": {"foam": {"flag": true, "white_ratio_b2_b8": 1.347, "wind10m_ms": 8.39, "rule": "прирост B2 над водой ≥ 0.8 прироста B8 («белый» спектр) или ветер ≥ 7.0 м/с"}, "glint": {"flag": false, "b11_water_median": 0.0063, "glint_share": 0.0, "rule": "медиана B11 воды зоны > 0.01 или ≥ 20 % пикселей зоны — блик (маска качества)"}, "ship": {"flag": false, "share": 0, "bright_target_px_within_500m": 0, "rule": "≥ 30 % пикселей — у яркой цели или кильватера (reports/artifacts.md) или яркая цель с откликом в SWIR (судно, лодка: B11 ≥ 0,015) ближе 500 м, или малый яркий объект (≤ 40 пикс.) с B11 ≥ 0,01 ближе 500 м (лодка с кильватером)"}, "coast": {"flag": false, "land_px_within_300m": 0, "rule": "суша (маска качества) ближе 300 м — прибой, кромка берега"}, "shallow": {"flag": false, "b3_water_zone": 0.0166, "b3_ratio_to_scene_water": 0.83, "rule": "медиана B3 воды зоны ≥ 2× медианы воды снимка и ≥ 0,03, или B4 воды зоны ≥ 0,02 и (≥ 2× воды снимка или B8 ≥ 0,013) — мелководье, яркое дно, илистая банка"}, "seam": {"flag": false, "share": 0, "rule": "≥ 30 % пикселей — прямая линия вдоль трека/границы яркости (шов)"}, "cloud": {"flag": false, "cloud_fraction": 0.0, "rule": "облака или тени облаков (маска качества) ≥ 20 % зоны"}, "diag": {"dist_land_m": null, "dist_bright_m": 454, "n_bright_px_500m": 1, "b11_bright_max_500m": 0.0084, "b4_water_zone": 0.0088, "b8_water_zone": 0.0068, "b11_det_median": 0.0076, "b8_det_median": 0.0257, "water_scene_b3": 0.02, "water_scene_b4": 0.0096, "n_det_px": 5, "n_obj": 3}, "note": "эвристики, не классификатор; на размеченных данных не проверены"}, "n_cozar_filaments": 0}, "field_nearby": {"items": [{"source": "ADIS (4TU.ResearchData, судовая камера)", "segment_id": 338026, "ship": "R/V Akademik Mstislav Keldysh", "date": "2022-03-31", "days_from_scene": -1619, "distance_km": 445.8, "lon": -7.91336, "lat": 58.80967, "n_items": 0, "area_km2": 0.6996, "size_class": "> 5 см", "c_items_km2": 0.0, "ci95_lo": 0.0, "ci95_hi": 5.27, "ci95_method": "точный интервал Пуассона для N, делённый на A", "raw_10cm_items_km2": 0.0, "authors_cal_10cm_items_km2": 0.0, "authors_cal_10cm_lo95": null, "authors_cal_10cm_hi95": null}, {"source": "ADIS (4TU.ResearchData, судовая камера)", "segment_id": 338025, "ship": "R/V Akademik Mstislav Keldysh", "date": "2022-03-31", "days_from_scene": -1619, "distance_km": 446.3, "lon": -8.02644, "lat": 58.74178, "n_items": 0, "area_km2": 0.7, "size_class": "> 5 см", "c_items_km2": 0.0, "ci95_lo": 0.0, "ci95_hi": 5.27, "ci95_method": "точный интервал Пуассона для N, делённый на A", "raw_10cm_items_km2": 0.0, "authors_cal_10cm_items_km2": 0.0, "authors_cal_10cm_lo95": null, "authors_cal_10cm_hi95": null}, {"source": "ADIS (4TU.ResearchData, судовая камера)", "segment_id": 338475, "ship": "R/V Akademik Mstislav Keldysh", "date": "2022-03-31", "days_from_scene": -1619, "distance_km": 447.1, "lon": -8.13141, "lat": 58.679, "n_items": 0, "area_km2": 0.9498, "size_class": "> 5 см", "c_items_km2": 0.0, "ci95_lo": 0.0, "ci95_hi": 3.88, "ci95_method": "точный интервал Пуассона для N, делённый на A", "raw_10cm_items_km2": 0.0, "authors_cal_10cm_items_km2": 0.0, "authors_cal_10cm_lo95": null, "authors_cal_10cm_hi95": null}], "nearest_organizer_sample": {"sample_id": "MPL-0092", "source_id": "S3_SE_NORTH_SEA", "distance_km": 365.8}, "note": "Измерение ≠ оценка: это независимые полевые счёты C = N/A в другое время и в другом месте; со сценой они не связаны и не калибруют её. Ближайший отрезок ADIS — за 446 км: только для порядка величин."}, "acquired_at": "2026-09-05T11:21:11.025000Z", "acquisition_date": "2026-09-05", "processed_at": "2026-09-26T19:28:16Z", "human_checked": false, "auto_label": "автоматически, не проверено человеком"}}, {"type": "Feature", "id": "SZ-fresh-scotland-2026-09-05-010", "geometry": {"type": "Polygon", "coordinates": [[[-2.333583, 56.104856], [-2.335035, 56.104595], [-2.335849, 56.10397], [-2.336021, 56.103342], [-2.335553, 56.102531], [-2.333633, 56.101981], [-2.332667, 56.102066], [-2.331695, 56.10251], [-2.329934, 56.102051], [-2.328322, 56.102312], [-2.328492, 56.101774], [-2.328024, 56.100963], [-2.326424, 56.100505], [-2.326111, 56.100054], [-2.324993, 56.099598], [-2.32403, 56.099503], [-2.322579, 56.099765], [-2.321764, 56.100389], [-2.321753, 56.101018], [-2.320303, 56.10119], [-2.319488, 56.101814], [-2.319471, 56.102803], [-2.320904, 56.103619], [-2.322672, 56.103629], [-2.323805, 56.103186], [-2.324134, 56.102738], [-2.325895, 56.103197], [-2.326861, 56.103113], [-2.326863, 56.103023], [-2.327184, 56.103025], [-2.327186, 56.102935], [-2.327507, 56.102936], [-2.32749, 56.103925], [-2.328283, 56.104558], [-2.329886, 56.104836], [-2.331662, 56.104397], [-2.332459, 56.10476], [-2.333583, 56.104856]], [[-2.327669, 56.102848], [-2.327507, 56.102936], [-2.327509, 56.102847], [-2.327669, 56.102848]], [[-2.328322, 56.102312], [-2.32816, 56.102401], [-2.328161, 56.102311], [-2.328322, 56.102312]]]}, "properties": {"kind": "detection_zone", "layer_kind": "scene_zone", "zone_id": "SZ-fresh-scotland-2026-09-05-010", "scene_key": "fresh-scotland-2026-09-05", "scene_kind": "fresh_s2", "scene_id": "S2C_MSIL2A_20260905T112111_R037_T30VWH_20260905T143917", "region": "scotland", "title": "Шотландия (Ферт-оф-Форт) · зона 10", "mission": "Sentinel-2", "datetime": "2026-09-05T11:21:11.025000Z", "detection_status": "insufficient_data", "status": "insufficient_data", "concentration_status": "unavailable", "quantity": {"status": "not_confirmed", "label": "концентрация по снимку не подтверждена", "detail": "перевод площади в штуки не показываем: нет калибровочных пар (см. docs/QUANTITY.md)"}, "verification": "false_alarm_signs", "training_scene": null, "flags": ["foam"], "n_cozar_filaments": 0, "crop_file": "crops/SZ-fresh-scotland-2026-09-05-010.jpg", "wind_high": true, "measured": {"zone_area_km2": 0.3072, "suspicious_area_m2": 700, "n_pixels": 7, "n_objects": 5, "water_km2": 0.3087, "lwd_m2_km2": null, "lwd_note": "ветер > 5 м/с: по правилу Cózar 2024 эта вода не входит в знаменатель «обследовано» — LWD не считается", "quality": {"valid_water_fraction": 1.0, "cloud_fraction": 0.0, "glint_fraction": 0.0}, "model": {"weights": "weights/lgbm", "file": "weights/lgbm/model.txt", "sha256": "0eeebf43fcccd8c7c07f053b7ec723229d1a3c9b92d12eec1bdb269258c51470", "sha256_short": "0eeebf43fccc", "trained_at": "2026-09-25T01:36:30Z", "threshold": 0.63, "harmonize": "none", "class": "MARIDA Marine Debris (любой плавающий мусор, не только пластик)"}}, "probable": {"prob_max": 0.996, "prob_mean": 0.918, "signs": {"foam": {"flag": true, "white_ratio_b2_b8": 1.061, "wind10m_ms": 8.39, "rule": "прирост B2 над водой ≥ 0.8 прироста B8 («белый» спектр) или ветер ≥ 7.0 м/с"}, "glint": {"flag": false, "b11_water_median": 0.006, "glint_share": 0.0, "rule": "медиана B11 воды зоны > 0.01 или ≥ 20 % пикселей зоны — блик (маска качества)"}, "ship": {"flag": false, "share": 0, "bright_target_px_within_500m": 0, "rule": "≥ 30 % пикселей — у яркой цели или кильватера (reports/artifacts.md) или яркая цель с откликом в SWIR (судно, лодка: B11 ≥ 0,015) ближе 500 м, или малый яркий объект (≤ 40 пикс.) с B11 ≥ 0,01 ближе 500 м (лодка с кильватером)"}, "coast": {"flag": false, "land_px_within_300m": 0, "rule": "суша (маска качества) ближе 300 м — прибой, кромка берега"}, "shallow": {"flag": false, "b3_water_zone": 0.0167, "b3_ratio_to_scene_water": 0.83, "rule": "медиана B3 воды зоны ≥ 2× медианы воды снимка и ≥ 0,03, или B4 воды зоны ≥ 0,02 и (≥ 2× воды снимка или B8 ≥ 0,013) — мелководье, яркое дно, илистая банка"}, "seam": {"flag": false, "share": 0, "rule": "≥ 30 % пикселей — прямая линия вдоль трека/границы яркости (шов)"}, "cloud": {"flag": false, "cloud_fraction": 0.0, "rule": "облака или тени облаков (маска качества) ≥ 20 % зоны"}, "diag": {"dist_land_m": null, "dist_bright_m": 739, "n_bright_px_500m": 0, "b11_bright_max_500m": null, "b4_water_zone": 0.0084, "b8_water_zone": 0.0063, "b11_det_median": 0.0071, "b8_det_median": 0.0231, "water_scene_b3": 0.02, "water_scene_b4": 0.0096, "n_det_px": 7, "n_obj": 5}, "note": "эвристики, не классификатор; на размеченных данных не проверены"}, "n_cozar_filaments": 0}, "field_nearby": {"items": [{"source": "ADIS (4TU.ResearchData, судовая камера)", "segment_id": 338026, "ship": "R/V Akademik Mstislav Keldysh", "date": "2022-03-31", "days_from_scene": -1619, "distance_km": 445.8, "lon": -7.91336, "lat": 58.80967, "n_items": 0, "area_km2": 0.6996, "size_class": "> 5 см", "c_items_km2": 0.0, "ci95_lo": 0.0, "ci95_hi": 5.27, "ci95_method": "точный интервал Пуассона для N, делённый на A", "raw_10cm_items_km2": 0.0, "authors_cal_10cm_items_km2": 0.0, "authors_cal_10cm_lo95": null, "authors_cal_10cm_hi95": null}, {"source": "ADIS (4TU.ResearchData, судовая камера)", "segment_id": 338025, "ship": "R/V Akademik Mstislav Keldysh", "date": "2022-03-31", "days_from_scene": -1619, "distance_km": 446.3, "lon": -8.02644, "lat": 58.74178, "n_items": 0, "area_km2": 0.7, "size_class": "> 5 см", "c_items_km2": 0.0, "ci95_lo": 0.0, "ci95_hi": 5.27, "ci95_method": "точный интервал Пуассона для N, делённый на A", "raw_10cm_items_km2": 0.0, "authors_cal_10cm_items_km2": 0.0, "authors_cal_10cm_lo95": null, "authors_cal_10cm_hi95": null}, {"source": "ADIS (4TU.ResearchData, судовая камера)", "segment_id": 338475, "ship": "R/V Akademik Mstislav Keldysh", "date": "2022-03-31", "days_from_scene": -1619, "distance_km": 447.1, "lon": -8.13141, "lat": 58.679, "n_items": 0, "area_km2": 0.9498, "size_class": "> 5 см", "c_items_km2": 0.0, "ci95_lo": 0.0, "ci95_hi": 3.88, "ci95_method": "точный интервал Пуассона для N, делённый на A", "raw_10cm_items_km2": 0.0, "authors_cal_10cm_items_km2": 0.0, "authors_cal_10cm_lo95": null, "authors_cal_10cm_hi95": null}], "nearest_organizer_sample": {"sample_id": "MPL-0092", "source_id": "S3_SE_NORTH_SEA", "distance_km": 365.8}, "note": "Измерение ≠ оценка: это независимые полевые счёты C = N/A в другое время и в другом месте; со сценой они не связаны и не калибруют её. Ближайший отрезок ADIS — за 446 км: только для порядка величин."}, "acquired_at": "2026-09-05T11:21:11.025000Z", "acquisition_date": "2026-09-05", "processed_at": "2026-09-26T19:28:16Z", "human_checked": false, "auto_label": "автоматически, не проверено человеком"}}, {"type": "Feature", "id": "SZ-fresh-scotland-2026-09-05-011", "geometry": {"type": "Polygon", "coordinates": [[[-2.401392, 56.097027], [-2.402843, 56.096765], [-2.403492, 56.096408], [-2.403988, 56.095512], [-2.403518, 56.094701], [-2.403039, 56.094519], [-2.403206, 56.094071], [-2.402737, 56.09326], [-2.401619, 56.092805], [-2.400334, 56.092709], [-2.398397, 56.093239], [-2.397901, 56.094135], [-2.398371, 56.094946], [-2.399009, 56.095219], [-2.398842, 56.095667], [-2.399311, 56.096478], [-2.400429, 56.096933], [-2.401392, 56.097027]]]}, "properties": {"kind": "detection_zone", "layer_kind": "scene_zone", "zone_id": "SZ-fresh-scotland-2026-09-05-011", "scene_key": "fresh-scotland-2026-09-05", "scene_kind": "fresh_s2", "scene_id": "S2C_MSIL2A_20260905T112111_R037_T30VWH_20260905T143917", "region": "scotland", "title": "Шотландия (Ферт-оф-Форт) · зона 11", "mission": "Sentinel-2", "datetime": "2026-09-05T11:21:11.025000Z", "detection_status": "insufficient_data", "status": "insufficient_data", "concentration_status": "unavailable", "quantity": {"status": "not_confirmed", "label": "концентрация по снимку не подтверждена", "detail": "перевод площади в штуки не показываем: нет калибровочных пар (см. docs/QUANTITY.md)"}, "verification": "false_alarm_signs", "training_scene": null, "flags": ["foam"], "n_cozar_filaments": 0, "crop_file": "crops/SZ-fresh-scotland-2026-09-05-011.jpg", "wind_high": true, "measured": {"zone_area_km2": 0.1291, "suspicious_area_m2": 500, "n_pixels": 5, "n_objects": 3, "water_km2": 0.128, "lwd_m2_km2": null, "lwd_note": "ветер > 5 м/с: по правилу Cózar 2024 эта вода не входит в знаменатель «обследовано» — LWD не считается", "quality": {"valid_water_fraction": 1.0, "cloud_fraction": 0.0, "glint_fraction": 0.0}, "model": {"weights": "weights/lgbm", "file": "weights/lgbm/model.txt", "sha256": "0eeebf43fcccd8c7c07f053b7ec723229d1a3c9b92d12eec1bdb269258c51470", "sha256_short": "0eeebf43fccc", "trained_at": "2026-09-25T01:36:30Z", "threshold": 0.63, "harmonize": "none", "class": "MARIDA Marine Debris (любой плавающий мусор, не только пластик)"}}, "probable": {"prob_max": 0.996, "prob_mean": 0.891, "signs": {"foam": {"flag": true, "white_ratio_b2_b8": 0.547, "wind10m_ms": 8.39, "rule": "прирост B2 над водой ≥ 0.8 прироста B8 («белый» спектр) или ветер ≥ 7.0 м/с"}, "glint": {"flag": false, "b11_water_median": 0.006, "glint_share": 0.0, "rule": "медиана B11 воды зоны > 0.01 или ≥ 20 % пикселей зоны — блик (маска качества)"}, "ship": {"flag": false, "share": 0, "bright_target_px_within_500m": 0, "rule": "≥ 30 % пикселей — у яркой цели или кильватера (reports/artifacts.md) или яркая цель с откликом в SWIR (судно, лодка: B11 ≥ 0,015) ближе 500 м, или малый яркий объект (≤ 40 пикс.) с B11 ≥ 0,01 ближе 500 м (лодка с кильватером)"}, "coast": {"flag": false, "land_px_within_300m": 0, "rule": "суша (маска качества) ближе 300 м — прибой, кромка берега"}, "shallow": {"flag": false, "b3_water_zone": 0.0166, "b3_ratio_to_scene_water": 0.83, "rule": "медиана B3 воды зоны ≥ 2× медианы воды снимка и ≥ 0,03, или B4 воды зоны ≥ 0,02 и (≥ 2× воды снимка или B8 ≥ 0,013) — мелководье, яркое дно, илистая банка"}, "seam": {"flag": false, "share": 0, "rule": "≥ 30 % пикселей — прямая линия вдоль трека/границы яркости (шов)"}, "cloud": {"flag": false, "cloud_fraction": 0.0, "rule": "облака или тени облаков (маска качества) ≥ 20 % зоны"}, "diag": {"dist_land_m": null, "dist_bright_m": null, "n_bright_px_500m": 0, "b11_bright_max_500m": null, "b4_water_zone": 0.0086, "b8_water_zone": 0.0065, "b11_det_median": 0.0068, "b8_det_median": 0.0184, "water_scene_b3": 0.02, "water_scene_b4": 0.0096, "n_det_px": 5, "n_obj": 3}, "note": "эвристики, не классификатор; на размеченных данных не проверены"}, "n_cozar_filaments": 0}, "field_nearby": {"items": [{"source": "ADIS (4TU.ResearchData, судовая камера)", "segment_id": 338026, "ship": "R/V Akademik Mstislav Keldysh", "date": "2022-03-31", "days_from_scene": -1619, "distance_km": 445.8, "lon": -7.91336, "lat": 58.80967, "n_items": 0, "area_km2": 0.6996, "size_class": "> 5 см", "c_items_km2": 0.0, "ci95_lo": 0.0, "ci95_hi": 5.27, "ci95_method": "точный интервал Пуассона для N, делённый на A", "raw_10cm_items_km2": 0.0, "authors_cal_10cm_items_km2": 0.0, "authors_cal_10cm_lo95": null, "authors_cal_10cm_hi95": null}, {"source": "ADIS (4TU.ResearchData, судовая камера)", "segment_id": 338025, "ship": "R/V Akademik Mstislav Keldysh", "date": "2022-03-31", "days_from_scene": -1619, "distance_km": 446.3, "lon": -8.02644, "lat": 58.74178, "n_items": 0, "area_km2": 0.7, "size_class": "> 5 см", "c_items_km2": 0.0, "ci95_lo": 0.0, "ci95_hi": 5.27, "ci95_method": "точный интервал Пуассона для N, делённый на A", "raw_10cm_items_km2": 0.0, "authors_cal_10cm_items_km2": 0.0, "authors_cal_10cm_lo95": null, "authors_cal_10cm_hi95": null}, {"source": "ADIS (4TU.ResearchData, судовая камера)", "segment_id": 338475, "ship": "R/V Akademik Mstislav Keldysh", "date": "2022-03-31", "days_from_scene": -1619, "distance_km": 447.1, "lon": -8.13141, "lat": 58.679, "n_items": 0, "area_km2": 0.9498, "size_class": "> 5 см", "c_items_km2": 0.0, "ci95_lo": 0.0, "ci95_hi": 3.88, "ci95_method": "точный интервал Пуассона для N, делённый на A", "raw_10cm_items_km2": 0.0, "authors_cal_10cm_items_km2": 0.0, "authors_cal_10cm_lo95": null, "authors_cal_10cm_hi95": null}], "nearest_organizer_sample": {"sample_id": "MPL-0092", "source_id": "S3_SE_NORTH_SEA", "distance_km": 365.8}, "note": "Измерение ≠ оценка: это независимые полевые счёты C = N/A в другое время и в другом месте; со сценой они не связаны и не калибруют её. Ближайший отрезок ADIS — за 446 км: только для порядка величин."}, "acquired_at": "2026-09-05T11:21:11.025000Z", "acquisition_date": "2026-09-05", "processed_at": "2026-09-26T19:28:16Z", "human_checked": false, "auto_label": "автоматически, не проверено человеком"}}, {"type": "Feature", "id": "SZ-fresh-scotland-2026-09-05-012", "geometry": {"type": "Polygon", "coordinates": [[[-2.374648, 56.090875], [-2.376585, 56.090345], [-2.37708, 56.089539], [-2.376611, 56.088728], [-2.378064, 56.088286], [-2.37856, 56.08748], [-2.37825, 56.08676], [-2.379056, 56.086584], [-2.37987, 56.085959], [-2.379886, 56.084971], [-2.378452, 56.084155], [-2.37749, 56.08406], [-2.376038, 56.084413], [-2.37427, 56.084404], [-2.372811, 56.085205], [-2.372642, 56.085743], [-2.373111, 56.086554], [-2.37198, 56.086908], [-2.371483, 56.087804], [-2.371952, 56.088615], [-2.372431, 56.088797], [-2.372098, 56.089514], [-2.372567, 56.090325], [-2.373685, 56.09078], [-2.374648, 56.090875]]]}, "properties": {"kind": "detection_zone", "layer_kind": "scene_zone", "zone_id": "SZ-fresh-scotland-2026-09-05-012", "scene_key": "fresh-scotland-2026-09-05", "scene_kind": "fresh_s2", "scene_id": "S2C_MSIL2A_20260905T112111_R037_T30VWH_20260905T143917", "region": "scotland", "title": "Шотландия (Ферт-оф-Форт) · зона 12", "mission": "Sentinel-2", "datetime": "2026-09-05T11:21:11.025000Z", "detection_status": "insufficient_data", "status": "insufficient_data", "concentration_status": "unavailable", "quantity": {"status": "not_confirmed", "label": "концентрация по снимку не подтверждена", "detail": "перевод площади в штуки не показываем: нет калибровочных пар (см. docs/QUANTITY.md)"}, "verification": "false_alarm_signs", "training_scene": null, "flags": ["foam"], "n_cozar_filaments": 0, "crop_file": "crops/SZ-fresh-scotland-2026-09-05-012.jpg", "wind_high": true, "measured": {"zone_area_km2": 0.2558, "suspicious_area_m2": 800, "n_pixels": 8, "n_objects": 6, "water_km2": 0.2572, "lwd_m2_km2": null, "lwd_note": "ветер > 5 м/с: по правилу Cózar 2024 эта вода не входит в знаменатель «обследовано» — LWD не считается", "quality": {"valid_water_fraction": 1.0, "cloud_fraction": 0.0, "glint_fraction": 0.0}, "model": {"weights": "weights/lgbm", "file": "weights/lgbm/model.txt", "sha256": "0eeebf43fcccd8c7c07f053b7ec723229d1a3c9b92d12eec1bdb269258c51470", "sha256_short": "0eeebf43fccc", "trained_at": "2026-09-25T01:36:30Z", "threshold": 0.63, "harmonize": "none", "class": "MARIDA Marine Debris (любой плавающий мусор, не только пластик)"}}, "probable": {"prob_max": 0.996, "prob_mean": 0.866, "signs": {"foam": {"flag": true, "white_ratio_b2_b8": 1.226, "wind10m_ms": 8.39, "rule": "прирост B2 над водой ≥ 0.8 прироста B8 («белый» спектр) или ветер ≥ 7.0 м/с"}, "glint": {"flag": false, "b11_water_median": 0.0061, "glint_share": 0.0, "rule": "медиана B11 воды зоны > 0.01 или ≥ 20 % пикселей зоны — блик (маска качества)"}, "ship": {"flag": false, "share": 0, "bright_target_px_within_500m": 0, "rule": "≥ 30 % пикселей — у яркой цели или кильватера (reports/artifacts.md) или яркая цель с откликом в SWIR (судно, лодка: B11 ≥ 0,015) ближе 500 м, или малый яркий объект (≤ 40 пикс.) с B11 ≥ 0,01 ближе 500 м (лодка с кильватером)"}, "coast": {"flag": false, "land_px_within_300m": 0, "rule": "суша (маска качества) ближе 300 м — прибой, кромка берега"}, "shallow": {"flag": false, "b3_water_zone": 0.0165, "b3_ratio_to_scene_water": 0.82, "rule": "медиана B3 воды зоны ≥ 2× медианы воды снимка и ≥ 0,03, или B4 воды зоны ≥ 0,02 и (≥ 2× воды снимка или B8 ≥ 0,013) — мелководье, яркое дно, илистая банка"}, "seam": {"flag": false, "share": 0, "rule": "≥ 30 % пикселей — прямая линия вдоль трека/границы яркости (шов)"}, "cloud": {"flag": false, "cloud_fraction": 0.0, "rule": "облака или тени облаков (маска качества) ≥ 20 % зоны"}, "diag": {"dist_land_m": null, "dist_bright_m": 595, "n_bright_px_500m": 0, "b11_bright_max_500m": null, "b4_water_zone": 0.0087, "b8_water_zone": 0.0066, "b11_det_median": 0.007, "b8_det_median": 0.0191, "water_scene_b3": 0.02, "water_scene_b4": 0.0096, "n_det_px": 8, "n_obj": 6}, "note": "эвристики, не классификатор; на размеченных данных не проверены"}, "n_cozar_filaments": 0}, "field_nearby": {"items": [{"source": "ADIS (4TU.ResearchData, судовая камера)", "segment_id": 338026, "ship": "R/V Akademik Mstislav Keldysh", "date": "2022-03-31", "days_from_scene": -1619, "distance_km": 445.8, "lon": -7.91336, "lat": 58.80967, "n_items": 0, "area_km2": 0.6996, "size_class": "> 5 см", "c_items_km2": 0.0, "ci95_lo": 0.0, "ci95_hi": 5.27, "ci95_method": "точный интервал Пуассона для N, делённый на A", "raw_10cm_items_km2": 0.0, "authors_cal_10cm_items_km2": 0.0, "authors_cal_10cm_lo95": null, "authors_cal_10cm_hi95": null}, {"source": "ADIS (4TU.ResearchData, судовая камера)", "segment_id": 338025, "ship": "R/V Akademik Mstislav Keldysh", "date": "2022-03-31", "days_from_scene": -1619, "distance_km": 446.3, "lon": -8.02644, "lat": 58.74178, "n_items": 0, "area_km2": 0.7, "size_class": "> 5 см", "c_items_km2": 0.0, "ci95_lo": 0.0, "ci95_hi": 5.27, "ci95_method": "точный интервал Пуассона для N, делённый на A", "raw_10cm_items_km2": 0.0, "authors_cal_10cm_items_km2": 0.0, "authors_cal_10cm_lo95": null, "authors_cal_10cm_hi95": null}, {"source": "ADIS (4TU.ResearchData, судовая камера)", "segment_id": 338475, "ship": "R/V Akademik Mstislav Keldysh", "date": "2022-03-31", "days_from_scene": -1619, "distance_km": 447.1, "lon": -8.13141, "lat": 58.679, "n_items": 0, "area_km2": 0.9498, "size_class": "> 5 см", "c_items_km2": 0.0, "ci95_lo": 0.0, "ci95_hi": 3.88, "ci95_method": "точный интервал Пуассона для N, делённый на A", "raw_10cm_items_km2": 0.0, "authors_cal_10cm_items_km2": 0.0, "authors_cal_10cm_lo95": null, "authors_cal_10cm_hi95": null}], "nearest_organizer_sample": {"sample_id": "MPL-0092", "source_id": "S3_SE_NORTH_SEA", "distance_km": 365.8}, "note": "Измерение ≠ оценка: это независимые полевые счёты C = N/A в другое время и в другом месте; со сценой они не связаны и не калибруют её. Ближайший отрезок ADIS — за 446 км: только для порядка величин."}, "acquired_at": "2026-09-05T11:21:11.025000Z", "acquisition_date": "2026-09-05", "processed_at": "2026-09-26T19:28:16Z", "human_checked": false, "auto_label": "автоматически, не проверено человеком"}}, {"type": "Feature", "id": "SZ-fresh-scotland-2026-09-05-013", "geometry": {"type": "Polygon", "coordinates": [[[-2.446444, 56.082861], [-2.447893, 56.082598], [-2.448706, 56.081973], [-2.448719, 56.081075], [-2.450176, 56.080272], [-2.450345, 56.079734], [-2.449874, 56.078923], [-2.447954, 56.078376], [-2.446343, 56.078638], [-2.445693, 56.079174], [-2.444417, 56.078539], [-2.443454, 56.078445], [-2.442004, 56.078708], [-2.440219, 56.079958], [-2.44005, 56.080496], [-2.440521, 56.081307], [-2.442441, 56.081855], [-2.444052, 56.081593], [-2.444046, 56.081952], [-2.444841, 56.082585], [-2.446444, 56.082861]]]}, "properties": {"kind": "detection_zone", "layer_kind": "scene_zone", "zone_id": "SZ-fresh-scotland-2026-09-05-013", "scene_key": "fresh-scotland-2026-09-05", "scene_kind": "fresh_s2", "scene_id": "S2C_MSIL2A_20260905T112111_R037_T30VWH_20260905T143917", "region": "scotland", "title": "Шотландия (Ферт-оф-Форт) · зона 13", "mission": "Sentinel-2", "datetime": "2026-09-05T11:21:11.025000Z", "detection_status": "insufficient_data", "status": "insufficient_data", "concentration_status": "unavailable", "quantity": {"status": "not_confirmed", "label": "концентрация по снимку не подтверждена", "detail": "перевод площади в штуки не показываем: нет калибровочных пар (см. docs/QUANTITY.md)"}, "verification": "false_alarm_signs", "training_scene": null, "flags": ["foam"], "n_cozar_filaments": 0, "crop_file": "crops/SZ-fresh-scotland-2026-09-05-013.jpg", "wind_high": true, "measured": {"zone_area_km2": 0.2174, "suspicious_area_m2": 700, "n_pixels": 7, "n_objects": 5, "water_km2": 0.2186, "lwd_m2_km2": null, "lwd_note": "ветер > 5 м/с: по правилу Cózar 2024 эта вода не входит в знаменатель «обследовано» — LWD не считается", "quality": {"valid_water_fraction": 1.0, "cloud_fraction": 0.0, "glint_fraction": 0.0}, "model": {"weights": "weights/lgbm", "file": "weights/lgbm/model.txt", "sha256": "0eeebf43fcccd8c7c07f053b7ec723229d1a3c9b92d12eec1bdb269258c51470", "sha256_short": "0eeebf43fccc", "trained_at": "2026-09-25T01:36:30Z", "threshold": 0.63, "harmonize": "none", "class": "MARIDA Marine Debris (любой плавающий мусор, не только пластик)"}}, "probable": {"prob_max": 0.988, "prob_mean": 0.857, "signs": {"foam": {"flag": true, "white_ratio_b2_b8": 1.061, "wind10m_ms": 8.39, "rule": "прирост B2 над водой ≥ 0.8 прироста B8 («белый» спектр) или ветер ≥ 7.0 м/с"}, "glint": {"flag": false, "b11_water_median": 0.0061, "glint_share": 0.0, "rule": "медиана B11 воды зоны > 0.01 или ≥ 20 % пикселей зоны — блик (маска качества)"}, "ship": {"flag": false, "share": 0, "bright_target_px_within_500m": 0, "rule": "≥ 30 % пикселей — у яркой цели или кильватера (reports/artifacts.md) или яркая цель с откликом в SWIR (судно, лодка: B11 ≥ 0,015) ближе 500 м, или малый яркий объект (≤ 40 пикс.) с B11 ≥ 0,01 ближе 500 м (лодка с кильватером)"}, "coast": {"flag": false, "land_px_within_300m": 0, "rule": "суша (маска качества) ближе 300 м — прибой, кромка берега"}, "shallow": {"flag": false, "b3_water_zone": 0.019, "b3_ratio_to_scene_water": 0.95, "rule": "медиана B3 воды зоны ≥ 2× медианы воды снимка и ≥ 0,03, или B4 воды зоны ≥ 0,02 и (≥ 2× воды снимка или B8 ≥ 0,013) — мелководье, яркое дно, илистая банка"}, "seam": {"flag": false, "share": 0, "rule": "≥ 30 % пикселей — прямая линия вдоль трека/границы яркости (шов)"}, "cloud": {"flag": false, "cloud_fraction": 0.0, "rule": "облака или тени облаков (маска качества) ≥ 20 % зоны"}, "diag": {"dist_land_m": null, "dist_bright_m": 160, "n_bright_px_500m": 4, "b11_bright_max_500m": 0.0092, "b4_water_zone": 0.0094, "b8_water_zone": 0.0069, "b11_det_median": 0.0068, "b8_det_median": 0.0232, "water_scene_b3": 0.02, "water_scene_b4": 0.0096, "n_det_px": 7, "n_obj": 5}, "note": "эвристики, не классификатор; на размеченных данных не проверены"}, "n_cozar_filaments": 0}, "field_nearby": {"items": [{"source": "ADIS (4TU.ResearchData, судовая камера)", "segment_id": 338026, "ship": "R/V Akademik Mstislav Keldysh", "date": "2022-03-31", "days_from_scene": -1619, "distance_km": 445.8, "lon": -7.91336, "lat": 58.80967, "n_items": 0, "area_km2": 0.6996, "size_class": "> 5 см", "c_items_km2": 0.0, "ci95_lo": 0.0, "ci95_hi": 5.27, "ci95_method": "точный интервал Пуассона для N, делённый на A", "raw_10cm_items_km2": 0.0, "authors_cal_10cm_items_km2": 0.0, "authors_cal_10cm_lo95": null, "authors_cal_10cm_hi95": null}, {"source": "ADIS (4TU.ResearchData, судовая камера)", "segment_id": 338025, "ship": "R/V Akademik Mstislav Keldysh", "date": "2022-03-31", "days_from_scene": -1619, "distance_km": 446.3, "lon": -8.02644, "lat": 58.74178, "n_items": 0, "area_km2": 0.7, "size_class": "> 5 см", "c_items_km2": 0.0, "ci95_lo": 0.0, "ci95_hi": 5.27, "ci95_method": "точный интервал Пуассона для N, делённый на A", "raw_10cm_items_km2": 0.0, "authors_cal_10cm_items_km2": 0.0, "authors_cal_10cm_lo95": null, "authors_cal_10cm_hi95": null}, {"source": "ADIS (4TU.ResearchData, судовая камера)", "segment_id": 338475, "ship": "R/V Akademik Mstislav Keldysh", "date": "2022-03-31", "days_from_scene": -1619, "distance_km": 447.1, "lon": -8.13141, "lat": 58.679, "n_items": 0, "area_km2": 0.9498, "size_class": "> 5 см", "c_items_km2": 0.0, "ci95_lo": 0.0, "ci95_hi": 3.88, "ci95_method": "точный интервал Пуассона для N, делённый на A", "raw_10cm_items_km2": 0.0, "authors_cal_10cm_items_km2": 0.0, "authors_cal_10cm_lo95": null, "authors_cal_10cm_hi95": null}], "nearest_organizer_sample": {"sample_id": "MPL-0092", "source_id": "S3_SE_NORTH_SEA", "distance_km": 365.8}, "note": "Измерение ≠ оценка: это независимые полевые счёты C = N/A в другое время и в другом месте; со сценой они не связаны и не калибруют её. Ближайший отрезок ADIS — за 446 км: только для порядка величин."}, "acquired_at": "2026-09-05T11:21:11.025000Z", "acquisition_date": "2026-09-05", "processed_at": "2026-09-26T19:28:16Z", "human_checked": false, "auto_label": "автоматически, не проверено человеком"}}, {"type": "Feature", "id": "SZ-fresh-scotland-2026-09-05-014", "geometry": {"type": "Polygon", "coordinates": [[[-2.364718, 56.078964], [-2.366169, 56.078702], [-2.36715, 56.077629], [-2.366683, 56.076728], [-2.365405, 56.076272], [-2.365899, 56.075556], [-2.365747, 56.075016], [-2.364954, 56.074383], [-2.363033, 56.074013], [-2.363046, 56.073205], [-2.362253, 56.072572], [-2.360812, 56.072295], [-2.359847, 56.07238], [-2.358388, 56.073181], [-2.358371, 56.074169], [-2.359164, 56.074802], [-2.360766, 56.07508], [-2.360598, 56.075528], [-2.361066, 56.076339], [-2.362665, 56.076797], [-2.362172, 56.077513], [-2.362639, 56.078414], [-2.363756, 56.078869], [-2.364718, 56.078964]]]}, "properties": {"kind": "detection_zone", "layer_kind": "scene_zone", "zone_id": "SZ-fresh-scotland-2026-09-05-014", "scene_key": "fresh-scotland-2026-09-05", "scene_kind": "fresh_s2", "scene_id": "S2C_MSIL2A_20260905T112111_R037_T30VWH_20260905T143917", "region": "scotland", "title": "Шотландия (Ферт-оф-Форт) · зона 14", "mission": "Sentinel-2", "datetime": "2026-09-05T11:21:11.025000Z", "detection_status": "insufficient_data", "status": "insufficient_data", "concentration_status": "unavailable", "quantity": {"status": "not_confirmed", "label": "концентрация по снимку не подтверждена", "detail": "перевод площади в штуки не показываем: нет калибровочных пар (см. docs/QUANTITY.md)"}, "verification": "false_alarm_signs", "training_scene": null, "flags": ["foam"], "n_cozar_filaments": 0, "crop_file": "crops/SZ-fresh-scotland-2026-09-05-014.jpg", "wind_high": true, "measured": {"zone_area_km2": 0.2056, "suspicious_area_m2": 500, "n_pixels": 5, "n_objects": 4, "water_km2": 0.2066, "lwd_m2_km2": null, "lwd_note": "ветер > 5 м/с: по правилу Cózar 2024 эта вода не входит в знаменатель «обследовано» — LWD не считается", "quality": {"valid_water_fraction": 1.0, "cloud_fraction": 0.0, "glint_fraction": 0.0}, "model": {"weights": "weights/lgbm", "file": "weights/lgbm/model.txt", "sha256": "0eeebf43fcccd8c7c07f053b7ec723229d1a3c9b92d12eec1bdb269258c51470", "sha256_short": "0eeebf43fccc", "trained_at": "2026-09-25T01:36:30Z", "threshold": 0.63, "harmonize": "none", "class": "MARIDA Marine Debris (любой плавающий мусор, не только пластик)"}}, "probable": {"prob_max": 0.937, "prob_mean": 0.806, "signs": {"foam": {"flag": true, "white_ratio_b2_b8": 1.055, "wind10m_ms": 8.39, "rule": "прирост B2 над водой ≥ 0.8 прироста B8 («белый» спектр) или ветер ≥ 7.0 м/с"}, "glint": {"flag": false, "b11_water_median": 0.0057, "glint_share": 0.0, "rule": "медиана B11 воды зоны > 0.01 или ≥ 20 % пикселей зоны — блик (маска качества)"}, "ship": {"flag": false, "share": 0, "bright_target_px_within_500m": 0, "rule": "≥ 30 % пикселей — у яркой цели или кильватера (reports/artifacts.md) или яркая цель с откликом в SWIR (судно, лодка: B11 ≥ 0,015) ближе 500 м, или малый яркий объект (≤ 40 пикс.) с B11 ≥ 0,01 ближе 500 м (лодка с кильватером)"}, "coast": {"flag": false, "land_px_within_300m": 0, "rule": "суша (маска качества) ближе 300 м — прибой, кромка берега"}, "shallow": {"flag": false, "b3_water_zone": 0.0161, "b3_ratio_to_scene_water": 0.81, "rule": "медиана B3 воды зоны ≥ 2× медианы воды снимка и ≥ 0,03, или B4 воды зоны ≥ 0,02 и (≥ 2× воды снимка или B8 ≥ 0,013) — мелководье, яркое дно, илистая банка"}, "seam": {"flag": false, "share": 0, "rule": "≥ 30 % пикселей — прямая линия вдоль трека/границы яркости (шов)"}, "cloud": {"flag": false, "cloud_fraction": 0.0, "rule": "облака или тени облаков (маска качества) ≥ 20 % зоны"}, "diag": {"dist_land_m": null, "dist_bright_m": null, "n_bright_px_500m": 0, "b11_bright_max_500m": null, "b4_water_zone": 0.0081, "b8_water_zone": 0.0062, "b11_det_median": 0.0067, "b8_det_median": 0.0194, "water_scene_b3": 0.02, "water_scene_b4": 0.0096, "n_det_px": 5, "n_obj": 4}, "note": "эвристики, не классификатор; на размеченных данных не проверены"}, "n_cozar_filaments": 0}, "field_nearby": {"items": [{"source": "ADIS (4TU.ResearchData, судовая камера)", "segment_id": 338026, "ship": "R/V Akademik Mstislav Keldysh", "date": "2022-03-31", "days_from_scene": -1619, "distance_km": 445.8, "lon": -7.91336, "lat": 58.80967, "n_items": 0, "area_km2": 0.6996, "size_class": "> 5 см", "c_items_km2": 0.0, "ci95_lo": 0.0, "ci95_hi": 5.27, "ci95_method": "точный интервал Пуассона для N, делённый на A", "raw_10cm_items_km2": 0.0, "authors_cal_10cm_items_km2": 0.0, "authors_cal_10cm_lo95": null, "authors_cal_10cm_hi95": null}, {"source": "ADIS (4TU.ResearchData, судовая камера)", "segment_id": 338025, "ship": "R/V Akademik Mstislav Keldysh", "date": "2022-03-31", "days_from_scene": -1619, "distance_km": 446.3, "lon": -8.02644, "lat": 58.74178, "n_items": 0, "area_km2": 0.7, "size_class": "> 5 см", "c_items_km2": 0.0, "ci95_lo": 0.0, "ci95_hi": 5.27, "ci95_method": "точный интервал Пуассона для N, делённый на A", "raw_10cm_items_km2": 0.0, "authors_cal_10cm_items_km2": 0.0, "authors_cal_10cm_lo95": null, "authors_cal_10cm_hi95": null}, {"source": "ADIS (4TU.ResearchData, судовая камера)", "segment_id": 338475, "ship": "R/V Akademik Mstislav Keldysh", "date": "2022-03-31", "days_from_scene": -1619, "distance_km": 447.1, "lon": -8.13141, "lat": 58.679, "n_items": 0, "area_km2": 0.9498, "size_class": "> 5 см", "c_items_km2": 0.0, "ci95_lo": 0.0, "ci95_hi": 3.88, "ci95_method": "точный интервал Пуассона для N, делённый на A", "raw_10cm_items_km2": 0.0, "authors_cal_10cm_items_km2": 0.0, "authors_cal_10cm_lo95": null, "authors_cal_10cm_hi95": null}], "nearest_organizer_sample": {"sample_id": "MPL-0092", "source_id": "S3_SE_NORTH_SEA", "distance_km": 365.8}, "note": "Измерение ≠ оценка: это независимые полевые счёты C = N/A в другое время и в другом месте; со сценой они не связаны и не калибруют её. Ближайший отрезок ADIS — за 446 км: только для порядка величин."}, "acquired_at": "2026-09-05T11:21:11.025000Z", "acquisition_date": "2026-09-05", "processed_at": "2026-09-26T19:28:16Z", "human_checked": false, "auto_label": "автоматически, не проверено человеком"}}]}