{"type":"FeatureCollection","features":[{"type":"Feature","geometry":{"type":"Polygon","coordinates":[[[31.115321,-29.851308],[31.115317,-29.851488],[31.115421,-29.85149],[31.115424,-29.851309],[31.115321,-29.851308]]]},"properties":{"id":"durban_2026-07-03_lgbm_0","region":"durban","date":"2026-07-03","area_m2":200.0,"mean_prob":0.8882,"max_prob":0.9686,"model":"lgbm","n_px":2,"px_area_m2":100.0,"confirmed":false,"confirmed_by":null,"lon":31.115371,"lat":-29.851399}},{"type":"Feature","geometry":{"type":"Polygon","coordinates":[[[31.026697,-29.863275],[31.026688,-29.863726],[31.026481,-29.863723],[31.026479,-29.863813],[31.026583,-29.863815],[31.026581,-29.863905],[31.026685,-29.863906],[31.026686,-29.863816],[31.02679,-29.863818],[31.026786,-29.863998],[31.02689,-29.864],[31.026893,-29.863819],[31.02679,-29.863818],[31.026792,-29.863728],[31.027102,-29.863732],[31.027104,-29.863642],[31.027207,-29.863644],[31.027211,-29.863463],[31.027418,-29.863466],[31.027421,-29.863286],[31.026697,-29.863275]]]},"properties":{"id":"durban_2026-07-03_lgbm_1","region":"durban","date":"2026-07-03","area_m2":3400.0,"mean_prob":0.9015,"max_prob":0.9961,"model":"lgbm","n_px":34,"px_area_m2":100.0,"confirmed":false,"confirmed_by":null,"lon":31.026944,"lat":-29.863541}},{"type":"Feature","geometry":{"type":"Polygon","coordinates":[[[31.020977,-29.864633],[31.020975,-29.864723],[31.021182,-29.864726],[31.021184,-29.864636],[31.020977,-29.864633]]]},"properties":{"id":"durban_2026-07-03_lgbm_2","region":"durban","date":"2026-07-03","area_m2":200.0,"mean_prob":0.798,"max_prob":0.8078,"model":"lgbm","n_px":2,"px_area_m2":100.0,"confirmed":false,"confirmed_by":null,"lon":31.02108,"lat":-29.86468}},{"type":"Feature","geometry":{"type":"Polygon","coordinates":[[[31.0253,-29.865871],[31.025297,-29.866051],[31.025193,-29.866049],[31.025191,-29.86614],[31.025295,-29.866141],[31.025293,-29.866231],[31.025397,-29.866233],[31.025395,-29.866323],[31.025602,-29.866326],[31.025604,-29.866236],[31.025707,-29.866238],[31.025712,-29.865967],[31.025402,-29.865962],[31.025404,-29.865872],[31.0253,-29.865871]],[[31.025502,-29.866144],[31.025605,-29.866146],[31.025604,-29.866236],[31.0255,-29.866234],[31.025502,-29.866144]]]},"properties":{"id":"durban_2026-07-03_lgbm_3","region":"durban","date":"2026-07-03","area_m2":1500.0,"mean_prob":0.9163,"max_prob":0.9961,"model":"lgbm","n_px":15,"px_area_m2":100.0,"confirmed":false,"confirmed_by":null,"lon":31.025472,"lat":-29.866105}},{"type":"Feature","geometry":{"type":"Polygon","coordinates":[[[31.022187,-29.866275],[31.022185,-29.866365],[31.022082,-29.866364],[31.02208,-29.866454],[31.021976,-29.866452],[31.021973,-29.866633],[31.022076,-29.866634],[31.022078,-29.866544],[31.022181,-29.866546],[31.02218,-29.866636],[31.02249,-29.866641],[31.022494,-29.86646],[31.02239,-29.866459],[31.022394,-29.866278],[31.022187,-29.866275]]]},"properties":{"id":"durban_2026-07-03_lgbm_4","region":"durban","date":"2026-07-03","area_m2":1400.0,"mean_prob":0.8933,"max_prob":0.9961,"model":"lgbm","n_px":14,"px_area_m2":100.0,"confirmed":false,"confirmed_by":null,"lon":31.022249,"lat":-29.866482}},{"type":"Feature","geometry":{"type":"Polygon","coordinates":[[[31.023423,-29.866564],[31.023421,-29.866654],[31.023215,-29.866651],[31.023213,-29.866742],[31.023109,-29.86674],[31.023107,-29.86683],[31.023004,-29.866829],[31.023,-29.867009],[31.023104,-29.867011],[31.023102,-29.867101],[31.023206,-29.867102],[31.023204,-29.867193],[31.023307,-29.867194],[31.023316,-29.866743],[31.023627,-29.866748],[31.023628,-29.866658],[31.023525,-29.866656],[31.023527,-29.866566],[31.023423,-29.866564]]]},"properties":{"id":"durban_2026-07-03_lgbm_5","region":"durban","date":"2026-07-03","area_m2":1600.0,"mean_prob":0.9517,"max_prob":0.9961,"model":"lgbm","n_px":16,"px_area_m2":100.0,"confirmed":false,"confirmed_by":null,"lon":31.023262,"lat":-29.866861}},{"type":"Feature","geometry":{"type":"Polygon","coordinates":[[[31.023734,-29.866569],[31.023728,-29.866839],[31.023935,-29.866843],[31.023934,-29.866933],[31.023727,-29.86693],[31.023725,-29.86702],[31.024035,-29.867025],[31.024037,-29.866934],[31.024141,-29.866936],[31.024142,-29.866846],[31.024246,-29.866847],[31.024249,-29.866667],[31.024146,-29.866665],[31.024148,-29.866575],[31.023734,-29.866569]]]},"properties":{"id":"durban_2026-07-03_lgbm_6","region":"durban","date":"2026-07-03","area_m2":1900.0,"mean_prob":0.9631,"max_prob":1.0,"model":"lgbm","n_px":19,"px_area_m2":100.0,"confirmed":false,"confirmed_by":null,"lon":31.023967,"lat":-29.866774}},{"type":"Feature","geometry":{"type":"Polygon","coordinates":[[[31.01636,-29.867812],[31.016358,-29.867902],[31.016461,-29.867903],[31.016456,-29.868174],[31.016559,-29.868175],[31.016561,-29.868085],[31.016768,-29.868088],[31.01677,-29.867998],[31.016874,-29.868],[31.016875,-29.86791],[31.016979,-29.867911],[31.016981,-29.867821],[31.01636,-29.867812]]]},"properties":{"id":"durban_2026-07-03_lgbm_7","region":"durban","date":"2026-07-03","area_m2":1400.0,"mean_prob":0.9476,"max_prob":0.9961,"model":"lgbm","n_px":14,"px_area_m2":100.0,"confirmed":false,"confirmed_by":null,"lon":31.016645,"lat":-29.867945}},{"type":"Feature","geometry":{"type":"Polygon","coordinates":[[[31.017337,-29.870713],[31.017336,-29.870804],[31.017439,-29.870805],[31.017437,-29.870895],[31.017851,-29.870901],[31.017855,-29.870721],[31.017337,-29.870713]]]},"properties":{"id":"durban_2026-07-03_lgbm_8","region":"durban","date":"2026-07-03","area_m2":900.0,"mean_prob":0.9656,"max_prob":1.0,"model":"lgbm","n_px":9,"px_area_m2":100.0,"confirmed":false,"confirmed_by":null,"lon":31.017617,"lat":-29.870803}},{"type":"Feature","geometry":{"type":"Polygon","coordinates":[[[31.025925,-29.870932],[31.025922,-29.871113],[31.026025,-29.871114],[31.026023,-29.871204],[31.026127,-29.871206],[31.02613,-29.871026],[31.026027,-29.871024],[31.026029,-29.870934],[31.025925,-29.870932]]]},"properties":{"id":"durban_2026-07-03_lgbm_9","region":"durban","date":"2026-07-03","area_m2":400.0,"mean_prob":0.8078,"max_prob":0.8627,"model":"lgbm","n_px":4,"px_area_m2":100.0,"confirmed":false,"confirmed_by":null,"lon":31.026026,"lat":-29.871069}},{"type":"Feature","geometry":{"type":"Polygon","coordinates":[[[31.017846,-29.871172],[31.017844,-29.871262],[31.017948,-29.871264],[31.017939,-29.871715],[31.018042,-29.871716],[31.018048,-29.871446],[31.018151,-29.871447],[31.018149,-29.871538],[31.018253,-29.871539],[31.018255,-29.871449],[31.018565,-29.871454],[31.01856,-29.871724],[31.018663,-29.871726],[31.018674,-29.871185],[31.017846,-29.871172]]]},"properties":{"id":"durban_2026-07-03_lgbm_10","region":"durban","date":"2026-07-03","area_m2":2900.0,"mean_prob":0.8659,"max_prob":0.9961,"model":"lgbm","n_px":29,"px_area_m2":100.0,"confirmed":false,"confirmed_by":null,"lon":31.01829,"lat":-29.871373}},{"type":"Feature","geometry":{"type":"Polygon","coordinates":[[[31.025711,-29.87129],[31.025709,-29.87138],[31.025916,-29.871383],[31.025918,-29.871293],[31.025711,-29.87129]]]},"properties":{"id":"durban_2026-07-03_lgbm_11","region":"durban","date":"2026-07-03","area_m2":200.0,"mean_prob":0.7706,"max_prob":0.8784,"model":"lgbm","n_px":2,"px_area_m2":100.0,"confirmed":false,"confirmed_by":null,"lon":31.025814,"lat":-29.871337}},{"type":"Feature","geometry":{"type":"Polygon","coordinates":[[[31.011899,-29.873519],[31.011897,-29.873609],[31.012001,-29.87361],[31.011999,-29.8737],[31.011895,-29.873699],[31.011893,-29.873789],[31.01179,-29.873788],[31.011786,-29.873968],[31.011579,-29.873965],[31.011581,-29.873875],[31.011271,-29.87387],[31.011273,-29.87378],[31.011169,-29.873778],[31.011167,-29.873868],[31.011064,-29.873867],[31.011058,-29.874137],[31.011472,-29.874144],[31.011471,-29.874234],[31.011574,-29.874235],[31.01157,-29.874416],[31.011777,-29.874419],[31.011779,-29.874329],[31.011883,-29.87433],[31.011885,-29.87424],[31.011988,-29.874242],[31.01199,-29.874151],[31.012197,-29.874155],[31.0122,-29.873974],[31.012304,-29.873976],[31.012311,-29.873615],[31.012001,-29.87361],[31.012002,-29.87352],[31.011899,-29.873519]]]},"properties":{"id":"durban_2026-07-03_lgbm_12","region":"durban","date":"2026-07-03","area_m2":5600.0,"mean_prob":0.9265,"max_prob":1.0,"model":"lgbm","n_px":56,"px_area_m2":100.0,"confirmed":false,"confirmed_by":null,"lon":31.011753,"lat":-29.873992}},{"type":"Feature","geometry":{"type":"Polygon","coordinates":[[[31.009352,-29.876638],[31.009351,-29.876728],[31.009247,-29.876726],[31.009245,-29.876817],[31.009142,-29.876815],[31.00914,-29.876905],[31.009037,-29.876904],[31.009035,-29.876994],[31.009138,-29.876995],[31.009136,-29.877086],[31.009033,-29.877084],[31.009029,-29.877265],[31.008926,-29.877263],[31.008924,-29.877353],[31.008821,-29.877352],[31.008817,-29.877532],[31.00892,-29.877534],[31.008915,-29.877804],[31.009329,-29.87781],[31.009331,-29.87772],[31.009434,-29.877722],[31.009433,-29.877812],[31.009536,-29.877813],[31.009538,-29.877723],[31.009641,-29.877725],[31.009643,-29.877635],[31.00954,-29.877633],[31.009543,-29.877453],[31.009854,-29.877457],[31.009856,-29.877367],[31.009649,-29.877364],[31.00965,-29.877274],[31.009443,-29.877271],[31.009442,-29.877361],[31.009338,-29.877359],[31.009345,-29.876999],[31.009449,-29.877],[31.009452,-29.87682],[31.009556,-29.876821],[31.009559,-29.876641],[31.009352,-29.876638]]]},"properties":{"id":"durban_2026-07-03_lgbm_13","region":"durban","date":"2026-07-03","area_m2":6100.0,"mean_prob":0.9063,"max_prob":0.9961,"model":"lgbm","n_px":61,"px_area_m2":100.0,"confirmed":false,"confirmed_by":null,"lon":31.009265,"lat":-29.877338}},{"type":"Feature","geometry":{"type":"Polygon","coordinates":[[[31.008301,-29.882667],[31.008297,-29.882847],[31.008504,-29.88285],[31.008508,-29.88267],[31.008301,-29.882667]]]},"properties":{"id":"durban_2026-07-03_lgbm_14","region":"durban","date":"2026-07-03","area_m2":400.0,"mean_prob":0.7392,"max_prob":0.7922,"model":"lgbm","n_px":4,"px_area_m2":100.0,"confirmed":false,"confirmed_by":null,"lon":31.008403,"lat":-29.882758}},{"type":"Feature","geometry":{"type":"Polygon","coordinates":[[[31.00806,-29.884377],[31.008058,-29.884467],[31.008161,-29.884469],[31.008158,-29.884649],[31.008054,-29.884648],[31.008053,-29.884738],[31.008156,-29.88474],[31.008158,-29.884649],[31.008261,-29.884651],[31.008265,-29.884471],[31.008161,-29.884469],[31.008163,-29.884379],[31.00806,-29.884377]]]},"properties":{"id":"durban_2026-07-03_lgbm_15","region":"durban","date":"2026-07-03","area_m2":400.0,"mean_prob":0.7324,"max_prob":0.8235,"model":"lgbm","n_px":4,"px_area_m2":100.0,"confirmed":false,"confirmed_by":null,"lon":31.00816,"lat":-29.884559}},{"type":"Feature","geometry":{"type":"Polygon","coordinates":[[[31.12009,-29.895044],[31.120086,-29.895224],[31.12019,-29.895226],[31.120191,-29.895135],[31.120295,-29.895137],[31.120297,-29.895047],[31.12009,-29.895044]]]},"properties":{"id":"durban_2026-07-03_lgbm_16","region":"durban","date":"2026-07-03","area_m2":300.0,"mean_prob":0.9961,"max_prob":0.9961,"model":"lgbm","n_px":3,"px_area_m2":100.0,"confirmed":false,"confirmed_by":null,"lon":31.120175,"lat":-29.89512}}]}