{"type":"FeatureCollection","features":[{"type":"Feature","geometry":{"type":"Polygon","coordinates":[[[31.182496,-29.765363],[31.182494,-29.765453],[31.182701,-29.765456],[31.182703,-29.765365],[31.182496,-29.765363]]]},"properties":{"id":"durban_2026-05-04_lgbm_0","region":"durban","date":"2026-05-04","area_m2":200.0,"mean_prob":0.8745,"max_prob":0.8863,"model":"lgbm","n_px":2,"px_area_m2":100.0,"lon":31.182599,"lat":-29.765409}},{"type":"Feature","geometry":{"type":"Polygon","coordinates":[[[31.026685,-29.863906],[31.026683,-29.863997],[31.02689,-29.864],[31.026891,-29.86391],[31.026685,-29.863906]]]},"properties":{"id":"durban_2026-05-04_lgbm_1","region":"durban","date":"2026-05-04","area_m2":200.0,"mean_prob":0.9392,"max_prob":0.9451,"model":"lgbm","n_px":2,"px_area_m2":100.0,"lon":31.026787,"lat":-29.863953}},{"type":"Feature","geometry":{"type":"Polygon","coordinates":[[[31.020233,-29.865614],[31.020231,-29.865704],[31.020128,-29.865703],[31.020126,-29.865793],[31.020023,-29.865792],[31.020019,-29.865972],[31.020122,-29.865973],[31.020124,-29.865883],[31.020228,-29.865885],[31.020231,-29.865704],[31.020335,-29.865706],[31.020337,-29.865616],[31.020233,-29.865614]]]},"properties":{"id":"durban_2026-05-04_lgbm_2","region":"durban","date":"2026-05-04","area_m2":500.0,"mean_prob":0.8792,"max_prob":0.9922,"model":"lgbm","n_px":5,"px_area_m2":100.0,"lon":31.020157,"lat":-29.865803}},{"type":"Feature","geometry":{"type":"Polygon","coordinates":[[[31.020854,-29.865624],[31.020852,-29.865714],[31.020749,-29.865712],[31.020747,-29.865802],[31.020954,-29.865805],[31.020947,-29.866166],[31.02105,-29.866168],[31.021052,-29.866078],[31.021156,-29.866079],[31.021157,-29.865989],[31.021261,-29.865991],[31.021263,-29.8659],[31.021366,-29.865902],[31.02137,-29.865722],[31.021473,-29.865723],[31.021475,-29.865633],[31.021164,-29.865628],[31.021163,-29.865718],[31.021059,-29.865717],[31.021057,-29.865807],[31.020954,-29.865805],[31.020957,-29.865625],[31.020854,-29.865624]]]},"properties":{"id":"durban_2026-05-04_lgbm_3","region":"durban","date":"2026-05-04","area_m2":1900.0,"mean_prob":0.9626,"max_prob":0.9961,"model":"lgbm","n_px":19,"px_area_m2":100.0,"lon":31.021119,"lat":-29.865839}},{"type":"Feature","geometry":{"type":"Polygon","coordinates":[[[31.021468,-29.865994],[31.021466,-29.866084],[31.021363,-29.866082],[31.021357,-29.866353],[31.021564,-29.866356],[31.021571,-29.865995],[31.021468,-29.865994]]]},"properties":{"id":"durban_2026-05-04_lgbm_4","region":"durban","date":"2026-05-04","area_m2":700.0,"mean_prob":0.8779,"max_prob":0.9804,"model":"lgbm","n_px":7,"px_area_m2":100.0,"lon":31.021471,"lat":-29.866193}},{"type":"Feature","geometry":{"type":"Polygon","coordinates":[[[31.019808,-29.866149],[31.019807,-29.866239],[31.019703,-29.866238],[31.019701,-29.866328],[31.019805,-29.86633],[31.019807,-29.866239],[31.01991,-29.866241],[31.019912,-29.866151],[31.019808,-29.866149]]]},"properties":{"id":"durban_2026-05-04_lgbm_5","region":"durban","date":"2026-05-04","area_m2":200.0,"mean_prob":0.8804,"max_prob":0.8902,"model":"lgbm","n_px":2,"px_area_m2":100.0,"lon":31.019807,"lat":-29.866239}},{"type":"Feature","geometry":{"type":"Polygon","coordinates":[[[31.024049,-29.866303],[31.024048,-29.866393],[31.023944,-29.866392],[31.023942,-29.866482],[31.024046,-29.866483],[31.024044,-29.866574],[31.024148,-29.866575],[31.024141,-29.866936],[31.023934,-29.866933],[31.023932,-29.867023],[31.024242,-29.867028],[31.024244,-29.866937],[31.024347,-29.866939],[31.024349,-29.866849],[31.024453,-29.86685],[31.024458,-29.86658],[31.024355,-29.866578],[31.024356,-29.866488],[31.024253,-29.866486],[31.024255,-29.866396],[31.024151,-29.866395],[31.024153,-29.866305],[31.024049,-29.866303]]]},"properties":{"id":"durban_2026-05-04_lgbm_6","region":"durban","date":"2026-05-04","area_m2":2100.0,"mean_prob":0.9447,"max_prob":0.9961,"model":"lgbm","n_px":21,"px_area_m2":100.0,"lon":31.024212,"lat":-29.866686}},{"type":"Feature","geometry":{"type":"Polygon","coordinates":[[[31.021666,-29.866448],[31.021662,-29.866628],[31.021766,-29.86663],[31.021762,-29.86681],[31.021866,-29.866812],[31.021873,-29.866451],[31.021666,-29.866448]]]},"properties":{"id":"durban_2026-05-04_lgbm_7","region":"durban","date":"2026-05-04","area_m2":600.0,"mean_prob":0.9229,"max_prob":0.9804,"model":"lgbm","n_px":6,"px_area_m2":100.0,"lon":31.021784,"lat":-29.8666}},{"type":"Feature","geometry":{"type":"Polygon","coordinates":[[[31.021971,-29.866723],[31.021969,-29.866813],[31.022383,-29.866819],[31.022385,-29.866729],[31.021971,-29.866723]]]},"properties":{"id":"durban_2026-05-04_lgbm_8","region":"durban","date":"2026-05-04","area_m2":400.0,"mean_prob":0.8,"max_prob":0.9137,"model":"lgbm","n_px":4,"px_area_m2":100.0,"lon":31.022177,"lat":-29.866771}},{"type":"Feature","geometry":{"type":"Polygon","coordinates":[[[31.01907,-29.86686],[31.019068,-29.86695],[31.018965,-29.866949],[31.018961,-29.867129],[31.019065,-29.86713],[31.019066,-29.86704],[31.01917,-29.867042],[31.019172,-29.866952],[31.019275,-29.866953],[31.019277,-29.866863],[31.01907,-29.86686]]]},"properties":{"id":"durban_2026-05-04_lgbm_9","region":"durban","date":"2026-05-04","area_m2":500.0,"mean_prob":0.9616,"max_prob":0.9882,"model":"lgbm","n_px":5,"px_area_m2":100.0,"lon":31.019099,"lat":-29.866978}},{"type":"Feature","geometry":{"type":"Polygon","coordinates":[[[31.022278,-29.866908],[31.022274,-29.867088],[31.022792,-29.867096],[31.022793,-29.867006],[31.022483,-29.867001],[31.022485,-29.866911],[31.022278,-29.866908]]]},"properties":{"id":"durban_2026-05-04_lgbm_10","region":"durban","date":"2026-05-04","area_m2":700.0,"mean_prob":0.9204,"max_prob":0.9843,"model":"lgbm","n_px":7,"px_area_m2":100.0,"lon":31.02249,"lat":-29.867021}},{"type":"Feature","geometry":{"type":"Polygon","coordinates":[[[31.017234,-29.870712],[31.017232,-29.870802],[31.017025,-29.870799],[31.017022,-29.870979],[31.017229,-29.870982],[31.017223,-29.871253],[31.017327,-29.871254],[31.017328,-29.871164],[31.017432,-29.871166],[31.017434,-29.871076],[31.017537,-29.871077],[31.017539,-29.870987],[31.017643,-29.870989],[31.017644,-29.870898],[31.017541,-29.870897],[31.017543,-29.870807],[31.017439,-29.870805],[31.017441,-29.870715],[31.017234,-29.870712]]]},"properties":{"id":"durban_2026-05-04_lgbm_11","region":"durban","date":"2026-05-04","area_m2":1900.0,"mean_prob":0.9028,"max_prob":0.9961,"model":"lgbm","n_px":19,"px_area_m2":100.0,"lon":31.017325,"lat":-29.870943}},{"type":"Feature","geometry":{"type":"Polygon","coordinates":[[[31.01775,-29.87081],[31.017746,-29.87099],[31.017953,-29.870993],[31.017955,-29.870903],[31.018058,-29.870905],[31.01806,-29.870814],[31.01775,-29.87081]]]},"properties":{"id":"durban_2026-05-04_lgbm_12","region":"durban","date":"2026-05-04","area_m2":500.0,"mean_prob":0.7349,"max_prob":0.8902,"model":"lgbm","n_px":5,"px_area_m2":100.0,"lon":31.017882,"lat":-29.870893}},{"type":"Feature","geometry":{"type":"Polygon","coordinates":[[[31.018679,-29.870914],[31.018677,-29.871004],[31.018884,-29.871007],[31.018886,-29.870917],[31.018679,-29.870914]]]},"properties":{"id":"durban_2026-05-04_lgbm_13","region":"durban","date":"2026-05-04","area_m2":200.0,"mean_prob":0.7941,"max_prob":0.9216,"model":"lgbm","n_px":2,"px_area_m2":100.0,"lon":31.018782,"lat":-29.870961}},{"type":"Feature","geometry":{"type":"Polygon","coordinates":[[[31.020537,-29.871212],[31.020531,-29.871483],[31.020428,-29.871481],[31.020426,-29.871572],[31.020736,-29.871576],[31.02074,-29.871396],[31.020637,-29.871394],[31.02064,-29.871214],[31.020537,-29.871212]]]},"properties":{"id":"durban_2026-05-04_lgbm_14","region":"durban","date":"2026-05-04","area_m2":700.0,"mean_prob":0.8683,"max_prob":0.9804,"model":"lgbm","n_px":7,"px_area_m2":100.0,"lon":31.020599,"lat":-29.871439}},{"type":"Feature","geometry":{"type":"Polygon","coordinates":[[[31.025918,-29.871293],[31.025914,-29.871473],[31.025811,-29.871472],[31.025809,-29.871562],[31.025913,-29.871564],[31.025914,-29.871473],[31.026018,-29.871475],[31.026021,-29.871295],[31.025918,-29.871293]]]},"properties":{"id":"durban_2026-05-04_lgbm_15","region":"durban","date":"2026-05-04","area_m2":300.0,"mean_prob":0.8039,"max_prob":0.898,"model":"lgbm","n_px":3,"px_area_m2":100.0,"lon":31.025933,"lat":-29.871429}},{"type":"Feature","geometry":{"type":"Polygon","coordinates":[[[31.024658,-29.872176],[31.024651,-29.872537],[31.024755,-29.872539],[31.024758,-29.872358],[31.024862,-29.87236],[31.024865,-29.87218],[31.024658,-29.872176]]]},"properties":{"id":"durban_2026-05-04_lgbm_16","region":"durban","date":"2026-05-04","area_m2":600.0,"mean_prob":0.8562,"max_prob":0.9922,"model":"lgbm","n_px":6,"px_area_m2":100.0,"lon":31.024742,"lat":-29.872328}},{"type":"Feature","geometry":{"type":"Polygon","coordinates":[[[31.015335,-29.872488],[31.015334,-29.872578],[31.015127,-29.872575],[31.015125,-29.872665],[31.014918,-29.872662],[31.014916,-29.872752],[31.014813,-29.87275],[31.014809,-29.872931],[31.014499,-29.872926],[31.014497,-29.873016],[31.014393,-29.873015],[31.014392,-29.873105],[31.014495,-29.873107],[31.014493,-29.873197],[31.014597,-29.873198],[31.014599,-29.873108],[31.014702,-29.87311],[31.014695,-29.87347],[31.014798,-29.873472],[31.0148,-29.873382],[31.014904,-29.873383],[31.014907,-29.873203],[31.014804,-29.873201],[31.014807,-29.873021],[31.014911,-29.873023],[31.014909,-29.873113],[31.015116,-29.873116],[31.015114,-29.873206],[31.015218,-29.873208],[31.015216,-29.873298],[31.015423,-29.873301],[31.015428,-29.87303],[31.015325,-29.873029],[31.015327,-29.872939],[31.01512,-29.872935],[31.015121,-29.872845],[31.015432,-29.87285],[31.015434,-29.87276],[31.015537,-29.872761],[31.015539,-29.872671],[31.015435,-29.87267],[31.015439,-29.872489],[31.015335,-29.872488]]]},"properties":{"id":"durban_2026-05-04_lgbm_17","region":"durban","date":"2026-05-04","area_m2":4800.0,"mean_prob":0.9201,"max_prob":1.0,"model":"lgbm","n_px":48,"px_area_m2":100.0,"lon":31.01503,"lat":-29.872968}},{"type":"Feature","geometry":{"type":"Polygon","coordinates":[[[31.01553,-29.873122],[31.015519,-29.873663],[31.015623,-29.873665],[31.015624,-29.873575],[31.015728,-29.873576],[31.015733,-29.873306],[31.01563,-29.873304],[31.015633,-29.873124],[31.01553,-29.873122]]]},"properties":{"id":"durban_2026-05-04_lgbm_18","region":"durban","date":"2026-05-04","area_m2":900.0,"mean_prob":0.8649,"max_prob":0.9647,"model":"lgbm","n_px":9,"px_area_m2":100.0,"lon":31.01561,"lat":-29.873409}},{"type":"Feature","geometry":{"type":"Polygon","coordinates":[[[31.015839,-29.873217],[31.01583,-29.873668],[31.015933,-29.873669],[31.015935,-29.873579],[31.016038,-29.873581],[31.016042,-29.8734],[31.015939,-29.873399],[31.015942,-29.873219],[31.015839,-29.873217]]]},"properties":{"id":"durban_2026-05-04_lgbm_19","region":"durban","date":"2026-05-04","area_m2":700.0,"mean_prob":0.8773,"max_prob":0.9686,"model":"lgbm","n_px":7,"px_area_m2":100.0,"lon":31.015915,"lat":-29.873457}},{"type":"Feature","geometry":{"type":"Polygon","coordinates":[[[31.014491,-29.873287],[31.014488,-29.873467],[31.014591,-29.873469],[31.014595,-29.873288],[31.014491,-29.873287]]]},"properties":{"id":"durban_2026-05-04_lgbm_20","region":"durban","date":"2026-05-04","area_m2":200.0,"mean_prob":0.7667,"max_prob":0.7922,"model":"lgbm","n_px":2,"px_area_m2":100.0,"lon":31.014541,"lat":-29.873378}},{"type":"Feature","geometry":{"type":"Polygon","coordinates":[[[31.013141,-29.873537],[31.013139,-29.873627],[31.013346,-29.873631],[31.013348,-29.87354],[31.013141,-29.873537]]]},"properties":{"id":"durban_2026-05-04_lgbm_21","region":"durban","date":"2026-05-04","area_m2":200.0,"mean_prob":0.7961,"max_prob":0.9216,"model":"lgbm","n_px":2,"px_area_m2":100.0,"lon":31.013243,"lat":-29.873584}},{"type":"Feature","geometry":{"type":"Polygon","coordinates":[[[31.012001,-29.87361],[31.011999,-29.8737],[31.012206,-29.873704],[31.012202,-29.873884],[31.012409,-29.873887],[31.012406,-29.874067],[31.012613,-29.874071],[31.012611,-29.874161],[31.012714,-29.874162],[31.012716,-29.874072],[31.012613,-29.874071],[31.012616,-29.87389],[31.012513,-29.873889],[31.012514,-29.873798],[31.012411,-29.873797],[31.012413,-29.873707],[31.012309,-29.873705],[31.012311,-29.873615],[31.012001,-29.87361]]]},"properties":{"id":"durban_2026-05-04_lgbm_22","region":"durban","date":"2026-05-04","area_m2":1300.0,"mean_prob":0.8796,"max_prob":0.9647,"model":"lgbm","n_px":13,"px_area_m2":100.0,"lon":31.012374,"lat":-29.873848}},{"type":"Feature","geometry":{"type":"Polygon","coordinates":[[[31.011062,-29.873957],[31.01106,-29.874047],[31.010957,-29.874046],[31.010955,-29.874136],[31.011162,-29.874139],[31.011164,-29.874049],[31.011267,-29.87405],[31.011269,-29.87396],[31.011062,-29.873957]]]},"properties":{"id":"durban_2026-05-04_lgbm_23","region":"durban","date":"2026-05-04","area_m2":400.0,"mean_prob":0.7873,"max_prob":0.8627,"model":"lgbm","n_px":4,"px_area_m2":100.0,"lon":31.011112,"lat":-29.874048}},{"type":"Feature","geometry":{"type":"Polygon","coordinates":[[[31.014784,-29.874194],[31.014782,-29.874284],[31.014989,-29.874287],[31.014991,-29.874197],[31.014784,-29.874194]]]},"properties":{"id":"durban_2026-05-04_lgbm_24","region":"durban","date":"2026-05-04","area_m2":200.0,"mean_prob":0.8314,"max_prob":0.9098,"model":"lgbm","n_px":2,"px_area_m2":100.0,"lon":31.014887,"lat":-29.87424}},{"type":"Feature","geometry":{"type":"Polygon","coordinates":[[[31.008712,-29.877621],[31.008706,-29.877891],[31.00881,-29.877893],[31.008806,-29.878073],[31.00891,-29.878075],[31.008912,-29.877984],[31.009015,-29.877986],[31.009013,-29.878076],[31.009117,-29.878078],[31.00912,-29.877897],[31.009017,-29.877896],[31.009019,-29.877806],[31.008915,-29.877804],[31.008917,-29.877714],[31.008813,-29.877712],[31.008815,-29.877622],[31.008712,-29.877621]]]},"properties":{"id":"durban_2026-05-04_lgbm_25","region":"durban","date":"2026-05-04","area_m2":1100.0,"mean_prob":0.8528,"max_prob":0.9686,"model":"lgbm","n_px":11,"px_area_m2":100.0,"lon":31.00889,"lat":-29.877873}},{"type":"Feature","geometry":{"type":"Polygon","coordinates":[[[31.008303,-29.882577],[31.008301,-29.882667],[31.008197,-29.882665],[31.008194,-29.882846],[31.008297,-29.882847],[31.008299,-29.882757],[31.00892,-29.882766],[31.008922,-29.882676],[31.008818,-29.882675],[31.00882,-29.882584],[31.008303,-29.882577]]]},"properties":{"id":"durban_2026-05-04_lgbm_26","region":"durban","date":"2026-05-04","area_m2":1300.0,"mean_prob":0.9107,"max_prob":0.9804,"model":"lgbm","n_px":13,"px_area_m2":100.0,"lon":31.008535,"lat":-29.882688}}]}