{"type": "FeatureCollection", "features": [{"type": "Feature", "id": "D-SZ-live-guanabara-2025-06-26-001-3", "geometry": {"type": "Polygon", "coordinates": [[[-43.1732143, -22.7186468], [-43.1732131, -22.7187371], [-43.1731158, -22.718736], [-43.173117, -22.7186457], [-43.1732143, -22.7186468]]]}, "properties": {"kind": "detection", "det_id": "D-SZ-live-guanabara-2025-06-26-001-3", "zone_id": "SZ-live-guanabara-2025-06-26-001", "scene_id": "S2C_MSIL2A_20250626T130311_R095_T23KPQ_20250626T172059", "datetime": "2025-06-26T13:03:11.025000Z", "n_pixels": 1, "area_m2": 100, "prob_max": 0.6431, "prob_mean": 0.6431, "threshold": 0.63, "in_strip": true, "artifact": null}}, {"type": "Feature", "id": "D-SZ-live-guanabara-2025-06-26-001-4", "geometry": {"type": "Polygon", "coordinates": [[[-43.1730053, -22.7197281], [-43.1730041, -22.7198184], [-43.1729068, -22.7198172], [-43.172908, -22.7197269], [-43.1730053, -22.7197281]]]}, "properties": {"kind": "detection", "det_id": "D-SZ-live-guanabara-2025-06-26-001-4", "zone_id": "SZ-live-guanabara-2025-06-26-001", "scene_id": "S2C_MSIL2A_20250626T130311_R095_T23KPQ_20250626T172059", "datetime": "2025-06-26T13:03:11.025000Z", "n_pixels": 1, "area_m2": 100, "prob_max": 0.8196, "prob_mean": 0.8196, "threshold": 0.63, "in_strip": true, "artifact": null}}, {"type": "Feature", "id": "D-SZ-live-guanabara-2025-06-26-001-5", "geometry": {"type": "Polygon", "coordinates": [[[-43.1743655, -22.7199242], [-43.1743643, -22.7200145], [-43.1741696, -22.7200123], [-43.1741708, -22.719922], [-43.1743655, -22.7199242]]]}, "properties": {"kind": "detection", "det_id": "D-SZ-live-guanabara-2025-06-26-001-5", "zone_id": "SZ-live-guanabara-2025-06-26-001", "scene_id": "S2C_MSIL2A_20250626T130311_R095_T23KPQ_20250626T172059", "datetime": "2025-06-26T13:03:11.025000Z", "n_pixels": 2, "area_m2": 200, "prob_max": 0.9569, "prob_mean": 0.8549, "threshold": 0.63, "in_strip": true, "artifact": null}}, {"type": "Feature", "id": "D-SZ-live-guanabara-2025-06-26-001-6", "geometry": {"type": "Polygon", "coordinates": [[[-43.1734871, -22.7200948], [-43.1734859, -22.7201851], [-43.1733886, -22.720184], [-43.1733898, -22.7200937], [-43.1734871, -22.7200948]]]}, "properties": {"kind": "detection", "det_id": "D-SZ-live-guanabara-2025-06-26-001-6", "zone_id": "SZ-live-guanabara-2025-06-26-001", "scene_id": "S2C_MSIL2A_20250626T130311_R095_T23KPQ_20250626T172059", "datetime": "2025-06-26T13:03:11.025000Z", "n_pixels": 1, "area_m2": 100, "prob_max": 0.8745, "prob_mean": 0.8745, "threshold": 0.63, "in_strip": true, "artifact": "ship"}}, {"type": "Feature", "id": "D-SZ-live-guanabara-2025-06-26-002-8", "geometry": {"type": "Polygon", "coordinates": [[[-43.1778131, -22.7242079], [-43.1778107, -22.7243885], [-43.1777134, -22.7243874], [-43.1777158, -22.7242068], [-43.1778131, -22.7242079]]]}, "properties": {"kind": "detection", "det_id": "D-SZ-live-guanabara-2025-06-26-002-8", "zone_id": "SZ-live-guanabara-2025-06-26-002", "scene_id": "S2C_MSIL2A_20250626T130311_R095_T23KPQ_20250626T172059", "datetime": "2025-06-26T13:03:11.025000Z", "n_pixels": 2, "area_m2": 200, "prob_max": 0.9765, "prob_mean": 0.9137, "threshold": 0.63, "in_strip": true, "artifact": null}}, {"type": "Feature", "id": "D-SZ-live-guanabara-2025-06-26-002-9", "geometry": {"type": "Polygon", "coordinates": [[[-43.1789763, -22.7245824], [-43.1789751, -22.7246727], [-43.1787805, -22.7246705], [-43.1787817, -22.7245802], [-43.1789763, -22.7245824]]]}, "properties": {"kind": "detection", "det_id": "D-SZ-live-guanabara-2025-06-26-002-9", "zone_id": "SZ-live-guanabara-2025-06-26-002", "scene_id": "S2C_MSIL2A_20250626T130311_R095_T23KPQ_20250626T172059", "datetime": "2025-06-26T13:03:11.025000Z", "n_pixels": 2, "area_m2": 200, "prob_max": 0.9765, "prob_mean": 0.9157, "threshold": 0.63, "in_strip": true, "artifact": null}}, {"type": "Feature", "id": "D-SZ-live-guanabara-2025-06-26-002-10", "geometry": {"type": "Polygon", "coordinates": [[[-43.1790665, -22.7251252], [-43.1790641, -22.7253058], [-43.1789668, -22.7253047], [-43.1789692, -22.7251241], [-43.1790665, -22.7251252]]]}, "properties": {"kind": "detection", "det_id": "D-SZ-live-guanabara-2025-06-26-002-10", "zone_id": "SZ-live-guanabara-2025-06-26-002", "scene_id": "S2C_MSIL2A_20250626T130311_R095_T23KPQ_20250626T172059", "datetime": "2025-06-26T13:03:11.025000Z", "n_pixels": 2, "area_m2": 200, "prob_max": 0.9843, "prob_mean": 0.9804, "threshold": 0.63, "in_strip": true, "artifact": null}}, {"type": "Feature", "id": "D-SZ-live-guanabara-2025-06-26-002-11", "geometry": {"type": "Polygon", "coordinates": [[[-43.1786712, -22.7255723], [-43.17867, -22.7256626], [-43.1787673, -22.7256637], [-43.1787661, -22.725754], [-43.1786688, -22.7257528], [-43.17867, -22.7256626], [-43.1784753, -22.7256603], [-43.1784765, -22.72557], [-43.1786712, -22.7255723]]]}, "properties": {"kind": "detection", "det_id": "D-SZ-live-guanabara-2025-06-26-002-11", "zone_id": "SZ-live-guanabara-2025-06-26-002", "scene_id": "S2C_MSIL2A_20250626T130311_R095_T23KPQ_20250626T172059", "datetime": "2025-06-26T13:03:11.025000Z", "n_pixels": 3, "area_m2": 300, "prob_max": 0.9882, "prob_mean": 0.8471, "threshold": 0.63, "in_strip": true, "artifact": null}}, {"type": "Feature", "id": "D-SZ-live-guanabara-2025-06-26-002-12", "geometry": {"type": "Polygon", "coordinates": [[[-43.1790593, -22.725667], [-43.1790581, -22.7257573], [-43.1789608, -22.7257562], [-43.178962, -22.7256659], [-43.1790593, -22.725667]]]}, "properties": {"kind": "detection", "det_id": "D-SZ-live-guanabara-2025-06-26-002-12", "zone_id": "SZ-live-guanabara-2025-06-26-002", "scene_id": "S2C_MSIL2A_20250626T130311_R095_T23KPQ_20250626T172059", "datetime": "2025-06-26T13:03:11.025000Z", "n_pixels": 1, "area_m2": 100, "prob_max": 0.9451, "prob_mean": 0.9451, "threshold": 0.63, "in_strip": true, "artifact": null}}, {"type": "Feature", "id": "D-SZ-live-guanabara-2025-06-26-003-13", "geometry": {"type": "Polygon", "coordinates": [[[-43.1975185, -22.7284951], [-43.1975173, -22.7285854], [-43.197712, -22.7285876], [-43.1977108, -22.7286779], [-43.1976134, -22.7286768], [-43.1976123, -22.7287671], [-43.1975149, -22.728766], [-43.1975137, -22.7288563], [-43.1974164, -22.7288552], [-43.1974152, -22.7289455], [-43.1970259, -22.7289411], [-43.1970318, -22.7284896], [-43.1975185, -22.7284951]]]}, "properties": {"kind": "detection", "det_id": "D-SZ-live-guanabara-2025-06-26-003-13", "zone_id": "SZ-live-guanabara-2025-06-26-003", "scene_id": "S2C_MSIL2A_20250626T130311_R095_T23KPQ_20250626T172059", "datetime": "2025-06-26T13:03:11.025000Z", "n_pixels": 27, "area_m2": 2700, "prob_max": 0.9961, "prob_mean": 0.9249, "threshold": 0.63, "in_strip": true, "artifact": null}}, {"type": "Feature", "id": "D-SZ-live-guanabara-2025-06-26-003-14", "geometry": {"type": "Polygon", "coordinates": [[[-43.1971208, -22.7291228], [-43.1971197, -22.7292131], [-43.197217, -22.7292142], [-43.1972158, -22.7293044], [-43.1967291, -22.729299], [-43.1967303, -22.7292087], [-43.1970223, -22.729212], [-43.1970235, -22.7291217], [-43.1971208, -22.7291228]]]}, "properties": {"kind": "detection", "det_id": "D-SZ-live-guanabara-2025-06-26-003-14", "zone_id": "SZ-live-guanabara-2025-06-26-003", "scene_id": "S2C_MSIL2A_20250626T130311_R095_T23KPQ_20250626T172059", "datetime": "2025-06-26T13:03:11.025000Z", "n_pixels": 6, "area_m2": 600, "prob_max": 0.9804, "prob_mean": 0.8569, "threshold": 0.63, "in_strip": true, "artifact": "ship"}}, {"type": "Feature", "id": "D-SZ-live-guanabara-2025-06-26-003-15", "geometry": {"type": "Polygon", "coordinates": [[[-43.2021812, -22.7292701], [-43.20218, -22.7293604], [-43.2020827, -22.7293593], [-43.2020839, -22.729269], [-43.2021812, -22.7292701]]]}, "properties": {"kind": "detection", "det_id": "D-SZ-live-guanabara-2025-06-26-003-15", "zone_id": "SZ-live-guanabara-2025-06-26-003", "scene_id": "S2C_MSIL2A_20250626T130311_R095_T23KPQ_20250626T172059", "datetime": "2025-06-26T13:03:11.025000Z", "n_pixels": 1, "area_m2": 100, "prob_max": 0.7255, "prob_mean": 0.7255, "threshold": 0.63, "in_strip": true, "artifact": null}}, {"type": "Feature", "id": "D-SZ-live-guanabara-2025-06-26-003-16", "geometry": {"type": "Polygon", "coordinates": [[[-43.2004256, -22.7295212], [-43.2004244, -22.7296115], [-43.2005217, -22.7296126], [-43.2005206, -22.7297029], [-43.2006179, -22.729704], [-43.2006167, -22.7297943], [-43.200714, -22.7297954], [-43.2007129, -22.7298857], [-43.2005182, -22.7298835], [-43.200517, -22.7299738], [-43.2004197, -22.7299727], [-43.2004209, -22.7298824], [-43.2003235, -22.7298813], [-43.2003259, -22.7297007], [-43.2004232, -22.7297018], [-43.2004244, -22.7296115], [-43.2003271, -22.7296104], [-43.2003282, -22.7295201], [-43.2004256, -22.7295212]]]}, "properties": {"kind": "detection", "det_id": "D-SZ-live-guanabara-2025-06-26-003-16", "zone_id": "SZ-live-guanabara-2025-06-26-003", "scene_id": "S2C_MSIL2A_20250626T130311_R095_T23KPQ_20250626T172059", "datetime": "2025-06-26T13:03:11.025000Z", "n_pixels": 10, "area_m2": 1000, "prob_max": 0.9451, "prob_mean": 0.8259, "threshold": 0.63, "in_strip": true, "artifact": "seam"}}, {"type": "Feature", "id": "D-SZ-live-guanabara-2025-06-26-003-17", "geometry": {"type": "Polygon", "coordinates": [[[-43.1966294, -22.7294784], [-43.1966282, -22.7295687], [-43.1965309, -22.7295676], [-43.1965321, -22.7294773], [-43.1966294, -22.7294784]]]}, "properties": {"kind": "detection", "det_id": "D-SZ-live-guanabara-2025-06-26-003-17", "zone_id": "SZ-live-guanabara-2025-06-26-003", "scene_id": "S2C_MSIL2A_20250626T130311_R095_T23KPQ_20250626T172059", "datetime": "2025-06-26T13:03:11.025000Z", "n_pixels": 1, "area_m2": 100, "prob_max": 0.8745, "prob_mean": 0.8745, "threshold": 0.63, "in_strip": true, "artifact": "ship"}}, {"type": "Feature", "id": "D-SZ-live-guanabara-2025-06-26-003-18", "geometry": {"type": "Polygon", "coordinates": [[[-43.1967244, -22.7296601], [-43.1967232, -22.7297504], [-43.1966259, -22.7297493], [-43.1966271, -22.729659], [-43.1967244, -22.7296601]]]}, "properties": {"kind": "detection", "det_id": "D-SZ-live-guanabara-2025-06-26-003-18", "zone_id": "SZ-live-guanabara-2025-06-26-003", "scene_id": "S2C_MSIL2A_20250626T130311_R095_T23KPQ_20250626T172059", "datetime": "2025-06-26T13:03:11.025000Z", "n_pixels": 1, "area_m2": 100, "prob_max": 0.7255, "prob_mean": 0.7255, "threshold": 0.63, "in_strip": true, "artifact": "ship"}}, {"type": "Feature", "id": "D-SZ-live-guanabara-2025-06-26-004-21", "geometry": {"type": "Polygon", "coordinates": [[[-43.0355765, -22.7321851], [-43.0355752, -22.7322754], [-43.0356726, -22.7322766], [-43.03567, -22.7324572], [-43.0358647, -22.7324596], [-43.0358621, -22.7326401], [-43.0357647, -22.7326389], [-43.035766, -22.7325487], [-43.035474, -22.7325451], [-43.0354753, -22.7324548], [-43.035378, -22.7324536], [-43.0353806, -22.732273], [-43.0352832, -22.7322718], [-43.0352845, -22.7321815], [-43.0355765, -22.7321851]]]}, "properties": {"kind": "detection", "det_id": "D-SZ-live-guanabara-2025-06-26-004-21", "zone_id": "SZ-live-guanabara-2025-06-26-004", "scene_id": "S2C_MSIL2A_20250626T130311_R095_T23KPQ_20250626T172059", "datetime": "2025-06-26T13:03:11.025000Z", "n_pixels": 14, "area_m2": 1400, "prob_max": 0.9412, "prob_mean": 0.7899, "threshold": 0.63, "in_strip": true, "artifact": null}}, {"type": "Feature", "id": "D-SZ-live-guanabara-2025-06-26-005-24", "geometry": {"type": "Polygon", "coordinates": [[[-43.0510009, -22.7497117], [-43.0509996, -22.749802], [-43.051097, -22.7498032], [-43.0510957, -22.7498935], [-43.0507063, -22.7498887], [-43.0507076, -22.7497984], [-43.0509023, -22.7498008], [-43.0509036, -22.7497105], [-43.0510009, -22.7497117]]]}, "properties": {"kind": "detection", "det_id": "D-SZ-live-guanabara-2025-06-26-005-24", "zone_id": "SZ-live-guanabara-2025-06-26-005", "scene_id": "S2C_MSIL2A_20250626T130311_R095_T23KPQ_20250626T172059", "datetime": "2025-06-26T13:03:11.025000Z", "n_pixels": 5, "area_m2": 500, "prob_max": 0.8706, "prob_mean": 0.8235, "threshold": 0.63, "in_strip": true, "artifact": null}}, {"type": "Feature", "id": "D-SZ-live-guanabara-2025-06-26-005-25", "geometry": {"type": "Polygon", "coordinates": [[[-43.0512917, -22.7498056], [-43.0512891, -22.7499861], [-43.0511918, -22.749985], [-43.0511943, -22.7498044], [-43.0512917, -22.7498056]]]}, "properties": {"kind": "detection", "det_id": "D-SZ-live-guanabara-2025-06-26-005-25", "zone_id": "SZ-live-guanabara-2025-06-26-005", "scene_id": "S2C_MSIL2A_20250626T130311_R095_T23KPQ_20250626T172059", "datetime": "2025-06-26T13:03:11.025000Z", "n_pixels": 2, "area_m2": 200, "prob_max": 0.8588, "prob_mean": 0.8451, "threshold": 0.63, "in_strip": true, "artifact": null}}, {"type": "Feature", "id": "D-SZ-live-guanabara-2025-06-26-006-26", "geometry": {"type": "Polygon", "coordinates": [[[-43.0473633, -22.7521957], [-43.047362, -22.752286], [-43.0472646, -22.7522848], [-43.0472659, -22.7521945], [-43.0473633, -22.7521957]]]}, "properties": {"kind": "detection", "det_id": "D-SZ-live-guanabara-2025-06-26-006-26", "zone_id": "SZ-live-guanabara-2025-06-26-006", "scene_id": "S2C_MSIL2A_20250626T130311_R095_T23KPQ_20250626T172059", "datetime": "2025-06-26T13:03:11.025000Z", "n_pixels": 1, "area_m2": 100, "prob_max": 0.8275, "prob_mean": 0.8275, "threshold": 0.63, "in_strip": true, "artifact": null}}, {"type": "Feature", "id": "D-SZ-live-guanabara-2025-06-26-006-27", "geometry": {"type": "Polygon", "coordinates": [[[-43.0471686, -22.7521933], [-43.0471673, -22.7522836], [-43.0469726, -22.7522812], [-43.0469739, -22.7521909], [-43.0471686, -22.7521933]]]}, "properties": {"kind": "detection", "det_id": "D-SZ-live-guanabara-2025-06-26-006-27", "zone_id": "SZ-live-guanabara-2025-06-26-006", "scene_id": "S2C_MSIL2A_20250626T130311_R095_T23KPQ_20250626T172059", "datetime": "2025-06-26T13:03:11.025000Z", "n_pixels": 2, "area_m2": 200, "prob_max": 0.851, "prob_mean": 0.751, "threshold": 0.63, "in_strip": true, "artifact": "seam"}}, {"type": "Feature", "id": "D-SZ-live-guanabara-2025-06-26-006-28", "geometry": {"type": "Polygon", "coordinates": [[[-43.0468766, -22.7521897], [-43.0468753, -22.75228], [-43.0465832, -22.7522765], [-43.0465845, -22.7521862], [-43.0468766, -22.7521897]]]}, "properties": {"kind": "detection", "det_id": "D-SZ-live-guanabara-2025-06-26-006-28", "zone_id": "SZ-live-guanabara-2025-06-26-006", "scene_id": "S2C_MSIL2A_20250626T130311_R095_T23KPQ_20250626T172059", "datetime": "2025-06-26T13:03:11.025000Z", "n_pixels": 3, "area_m2": 300, "prob_max": 0.9569, "prob_mean": 0.9359, "threshold": 0.63, "in_strip": true, "artifact": "seam"}}, {"type": "Feature", "id": "D-SZ-live-guanabara-2025-06-26-007-60", "geometry": {"type": "Polygon", "coordinates": [[[-43.1513829, -22.8434666], [-43.1513805, -22.8436472], [-43.151283, -22.8436461], [-43.1512855, -22.8434655], [-43.1513829, -22.8434666]]]}, "properties": {"kind": "detection", "det_id": "D-SZ-live-guanabara-2025-06-26-007-60", "zone_id": "SZ-live-guanabara-2025-06-26-007", "scene_id": "S2C_MSIL2A_20250626T130311_R095_T23KPQ_20250626T172059", "datetime": "2025-06-26T13:03:11.025000Z", "n_pixels": 2, "area_m2": 200, "prob_max": 0.9843, "prob_mean": 0.8784, "threshold": 0.63, "in_strip": true, "artifact": null}}, {"type": "Feature", "id": "D-SZ-live-guanabara-2025-06-26-007-61", "geometry": {"type": "Polygon", "coordinates": [[[-43.1488293, -22.8449721], [-43.1488269, -22.8451527], [-43.1487295, -22.8451515], [-43.1487307, -22.8450612], [-43.1486333, -22.8450601], [-43.1486345, -22.8449698], [-43.1488293, -22.8449721]]]}, "properties": {"kind": "detection", "det_id": "D-SZ-live-guanabara-2025-06-26-007-61", "zone_id": "SZ-live-guanabara-2025-06-26-007", "scene_id": "S2C_MSIL2A_20250626T130311_R095_T23KPQ_20250626T172059", "datetime": "2025-06-26T13:03:11.025000Z", "n_pixels": 3, "area_m2": 300, "prob_max": 0.8902, "prob_mean": 0.8, "threshold": 0.63, "in_strip": true, "artifact": null}}]}