{"type": "FeatureCollection", "features": [{"type": "Feature", "id": "SZ-live-manila-2025-08-04-001", "geometry": {"type": "Polygon", "coordinates": [[[120.926621, 14.713912], [120.925513, 14.713359], [120.925243, 14.712453], [120.924315, 14.712355], [120.92357, 14.712619], [120.922737, 14.712341], [120.92219, 14.711251], [120.922477, 14.71035], [120.923131, 14.709904], [120.924338, 14.709915], [120.924902, 14.709197], [120.925926, 14.708935], [120.927035, 14.709488], [120.927211, 14.710483], [120.928049, 14.710219], [120.928975, 14.710499], [120.929521, 14.711588], [120.929234, 14.71258], [120.92858, 14.713025], [120.92793, 14.71302], [120.927552, 14.713649], [120.926621, 14.713912]]]}, "properties": {"kind": "detection_zone", "layer_kind": "scene_zone", "zone_id": "SZ-live-manila-2025-08-04-001", "scene_key": "live-manila-2025-08-04", "scene_kind": "live", "scene_id": "S2B_MSIL2A_20250804T021529_R003_T51PTS_20250804T041948", "region": "manila", "title": "Манильский залив · зона 1", "mission": "Sentinel-2", "datetime": "2025-08-04T02:15:29.024000Z", "detection_status": "insufficient_data", "status": "insufficient_data", "concentration_status": "unavailable", "verification": "false_alarm_signs", "training_scene": null, "flags": ["ship"], "n_cozar_filaments": 0, "crop_file": "crops/SZ-live-manila-2025-08-04-001.jpg", "measured": {"zone_area_km2": 0.2598, "suspicious_area_m2": 1000, "n_pixels": 10, "n_objects": 5, "water_km2": 0.2641, "lwd_m2_km2": 3786.4, "quality": {"valid_water_fraction": 1.0, "cloud_fraction": 0.0, "glint_fraction": 0.0}, "model": {"weights": "weights/lgbm", "file": "weights/lgbm/model.txt", "sha256": "0eeebf43fcccd8c7c07f053b7ec723229d1a3c9b92d12eec1bdb269258c51470", "sha256_short": "0eeebf43fccc", "trained_at": "2026-09-25T01:35:55Z", "threshold": 0.63, "harmonize": "none", "class": "MARIDA Marine Debris (любой плавающий мусор, не только пластик)"}}, "probable": {"prob_max": 1.0, "prob_mean": 0.868, "signs": {"foam": {"flag": false, "white_ratio_b2_b8": 0.513, "wind10m_ms": 1.21, "rule": "прирост B2 над водой ≥ 0.8 прироста B8 («белый» спектр) или ветер ≥ 7.0 м/с"}, "glint": {"flag": false, "b11_water_median": 0.0079, "glint_share": 0.0, "rule": "медиана B11 воды зоны > 0.01 или ≥ 20 % пикселей зоны — блик (маска качества)"}, "ship": {"flag": true, "share": 0.4, "bright_target_px_within_500m": 368, "rule": "≥ 30 % пикселей — у яркой цели или кильватера (reports/artifacts.md) или яркая цель с откликом в SWIR (судно, лодка: B11 ≥ 0,015) ближе 500 м"}, "coast": {"flag": false, "land_px_within_300m": 0, "rule": "суша (маска качества) ближе 300 м — прибой, кромка берега"}, "shallow": {"flag": false, "b3_water_zone": 0.0323, "b3_ratio_to_scene_water": 0.96, "rule": "медиана B3 воды зоны ≥ 2× медианы воды снимка и ≥ 0,03 — мелководье или мутная вода"}, "seam": {"flag": false, "share": 0, "rule": "≥ 30 % пикселей — прямая линия вдоль трека/границы яркости (шов)"}, "note": "эвристики, не классификатор; на размеченных данных не проверены"}, "n_cozar_filaments": 0}, "field_nearby": {"items": [{"source": "ADIS (4TU.ResearchData, судовая камера)", "segment_id": 339924, "ship": "R/V Tinro", "date": "2022-02-07", "days_from_scene": -1274, "distance_km": 3554.1, "lon": 139.33376, "lat": 41.2048, "n_items": 0, "area_km2": 0.8103, "size_class": "> 5 см", "c_items_km2": 0.0, "ci95_lo": 0.0, "ci95_hi": 4.55, "ci95_method": "точный интервал Пуассона для N, делённый на A"}, {"source": "ADIS (4TU.ResearchData, судовая камера)", "segment_id": 339927, "ship": "R/V Tinro", "date": "2022-02-07", "days_from_scene": -1274, "distance_km": 3564.5, "lon": 139.59261, "lat": 41.14731, "n_items": 0, "area_km2": 0.8108, "size_class": "> 5 см", "c_items_km2": 0.0, "ci95_lo": 0.0, "ci95_hi": 4.55, "ci95_method": "точный интервал Пуассона для N, делённый на A"}, {"source": "ADIS (4TU.ResearchData, судовая камера)", "segment_id": 339928, "ship": "R/V Tinro", "date": "2022-02-07", "days_from_scene": -1274, "distance_km": 3569.3, "lon": 139.70705, "lat": 41.12296, "n_items": 0, "area_km2": 0.8112, "size_class": "> 5 см", "c_items_km2": 0.0, "ci95_lo": 0.0, "ci95_hi": 4.55, "ci95_method": "точный интервал Пуассона для N, делённый на A"}], "nearest_organizer_sample": {"sample_id": "MPL-0923", "source_id": "S4_BLACK_SEA_DOORS3", "distance_km": 9041.9}, "note": "Измерение ≠ оценка: это независимые полевые счёты C = N/A в другое время и в другом месте; со сценой они не связаны и не калибруют её. Ближайший отрезок ADIS — за 3554 км: только для порядка величин."}}}, {"type": "Feature", "id": "SZ-live-manila-2025-08-04-002", "geometry": {"type": "Polygon", "coordinates": [[[120.793125, 14.685843], [120.792016, 14.68529], [120.791746, 14.684474], [120.791842, 14.684114], [120.791098, 14.684287], [120.790265, 14.684008], [120.789808, 14.683371], [120.789812, 14.68292], [120.789167, 14.682462], [120.788628, 14.68065], [120.788728, 14.680018], [120.789198, 14.67939], [120.790036, 14.679127], [120.790961, 14.679407], [120.791419, 14.680044], [120.791412, 14.680766], [120.791779, 14.681222], [120.791774, 14.681673], [120.792509, 14.682403], [120.792501, 14.683216], [120.793245, 14.683043], [120.794354, 14.683595], [120.794624, 14.684411], [120.794337, 14.685312], [120.793682, 14.685758], [120.793125, 14.685843]]]}, "properties": {"kind": "detection_zone", "layer_kind": "scene_zone", "zone_id": "SZ-live-manila-2025-08-04-002", "scene_key": "live-manila-2025-08-04", "scene_kind": "live", "scene_id": "S2B_MSIL2A_20250804T021529_R003_T51PTS_20250804T041948", "region": "manila", "title": "Манильский залив · зона 2", "mission": "Sentinel-2", "datetime": "2025-08-04T02:15:29.024000Z", "detection_status": "insufficient_data", "status": "insufficient_data", "concentration_status": "unavailable", "verification": "false_alarm_signs", "training_scene": null, "flags": ["ship", "foam"], "n_cozar_filaments": 0, "crop_file": "crops/SZ-live-manila-2025-08-04-002.jpg", "measured": {"zone_area_km2": 0.2237, "suspicious_area_m2": 600, "n_pixels": 6, "n_objects": 4, "water_km2": 0.2244, "lwd_m2_km2": 2673.8, "quality": {"valid_water_fraction": 1.0, "cloud_fraction": 0.0, "glint_fraction": 0.0}, "model": {"weights": "weights/lgbm", "file": "weights/lgbm/model.txt", "sha256": "0eeebf43fcccd8c7c07f053b7ec723229d1a3c9b92d12eec1bdb269258c51470", "sha256_short": "0eeebf43fccc", "trained_at": "2026-09-25T01:35:55Z", "threshold": 0.63, "harmonize": "none", "class": "MARIDA Marine Debris (любой плавающий мусор, не только пластик)"}}, "probable": {"prob_max": 0.922, "prob_mean": 0.78, "signs": {"foam": {"flag": true, "white_ratio_b2_b8": 0.982, "wind10m_ms": 1.21, "rule": "прирост B2 над водой ≥ 0.8 прироста B8 («белый» спектр) или ветер ≥ 7.0 м/с"}, "glint": {"flag": false, "b11_water_median": 0.0032, "glint_share": 0.0, "rule": "медиана B11 воды зоны > 0.01 или ≥ 20 % пикселей зоны — блик (маска качества)"}, "ship": {"flag": true, "share": 0.167, "bright_target_px_within_500m": 5, "rule": "≥ 30 % пикселей — у яркой цели или кильватера (reports/artifacts.md) или яркая цель с откликом в SWIR (судно, лодка: B11 ≥ 0,015) ближе 500 м"}, "coast": {"flag": false, "land_px_within_300m": 0, "rule": "суша (маска качества) ближе 300 м — прибой, кромка берега"}, "shallow": {"flag": false, "b3_water_zone": 0.0322, "b3_ratio_to_scene_water": 0.96, "rule": "медиана B3 воды зоны ≥ 2× медианы воды снимка и ≥ 0,03 — мелководье или мутная вода"}, "seam": {"flag": false, "share": 0, "rule": "≥ 30 % пикселей — прямая линия вдоль трека/границы яркости (шов)"}, "note": "эвристики, не классификатор; на размеченных данных не проверены"}, "n_cozar_filaments": 0}, "field_nearby": {"items": [{"source": "ADIS (4TU.ResearchData, судовая камера)", "segment_id": 339924, "ship": "R/V Tinro", "date": "2022-02-07", "days_from_scene": -1274, "distance_km": 3554.1, "lon": 139.33376, "lat": 41.2048, "n_items": 0, "area_km2": 0.8103, "size_class": "> 5 см", "c_items_km2": 0.0, "ci95_lo": 0.0, "ci95_hi": 4.55, "ci95_method": "точный интервал Пуассона для N, делённый на A"}, {"source": "ADIS (4TU.ResearchData, судовая камера)", "segment_id": 339927, "ship": "R/V Tinro", "date": "2022-02-07", "days_from_scene": -1274, "distance_km": 3564.5, "lon": 139.59261, "lat": 41.14731, "n_items": 0, "area_km2": 0.8108, "size_class": "> 5 см", "c_items_km2": 0.0, "ci95_lo": 0.0, "ci95_hi": 4.55, "ci95_method": "точный интервал Пуассона для N, делённый на A"}, {"source": "ADIS (4TU.ResearchData, судовая камера)", "segment_id": 339928, "ship": "R/V Tinro", "date": "2022-02-07", "days_from_scene": -1274, "distance_km": 3569.3, "lon": 139.70705, "lat": 41.12296, "n_items": 0, "area_km2": 0.8112, "size_class": "> 5 см", "c_items_km2": 0.0, "ci95_lo": 0.0, "ci95_hi": 4.55, "ci95_method": "точный интервал Пуассона для N, делённый на A"}], "nearest_organizer_sample": {"sample_id": "MPL-0923", "source_id": "S4_BLACK_SEA_DOORS3", "distance_km": 9041.9}, "note": "Измерение ≠ оценка: это независимые полевые счёты C = N/A в другое время и в другом месте; со сценой они не связаны и не калибруют её. Ближайший отрезок ADIS — за 3554 км: только для порядка величин."}}}]}