{"type": "FeatureCollection", "features": [{"type": "Feature", "id": "D-SZ-live-honduras-2026-02-14-001-2", "geometry": {"type": "Polygon", "coordinates": [[[-88.1132408, 15.8878769], [-88.1132403, 15.8877865], [-88.1131469, 15.887787], [-88.1131474, 15.8878774], [-88.1132408, 15.8878769]]]}, "properties": {"kind": "detection", "det_id": "D-SZ-live-honduras-2026-02-14-001-2", "zone_id": "SZ-live-honduras-2026-02-14-001", "scene_id": "S2C_MSIL2A_20260214T161351_R140_T16PCC_20260214T192111", "datetime": "2026-02-14T16:13:51.025000Z", "n_pixels": 1, "area_m2": 100, "prob_max": 0.9216, "prob_mean": 0.9216, "threshold": 0.63, "in_strip": true, "artifact": null}}, {"type": "Feature", "id": "D-SZ-live-honduras-2026-02-14-001-3", "geometry": {"type": "Polygon", "coordinates": [[[-88.1131455, 15.8875159], [-88.1131445, 15.8873351], [-88.1130511, 15.8873356], [-88.1130521, 15.8875163], [-88.1131455, 15.8875159]]]}, "properties": {"kind": "detection", "det_id": "D-SZ-live-honduras-2026-02-14-001-3", "zone_id": "SZ-live-honduras-2026-02-14-001", "scene_id": "S2C_MSIL2A_20260214T161351_R140_T16PCC_20260214T192111", "datetime": "2026-02-14T16:13:51.025000Z", "n_pixels": 2, "area_m2": 200, "prob_max": 0.9294, "prob_mean": 0.9078, "threshold": 0.63, "in_strip": true, "artifact": null}}, {"type": "Feature", "id": "D-SZ-live-honduras-2026-02-14-001-4", "geometry": {"type": "Polygon", "coordinates": [[[-88.1130501, 15.8871548], [-88.1130496, 15.8870644], [-88.1129562, 15.8870649], [-88.1129567, 15.8871553], [-88.1130501, 15.8871548]]]}, "properties": {"kind": "detection", "det_id": "D-SZ-live-honduras-2026-02-14-001-4", "zone_id": "SZ-live-honduras-2026-02-14-001", "scene_id": "S2C_MSIL2A_20260214T161351_R140_T16PCC_20260214T192111", "datetime": "2026-02-14T16:13:51.025000Z", "n_pixels": 1, "area_m2": 100, "prob_max": 0.949, "prob_mean": 0.949, "threshold": 0.63, "in_strip": true, "artifact": null}}, {"type": "Feature", "id": "D-SZ-live-honduras-2026-02-14-001-5", "geometry": {"type": "Polygon", "coordinates": [[[-88.1130451, 15.8862509], [-88.1130441, 15.8860701], [-88.1129507, 15.8860706], [-88.1129517, 15.8862514], [-88.1130451, 15.8862509]]]}, "properties": {"kind": "detection", "det_id": "D-SZ-live-honduras-2026-02-14-001-5", "zone_id": "SZ-live-honduras-2026-02-14-001", "scene_id": "S2C_MSIL2A_20260214T161351_R140_T16PCC_20260214T192111", "datetime": "2026-02-14T16:13:51.025000Z", "n_pixels": 2, "area_m2": 200, "prob_max": 1.0, "prob_mean": 0.998, "threshold": 0.63, "in_strip": true, "artifact": null}}, {"type": "Feature", "id": "D-SZ-live-honduras-2026-02-14-001-6", "geometry": {"type": "Polygon", "coordinates": [[[-88.1131325, 15.8851658], [-88.113132, 15.8850754], [-88.1130386, 15.8850759], [-88.1130391, 15.8851663], [-88.1131325, 15.8851658]]]}, "properties": {"kind": "detection", "det_id": "D-SZ-live-honduras-2026-02-14-001-6", "zone_id": "SZ-live-honduras-2026-02-14-001", "scene_id": "S2C_MSIL2A_20260214T161351_R140_T16PCC_20260214T192111", "datetime": "2026-02-14T16:13:51.025000Z", "n_pixels": 1, "area_m2": 100, "prob_max": 0.6863, "prob_mean": 0.6863, "threshold": 0.63, "in_strip": true, "artifact": null}}, {"type": "Feature", "id": "D-SZ-live-honduras-2026-02-14-001-7", "geometry": {"type": "Polygon", "coordinates": [[[-88.1133109, 15.8836282], [-88.1133104, 15.8835378], [-88.1134038, 15.8835374], [-88.1134033, 15.883447], [-88.1133099, 15.8834474], [-88.1133094, 15.8833571], [-88.113216, 15.8833575], [-88.113215, 15.8831768], [-88.1130282, 15.8831777], [-88.1130297, 15.8834489], [-88.1132165, 15.8834479], [-88.1132175, 15.8836287], [-88.1133109, 15.8836282]]]}, "properties": {"kind": "detection", "det_id": "D-SZ-live-honduras-2026-02-14-001-7", "zone_id": "SZ-live-honduras-2026-02-14-001", "scene_id": "S2C_MSIL2A_20260214T161351_R140_T16PCC_20260214T192111", "datetime": "2026-02-14T16:13:51.025000Z", "n_pixels": 10, "area_m2": 1000, "prob_max": 1.0, "prob_mean": 0.8843, "threshold": 0.63, "in_strip": true, "artifact": null}}, {"type": "Feature", "id": "D-SZ-live-honduras-2026-02-14-002-10", "geometry": {"type": "Polygon", "coordinates": [[[-88.1036434, 15.8061222], [-88.1036429, 15.8060319], [-88.1037363, 15.8060314], [-88.1037353, 15.8058506], [-88.1035486, 15.8058516], [-88.10355, 15.8061227], [-88.1036434, 15.8061222]]]}, "properties": {"kind": "detection", "det_id": "D-SZ-live-honduras-2026-02-14-002-10", "zone_id": "SZ-live-honduras-2026-02-14-002", "scene_id": "S2C_MSIL2A_20260214T161351_R140_T16PCC_20260214T192111", "datetime": "2026-02-14T16:13:51.025000Z", "n_pixels": 5, "area_m2": 500, "prob_max": 0.9961, "prob_mean": 0.8871, "threshold": 0.63, "in_strip": true, "artifact": "ship"}}, {"type": "Feature", "id": "D-SZ-live-honduras-2026-02-14-002-12", "geometry": {"type": "Polygon", "coordinates": [[[-88.1045726, 15.805304], [-88.1045716, 15.8051232], [-88.104665, 15.8051228], [-88.1046645, 15.8050324], [-88.1048512, 15.8050314], [-88.1048507, 15.804941], [-88.104664, 15.804942], [-88.1046645, 15.8050324], [-88.1044777, 15.8050333], [-88.1044792, 15.8053045], [-88.1045726, 15.805304]]]}, "properties": {"kind": "detection", "det_id": "D-SZ-live-honduras-2026-02-14-002-12", "zone_id": "SZ-live-honduras-2026-02-14-002", "scene_id": "S2C_MSIL2A_20260214T161351_R140_T16PCC_20260214T192111", "datetime": "2026-02-14T16:13:51.025000Z", "n_pixels": 6, "area_m2": 600, "prob_max": 0.9922, "prob_mean": 0.8092, "threshold": 0.63, "in_strip": true, "artifact": null}}, {"type": "Feature", "id": "D-SZ-live-honduras-2026-02-14-003-13", "geometry": {"type": "Polygon", "coordinates": [[[-88.1078268, 15.8028469], [-88.1078263, 15.8027565], [-88.1080131, 15.8027555], [-88.1080126, 15.8026651], [-88.1078258, 15.8026661], [-88.1078263, 15.8027565], [-88.1074529, 15.8027584], [-88.1074534, 15.8028488], [-88.1078268, 15.8028469]]]}, "properties": {"kind": "detection", "det_id": "D-SZ-live-honduras-2026-02-14-003-13", "zone_id": "SZ-live-honduras-2026-02-14-003", "scene_id": "S2C_MSIL2A_20260214T161351_R140_T16PCC_20260214T192111", "datetime": "2026-02-14T16:13:51.025000Z", "n_pixels": 6, "area_m2": 600, "prob_max": 0.9961, "prob_mean": 0.9752, "threshold": 0.63, "in_strip": true, "artifact": null}}, {"type": "Feature", "id": "D-SZ-live-honduras-2026-02-14-003-14", "geometry": {"type": "Polygon", "coordinates": [[[-88.1094095, 15.8020253], [-88.109409, 15.8019349], [-88.1095023, 15.8019344], [-88.1095004, 15.8015729], [-88.1095937, 15.8015724], [-88.1095932, 15.801482], [-88.1094999, 15.8014825], [-88.1095004, 15.8015729], [-88.109407, 15.8015733], [-88.109408, 15.8017541], [-88.1093146, 15.8017546], [-88.1093161, 15.8020257], [-88.1094095, 15.8020253]]]}, "properties": {"kind": "detection", "det_id": "D-SZ-live-honduras-2026-02-14-003-14", "zone_id": "SZ-live-honduras-2026-02-14-003", "scene_id": "S2C_MSIL2A_20260214T161351_R140_T16PCC_20260214T192111", "datetime": "2026-02-14T16:13:51.025000Z", "n_pixels": 8, "area_m2": 800, "prob_max": 1.0, "prob_mean": 0.9652, "threshold": 0.63, "in_strip": true, "artifact": null}}, {"type": "Feature", "id": "D-SZ-live-honduras-2026-02-14-003-15", "geometry": {"type": "Polygon", "coordinates": [[[-88.1105179, 15.7998502], [-88.1105169, 15.7996694], [-88.1103302, 15.7996704], [-88.1103307, 15.7997608], [-88.1104241, 15.7997603], [-88.1104246, 15.7998507], [-88.1105179, 15.7998502]]]}, "properties": {"kind": "detection", "det_id": "D-SZ-live-honduras-2026-02-14-003-15", "zone_id": "SZ-live-honduras-2026-02-14-003", "scene_id": "S2C_MSIL2A_20260214T161351_R140_T16PCC_20260214T192111", "datetime": "2026-02-14T16:13:51.025000Z", "n_pixels": 3, "area_m2": 300, "prob_max": 1.0, "prob_mean": 0.9869, "threshold": 0.63, "in_strip": true, "artifact": null}}, {"type": "Feature", "id": "D-SZ-live-honduras-2026-02-14-004-16", "geometry": {"type": "Polygon", "coordinates": [[[-88.1130133, 15.7952275], [-88.1130128, 15.7951371], [-88.1129195, 15.7951376], [-88.11292, 15.795228], [-88.1130133, 15.7952275]]]}, "properties": {"kind": "detection", "det_id": "D-SZ-live-honduras-2026-02-14-004-16", "zone_id": "SZ-live-honduras-2026-02-14-004", "scene_id": "S2C_MSIL2A_20260214T161351_R140_T16PCC_20260214T192111", "datetime": "2026-02-14T16:13:51.025000Z", "n_pixels": 1, "area_m2": 100, "prob_max": 0.8902, "prob_mean": 0.8902, "threshold": 0.63, "in_strip": true, "artifact": null}}, {"type": "Feature", "id": "D-SZ-live-honduras-2026-02-14-004-17", "geometry": {"type": "Polygon", "coordinates": [[[-88.1133843, 15.7947736], [-88.1133833, 15.7945929], [-88.1131966, 15.7945938], [-88.1131976, 15.7947746], [-88.1133843, 15.7947736]]]}, "properties": {"kind": "detection", "det_id": "D-SZ-live-honduras-2026-02-14-004-17", "zone_id": "SZ-live-honduras-2026-02-14-004", "scene_id": "S2C_MSIL2A_20260214T161351_R140_T16PCC_20260214T192111", "datetime": "2026-02-14T16:13:51.025000Z", "n_pixels": 4, "area_m2": 400, "prob_max": 1.0, "prob_mean": 0.9971, "threshold": 0.63, "in_strip": true, "artifact": null}}]}