{"type":"FeatureCollection","features":[{"type":"Feature","geometry":{"type":"Polygon","coordinates":[[[120.727753,14.706354],[120.727753,14.706264],[120.727568,14.706262],[120.727569,14.706172],[120.727476,14.706171],[120.727477,14.70608],[120.727384,14.70608],[120.727386,14.705899],[120.727293,14.705898],[120.727295,14.705717],[120.727202,14.705716],[120.727203,14.705626],[120.72711,14.705625],[120.727113,14.705354],[120.72702,14.705353],[120.727029,14.70454],[120.727122,14.704541],[120.727118,14.704902],[120.727211,14.704903],[120.727206,14.705355],[120.727299,14.705356],[120.727297,14.705537],[120.72739,14.705537],[120.727388,14.705718],[120.727481,14.705719],[120.727479,14.7059],[120.727572,14.705901],[120.727571,14.705991],[120.727663,14.705992],[120.727663,14.706082],[120.727755,14.706083],[120.727754,14.706174],[120.727847,14.706174],[120.727845,14.706355],[120.727753,14.706354]]]},"properties":{"id":"manila_2019-05-13_mdd_0","region":"manila","date":"2019-05-13","area_m2":3900.0,"mean_prob":0.5392,"max_prob":0.5725,"model":"mdd","n_px":39,"px_area_m2":100.0,"confirmed":false,"confirmed_by":null,"lon":120.727319,"lat":14.705554}},{"type":"Feature","geometry":{"type":"Polygon","coordinates":[[[120.828472,14.706507],[120.828476,14.706055],[120.828569,14.706056],[120.82857,14.705965],[120.828663,14.705966],[120.828664,14.705786],[120.828757,14.705786],[120.828759,14.705606],[120.828852,14.705607],[120.828854,14.705426],[120.828946,14.705427],[120.828948,14.705246],[120.829041,14.705247],[120.829044,14.704976],[120.829137,14.704977],[120.829149,14.703712],[120.829242,14.703713],[120.829244,14.703532],[120.829336,14.703533],[120.829337,14.703443],[120.82943,14.703443],[120.829432,14.703263],[120.829525,14.703264],[120.829527,14.703083],[120.829619,14.703084],[120.82962,14.702993],[120.829713,14.702994],[120.829714,14.702904],[120.829807,14.702905],[120.829808,14.702814],[120.829901,14.702815],[120.829901,14.702725],[120.829994,14.702726],[120.829996,14.702545],[120.830089,14.702546],[120.830091,14.702365],[120.830183,14.702366],[120.830184,14.702276],[120.830277,14.702277],[120.830279,14.702096],[120.830372,14.702097],[120.830373,14.702007],[120.830465,14.702007],[120.830466,14.701917],[120.830559,14.701918],[120.830561,14.701737],[120.830654,14.701738],[120.830659,14.701196],[120.830752,14.701197],[120.830755,14.700926],[120.830847,14.700927],[120.83085,14.700656],[120.830943,14.700657],[120.830944,14.700566],[120.831037,14.700567],[120.831038,14.700386],[120.831131,14.700387],[120.831132,14.700297],[120.831225,14.700298],[120.831227,14.700117],[120.83132,14.700118],[120.831321,14.700028],[120.831413,14.700028],[120.831414,14.699938],[120.831507,14.699939],[120.831508,14.699849],[120.831601,14.699849],[120.831602,14.699759],[120.831694,14.69976],[120.831696,14.699579],[120.831789,14.69958],[120.831792,14.699309],[120.831885,14.69931],[120.831885,14.69922],[120.832164,14.699222],[120.832165,14.699132],[120.832536,14.699135],[120.832533,14.699406],[120.832626,14.699407],[120.832623,14.699769],[120.832808,14.69977],[120.832807,14.699951],[120.832992,14.699953],[120.832991,14.700043],[120.833177,14.700045],[120.833176,14.700135],[120.83364,14.70014],[120.833641,14.700049],[120.83392,14.700052],[120.83392,14.699961],[120.834385,14.699966],[120.834384,14.700056],[120.834476,14.700057],[120.834475,14.700238],[120.834382,14.700237],[120.834376,14.700869],[120.834283,14.700868],[120.834277,14.701411],[120.834185,14.70141],[120.834184,14.7015],[120.834091,14.701499],[120.83409,14.70159],[120.833997,14.701589],[120.833996,14.701679],[120.833625,14.701676],[120.833626,14.701585],[120.833533,14.701584],[120.833535,14.701404],[120.833442,14.701403],[120.833444,14.701222],[120.833351,14.701221],[120.833352,14.701131],[120.833259,14.70113],[120.833261,14.700949],[120.833168,14.700948],[120.83317,14.700768],[120.833077,14.700767],[120.833078,14.700676],[120.832985,14.700676],[120.832986,14.700585],[120.832522,14.700581],[120.832523,14.700491],[120.831873,14.700484],[120.831872,14.700575],[120.831686,14.700573],[120.831686,14.700663],[120.831593,14.700663],[120.831592,14.700753],[120.831499,14.700752],[120.831498,14.700842],[120.831405,14.700842],[120.831404,14.701022],[120.831311,14.701021],[120.83131,14.701112],[120.831217,14.701111],[120.831215,14.701292],[120.831122,14.701291],[120.831121,14.701471],[120.831028,14.701471],[120.831026,14.701651],[120.830933,14.70165],[120.830932,14.701741],[120.830839,14.70174],[120.830838,14.701921],[120.830745,14.70192],[120.830741,14.702281],[120.830648,14.70228],[120.830646,14.702551],[120.830553,14.70255],[120.830552,14.702641],[120.830459,14.70264],[120.830457,14.702821],[120.830365,14.70282],[120.830363,14.703],[120.83027,14.703],[120.830269,14.70309],[120.830176,14.703089],[120.830175,14.703179],[120.830083,14.703178],[120.83008,14.70345],[120.829987,14.703449],[120.829985,14.703629],[120.829892,14.703628],[120.829891,14.703809],[120.829798,14.703808],[120.829796,14.703989],[120.829703,14.703988],[120.829701,14.704259],[120.829608,14.704258],[120.829606,14.704439],[120.829513,14.704438],[120.829511,14.704619],[120.829419,14.704618],[120.829417,14.704799],[120.829324,14.704798],[120.829317,14.705521],[120.829224,14.70552],[120.829222,14.7057],[120.829129,14.7057],[120.829128,14.70588],[120.829035,14.705879],[120.829034,14.70597],[120.828941,14.705969],[120.82894,14.706059],[120.828847,14.706058],[120.828846,14.706239],[120.828753,14.706238],[120.828751,14.706419],[120.828658,14.706418],[120.828657,14.706508],[120.828472,14.706507]]]},"properties":{"id":"manila_2019-05-13_mdd_1","region":"manila","date":"2019-05-13","area_m2":75700.0,"mean_prob":0.6022,"max_prob":0.7804,"model":"mdd","n_px":757,"px_area_m2":100.0,"confirmed":true,"confirmed_by":"lgbm","lon":120.831624,"lat":14.701646}},{"type":"Feature","geometry":{"type":"Polygon","coordinates":[[[120.914804,14.706938],[120.914805,14.706848],[120.914991,14.706849],[120.91499,14.70694],[120.914804,14.706938]]]},"properties":{"id":"manila_2019-05-13_mdd_2","region":"manila","date":"2019-05-13","area_m2":200.0,"mean_prob":0.5255,"max_prob":0.5294,"model":"mdd","n_px":2,"px_area_m2":100.0,"confirmed":false,"confirmed_by":null,"lon":120.914897,"lat":14.706894}},{"type":"Feature","geometry":{"type":"Polygon","coordinates":[[[120.832779,14.702752],[120.83278,14.702662],[120.832687,14.702661],[120.832688,14.70257],[120.832595,14.702569],[120.832596,14.702479],[120.832503,14.702478],[120.832506,14.702207],[120.832599,14.702208],[120.8326,14.702118],[120.832785,14.702119],[120.832786,14.702029],[120.832879,14.70203],[120.83288,14.70194],[120.832973,14.70194],[120.832973,14.70185],[120.833066,14.701851],[120.833067,14.701761],[120.833346,14.701763],[120.833345,14.701854],[120.83353,14.701855],[120.833526,14.702307],[120.833433,14.702306],[120.833432,14.702397],[120.833247,14.702395],[120.833246,14.702485],[120.83306,14.702483],[120.833058,14.702664],[120.832965,14.702663],[120.832965,14.702754],[120.832779,14.702752]]]},"properties":{"id":"manila_2019-05-13_mdd_3","region":"manila","date":"2019-05-13","area_m2":7400.0,"mean_prob":0.5351,"max_prob":0.5922,"model":"mdd","n_px":74,"px_area_m2":100.0,"confirmed":false,"confirmed_by":null,"lon":120.833036,"lat":14.702234}},{"type":"Feature","geometry":{"type":"Polygon","coordinates":[[[120.83589,14.697902],[120.835891,14.697811],[120.835798,14.69781],[120.835802,14.697449],[120.835895,14.69745],[120.835895,14.69736],[120.835988,14.69736],[120.835989,14.69727],[120.836082,14.697271],[120.836084,14.69709],[120.836177,14.697091],[120.836178,14.697001],[120.83627,14.697002],[120.836275,14.69655],[120.836368,14.696551],[120.836369,14.69637],[120.836462,14.696371],[120.836463,14.696281],[120.836556,14.696281],[120.836557,14.696191],[120.83665,14.696192],[120.836651,14.696102],[120.836743,14.696102],[120.836744,14.696012],[120.836837,14.696013],[120.836839,14.695832],[120.836932,14.695833],[120.836933,14.695652],[120.837026,14.695653],[120.837027,14.695563],[120.83712,14.695564],[120.837121,14.695473],[120.837214,14.695474],[120.837215,14.695294],[120.837308,14.695294],[120.837312,14.694933],[120.837405,14.694934],[120.837406,14.694844],[120.837684,14.694846],[120.837685,14.694756],[120.837778,14.694757],[120.83778,14.694486],[120.837688,14.694485],[120.83769,14.694214],[120.837783,14.694215],[120.837785,14.694034],[120.837878,14.694035],[120.837887,14.693131],[120.837979,14.693132],[120.837986,14.692409],[120.838079,14.69241],[120.83808,14.69232],[120.838173,14.692321],[120.838175,14.69214],[120.838268,14.692141],[120.838269,14.69196],[120.838362,14.691961],[120.838364,14.69178],[120.838457,14.691781],[120.838458,14.691691],[120.83855,14.691692],[120.838552,14.691511],[120.838645,14.691512],[120.838647,14.691331],[120.838832,14.691333],[120.838824,14.692146],[120.838732,14.692145],[120.83873,14.692326],[120.838637,14.692325],[120.838635,14.692506],[120.838542,14.692505],[120.838536,14.693137],[120.838443,14.693136],[120.838435,14.69395],[120.838343,14.693949],[120.838339,14.69431],[120.838432,14.694311],[120.838431,14.694401],[120.838524,14.694402],[120.838523,14.694493],[120.838616,14.694493],[120.838615,14.694584],[120.8388,14.694586],[120.838801,14.694495],[120.838987,14.694497],[120.838988,14.694407],[120.839174,14.694408],[120.839174,14.694318],[120.83936,14.69432],[120.839361,14.694229],[120.839547,14.694231],[120.839547,14.694141],[120.839733,14.694142],[120.839734,14.694052],[120.839827,14.694053],[120.839828,14.693963],[120.839921,14.693963],[120.839921,14.693873],[120.840107,14.693875],[120.840108,14.693784],[120.840294,14.693786],[120.840294,14.693696],[120.840387,14.693697],[120.840388,14.693606],[120.840667,14.693609],[120.840668,14.693519],[120.840946,14.693521],[120.840947,14.693431],[120.841133,14.693433],[120.841133,14.693342],[120.841319,14.693344],[120.84132,14.693254],[120.841413,14.693254],[120.841414,14.693164],[120.841506,14.693165],[120.841507,14.693075],[120.8416,14.693075],[120.841601,14.692985],[120.841694,14.692986],[120.841695,14.692896],[120.841788,14.692897],[120.841788,14.692806],[120.841881,14.692807],[120.841882,14.692717],[120.842068,14.692718],[120.842069,14.692628],[120.842254,14.69263],[120.842255,14.692539],[120.842441,14.692541],[120.842442,14.692451],[120.842535,14.692452],[120.842535,14.692361],[120.842721,14.692363],[120.84272,14.692453],[120.842627,14.692453],[120.842626,14.692543],[120.842534,14.692542],[120.842533,14.692632],[120.84244,14.692632],[120.842438,14.692812],[120.842345,14.692811],[120.842344,14.692992],[120.842251,14.692991],[120.84225,14.693082],[120.842157,14.693081],[120.842155,14.693261],[120.842062,14.693261],[120.842062,14.693351],[120.841969,14.69335],[120.841967,14.693531],[120.841874,14.69353],[120.841873,14.69362],[120.84178,14.693619],[120.84178,14.69371],[120.841594,14.693708],[120.841593,14.693798],[120.8415,14.693797],[120.841499,14.693888],[120.841314,14.693886],[120.841313,14.693976],[120.840942,14.693973],[120.840941,14.694063],[120.840755,14.694062],[120.840754,14.694152],[120.840661,14.694151],[120.84066,14.694241],[120.840568,14.694241],[120.840566,14.694421],[120.84038,14.69442],[120.840379,14.69451],[120.840286,14.694509],[120.840286,14.694599],[120.8401,14.694598],[120.840099,14.694688],[120.839913,14.694686],[120.839913,14.694777],[120.839727,14.694775],[120.839726,14.694865],[120.839633,14.694864],[120.839632,14.694955],[120.839539,14.694954],[120.839539,14.695044],[120.839353,14.695042],[120.839352,14.695133],[120.839259,14.695132],[120.839258,14.695222],[120.839166,14.695221],[120.839165,14.695312],[120.839072,14.695311],[120.839071,14.695401],[120.838978,14.6954],[120.838977,14.695491],[120.838884,14.69549],[120.838883,14.695671],[120.838697,14.695669],[120.838696,14.695759],[120.838139,14.695754],[120.83814,14.695664],[120.837769,14.69566],[120.837768,14.695751],[120.837675,14.69575],[120.837673,14.69593],[120.83758,14.69593],[120.83758,14.69602],[120.837487,14.696019],[120.837484,14.69629],[120.837391,14.696289],[120.83739,14.69647],[120.837297,14.696469],[120.837295,14.69665],[120.837202,14.696649],[120.837201,14.696739],[120.837108,14.696738],[120.837107,14.696829],[120.837015,14.696828],[120.837014,14.696918],[120.836921,14.696917],[120.83692,14.697008],[120.836827,14.697007],[120.836825,14.697187],[120.836733,14.697187],[120.836732,14.697277],[120.836639,14.697276],[120.836638,14.697366],[120.83636,14.697364],[120.836358,14.697545],[120.836265,14.697544],[120.836263,14.697724],[120.83617,14.697724],[120.83617,14.697814],[120.836077,14.697813],[120.836076,14.697903],[120.83589,14.697902]]]},"properties":{"id":"manila_2019-05-13_mdd_4","region":"manila","date":"2019-05-13","area_m2":91100.0,"mean_prob":0.6427,"max_prob":0.8588,"model":"mdd","n_px":911,"px_area_m2":100.0,"confirmed":false,"confirmed_by":null,"lon":120.838685,"lat":14.694616}},{"type":"Feature","geometry":{"type":"Polygon","coordinates":[[[120.831065,14.697676],[120.831067,14.697495],[120.830974,14.697494],[120.830977,14.697223],[120.830884,14.697222],[120.830886,14.697042],[120.830793,14.697041],[120.830794,14.69695],[120.830701,14.69695],[120.830702,14.696859],[120.830609,14.696858],[120.830612,14.696587],[120.830797,14.696589],[120.830796,14.69677],[120.830889,14.696771],[120.830888,14.696861],[120.83098,14.696862],[120.830979,14.697043],[120.831071,14.697043],[120.831071,14.697134],[120.831163,14.697135],[120.831161,14.697406],[120.831254,14.697407],[120.831251,14.697678],[120.831065,14.697676]]]},"properties":{"id":"manila_2019-05-13_mdd_5","region":"manila","date":"2019-05-13","area_m2":2800.0,"mean_prob":0.5329,"max_prob":0.5608,"model":"mdd","n_px":28,"px_area_m2":100.0,"confirmed":false,"confirmed_by":null,"lon":120.830951,"lat":14.697126}},{"type":"Feature","geometry":{"type":"Polygon","coordinates":[[[120.84109,14.697769],[120.841091,14.697679],[120.840998,14.697678],[120.840999,14.697588],[120.840906,14.697587],[120.840907,14.697497],[120.840814,14.697496],[120.840815,14.697405],[120.840722,14.697405],[120.840723,14.697314],[120.840537,14.697312],[120.840544,14.69668],[120.840636,14.696681],[120.840639,14.69641],[120.840732,14.696411],[120.840736,14.695959],[120.840829,14.69596],[120.840833,14.695598],[120.840926,14.695599],[120.840927,14.695419],[120.841113,14.69542],[120.841114,14.69533],[120.841764,14.695336],[120.841763,14.695426],[120.841948,14.695428],[120.841947,14.695518],[120.84204,14.695519],[120.842039,14.69561],[120.842225,14.695611],[120.842224,14.695702],[120.843152,14.69571],[120.843151,14.695801],[120.843708,14.695806],[120.843709,14.695716],[120.843802,14.695716],[120.843801,14.695807],[120.843894,14.695808],[120.84389,14.696259],[120.843797,14.696258],[120.843791,14.696801],[120.843699,14.6968],[120.843697,14.69698],[120.843604,14.69698],[120.843603,14.69707],[120.843139,14.697066],[120.843137,14.697246],[120.843044,14.697245],[120.843044,14.697336],[120.842301,14.697329],[120.8423,14.697419],[120.842207,14.697418],[120.842206,14.697509],[120.841835,14.697505],[120.841836,14.697415],[120.841558,14.697412],[120.841557,14.697503],[120.841464,14.697502],[120.841462,14.697682],[120.841369,14.697682],[120.841368,14.697772],[120.84109,14.697769]]]},"properties":{"id":"manila_2019-05-13_mdd_6","region":"manila","date":"2019-05-13","area_m2":66900.0,"mean_prob":0.6665,"max_prob":0.8196,"model":"mdd","n_px":669,"px_area_m2":100.0,"confirmed":true,"confirmed_by":"lgbm","lon":120.842074,"lat":14.696502}},{"type":"Feature","geometry":{"type":"Polygon","coordinates":[[[120.844468,14.694096],[120.844469,14.694006],[120.844376,14.694005],[120.844378,14.693824],[120.844285,14.693823],[120.844286,14.693733],[120.844471,14.693735],[120.844472,14.693644],[120.844936,14.693649],[120.844937,14.693558],[120.84503,14.693559],[120.845031,14.693469],[120.845217,14.693471],[120.845217,14.69338],[120.84531,14.693381],[120.845311,14.693291],[120.845404,14.693292],[120.845405,14.693201],[120.845498,14.693202],[120.845499,14.693112],[120.845591,14.693113],[120.845592,14.693022],[120.845685,14.693023],[120.845686,14.692933],[120.845872,14.692934],[120.84587,14.693115],[120.845777,14.693114],[120.845775,14.693295],[120.845682,14.693294],[120.845682,14.693385],[120.845589,14.693384],[120.845587,14.693564],[120.845494,14.693563],[120.845493,14.693654],[120.8454,14.693653],[120.8454,14.693743],[120.845214,14.693742],[120.845213,14.693832],[120.845027,14.69383],[120.845027,14.693921],[120.844748,14.693918],[120.844747,14.694008],[120.844654,14.694007],[120.844653,14.694098],[120.844468,14.694096]]]},"properties":{"id":"manila_2019-05-13_mdd_7","region":"manila","date":"2019-05-13","area_m2":6500.0,"mean_prob":0.57,"max_prob":0.651,"model":"mdd","n_px":65,"px_area_m2":100.0,"confirmed":false,"confirmed_by":null,"lon":120.845106,"lat":14.693588}},{"type":"Feature","geometry":{"type":"Polygon","coordinates":[[[120.852488,14.690285],[120.852489,14.690195],[120.852396,14.690194],[120.852397,14.690104],[120.852212,14.690102],[120.852213,14.690011],[120.851934,14.690009],[120.851933,14.690099],[120.851376,14.690094],[120.851378,14.689913],[120.851285,14.689912],[120.851286,14.689822],[120.851193,14.689821],[120.851194,14.689731],[120.851009,14.689729],[120.851011,14.689458],[120.851104,14.689459],[120.851106,14.689278],[120.851199,14.689279],[120.8512,14.689098],[120.851293,14.689099],[120.851298,14.688648],[120.85139,14.688648],[120.851391,14.688558],[120.851484,14.688559],[120.851486,14.688378],[120.851579,14.688379],[120.851582,14.688018],[120.851489,14.688017],[120.85149,14.687926],[120.851397,14.687926],[120.851398,14.687835],[120.851306,14.687834],[120.851307,14.687654],[120.8514,14.687655],[120.851402,14.687474],[120.851495,14.687475],[120.851496,14.687294],[120.851589,14.687295],[120.851594,14.686843],[120.851686,14.686844],[120.851689,14.686573],[120.851782,14.686574],[120.851785,14.686303],[120.851877,14.686304],[120.851883,14.685762],[120.851976,14.685762],[120.851977,14.685582],[120.85207,14.685583],[120.852071,14.685492],[120.852257,14.685494],[120.852258,14.685404],[120.85235,14.685404],[120.852352,14.685224],[120.852445,14.685225],[120.852451,14.684592],[120.852544,14.684593],[120.852547,14.684322],[120.852454,14.684321],[120.852455,14.684231],[120.852547,14.684232],[120.852549,14.684051],[120.852642,14.684052],[120.852643,14.683961],[120.852736,14.683962],[120.852737,14.683872],[120.852829,14.683873],[120.85283,14.683782],[120.852923,14.683783],[120.852922,14.683874],[120.853015,14.683874],[120.853013,14.684055],[120.85292,14.684054],[120.852919,14.684235],[120.852826,14.684234],[120.852825,14.684324],[120.852732,14.684324],[120.85273,14.684595],[120.852822,14.684596],[120.852821,14.684776],[120.852913,14.684777],[120.852913,14.684867],[120.853005,14.684868],[120.853003,14.685139],[120.853096,14.68514],[120.853093,14.685411],[120.853186,14.685412],[120.853181,14.685864],[120.853088,14.685863],[120.853086,14.686134],[120.852807,14.686132],[120.852806,14.686222],[120.852621,14.68622],[120.85262,14.68631],[120.852527,14.68631],[120.852526,14.6864],[120.852433,14.686399],[120.852433,14.686489],[120.85234,14.686489],[120.852336,14.68685],[120.852243,14.686849],[120.852242,14.68703],[120.852149,14.687029],[120.852142,14.687752],[120.852327,14.687754],[120.852328,14.687663],[120.852514,14.687665],[120.852515,14.687575],[120.853072,14.68758],[120.853073,14.687489],[120.853258,14.687491],[120.853259,14.687401],[120.853352,14.687402],[120.853353,14.687311],[120.853538,14.687313],[120.853539,14.687223],[120.853632,14.687223],[120.853633,14.687133],[120.853726,14.687134],[120.853727,14.687044],[120.85382,14.687044],[120.85382,14.686954],[120.853913,14.686955],[120.853914,14.686865],[120.8541,14.686866],[120.854101,14.686776],[120.854286,14.686778],[120.854287,14.686687],[120.854473,14.686689],[120.854474,14.686599],[120.854566,14.6866],[120.854567,14.686509],[120.85466,14.68651],[120.854661,14.68642],[120.854754,14.686421],[120.854755,14.68633],[120.854848,14.686331],[120.854849,14.68615],[120.854942,14.686151],[120.854943,14.686061],[120.855129,14.686063],[120.85513,14.685972],[120.855408,14.685975],[120.855409,14.685884],[120.855502,14.685885],[120.855503,14.685705],[120.855596,14.685705],[120.855597,14.685615],[120.855783,14.685617],[120.855781,14.685798],[120.855874,14.685798],[120.855869,14.68625],[120.855962,14.686251],[120.855961,14.686432],[120.856053,14.686433],[120.856052,14.686613],[120.856144,14.686614],[120.856141,14.686976],[120.856234,14.686976],[120.856231,14.687247],[120.856324,14.687248],[120.85632,14.68761],[120.856228,14.687609],[120.856227,14.687699],[120.856134,14.687698],[120.856133,14.687789],[120.85604,14.687788],[120.856039,14.687878],[120.855946,14.687877],[120.855945,14.688058],[120.855759,14.688056],[120.855758,14.688147],[120.855572,14.688145],[120.855572,14.688235],[120.855386,14.688234],[120.855385,14.688324],[120.855292,14.688323],[120.855291,14.688413],[120.855199,14.688413],[120.855197,14.688593],[120.85529,14.688594],[120.855288,14.688775],[120.855195,14.688774],[120.855196,14.688684],[120.85501,14.688682],[120.855011,14.688592],[120.854918,14.688591],[120.854919,14.6885],[120.854548,14.688497],[120.854547,14.688587],[120.854083,14.688583],[120.854082,14.688673],[120.853989,14.688672],[120.853988,14.688763],[120.853896,14.688762],[120.853894,14.688943],[120.853801,14.688942],[120.853799,14.689123],[120.853706,14.689122],[120.853706,14.689212],[120.853613,14.689211],[120.853612,14.689302],[120.853519,14.689301],[120.853518,14.689391],[120.853425,14.68939],[120.853418,14.690113],[120.853233,14.690111],[120.853232,14.690202],[120.852953,14.690199],[120.852952,14.690289],[120.852488,14.690285]]]},"properties":{"id":"manila_2019-05-13_mdd_8","region":"manila","date":"2019-05-13","area_m2":163600.0,"mean_prob":0.6992,"max_prob":0.8745,"model":"mdd","n_px":1636,"px_area_m2":100.0,"confirmed":false,"confirmed_by":null,"lon":120.853422,"lat":14.687749}},{"type":"Feature","geometry":{"type":"Polygon","coordinates":[[[120.854633,14.679823],[120.854633,14.679733],[120.854541,14.679732],[120.854542,14.679642],[120.854634,14.679643],[120.854636,14.679462],[120.854822,14.679464],[120.854823,14.679373],[120.855008,14.679375],[120.855009,14.679285],[120.855102,14.679285],[120.855103,14.679195],[120.855288,14.679197],[120.855289,14.679106],[120.855475,14.679108],[120.855476,14.679018],[120.855569,14.679019],[120.85557,14.678928],[120.855662,14.678929],[120.855663,14.678839],[120.855756,14.67884],[120.855757,14.678749],[120.85585,14.67875],[120.855851,14.67866],[120.855943,14.678661],[120.855944,14.67857],[120.856037,14.678571],[120.856038,14.678481],[120.856131,14.678482],[120.856133,14.678211],[120.856226,14.678212],[120.856228,14.678031],[120.856321,14.678032],[120.856323,14.677851],[120.856415,14.677852],[120.856416,14.677761],[120.856509,14.677762],[120.85651,14.677672],[120.856603,14.677673],[120.856604,14.677582],[120.856697,14.677583],[120.856697,14.677493],[120.856883,14.677495],[120.856884,14.677404],[120.85707,14.677406],[120.857068,14.677587],[120.856975,14.677586],[120.856974,14.677676],[120.856881,14.677675],[120.856879,14.677856],[120.856787,14.677855],[120.856785,14.678036],[120.856692,14.678035],[120.856689,14.678306],[120.856597,14.678305],[120.856596,14.678396],[120.856503,14.678395],[120.856501,14.678575],[120.856408,14.678575],[120.856406,14.678846],[120.856313,14.678845],[120.856312,14.678935],[120.856219,14.678934],[120.856217,14.679115],[120.856125,14.679114],[120.856124,14.679205],[120.855938,14.679203],[120.855937,14.679293],[120.855752,14.679291],[120.855751,14.679382],[120.855658,14.679381],[120.855657,14.679471],[120.855564,14.67947],[120.855563,14.679561],[120.855471,14.67956],[120.85547,14.67965],[120.855284,14.679649],[120.855283,14.679739],[120.855005,14.679736],[120.855004,14.679827],[120.854633,14.679823]]]},"properties":{"id":"manila_2019-05-13_mdd_9","region":"manila","date":"2019-05-13","area_m2":16500.0,"mean_prob":0.5924,"max_prob":0.6824,"model":"mdd","n_px":165,"px_area_m2":100.0,"confirmed":false,"confirmed_by":null,"lon":120.855892,"lat":14.678797}},{"type":"Feature","geometry":{"type":"Polygon","coordinates":[[[120.905068,14.676489],[120.905069,14.676398],[120.904976,14.676397],[120.904977,14.676307],[120.904884,14.676306],[120.904887,14.676035],[120.904794,14.676034],[120.904795,14.675854],[120.904703,14.675853],[120.904704,14.675672],[120.904612,14.675671],[120.904613,14.675491],[120.90452,14.67549],[120.904522,14.675309],[120.904429,14.675308],[120.904431,14.675127],[120.904338,14.675127],[120.904341,14.674856],[120.904248,14.674855],[120.904249,14.674764],[120.904342,14.674765],[120.904343,14.674585],[120.904251,14.674584],[120.904251,14.674493],[120.904066,14.674492],[120.904067,14.674401],[120.903974,14.6744],[120.903975,14.67431],[120.903882,14.674309],[120.903883,14.674219],[120.90379,14.674218],[120.903793,14.673947],[120.9037,14.673946],[120.903703,14.673585],[120.903796,14.673586],[120.903797,14.673495],[120.90389,14.673496],[120.903892,14.673225],[120.903985,14.673226],[120.903987,14.673045],[120.90408,14.673046],[120.90408,14.672956],[120.904173,14.672956],[120.904174,14.672866],[120.904267,14.672867],[120.904268,14.672777],[120.904361,14.672777],[120.904362,14.672687],[120.904454,14.672688],[120.904455,14.672598],[120.904548,14.672598],[120.904549,14.672508],[120.904642,14.672509],[120.904643,14.672328],[120.904829,14.67233],[120.904831,14.672149],[120.904924,14.67215],[120.904924,14.67206],[120.905017,14.67206],[120.905019,14.67188],[120.905112,14.671881],[120.905113,14.67179],[120.905205,14.671791],[120.905206,14.671701],[120.905485,14.671703],[120.905484,14.671794],[120.905577,14.671794],[120.905575,14.671975],[120.905668,14.671976],[120.905667,14.672066],[120.90576,14.672067],[120.905759,14.672158],[120.905852,14.672158],[120.905851,14.672249],[120.905944,14.67225],[120.905939,14.672701],[120.905847,14.6727],[120.905845,14.672881],[120.905752,14.67288],[120.905751,14.672971],[120.905658,14.67297],[120.905657,14.67306],[120.905565,14.673059],[120.905564,14.67315],[120.9051,14.673146],[120.905099,14.673236],[120.904913,14.673234],[120.904912,14.673415],[120.904819,14.673414],[120.904817,14.673595],[120.904724,14.673594],[120.904722,14.673775],[120.90463,14.673774],[120.904625,14.674226],[120.904718,14.674226],[120.904716,14.674407],[120.904809,14.674408],[120.904808,14.674498],[120.904994,14.6745],[120.904993,14.67459],[120.905086,14.674591],[120.905085,14.674682],[120.905178,14.674682],[120.905177,14.674773],[120.90527,14.674774],[120.905268,14.674954],[120.905361,14.674955],[120.905359,14.675136],[120.905452,14.675137],[120.90545,14.675317],[120.905543,14.675318],[120.905539,14.67577],[120.905446,14.675769],[120.905443,14.67604],[120.905351,14.676039],[120.905349,14.67622],[120.905256,14.676219],[120.905254,14.67649],[120.905068,14.676489]]]},"properties":{"id":"manila_2019-05-13_mdd_10","region":"manila","date":"2019-05-13","area_m2":52700.0,"mean_prob":0.6172,"max_prob":0.7765,"model":"mdd","n_px":527,"px_area_m2":100.0,"confirmed":true,"confirmed_by":"lgbm","lon":120.904841,"lat":14.673872}},{"type":"Feature","geometry":{"type":"Polygon","coordinates":[[[120.869993,14.675266],[120.869993,14.675176],[120.869715,14.675173],[120.869716,14.675083],[120.86953,14.675081],[120.869532,14.6749],[120.869718,14.674902],[120.869718,14.674812],[120.870183,14.674816],[120.870182,14.674906],[120.870646,14.674911],[120.870645,14.675001],[120.870552,14.675],[120.870551,14.67509],[120.870458,14.67509],[120.870457,14.67518],[120.870272,14.675178],[120.870271,14.675269],[120.869993,14.675266]]]},"properties":{"id":"manila_2019-05-13_mdd_11","region":"manila","date":"2019-05-13","area_m2":3900.0,"mean_prob":0.5316,"max_prob":0.5647,"model":"mdd","n_px":39,"px_area_m2":100.0,"confirmed":false,"confirmed_by":null,"lon":120.87006,"lat":14.675022}},{"type":"Feature","geometry":{"type":"Polygon","coordinates":[[[120.871756,14.675282],[120.871757,14.675192],[120.871664,14.675191],[120.871665,14.675101],[120.871851,14.675102],[120.871851,14.675012],[120.872037,14.675014],[120.872038,14.674923],[120.87278,14.67493],[120.872781,14.67484],[120.873245,14.674844],[120.873245,14.674934],[120.873152,14.674933],[120.873151,14.675024],[120.872687,14.67502],[120.872686,14.67511],[120.8725,14.675108],[120.872499,14.675199],[120.872314,14.675197],[120.872313,14.675287],[120.871756,14.675282]]]},"properties":{"id":"manila_2019-05-13_mdd_12","region":"manila","date":"2019-05-13","area_m2":4100.0,"mean_prob":0.5414,"max_prob":0.6078,"model":"mdd","n_px":41,"px_area_m2":100.0,"confirmed":false,"confirmed_by":null,"lon":120.87238,"lat":14.67506}},{"type":"Feature","geometry":{"type":"Polygon","coordinates":[[[120.906393,14.67379],[120.906394,14.673699],[120.906208,14.673698],[120.906214,14.673156],[120.906492,14.673158],[120.906491,14.673248],[120.906584,14.673249],[120.906582,14.67343],[120.906675,14.673431],[120.906672,14.673792],[120.906393,14.67379]]]},"properties":{"id":"manila_2019-05-13_mdd_13","region":"manila","date":"2019-05-13","area_m2":2900.0,"mean_prob":0.5398,"max_prob":0.5882,"model":"mdd","n_px":29,"px_area_m2":100.0,"confirmed":false,"confirmed_by":null,"lon":120.90643,"lat":14.673483}},{"type":"Feature","geometry":{"type":"Polygon","coordinates":[[[120.908345,14.673536],[120.908346,14.673446],[120.908253,14.673445],[120.908255,14.673174],[120.908163,14.673173],[120.908164,14.672992],[120.908072,14.672992],[120.908072,14.672901],[120.90798,14.6729],[120.90798,14.67281],[120.907888,14.672809],[120.907889,14.672629],[120.907797,14.672628],[120.907809,14.671363],[120.907901,14.671364],[120.907902,14.671273],[120.908552,14.671279],[120.908553,14.671189],[120.909017,14.671193],[120.909016,14.671283],[120.909109,14.671284],[120.909108,14.671374],[120.909201,14.671375],[120.909199,14.671556],[120.909292,14.671557],[120.90929,14.671738],[120.909383,14.671738],[120.90938,14.672009],[120.909473,14.67201],[120.90947,14.672372],[120.909563,14.672373],[120.909559,14.672734],[120.909466,14.672733],[120.909465,14.672823],[120.908909,14.672818],[120.908908,14.672909],[120.908815,14.672908],[120.908814,14.672998],[120.908721,14.672997],[120.90872,14.673178],[120.908627,14.673177],[120.908624,14.673448],[120.908531,14.673448],[120.90853,14.673538],[120.908345,14.673536]]]},"properties":{"id":"manila_2019-05-13_mdd_14","region":"manila","date":"2019-05-13","area_m2":33900.0,"mean_prob":0.6019,"max_prob":0.6824,"model":"mdd","n_px":339,"px_area_m2":100.0,"confirmed":false,"confirmed_by":null,"lon":120.908596,"lat":14.6722}},{"type":"Feature","geometry":{"type":"Polygon","coordinates":[[[120.893779,14.663103],[120.893779,14.663013],[120.893965,14.663015],[120.893964,14.663105],[120.893779,14.663103]]]},"properties":{"id":"manila_2019-05-13_mdd_15","region":"manila","date":"2019-05-13","area_m2":200.0,"mean_prob":0.5176,"max_prob":0.5333,"model":"mdd","n_px":2,"px_area_m2":100.0,"confirmed":false,"confirmed_by":null,"lon":120.893872,"lat":14.663059}},{"type":"Feature","geometry":{"type":"Polygon","coordinates":[[[120.801913,14.660897],[120.801915,14.660717],[120.801822,14.660716],[120.801828,14.660174],[120.801921,14.660175],[120.801931,14.65909],[120.802117,14.659092],[120.802106,14.660176],[120.802199,14.660177],[120.802197,14.660358],[120.802104,14.660357],[120.802099,14.660899],[120.801913,14.660897]]]},"properties":{"id":"manila_2019-05-13_mdd_16","region":"manila","date":"2019-05-13","area_m2":4800.0,"mean_prob":0.604,"max_prob":0.6902,"model":"mdd","n_px":48,"px_area_m2":100.0,"confirmed":true,"confirmed_by":"lgbm","lon":120.802003,"lat":14.660062}},{"type":"Feature","geometry":{"type":"Polygon","coordinates":[[[120.867578,14.6466],[120.867579,14.646509],[120.867672,14.64651],[120.867673,14.64642],[120.867766,14.646421],[120.867765,14.646511],[120.867672,14.64651],[120.867671,14.646601],[120.867578,14.6466]]]},"properties":{"id":"manila_2019-05-13_mdd_17","region":"manila","date":"2019-05-13","area_m2":200.0,"mean_prob":0.5098,"max_prob":0.5137,"model":"mdd","n_px":2,"px_area_m2":100.0,"confirmed":false,"confirmed_by":null,"lon":120.867672,"lat":14.64651}},{"type":"Feature","geometry":{"type":"Polygon","coordinates":[[[120.838387,14.642174],[120.838389,14.641993],[120.838481,14.641994],[120.838483,14.641813],[120.838576,14.641814],[120.838573,14.642085],[120.838481,14.642084],[120.83848,14.642175],[120.838387,14.642174]]]},"properties":{"id":"manila_2019-05-13_mdd_18","region":"manila","date":"2019-05-13","area_m2":500.0,"mean_prob":0.5216,"max_prob":0.5333,"model":"mdd","n_px":5,"px_area_m2":100.0,"confirmed":false,"confirmed_by":null,"lon":120.838491,"lat":14.642003}},{"type":"Feature","geometry":{"type":"Polygon","coordinates":[[[120.875702,14.641523],[120.875702,14.641433],[120.875795,14.641434],[120.875796,14.641344],[120.875889,14.641344],[120.875887,14.641525],[120.875702,14.641523]]]},"properties":{"id":"manila_2019-05-13_mdd_19","region":"manila","date":"2019-05-13","area_m2":300.0,"mean_prob":0.5137,"max_prob":0.5216,"model":"mdd","n_px":3,"px_area_m2":100.0,"confirmed":false,"confirmed_by":null,"lon":120.875811,"lat":14.641449}},{"type":"Feature","geometry":{"type":"Polygon","coordinates":[[[120.868281,14.641094],[120.868282,14.641004],[120.868375,14.641005],[120.868377,14.640824],[120.868562,14.640826],[120.868561,14.640916],[120.868468,14.640915],[120.868467,14.641096],[120.868281,14.641094]]]},"properties":{"id":"manila_2019-05-13_mdd_20","region":"manila","date":"2019-05-13","area_m2":500.0,"mean_prob":0.5176,"max_prob":0.5451,"model":"mdd","n_px":5,"px_area_m2":100.0,"confirmed":false,"confirmed_by":null,"lon":120.868422,"lat":14.64096}},{"type":"Feature","geometry":{"type":"Polygon","coordinates":[[[120.832973,14.626401],[120.832974,14.626311],[120.83316,14.626312],[120.833161,14.626222],[120.833254,14.626223],[120.833253,14.626313],[120.83316,14.626312],[120.833159,14.626403],[120.832973,14.626401]]]},"properties":{"id":"manila_2019-05-13_mdd_21","region":"manila","date":"2019-05-13","area_m2":300.0,"mean_prob":0.5111,"max_prob":0.5255,"model":"mdd","n_px":3,"px_area_m2":100.0,"confirmed":false,"confirmed_by":null,"lon":120.833113,"lat":14.626327}},{"type":"Feature","geometry":{"type":"Polygon","coordinates":[[[120.845206,14.618653],[120.845207,14.618473],[120.8453,14.618473],[120.845301,14.618383],[120.845487,14.618385],[120.845488,14.618294],[120.84558,14.618295],[120.845581,14.618205],[120.845674,14.618206],[120.845675,14.618115],[120.845768,14.618116],[120.845769,14.618026],[120.845861,14.618027],[120.84586,14.618117],[120.845953,14.618118],[120.845951,14.618389],[120.845858,14.618388],[120.845857,14.618479],[120.845671,14.618477],[120.845671,14.618567],[120.845392,14.618565],[120.845391,14.618655],[120.845206,14.618653]]]},"properties":{"id":"manila_2019-05-13_mdd_22","region":"manila","date":"2019-05-13","area_m2":2600.0,"mean_prob":0.5753,"max_prob":0.6549,"model":"mdd","n_px":26,"px_area_m2":100.0,"confirmed":true,"confirmed_by":"lgbm","lon":120.845622,"lat":14.618372}},{"type":"Feature","geometry":{"type":"Polygon","coordinates":[[[120.846061,14.616583],[120.846064,14.616312],[120.846156,14.616313],[120.846157,14.616222],[120.84625,14.616223],[120.846252,14.616043],[120.846345,14.616043],[120.846346,14.615863],[120.846439,14.615864],[120.84644,14.615773],[120.846533,14.615774],[120.846534,14.615684],[120.846627,14.615685],[120.846627,14.615594],[120.84672,14.615595],[120.846721,14.615505],[120.846814,14.615506],[120.846811,14.615777],[120.846718,14.615776],[120.846717,14.615957],[120.846531,14.615955],[120.84653,14.616045],[120.846437,14.616044],[120.846437,14.616135],[120.846344,14.616134],[120.846341,14.616405],[120.846248,14.616404],[120.846247,14.616494],[120.846155,14.616493],[120.846154,14.616584],[120.846061,14.616583]]]},"properties":{"id":"manila_2019-05-13_mdd_23","region":"manila","date":"2019-05-13","area_m2":2600.0,"mean_prob":0.5584,"max_prob":0.6431,"model":"mdd","n_px":26,"px_area_m2":100.0,"confirmed":true,"confirmed_by":"lgbm","lon":120.846441,"lat":14.61602}},{"type":"Feature","geometry":{"type":"Polygon","coordinates":[[[120.923277,14.615748],[120.923278,14.615657],[120.923092,14.615656],[120.923093,14.615565],[120.922907,14.615564],[120.922908,14.615473],[120.922722,14.615472],[120.922723,14.615381],[120.922445,14.615379],[120.922446,14.615288],[120.922353,14.615288],[120.922354,14.615197],[120.922818,14.615201],[120.922817,14.615292],[120.923003,14.615293],[120.923002,14.615384],[120.923187,14.615385],[120.923186,14.615476],[120.923465,14.615478],[120.923464,14.615569],[120.923835,14.615572],[120.923834,14.615662],[120.923927,14.615663],[120.923926,14.615753],[120.923277,14.615748]]]},"properties":{"id":"manila_2019-05-13_mdd_24","region":"manila","date":"2019-05-13","area_m2":3700.0,"mean_prob":0.5423,"max_prob":0.5765,"model":"mdd","n_px":37,"px_area_m2":100.0,"confirmed":false,"confirmed_by":null,"lon":120.923137,"lat":14.615496}},{"type":"Feature","geometry":{"type":"Polygon","coordinates":[[[120.720172,14.613669],[120.720173,14.613578],[120.72008,14.613578],[120.720081,14.613487],[120.720267,14.613489],[120.720265,14.61367],[120.720172,14.613669]]]},"properties":{"id":"manila_2019-05-13_mdd_25","region":"manila","date":"2019-05-13","area_m2":300.0,"mean_prob":0.5163,"max_prob":0.5294,"model":"mdd","n_px":3,"px_area_m2":100.0,"confirmed":false,"confirmed_by":null,"lon":120.720188,"lat":14.613564}},{"type":"Feature","geometry":{"type":"Polygon","coordinates":[[[120.850392,14.610207],[120.850395,14.609846],[120.850488,14.609847],[120.850486,14.610028],[120.850579,14.610028],[120.850577,14.610209],[120.850392,14.610207]]]},"properties":{"id":"manila_2019-05-13_mdd_26","region":"manila","date":"2019-05-13","area_m2":600.0,"mean_prob":0.549,"max_prob":0.5843,"model":"mdd","n_px":6,"px_area_m2":100.0,"confirmed":true,"confirmed_by":"lgbm","lon":120.85047,"lat":14.610058}},{"type":"Feature","geometry":{"type":"Polygon","coordinates":[[[120.863227,14.578248],[120.863228,14.578157],[120.863321,14.578158],[120.863322,14.578068],[120.863415,14.578069],[120.863416,14.577888],[120.863509,14.577889],[120.86351,14.577798],[120.863603,14.577799],[120.863605,14.577618],[120.863697,14.577619],[120.863698,14.577529],[120.863884,14.577531],[120.863882,14.577711],[120.863789,14.577711],[120.863788,14.577801],[120.863696,14.5778],[120.863695,14.57789],[120.863602,14.57789],[120.863601,14.57798],[120.863508,14.577979],[120.863507,14.578069],[120.863415,14.578069],[120.863414,14.578159],[120.863321,14.578158],[120.86332,14.578248],[120.863227,14.578248]]]},"properties":{"id":"manila_2019-05-13_mdd_27","region":"manila","date":"2019-05-13","area_m2":1400.0,"mean_prob":0.5423,"max_prob":0.6,"model":"mdd","n_px":14,"px_area_m2":100.0,"confirmed":true,"confirmed_by":"lgbm","lon":120.863609,"lat":14.577825}},{"type":"Feature","geometry":{"type":"Polygon","coordinates":[[[120.890786,14.577956],[120.890787,14.577865],[120.890694,14.577865],[120.890696,14.577684],[120.890603,14.577683],[120.890605,14.577502],[120.890512,14.577502],[120.890513,14.577411],[120.890606,14.577412],[120.890605,14.577502],[120.890698,14.577503],[120.890697,14.577594],[120.89079,14.577594],[120.890788,14.577775],[120.890881,14.577776],[120.890879,14.577957],[120.890786,14.577956]]]},"properties":{"id":"manila_2019-05-13_mdd_28","region":"manila","date":"2019-05-13","area_m2":800.0,"mean_prob":0.5176,"max_prob":0.5255,"model":"mdd","n_px":8,"px_area_m2":100.0,"confirmed":false,"confirmed_by":null,"lon":120.890719,"lat":14.577695}},{"type":"Feature","geometry":{"type":"Polygon","coordinates":[[[120.890242,14.576686],[120.890242,14.576595],[120.89015,14.576595],[120.890151,14.576504],[120.890058,14.576503],[120.890059,14.576323],[120.889967,14.576322],[120.889968,14.576141],[120.889876,14.57614],[120.889877,14.57596],[120.88997,14.57596],[120.889971,14.57587],[120.890157,14.575872],[120.890156,14.575962],[120.890248,14.575963],[120.890245,14.576324],[120.890338,14.576325],[120.890334,14.576687],[120.890242,14.576686]]]},"properties":{"id":"manila_2019-05-13_mdd_29","region":"manila","date":"2019-05-13","area_m2":2500.0,"mean_prob":0.5316,"max_prob":0.5608,"model":"mdd","n_px":25,"px_area_m2":100.0,"confirmed":false,"confirmed_by":null,"lon":120.890129,"lat":14.576235}},{"type":"Feature","geometry":{"type":"Polygon","coordinates":[[[120.82144,14.563043],[120.821442,14.562862],[120.821628,14.562864],[120.821626,14.563045],[120.82144,14.563043]]]},"properties":{"id":"manila_2019-05-13_mdd_30","region":"manila","date":"2019-05-13","area_m2":400.0,"mean_prob":0.5167,"max_prob":0.5255,"model":"mdd","n_px":4,"px_area_m2":100.0,"confirmed":false,"confirmed_by":null,"lon":120.821534,"lat":14.562953}},{"type":"Feature","geometry":{"type":"Polygon","coordinates":[[[120.886407,14.560386],[120.886413,14.559844],[120.886505,14.559845],[120.886507,14.559664],[120.8866,14.559665],[120.886601,14.559484],[120.886694,14.559485],[120.886695,14.559395],[120.886788,14.559396],[120.88679,14.559215],[120.886882,14.559216],[120.886883,14.559125],[120.886976,14.559126],[120.886977,14.559036],[120.88707,14.559037],[120.88707,14.558946],[120.887256,14.558948],[120.887257,14.558858],[120.88735,14.558858],[120.887347,14.55913],[120.887254,14.559129],[120.887252,14.5594],[120.887159,14.559399],[120.887157,14.55958],[120.887064,14.559579],[120.887064,14.559669],[120.886971,14.559668],[120.886969,14.559849],[120.886876,14.559848],[120.886875,14.560029],[120.886782,14.560028],[120.88678,14.560209],[120.886687,14.560208],[120.886687,14.560298],[120.886501,14.560297],[120.8865,14.560387],[120.886407,14.560386]]]},"properties":{"id":"manila_2019-05-13_mdd_31","region":"manila","date":"2019-05-13","area_m2":7000.0,"mean_prob":0.5575,"max_prob":0.6235,"model":"mdd","n_px":70,"px_area_m2":100.0,"confirmed":false,"confirmed_by":null,"lon":120.88684,"lat":14.559621}},{"type":"Feature","geometry":{"type":"Polygon","coordinates":[[[120.886139,14.55939],[120.886139,14.559299],[120.886047,14.559298],[120.886048,14.559118],[120.886141,14.559119],[120.886143,14.558938],[120.886236,14.558939],[120.886236,14.558848],[120.886329,14.558849],[120.88633,14.558759],[120.886516,14.558761],[120.886511,14.559212],[120.886419,14.559211],[120.886418,14.559302],[120.886325,14.559301],[120.886324,14.559391],[120.886139,14.55939]]]},"properties":{"id":"manila_2019-05-13_mdd_32","region":"manila","date":"2019-05-13","area_m2":2400.0,"mean_prob":0.5454,"max_prob":0.5961,"model":"mdd","n_px":24,"px_area_m2":100.0,"confirmed":false,"confirmed_by":null,"lon":120.886308,"lat":14.559086}},{"type":"Feature","geometry":{"type":"Polygon","coordinates":[[[120.885611,14.556313],[120.885613,14.556132],[120.885706,14.556133],[120.885705,14.556223],[120.885798,14.556224],[120.885797,14.556314],[120.885611,14.556313]]]},"properties":{"id":"manila_2019-05-13_mdd_33","region":"manila","date":"2019-05-13","area_m2":300.0,"mean_prob":0.5124,"max_prob":0.5176,"model":"mdd","n_px":3,"px_area_m2":100.0,"confirmed":false,"confirmed_by":null,"lon":120.885689,"lat":14.556238}},{"type":"Feature","geometry":{"type":"Polygon","coordinates":[[[120.88543,14.555859],[120.885431,14.555769],[120.885338,14.555768],[120.88534,14.555587],[120.885247,14.555586],[120.885249,14.555406],[120.885156,14.555405],[120.885162,14.554772],[120.885069,14.554772],[120.885078,14.553868],[120.884985,14.553867],[120.884987,14.553686],[120.885358,14.55369],[120.885354,14.554051],[120.885447,14.554052],[120.885443,14.554504],[120.88535,14.554503],[120.885347,14.554864],[120.885254,14.554864],[120.885249,14.555406],[120.885342,14.555407],[120.88534,14.555587],[120.885433,14.555588],[120.885432,14.555678],[120.885524,14.555679],[120.885523,14.55586],[120.88543,14.555859]]]},"properties":{"id":"manila_2019-05-13_mdd_34","region":"manila","date":"2019-05-13","area_m2":5700.0,"mean_prob":0.5393,"max_prob":0.5961,"model":"mdd","n_px":57,"px_area_m2":100.0,"confirmed":true,"confirmed_by":"lgbm","lon":120.885242,"lat":14.554484}},{"type":"Feature","geometry":{"type":"Polygon","coordinates":[[[120.88537,14.552425],[120.885372,14.552244],[120.885557,14.552246],[120.885555,14.552427],[120.88537,14.552425]]]},"properties":{"id":"manila_2019-05-13_mdd_35","region":"manila","date":"2019-05-13","area_m2":400.0,"mean_prob":0.5431,"max_prob":0.549,"model":"mdd","n_px":4,"px_area_m2":100.0,"confirmed":false,"confirmed_by":null,"lon":120.885464,"lat":14.552335}},{"type":"Feature","geometry":{"type":"Polygon","coordinates":[[[120.88407,14.542835],[120.884071,14.542744],[120.883978,14.542744],[120.883979,14.542653],[120.883793,14.542652],[120.883794,14.542561],[120.883609,14.54256],[120.883609,14.542469],[120.883517,14.542468],[120.883517,14.542378],[120.883425,14.542377],[120.883426,14.542287],[120.883333,14.542286],[120.883336,14.541925],[120.883522,14.541926],[120.883521,14.542017],[120.883706,14.542018],[120.883706,14.542109],[120.883798,14.542109],[120.883797,14.5422],[120.88389,14.542201],[120.883889,14.542291],[120.883982,14.542292],[120.883981,14.542382],[120.884074,14.542383],[120.884072,14.542564],[120.884165,14.542565],[120.884162,14.542836],[120.88407,14.542835]]]},"properties":{"id":"manila_2019-05-13_mdd_36","region":"manila","date":"2019-05-13","area_m2":4100.0,"mean_prob":0.5746,"max_prob":0.6706,"model":"mdd","n_px":41,"px_area_m2":100.0,"confirmed":true,"confirmed_by":"lgbm","lon":120.883727,"lat":14.542346}},{"type":"Feature","geometry":{"type":"Polygon","coordinates":[[[120.881942,14.542183],[120.881943,14.542093],[120.88185,14.542092],[120.881856,14.54155],[120.881948,14.541551],[120.88195,14.54137],[120.882043,14.541371],[120.882045,14.54119],[120.882137,14.541191],[120.882138,14.5411],[120.882324,14.541102],[120.882325,14.541012],[120.882417,14.541013],[120.882418,14.540922],[120.882511,14.540923],[120.882507,14.541285],[120.882415,14.541284],[120.882413,14.541464],[120.88232,14.541464],[120.882319,14.541554],[120.882227,14.541553],[120.882221,14.542095],[120.882129,14.542094],[120.882128,14.542185],[120.881942,14.542183]]]},"properties":{"id":"manila_2019-05-13_mdd_37","region":"manila","date":"2019-05-13","area_m2":5100.0,"mean_prob":0.58,"max_prob":0.6471,"model":"mdd","n_px":51,"px_area_m2":100.0,"confirmed":false,"confirmed_by":null,"lon":120.882144,"lat":14.541574}},{"type":"Feature","geometry":{"type":"Polygon","coordinates":[[[120.74514,14.52166],[120.745141,14.52157],[120.745048,14.521569],[120.745049,14.521479],[120.745234,14.52148],[120.745234,14.521571],[120.745326,14.521572],[120.745325,14.521662],[120.74514,14.52166]]]},"properties":{"id":"manila_2019-05-13_mdd_38","region":"manila","date":"2019-05-13","area_m2":400.0,"mean_prob":0.5176,"max_prob":0.5294,"model":"mdd","n_px":4,"px_area_m2":100.0,"confirmed":false,"confirmed_by":null,"lon":120.745187,"lat":14.52157}},{"type":"Feature","geometry":{"type":"Polygon","coordinates":[[[120.74468,14.521294],[120.744681,14.521204],[120.744495,14.521202],[120.744496,14.521112],[120.744311,14.52111],[120.744312,14.52102],[120.744219,14.521019],[120.74422,14.520928],[120.744405,14.52093],[120.744404,14.521021],[120.744497,14.521021],[120.744496,14.521112],[120.744682,14.521114],[120.744681,14.521204],[120.744773,14.521205],[120.744773,14.521295],[120.74468,14.521294]]]},"properties":{"id":"manila_2019-05-13_mdd_39","region":"manila","date":"2019-05-13","area_m2":700.0,"mean_prob":0.5126,"max_prob":0.5255,"model":"mdd","n_px":7,"px_area_m2":100.0,"confirmed":false,"confirmed_by":null,"lon":120.744476,"lat":14.521092}},{"type":"Feature","geometry":{"type":"Polygon","coordinates":[[[120.743759,14.520653],[120.74376,14.520563],[120.743667,14.520562],[120.743668,14.520471],[120.743575,14.52047],[120.743576,14.52038],[120.743669,14.520381],[120.743668,14.520471],[120.743761,14.520472],[120.74376,14.520563],[120.743945,14.520564],[120.743944,14.520655],[120.743759,14.520653]]]},"properties":{"id":"manila_2019-05-13_mdd_40","region":"manila","date":"2019-05-13","area_m2":400.0,"mean_prob":0.5039,"max_prob":0.5098,"model":"mdd","n_px":4,"px_area_m2":100.0,"confirmed":true,"confirmed_by":"lgbm","lon":120.74376,"lat":14.52054}},{"type":"Feature","geometry":{"type":"Polygon","coordinates":[[[120.743299,14.520287],[120.7433,14.520197],[120.743114,14.520195],[120.743115,14.520105],[120.743022,14.520104],[120.743023,14.520013],[120.742931,14.520013],[120.742931,14.519922],[120.742839,14.519921],[120.74284,14.519831],[120.742932,14.519832],[120.742931,14.519922],[120.743117,14.519924],[120.743116,14.520014],[120.743209,14.520015],[120.743208,14.520106],[120.743301,14.520106],[120.7433,14.520197],[120.743392,14.520198],[120.743392,14.520288],[120.743299,14.520287]]]},"properties":{"id":"manila_2019-05-13_mdd_41","region":"manila","date":"2019-05-13","area_m2":800.0,"mean_prob":0.5176,"max_prob":0.5333,"model":"mdd","n_px":8,"px_area_m2":100.0,"confirmed":false,"confirmed_by":null,"lon":120.743116,"lat":14.520059}},{"type":"Feature","geometry":{"type":"Polygon","coordinates":[[[120.742562,14.519738],[120.742563,14.519648],[120.742471,14.519647],[120.742471,14.519556],[120.742286,14.519555],[120.742287,14.519464],[120.742194,14.519463],[120.742195,14.519373],[120.742102,14.519372],[120.742103,14.519282],[120.74201,14.519281],[120.742011,14.51919],[120.742104,14.519191],[120.742103,14.519282],[120.742289,14.519283],[120.742288,14.519374],[120.742381,14.519375],[120.74238,14.519465],[120.742472,14.519466],[120.742471,14.519556],[120.742564,14.519557],[120.742563,14.519648],[120.742656,14.519648],[120.742655,14.519739],[120.742562,14.519738]]]},"properties":{"id":"manila_2019-05-13_mdd_42","region":"manila","date":"2019-05-13","area_m2":900.0,"mean_prob":0.5102,"max_prob":0.5255,"model":"mdd","n_px":9,"px_area_m2":100.0,"confirmed":false,"confirmed_by":null,"lon":120.742323,"lat":14.519449}},{"type":"Feature","geometry":{"type":"Polygon","coordinates":[[[120.741734,14.519097],[120.741735,14.519007],[120.741642,14.519006],[120.741643,14.518916],[120.741736,14.518917],[120.741735,14.519007],[120.741828,14.519008],[120.741827,14.519098],[120.741734,14.519097]]]},"properties":{"id":"manila_2019-05-13_mdd_43","region":"manila","date":"2019-05-13","area_m2":200.0,"mean_prob":0.502,"max_prob":0.502,"model":"mdd","n_px":2,"px_area_m2":100.0,"confirmed":false,"confirmed_by":null,"lon":120.741735,"lat":14.519007}},{"type":"Feature","geometry":{"type":"Polygon","coordinates":[[[120.741273,14.518822],[120.741274,14.518732],[120.741181,14.518731],[120.741182,14.51864],[120.74109,14.518639],[120.74109,14.518549],[120.740998,14.518548],[120.740999,14.518458],[120.740906,14.518457],[120.740907,14.518367],[120.740814,14.518366],[120.740815,14.518275],[120.740629,14.518274],[120.74063,14.518183],[120.740445,14.518181],[120.740446,14.518091],[120.740353,14.51809],[120.740354,14.518],[120.740261,14.517999],[120.740262,14.517909],[120.740169,14.517908],[120.74017,14.517817],[120.740078,14.517817],[120.740079,14.517726],[120.739986,14.517725],[120.739987,14.517635],[120.740079,14.517636],[120.740079,14.517726],[120.740171,14.517727],[120.74017,14.517817],[120.740263,14.517818],[120.740262,14.517909],[120.740448,14.51791],[120.740447,14.518001],[120.740632,14.518003],[120.740631,14.518093],[120.740724,14.518094],[120.740723,14.518184],[120.740816,14.518185],[120.740815,14.518275],[120.740908,14.518276],[120.740907,14.518367],[120.741,14.518368],[120.740999,14.518458],[120.741184,14.51846],[120.741183,14.51855],[120.741276,14.518551],[120.741275,14.518641],[120.741368,14.518642],[120.741366,14.518823],[120.741273,14.518822]]]},"properties":{"id":"manila_2019-05-13_mdd_44","region":"manila","date":"2019-05-13","area_m2":2200.0,"mean_prob":0.5166,"max_prob":0.5412,"model":"mdd","n_px":22,"px_area_m2":100.0,"confirmed":true,"confirmed_by":"lgbm","lon":120.740727,"lat":14.518242}},{"type":"Feature","geometry":{"type":"Polygon","coordinates":[[[120.850506,14.50259],[120.850507,14.5025],[120.850322,14.502498],[120.850323,14.502408],[120.850415,14.502408],[120.850416,14.502318],[120.850602,14.50232],[120.850602,14.502229],[120.850973,14.502233],[120.850973,14.502323],[120.851158,14.502325],[120.851156,14.502506],[120.850971,14.502504],[120.85097,14.502594],[120.850506,14.50259]]]},"properties":{"id":"manila_2019-05-13_mdd_45","region":"manila","date":"2019-05-13","area_m2":2600.0,"mean_prob":0.5391,"max_prob":0.5843,"model":"mdd","n_px":26,"px_area_m2":100.0,"confirmed":false,"confirmed_by":null,"lon":120.850761,"lat":14.502419}},{"type":"Feature","geometry":{"type":"Polygon","coordinates":[[[120.850329,14.501775],[120.85033,14.501685],[120.850144,14.501683],[120.850146,14.501502],[120.850239,14.501503],[120.850239,14.501413],[120.850703,14.501417],[120.850702,14.501507],[120.85098,14.50151],[120.85098,14.5016],[120.851072,14.501601],[120.851071,14.501782],[120.850329,14.501775]]]},"properties":{"id":"manila_2019-05-13_mdd_46","region":"manila","date":"2019-05-13","area_m2":3200.0,"mean_prob":0.5857,"max_prob":0.6706,"model":"mdd","n_px":32,"px_area_m2":100.0,"confirmed":false,"confirmed_by":null,"lon":120.850597,"lat":14.501611}},{"type":"Feature","geometry":{"type":"Polygon","coordinates":[[[120.846903,14.501111],[120.846904,14.501021],[120.846812,14.50102],[120.846812,14.50093],[120.846905,14.50093],[120.846906,14.50084],[120.847091,14.500842],[120.847091,14.500932],[120.847183,14.500933],[120.847182,14.501023],[120.84709,14.501023],[120.847089,14.501113],[120.846903,14.501111]]]},"properties":{"id":"manila_2019-05-13_mdd_47","region":"manila","date":"2019-05-13","area_m2":800.0,"mean_prob":0.5319,"max_prob":0.5804,"model":"mdd","n_px":8,"px_area_m2":100.0,"confirmed":false,"confirmed_by":null,"lon":120.846997,"lat":14.500977}},{"type":"Feature","geometry":{"type":"Polygon","coordinates":[[[120.846818,14.500388],[120.846818,14.500297],[120.846726,14.500296],[120.846727,14.500206],[120.846819,14.500207],[120.846822,14.499936],[120.846729,14.499935],[120.84673,14.499845],[120.846637,14.499844],[120.846639,14.499663],[120.846546,14.499662],[120.846547,14.499572],[120.846455,14.499571],[120.846456,14.49939],[120.846364,14.499389],[120.846364,14.499299],[120.846272,14.499298],[120.846273,14.499208],[120.846551,14.49921],[120.84655,14.499301],[120.846643,14.499302],[120.846642,14.499392],[120.846734,14.499393],[120.846734,14.499483],[120.846826,14.499484],[120.846825,14.499665],[120.846917,14.499666],[120.84691,14.500388],[120.846818,14.500388]]]},"properties":{"id":"manila_2019-05-13_mdd_48","region":"manila","date":"2019-05-13","area_m2":3000.0,"mean_prob":0.552,"max_prob":0.6275,"model":"mdd","n_px":30,"px_area_m2":100.0,"confirmed":false,"confirmed_by":null,"lon":120.846685,"lat":14.499681}},{"type":"Feature","geometry":{"type":"Polygon","coordinates":[[[120.872341,14.498542],[120.872343,14.498271],[120.872436,14.498272],[120.872437,14.498181],[120.87253,14.498182],[120.872527,14.498453],[120.872434,14.498452],[120.872434,14.498543],[120.872341,14.498542]]]},"properties":{"id":"manila_2019-05-13_mdd_49","region":"manila","date":"2019-05-13","area_m2":600.0,"mean_prob":0.5294,"max_prob":0.5451,"model":"mdd","n_px":6,"px_area_m2":100.0,"confirmed":false,"confirmed_by":null,"lon":120.872435,"lat":14.498362}},{"type":"Feature","geometry":{"type":"Polygon","coordinates":[[[120.836976,14.491894],[120.836977,14.491803],[120.836792,14.491802],[120.836792,14.491711],[120.8367,14.49171],[120.836701,14.49153],[120.836887,14.491531],[120.836886,14.491622],[120.836979,14.491623],[120.836978,14.491713],[120.837071,14.491714],[120.83707,14.491804],[120.837162,14.491805],[120.837162,14.491895],[120.836976,14.491894]]]},"properties":{"id":"manila_2019-05-13_mdd_50","region":"manila","date":"2019-05-13","area_m2":1000.0,"mean_prob":0.5302,"max_prob":0.5608,"model":"mdd","n_px":10,"px_area_m2":100.0,"confirmed":false,"confirmed_by":null,"lon":120.836904,"lat":14.491712}},{"type":"Feature","geometry":{"type":"Polygon","coordinates":[[[120.836711,14.490536],[120.836712,14.490445],[120.836619,14.490445],[120.83662,14.490354],[120.836806,14.490356],[120.836805,14.490446],[120.836897,14.490447],[120.836897,14.490537],[120.836711,14.490536]]]},"properties":{"id":"manila_2019-05-13_mdd_51","region":"manila","date":"2019-05-13","area_m2":400.0,"mean_prob":0.5108,"max_prob":0.5176,"model":"mdd","n_px":4,"px_area_m2":100.0,"confirmed":false,"confirmed_by":null,"lon":120.836758,"lat":14.490446}}]}