{"type":"FeatureCollection","features":[{"type":"Feature","geometry":{"type":"Polygon","coordinates":[[[30.383614,31.508635],[30.383616,31.508545],[30.383721,31.508547],[30.383726,31.508367],[30.383831,31.508369],[30.383834,31.508279],[30.383939,31.508281],[30.383942,31.508191],[30.384047,31.508193],[30.384049,31.508103],[30.384155,31.508105],[30.384157,31.508015],[30.384262,31.508017],[30.384265,31.507927],[30.38437,31.507929],[30.384373,31.507839],[30.384478,31.507841],[30.38448,31.507751],[30.384585,31.507753],[30.384588,31.507663],[30.384693,31.507665],[30.384696,31.507575],[30.384801,31.507577],[30.384803,31.507487],[30.384909,31.507489],[30.384911,31.507399],[30.385016,31.507401],[30.385019,31.507311],[30.385124,31.507313],[30.385129,31.507133],[30.385234,31.507135],[30.385239,31.506955],[30.385344,31.506957],[30.38535,31.506776],[30.38556,31.506781],[30.385557,31.506871],[30.385663,31.506873],[30.385658,31.507053],[30.385552,31.507051],[30.385547,31.507231],[30.385442,31.507229],[30.38544,31.507319],[30.385334,31.507317],[30.385332,31.507407],[30.385227,31.507405],[30.385224,31.507495],[30.385119,31.507493],[30.385117,31.507583],[30.385011,31.507581],[30.385009,31.507671],[30.384904,31.507669],[30.384901,31.507759],[30.384796,31.507757],[30.384793,31.507847],[30.384688,31.507845],[30.384686,31.507935],[30.38458,31.507933],[30.384578,31.508023],[30.384473,31.508021],[30.38447,31.508111],[30.384365,31.508109],[30.384363,31.508199],[30.384257,31.508197],[30.384255,31.508287],[30.38415,31.508285],[30.384147,31.508375],[30.383937,31.508371],[30.383934,31.508461],[30.383829,31.508459],[30.383826,31.508549],[30.383721,31.508547],[30.383719,31.508637],[30.383614,31.508635]]]},"properties":{"id":"nile_2025-11-11_mdd_0","region":"nile","date":"2025-11-11","area_m2":5900.0,"mean_prob":0.5436,"max_prob":0.5961,"model":"mdd","n_px":59,"px_area_m2":100.0,"confirmed":false,"confirmed_by":null,"lon":30.384791,"lat":31.507636}},{"type":"Feature","geometry":{"type":"Polygon","coordinates":[[[30.380686,31.507944],[30.380688,31.507853],[30.380793,31.507856],[30.380798,31.507675],[30.380903,31.507677],[30.380906,31.507587],[30.381222,31.507594],[30.381219,31.507684],[30.381114,31.507682],[30.381111,31.507772],[30.381006,31.50777],[30.381004,31.50786],[30.380898,31.507858],[30.380896,31.507948],[30.380686,31.507944]]]},"properties":{"id":"nile_2025-11-11_mdd_1","region":"nile","date":"2025-11-11","area_m2":1000.0,"mean_prob":0.5329,"max_prob":0.5725,"model":"mdd","n_px":10,"px_area_m2":100.0,"confirmed":false,"confirmed_by":null,"lon":30.380944,"lat":31.50775}},{"type":"Feature","geometry":{"type":"Polygon","coordinates":[[[30.381545,31.50733],[30.381552,31.507059],[30.381868,31.507066],[30.381863,31.507246],[30.381758,31.507244],[30.381755,31.507334],[30.381545,31.50733]]]},"properties":{"id":"nile_2025-11-11_mdd_2","region":"nile","date":"2025-11-11","area_m2":800.0,"mean_prob":0.5475,"max_prob":0.5882,"model":"mdd","n_px":8,"px_area_m2":100.0,"confirmed":false,"confirmed_by":null,"lon":30.381693,"lat":31.507186}},{"type":"Feature","geometry":{"type":"Polygon","coordinates":[[[30.385247,31.506684],[30.385257,31.506324],[30.385362,31.506326],[30.385365,31.506236],[30.38547,31.506238],[30.385472,31.506148],[30.385577,31.50615],[30.38558,31.50606],[30.385685,31.506062],[30.385688,31.505972],[30.385793,31.505974],[30.385795,31.505884],[30.385901,31.505886],[30.385903,31.505796],[30.386008,31.505798],[30.386011,31.505708],[30.386116,31.50571],[30.386119,31.50562],[30.386224,31.505622],[30.386226,31.505532],[30.386331,31.505534],[30.386336,31.505354],[30.386442,31.505356],[30.386444,31.505266],[30.386549,31.505268],[30.386552,31.505178],[30.386762,31.505182],[30.386765,31.505092],[30.38687,31.505094],[30.386873,31.505004],[30.387083,31.505008],[30.387085,31.504918],[30.387296,31.504922],[30.387298,31.504832],[30.387509,31.504837],[30.387511,31.504746],[30.387722,31.504751],[30.387724,31.504661],[30.387829,31.504663],[30.387832,31.504573],[30.387937,31.504575],[30.38794,31.504485],[30.38815,31.504489],[30.388152,31.504399],[30.388258,31.504401],[30.38826,31.504311],[30.388365,31.504313],[30.388368,31.504223],[30.388473,31.504225],[30.388476,31.504135],[30.388686,31.504139],[30.388688,31.504049],[30.388794,31.504051],[30.388796,31.503961],[30.389007,31.503965],[30.389009,31.503875],[30.389114,31.503877],[30.389117,31.503787],[30.389222,31.503789],[30.389224,31.503699],[30.38933,31.503701],[30.389332,31.503611],[30.389437,31.503613],[30.38944,31.503523],[30.389545,31.503525],[30.389548,31.503435],[30.389653,31.503437],[30.389655,31.503347],[30.38976,31.503349],[30.389763,31.503259],[30.389868,31.503261],[30.389871,31.503171],[30.389976,31.503173],[30.389978,31.503083],[30.390189,31.503088],[30.390191,31.502997],[30.390296,31.503],[30.390299,31.50291],[30.390404,31.502912],[30.390407,31.502822],[30.390617,31.502826],[30.39062,31.502736],[30.390725,31.502738],[30.390727,31.502648],[30.390832,31.50265],[30.390835,31.50256],[30.39094,31.502562],[30.390943,31.502472],[30.391048,31.502474],[30.39105,31.502384],[30.391261,31.502388],[30.391263,31.502298],[30.391368,31.5023],[30.391371,31.50221],[30.391581,31.502214],[30.391584,31.502124],[30.391899,31.502131],[30.391892,31.502401],[30.391787,31.502399],[30.391782,31.502579],[30.391677,31.502577],[30.391672,31.502757],[30.391566,31.502755],[30.391564,31.502845],[30.391459,31.502843],[30.391454,31.503023],[30.391348,31.503021],[30.391346,31.503111],[30.391241,31.503109],[30.391238,31.503199],[30.391133,31.503197],[30.391131,31.503287],[30.391025,31.503285],[30.39102,31.503465],[30.390915,31.503463],[30.390913,31.503553],[30.390807,31.503551],[30.390802,31.503731],[30.390697,31.503729],[30.390695,31.503819],[30.39059,31.503817],[30.390585,31.503998],[30.390374,31.503993],[30.390372,31.504083],[30.390266,31.504081],[30.390264,31.504171],[30.390054,31.504167],[30.390051,31.504257],[30.389946,31.504255],[30.389948,31.504165],[30.389843,31.504163],[30.389848,31.503982],[30.389638,31.503978],[30.389635,31.504068],[30.389425,31.504064],[30.389422,31.504154],[30.389212,31.50415],[30.389209,31.50424],[30.389104,31.504238],[30.389102,31.504328],[30.388891,31.504324],[30.388889,31.504414],[30.388784,31.504412],[30.388781,31.504502],[30.388571,31.504498],[30.388568,31.504588],[30.388358,31.504583],[30.388355,31.504673],[30.38825,31.504671],[30.388248,31.504761],[30.388037,31.504757],[30.388035,31.504847],[30.38793,31.504845],[30.387927,31.504935],[30.387822,31.504933],[30.387817,31.505113],[30.387606,31.505109],[30.387604,31.505199],[30.387393,31.505195],[30.387391,31.505285],[30.387181,31.505281],[30.387178,31.505371],[30.386968,31.505367],[30.386965,31.505457],[30.386755,31.505452],[30.386752,31.505543],[30.386542,31.505538],[30.386539,31.505628],[30.386434,31.505626],[30.386432,31.505716],[30.386326,31.505714],[30.386324,31.505804],[30.386219,31.505802],[30.386216,31.505892],[30.386111,31.50589],[30.386106,31.50607],[30.386001,31.506068],[30.385998,31.506158],[30.385893,31.506156],[30.385891,31.506246],[30.385785,31.506244],[30.385783,31.506334],[30.385678,31.506332],[30.385675,31.506422],[30.38557,31.50642],[30.385565,31.5066],[30.38546,31.506598],[30.385457,31.506688],[30.385247,31.506684]]]},"properties":{"id":"nile_2025-11-11_mdd_3","region":"nile","date":"2025-11-11","area_m2":38900.0,"mean_prob":0.6406,"max_prob":0.7961,"model":"mdd","n_px":389,"px_area_m2":100.0,"confirmed":false,"confirmed_by":null,"lon":30.389219,"lat":31.504017}},{"type":"Feature","geometry":{"type":"Polygon","coordinates":[[[30.384531,31.505948],[30.384533,31.505858],[30.384638,31.50586],[30.384646,31.50559],[30.384751,31.505592],[30.384753,31.505502],[30.384859,31.505504],[30.384861,31.505414],[30.385072,31.505418],[30.385067,31.505598],[30.384961,31.505596],[30.384959,31.505686],[30.384854,31.505684],[30.384851,31.505774],[30.384746,31.505772],[30.384743,31.505862],[30.384638,31.50586],[30.384636,31.50595],[30.384531,31.505948]]]},"properties":{"id":"nile_2025-11-11_mdd_4","region":"nile","date":"2025-11-11","area_m2":1200.0,"mean_prob":0.5294,"max_prob":0.5647,"model":"mdd","n_px":12,"px_area_m2":100.0,"confirmed":false,"confirmed_by":null,"lon":30.38482,"lat":31.505638}},{"type":"Feature","geometry":{"type":"Polygon","coordinates":[[[30.3854,31.504974],[30.385402,31.504884],[30.385507,31.504886],[30.385512,31.504706],[30.385618,31.504708],[30.385625,31.504437],[30.38573,31.504439],[30.385743,31.503989],[30.385848,31.503991],[30.385851,31.503901],[30.385956,31.503903],[30.385958,31.503813],[30.386169,31.503817],[30.386156,31.504268],[30.386051,31.504266],[30.386048,31.504356],[30.385943,31.504354],[30.385941,31.504444],[30.385836,31.504442],[30.385828,31.504712],[30.385723,31.50471],[30.385718,31.50489],[30.385613,31.504888],[30.38561,31.504978],[30.3854,31.504974]]]},"properties":{"id":"nile_2025-11-11_mdd_5","region":"nile","date":"2025-11-11","area_m2":3400.0,"mean_prob":0.5731,"max_prob":0.6667,"model":"mdd","n_px":34,"px_area_m2":100.0,"confirmed":false,"confirmed_by":null,"lon":30.385845,"lat":31.504333}},{"type":"Feature","geometry":{"type":"Polygon","coordinates":[[[30.386712,31.503197],[30.386715,31.503107],[30.386925,31.503111],[30.386928,31.503021],[30.387033,31.503023],[30.387035,31.502933],[30.387141,31.502935],[30.387143,31.502845],[30.387248,31.502847],[30.387251,31.502757],[30.387356,31.502759],[30.387359,31.502669],[30.387464,31.502671],[30.387466,31.502581],[30.387677,31.502585],[30.387679,31.502495],[30.387784,31.502497],[30.387787,31.502407],[30.388102,31.502414],[30.3881,31.502504],[30.387995,31.502502],[30.387992,31.502592],[30.387887,31.50259],[30.387884,31.50268],[30.387674,31.502676],[30.387672,31.502766],[30.387566,31.502764],[30.387564,31.502854],[30.387459,31.502852],[30.387456,31.502942],[30.387351,31.502939],[30.387348,31.50303],[30.387138,31.503025],[30.387136,31.503115],[30.38703,31.503113],[30.387028,31.503203],[30.386712,31.503197]]]},"properties":{"id":"nile_2025-11-11_mdd_6","region":"nile","date":"2025-11-11","area_m2":2700.0,"mean_prob":0.5313,"max_prob":0.5647,"model":"mdd","n_px":27,"px_area_m2":100.0,"confirmed":false,"confirmed_by":null,"lon":30.387443,"lat":31.502789}},{"type":"Feature","geometry":{"type":"Polygon","coordinates":[[[30.393598,31.501624],[30.3936,31.501534],[30.393705,31.501536],[30.393708,31.501446],[30.393813,31.501448],[30.393816,31.501358],[30.393921,31.50136],[30.393923,31.50127],[30.394028,31.501272],[30.394033,31.501092],[30.394139,31.501094],[30.394141,31.501004],[30.394246,31.501006],[30.394251,31.500826],[30.394357,31.500828],[30.394359,31.500738],[30.394464,31.50074],[30.394469,31.50056],[30.394574,31.500562],[30.394579,31.500381],[30.394895,31.500388],[30.394892,31.500478],[30.394787,31.500476],[30.394782,31.500656],[30.394677,31.500654],[30.394675,31.500744],[30.394569,31.500742],[30.394567,31.500832],[30.394462,31.50083],[30.394457,31.50101],[30.394351,31.501008],[30.394349,31.501098],[30.394244,31.501096],[30.394241,31.501186],[30.394136,31.501184],[30.394134,31.501274],[30.394028,31.501272],[30.394026,31.501362],[30.393921,31.50136],[30.393918,31.50145],[30.393813,31.501448],[30.393811,31.501538],[30.393705,31.501536],[30.393703,31.501626],[30.393598,31.501624]]]},"properties":{"id":"nile_2025-11-11_mdd_7","region":"nile","date":"2025-11-11","area_m2":2500.0,"mean_prob":0.5456,"max_prob":0.6078,"model":"mdd","n_px":25,"px_area_m2":100.0,"confirmed":false,"confirmed_by":null,"lon":30.394361,"lat":31.500887}},{"type":"Feature","geometry":{"type":"Polygon","coordinates":[[[30.369326,31.500135],[30.369328,31.500045],[30.369223,31.500043],[30.369225,31.499953],[30.369331,31.499955],[30.369333,31.499865],[30.369438,31.499867],[30.369441,31.499777],[30.369756,31.499783],[30.369759,31.499693],[30.37039,31.499706],[30.370393,31.499616],[30.371024,31.499629],[30.371026,31.499539],[30.371237,31.499543],[30.371239,31.499453],[30.37145,31.499457],[30.371452,31.499367],[30.371663,31.499371],[30.371665,31.499281],[30.37177,31.499284],[30.371773,31.499193],[30.372299,31.499204],[30.372301,31.499114],[30.372512,31.499118],[30.372514,31.499028],[30.372725,31.499033],[30.372727,31.498942],[30.373253,31.498953],[30.373256,31.498863],[30.373466,31.498867],[30.373471,31.498687],[30.373576,31.498689],[30.373579,31.498599],[30.373684,31.498601],[30.373691,31.498331],[30.373797,31.498333],[30.373819,31.497522],[30.373924,31.497524],[30.37393,31.497344],[30.374035,31.497346],[30.374037,31.497256],[30.374142,31.497258],[30.374145,31.497168],[30.37425,31.49717],[30.374253,31.49708],[30.374463,31.497084],[30.374466,31.496994],[30.374571,31.496996],[30.374573,31.496906],[30.374678,31.496908],[30.374681,31.496818],[30.374786,31.49682],[30.374789,31.49673],[30.374894,31.496732],[30.374896,31.496642],[30.375107,31.496647],[30.375109,31.496556],[30.375214,31.496559],[30.375217,31.496468],[30.375427,31.496473],[30.37543,31.496383],[30.375535,31.496385],[30.375528,31.496655],[30.375422,31.496653],[30.375417,31.496833],[30.375312,31.496831],[30.37531,31.496921],[30.375204,31.496919],[30.375202,31.497009],[30.375097,31.497007],[30.375094,31.497097],[30.374989,31.497095],[30.374986,31.497185],[30.374881,31.497183],[30.374879,31.497273],[30.374774,31.497271],[30.374771,31.497361],[30.374666,31.497359],[30.374663,31.497449],[30.374558,31.497447],[30.374556,31.497537],[30.37445,31.497535],[30.374448,31.497625],[30.374343,31.497623],[30.37434,31.497713],[30.374235,31.497711],[30.374232,31.497801],[30.374127,31.497799],[30.374122,31.497979],[30.374017,31.497977],[30.374012,31.498157],[30.373907,31.498155],[30.373889,31.498786],[30.373784,31.498784],[30.373779,31.498964],[30.373674,31.498962],[30.373671,31.499052],[30.373566,31.49905],[30.373564,31.49914],[30.373458,31.499138],[30.373456,31.499228],[30.373351,31.499226],[30.373348,31.499316],[30.373033,31.499309],[30.37303,31.4994],[30.37282,31.499395],[30.372817,31.499485],[30.372607,31.499481],[30.372604,31.499571],[30.372499,31.499569],[30.372496,31.499659],[30.372286,31.499655],[30.372284,31.499745],[30.371968,31.499738],[30.371965,31.499829],[30.37165,31.499822],[30.371647,31.499912],[30.371332,31.499906],[30.371329,31.499996],[30.370803,31.499985],[30.370801,31.500075],[30.370275,31.500064],[30.370272,31.500155],[30.369326,31.500135]]]},"properties":{"id":"nile_2025-11-11_mdd_8","region":"nile","date":"2025-11-11","area_m2":32000.0,"mean_prob":0.6377,"max_prob":0.8118,"model":"mdd","n_px":320,"px_area_m2":100.0,"confirmed":false,"confirmed_by":null,"lon":30.372558,"lat":31.498822}},{"type":"Feature","geometry":{"type":"Polygon","coordinates":[[[30.394807,31.499755],[30.39481,31.499665],[30.394915,31.499667],[30.39492,31.499487],[30.395025,31.499489],[30.395028,31.499399],[30.395133,31.499401],[30.395135,31.499311],[30.395241,31.499313],[30.395243,31.499223],[30.395348,31.499225],[30.395351,31.499135],[30.395456,31.499137],[30.395458,31.499047],[30.395564,31.499049],[30.395566,31.498959],[30.395671,31.498961],[30.395674,31.498871],[30.395884,31.498875],[30.395887,31.498785],[30.395992,31.498787],[30.395999,31.498517],[30.396525,31.498527],[30.396528,31.498437],[30.396633,31.498439],[30.396636,31.498349],[30.396741,31.498351],[30.396743,31.498261],[30.396848,31.498263],[30.396853,31.498083],[30.397064,31.498087],[30.397066,31.497997],[30.397172,31.497999],[30.397174,31.497909],[30.397279,31.497911],[30.397277,31.498001],[30.397172,31.497999],[30.397164,31.49827],[30.397059,31.498268],[30.397051,31.498538],[30.396946,31.498536],[30.396944,31.498626],[30.396838,31.498624],[30.396833,31.498804],[30.396728,31.498802],[30.396723,31.498982],[30.396618,31.49898],[30.396616,31.49907],[30.39651,31.499068],[30.396508,31.499158],[30.395877,31.499145],[30.395874,31.499235],[30.395769,31.499233],[30.395767,31.499323],[30.395556,31.499319],[30.395554,31.499409],[30.395448,31.499407],[30.395446,31.499497],[30.395341,31.499495],[30.395338,31.499585],[30.395233,31.499583],[30.395231,31.499673],[30.39502,31.499669],[30.395018,31.499759],[30.394807,31.499755]]]},"properties":{"id":"nile_2025-11-11_mdd_9","region":"nile","date":"2025-11-11","area_m2":11000.0,"mean_prob":0.587,"max_prob":0.6902,"model":"mdd","n_px":110,"px_area_m2":100.0,"confirmed":false,"confirmed_by":null,"lon":30.396145,"lat":31.498887}},{"type":"Feature","geometry":{"type":"Polygon","coordinates":[[[30.367678,31.498839],[30.36768,31.498748],[30.367786,31.498751],[30.367791,31.49857],[30.367896,31.498573],[30.367898,31.498482],[30.368004,31.498485],[30.368006,31.498394],[30.368111,31.498397],[30.368114,31.498307],[30.368324,31.498311],[30.368327,31.498221],[30.368748,31.498229],[30.36875,31.498139],[30.369592,31.498157],[30.369594,31.498066],[30.369804,31.498071],[30.369807,31.497981],[30.370648,31.497998],[30.370651,31.497908],[30.370756,31.49791],[30.370759,31.49782],[30.370864,31.497822],[30.370866,31.497732],[30.370972,31.497734],[30.370979,31.497464],[30.371084,31.497466],[30.371087,31.497376],[30.371192,31.497378],[30.371195,31.497288],[30.37151,31.497294],[30.371513,31.497204],[30.371723,31.497208],[30.371726,31.497118],[30.371936,31.497123],[30.371939,31.497032],[30.372044,31.497035],[30.372046,31.496944],[30.372257,31.496949],[30.372259,31.496859],[30.372364,31.496861],[30.372367,31.496771],[30.372472,31.496773],[30.372475,31.496683],[30.37279,31.496689],[30.372785,31.496869],[30.37268,31.496867],[30.372675,31.497048],[30.37257,31.497045],[30.372567,31.497136],[30.372462,31.497133],[30.372459,31.497223],[30.372354,31.497221],[30.372349,31.497402],[30.372244,31.497399],[30.372241,31.49749],[30.372136,31.497487],[30.372134,31.497578],[30.371818,31.497571],[30.371816,31.497661],[30.371605,31.497657],[30.371603,31.497747],[30.371498,31.497745],[30.371495,31.497835],[30.37139,31.497833],[30.371387,31.497923],[30.371177,31.497919],[30.371174,31.498009],[30.371069,31.498007],[30.371067,31.498097],[30.370962,31.498095],[30.370959,31.498185],[30.370854,31.498182],[30.370851,31.498273],[30.370641,31.498268],[30.370638,31.498358],[30.370323,31.498352],[30.37032,31.498442],[30.37011,31.498438],[30.370107,31.498528],[30.369792,31.498521],[30.369789,31.498612],[30.368527,31.498586],[30.368524,31.498676],[30.368209,31.498669],[30.368206,31.498759],[30.367996,31.498755],[30.367993,31.498845],[30.367678,31.498839]]]},"properties":{"id":"nile_2025-11-11_mdd_10","region":"nile","date":"2025-11-11","area_m2":24200.0,"mean_prob":0.6401,"max_prob":0.8039,"model":"mdd","n_px":242,"px_area_m2":100.0,"confirmed":false,"confirmed_by":null,"lon":30.370362,"lat":31.497946}},{"type":"Feature","geometry":{"type":"Polygon","coordinates":[[[30.397387,31.497823],[30.397392,31.497643],[30.397497,31.497645],[30.3975,31.497555],[30.397605,31.497557],[30.39761,31.497377],[30.397715,31.497379],[30.397722,31.497109],[30.397828,31.497111],[30.397838,31.49675],[30.397943,31.496752],[30.397948,31.496572],[30.398158,31.496576],[30.398151,31.496847],[30.398046,31.496845],[30.398026,31.497566],[30.39792,31.497564],[30.397915,31.497744],[30.39781,31.497742],[30.397808,31.497832],[30.397387,31.497823]]]},"properties":{"id":"nile_2025-11-11_mdd_11","region":"nile","date":"2025-11-11","area_m2":4300.0,"mean_prob":0.5674,"max_prob":0.6431,"model":"mdd","n_px":43,"px_area_m2":100.0,"confirmed":false,"confirmed_by":null,"lon":30.397831,"lat":31.497301}},{"type":"Feature","geometry":{"type":"Polygon","coordinates":[[[30.40227,31.492512],[30.402278,31.492241],[30.402383,31.492243],[30.402388,31.492063],[30.402493,31.492065],[30.402498,31.491885],[30.402603,31.491887],[30.402608,31.491707],[30.402713,31.491709],[30.402711,31.491799],[30.402816,31.491801],[30.402813,31.491891],[30.402708,31.491889],[30.402698,31.49225],[30.402593,31.492248],[30.402588,31.492428],[30.402483,31.492426],[30.40248,31.492516],[30.40227,31.492512]]]},"properties":{"id":"nile_2025-11-11_mdd_12","region":"nile","date":"2025-11-11","area_m2":2100.0,"mean_prob":0.5612,"max_prob":0.6667,"model":"mdd","n_px":21,"px_area_m2":100.0,"confirmed":false,"confirmed_by":null,"lon":30.402528,"lat":31.492154}},{"type":"Feature","geometry":{"type":"Polygon","coordinates":[[[30.368326,31.490736],[30.368329,31.490645],[30.368434,31.490648],[30.368436,31.490558],[30.368541,31.49056],[30.368544,31.49047],[30.368649,31.490472],[30.368652,31.490382],[30.368757,31.490384],[30.368752,31.490564],[30.368647,31.490562],[30.368644,31.490652],[30.368434,31.490648],[30.368431,31.490738],[30.368326,31.490736]]]},"properties":{"id":"nile_2025-11-11_mdd_13","region":"nile","date":"2025-11-11","area_m2":600.0,"mean_prob":0.5203,"max_prob":0.5373,"model":"mdd","n_px":6,"px_area_m2":100.0,"confirmed":false,"confirmed_by":null,"lon":30.368576,"lat":31.49056}},{"type":"Feature","geometry":{"type":"Polygon","coordinates":[[[30.403369,31.490821],[30.403389,31.490099],[30.403284,31.490097],[30.403292,31.489827],[30.403712,31.489835],[30.40371,31.489926],[30.404025,31.489932],[30.40402,31.490112],[30.403915,31.49011],[30.40391,31.49029],[30.403805,31.490288],[30.403803,31.490378],[30.403697,31.490376],[30.403692,31.490557],[30.403587,31.490554],[30.403582,31.490735],[30.403477,31.490733],[30.403474,31.490823],[30.403369,31.490821]]]},"properties":{"id":"nile_2025-11-11_mdd_14","region":"nile","date":"2025-11-11","area_m2":4300.0,"mean_prob":0.589,"max_prob":0.6902,"model":"mdd","n_px":43,"px_area_m2":100.0,"confirmed":false,"confirmed_by":null,"lon":30.403595,"lat":31.490212}},{"type":"Feature","geometry":{"type":"Polygon","coordinates":[[[30.405332,31.488335],[30.405337,31.488155],[30.405443,31.488157],[30.40545,31.487887],[30.405555,31.487889],[30.405558,31.487799],[30.405663,31.487801],[30.405655,31.488071],[30.40555,31.488069],[30.405545,31.488249],[30.40544,31.488247],[30.405438,31.488337],[30.405332,31.488335]]]},"properties":{"id":"nile_2025-11-11_mdd_15","region":"nile","date":"2025-11-11","area_m2":900.0,"mean_prob":0.5342,"max_prob":0.5569,"model":"mdd","n_px":9,"px_area_m2":100.0,"confirmed":false,"confirmed_by":null,"lon":30.405509,"lat":31.488063}},{"type":"Feature","geometry":{"type":"Polygon","coordinates":[[[30.405567,31.48365],[30.405572,31.48347],[30.405782,31.483474],[30.405785,31.483384],[30.405995,31.483389],[30.405998,31.483298],[30.406103,31.483301],[30.406105,31.48321],[30.40621,31.483213],[30.406213,31.483122],[30.406318,31.483125],[30.406321,31.483034],[30.406531,31.483039],[30.406533,31.482949],[30.406639,31.482951],[30.406641,31.482861],[30.406746,31.482863],[30.406749,31.482773],[30.406854,31.482775],[30.406856,31.482685],[30.406962,31.482687],[30.406967,31.482506],[30.407072,31.482509],[30.407064,31.482779],[30.406959,31.482777],[30.406954,31.482957],[30.406849,31.482955],[30.406846,31.483045],[30.406636,31.483041],[30.406634,31.483131],[30.406528,31.483129],[30.406526,31.483219],[30.406421,31.483217],[30.406418,31.483307],[30.406313,31.483305],[30.406311,31.483395],[30.406205,31.483393],[30.406203,31.483483],[30.405993,31.483479],[30.40599,31.483569],[30.40578,31.483565],[30.405777,31.483655],[30.405567,31.48365]]]},"properties":{"id":"nile_2025-11-11_mdd_16","region":"nile","date":"2025-11-11","area_m2":3400.0,"mean_prob":0.5683,"max_prob":0.6392,"model":"mdd","n_px":34,"px_area_m2":100.0,"confirmed":false,"confirmed_by":null,"lon":30.406363,"lat":31.483165}},{"type":"Feature","geometry":{"type":"Polygon","coordinates":[[[30.331047,31.461917],[30.331055,31.461647],[30.33095,31.461644],[30.330965,31.461104],[30.33107,31.461106],[30.331076,31.460926],[30.331181,31.460928],[30.331186,31.460748],[30.331291,31.46075],[30.331294,31.46066],[30.331399,31.460662],[30.331406,31.460391],[30.331512,31.460394],[30.331517,31.460213],[30.331622,31.460216],[30.331624,31.460125],[30.331729,31.460128],[30.331735,31.459947],[30.33184,31.45995],[30.331845,31.459769],[30.33195,31.459771],[30.331955,31.459591],[30.33206,31.459593],[30.332063,31.459503],[30.332168,31.459505],[30.332158,31.459866],[30.332053,31.459864],[30.332047,31.460044],[30.331942,31.460042],[30.331937,31.460222],[30.331832,31.46022],[30.331827,31.4604],[30.331722,31.460398],[30.331717,31.460578],[30.331612,31.460576],[30.331606,31.460756],[30.331501,31.460754],[30.331496,31.460934],[30.331391,31.460932],[30.331386,31.461112],[30.331281,31.46111],[30.331273,31.461381],[30.331168,31.461378],[30.33116,31.461649],[30.331265,31.461651],[30.33126,31.461831],[30.331155,31.461829],[30.331153,31.461919],[30.331047,31.461917]]]},"properties":{"id":"nile_2025-11-11_mdd_17","region":"nile","date":"2025-11-11","area_m2":6700.0,"mean_prob":0.5793,"max_prob":0.6549,"model":"mdd","n_px":67,"px_area_m2":100.0,"confirmed":false,"confirmed_by":null,"lon":30.331482,"lat":31.460695}},{"type":"Feature","geometry":{"type":"Polygon","coordinates":[[[30.335212,31.456052],[30.335214,31.455962],[30.335319,31.455964],[30.335324,31.455784],[30.335429,31.455786],[30.335432,31.455696],[30.335537,31.455698],[30.335542,31.455518],[30.335753,31.455522],[30.33575,31.455612],[30.335645,31.45561],[30.33564,31.45579],[30.335535,31.455788],[30.335532,31.455878],[30.335427,31.455876],[30.335424,31.455966],[30.335319,31.455964],[30.335317,31.456054],[30.335212,31.456052]]]},"properties":{"id":"nile_2025-11-11_mdd_18","region":"nile","date":"2025-11-11","area_m2":900.0,"mean_prob":0.5355,"max_prob":0.5608,"model":"mdd","n_px":9,"px_area_m2":100.0,"confirmed":false,"confirmed_by":null,"lon":30.335494,"lat":31.455762}},{"type":"Feature","geometry":{"type":"Polygon","coordinates":[[[30.336083,31.454988],[30.336088,31.454808],[30.336194,31.45481],[30.336196,31.45472],[30.336301,31.454722],[30.336304,31.454632],[30.336409,31.454634],[30.336411,31.454544],[30.336517,31.454546],[30.336519,31.454456],[30.336729,31.45446],[30.336732,31.45437],[30.336942,31.454374],[30.336945,31.454284],[30.33705,31.454286],[30.337053,31.454196],[30.337263,31.454201],[30.337265,31.454111],[30.33737,31.454113],[30.337373,31.454023],[30.337478,31.454025],[30.337481,31.453935],[30.337586,31.453937],[30.337588,31.453847],[30.337694,31.453849],[30.337696,31.453759],[30.337801,31.453761],[30.337804,31.453671],[30.337909,31.453673],[30.337911,31.453583],[30.338017,31.453585],[30.338019,31.453495],[30.338335,31.453502],[30.338329,31.453682],[30.338224,31.45368],[30.338222,31.45377],[30.338117,31.453768],[30.338114,31.453858],[30.338009,31.453855],[30.338006,31.453946],[30.337901,31.453943],[30.337899,31.454034],[30.337794,31.454031],[30.337788,31.454212],[30.337683,31.454209],[30.337681,31.4543],[30.337576,31.454297],[30.337573,31.454388],[30.337468,31.454385],[30.337465,31.454475],[30.33736,31.454473],[30.337358,31.454563],[30.337147,31.454559],[30.337145,31.454649],[30.336935,31.454645],[30.336932,31.454735],[30.336722,31.454731],[30.336719,31.454821],[30.336509,31.454816],[30.336506,31.454906],[30.336296,31.454902],[30.336294,31.454992],[30.336083,31.454988]]]},"properties":{"id":"nile_2025-11-11_mdd_19","region":"nile","date":"2025-11-11","area_m2":8300.0,"mean_prob":0.6019,"max_prob":0.6902,"model":"mdd","n_px":83,"px_area_m2":100.0,"confirmed":false,"confirmed_by":null,"lon":30.337236,"lat":31.454288}},{"type":"Feature","geometry":{"type":"Polygon","coordinates":[[[30.339378,31.453794],[30.339391,31.453343],[30.339286,31.453341],[30.339296,31.45298],[30.339401,31.452983],[30.339406,31.452802],[30.339511,31.452805],[30.339514,31.452714],[30.339724,31.452719],[30.339694,31.4538],[30.339378,31.453794]]]},"properties":{"id":"nile_2025-11-11_mdd_20","region":"nile","date":"2025-11-11","area_m2":3900.0,"mean_prob":0.5548,"max_prob":0.6078,"model":"mdd","n_px":39,"px_area_m2":100.0,"confirmed":false,"confirmed_by":null,"lon":30.339532,"lat":31.453259}},{"type":"Feature","geometry":{"type":"Polygon","coordinates":[[[30.334783,31.452616],[30.334788,31.452436],[30.334893,31.452438],[30.334898,31.452258],[30.335003,31.45226],[30.335006,31.45217],[30.335111,31.452172],[30.335114,31.452082],[30.335219,31.452084],[30.335224,31.451904],[30.335434,31.451908],[30.335437,31.451818],[30.335542,31.45182],[30.335544,31.45173],[30.33586,31.451737],[30.335862,31.451646],[30.336178,31.451653],[30.33618,31.451563],[30.336496,31.451569],[30.336498,31.451479],[30.336603,31.451482],[30.336606,31.451391],[30.336711,31.451394],[30.336714,31.451303],[30.336819,31.451306],[30.336821,31.451216],[30.337032,31.45122],[30.337034,31.45113],[30.337244,31.451134],[30.337242,31.451224],[30.337347,31.451226],[30.337344,31.451317],[30.33745,31.451319],[30.337447,31.451409],[30.337342,31.451407],[30.337339,31.451497],[30.337129,31.451492],[30.337126,31.451583],[30.337021,31.45158],[30.337019,31.451671],[30.336914,31.451668],[30.336911,31.451758],[30.336806,31.451756],[30.336803,31.451846],[30.336698,31.451844],[30.336696,31.451934],[30.336485,31.45193],[30.336483,31.45202],[30.336062,31.452011],[30.33606,31.452101],[30.335639,31.452093],[30.335637,31.452183],[30.335532,31.452181],[30.335529,31.452271],[30.335319,31.452266],[30.335316,31.452357],[30.335211,31.452354],[30.335209,31.452445],[30.335103,31.452442],[30.335101,31.452532],[30.334891,31.452528],[30.334888,31.452618],[30.334783,31.452616]]]},"properties":{"id":"nile_2025-11-11_mdd_21","region":"nile","date":"2025-11-11","area_m2":11000.0,"mean_prob":0.6097,"max_prob":0.7451,"model":"mdd","n_px":110,"px_area_m2":100.0,"confirmed":false,"confirmed_by":null,"lon":30.336148,"lat":31.451814}},{"type":"Feature","geometry":{"type":"Polygon","coordinates":[[[30.340904,31.451932],[30.340906,31.451842],[30.340696,31.451837],[30.340699,31.451747],[30.340593,31.451745],[30.340596,31.451655],[30.340386,31.45165],[30.340388,31.45156],[30.340178,31.451556],[30.340175,31.451646],[30.339965,31.451642],[30.339963,31.451732],[30.339752,31.451727],[30.339763,31.451367],[30.339868,31.451369],[30.33987,31.451279],[30.339975,31.451281],[30.339978,31.451191],[30.340083,31.451193],[30.340086,31.451103],[30.340191,31.451105],[30.340193,31.451015],[30.340404,31.451019],[30.340406,31.450929],[30.340721,31.450936],[30.340724,31.450846],[30.340829,31.450848],[30.340832,31.450758],[30.340937,31.45076],[30.340939,31.45067],[30.34115,31.450674],[30.341147,31.450764],[30.341252,31.450767],[30.341245,31.451037],[30.34135,31.451039],[30.341345,31.451219],[30.34145,31.451222],[30.341447,31.451312],[30.341342,31.45131],[30.34134,31.4514],[30.341129,31.451395],[30.341114,31.451936],[30.340904,31.451932]]]},"properties":{"id":"nile_2025-11-11_mdd_22","region":"nile","date":"2025-11-11","area_m2":12000.0,"mean_prob":0.5985,"max_prob":0.7686,"model":"mdd","n_px":120,"px_area_m2":100.0,"confirmed":false,"confirmed_by":null,"lon":30.340663,"lat":31.451315}},{"type":"Feature","geometry":{"type":"Polygon","coordinates":[[[30.337657,31.451413],[30.33766,31.451323],[30.337765,31.451325],[30.337768,31.451235],[30.337978,31.45124],[30.337975,31.45133],[30.33787,31.451328],[30.337868,31.451418],[30.337657,31.451413]]]},"properties":{"id":"nile_2025-11-11_mdd_23","region":"nile","date":"2025-11-11","area_m2":400.0,"mean_prob":0.5078,"max_prob":0.5098,"model":"mdd","n_px":4,"px_area_m2":100.0,"confirmed":false,"confirmed_by":null,"lon":30.337818,"lat":31.451326}},{"type":"Feature","geometry":{"type":"Polygon","coordinates":[[[30.33798,31.451149],[30.337991,31.450789],[30.338096,31.450791],[30.338098,31.450701],[30.338414,31.450708],[30.338403,31.451068],[30.338298,31.451066],[30.338296,31.451156],[30.33798,31.451149]]]},"properties":{"id":"nile_2025-11-11_mdd_24","region":"nile","date":"2025-11-11","area_m2":1800.0,"mean_prob":0.566,"max_prob":0.6314,"model":"mdd","n_px":18,"px_area_m2":100.0,"confirmed":false,"confirmed_by":null,"lon":30.338197,"lat":31.450929}},{"type":"Feature","geometry":{"type":"Polygon","coordinates":[[[30.33898,31.449276],[30.338983,31.449186],[30.339088,31.449188],[30.33909,31.449098],[30.339195,31.449101],[30.33919,31.449281],[30.33898,31.449276]]]},"properties":{"id":"nile_2025-11-11_mdd_25","region":"nile","date":"2025-11-11","area_m2":300.0,"mean_prob":0.5268,"max_prob":0.5412,"model":"mdd","n_px":3,"px_area_m2":100.0,"confirmed":false,"confirmed_by":null,"lon":30.339105,"lat":31.449204}},{"type":"Feature","geometry":{"type":"Polygon","coordinates":[[[30.339669,31.447217],[30.339675,31.447036],[30.33978,31.447039],[30.339775,31.447219],[30.339669,31.447217]]]},"properties":{"id":"nile_2025-11-11_mdd_26","region":"nile","date":"2025-11-11","area_m2":200.0,"mean_prob":0.5176,"max_prob":0.5216,"model":"mdd","n_px":2,"px_area_m2":100.0,"confirmed":false,"confirmed_by":null,"lon":30.339725,"lat":31.447128}},{"type":"Feature","geometry":{"type":"Polygon","coordinates":[[[30.339863,31.440367],[30.339871,31.440096],[30.339976,31.440099],[30.339981,31.439918],[30.340086,31.439921],[30.340094,31.43965],[30.340199,31.439652],[30.340207,31.439382],[30.340312,31.439384],[30.340329,31.438753],[30.340435,31.438755],[30.34044,31.438575],[30.340545,31.438577],[30.340547,31.438487],[30.340758,31.438492],[30.340747,31.438852],[30.340642,31.43885],[30.340627,31.439391],[30.340522,31.439389],[30.340512,31.439749],[30.340407,31.439747],[30.340396,31.440107],[30.340291,31.440105],[30.340289,31.440195],[30.340184,31.440193],[30.340181,31.440283],[30.340076,31.440281],[30.340073,31.440371],[30.339863,31.440367]]]},"properties":{"id":"nile_2025-11-11_mdd_27","region":"nile","date":"2025-11-11","area_m2":6600.0,"mean_prob":0.587,"max_prob":0.6863,"model":"mdd","n_px":66,"px_area_m2":100.0,"confirmed":false,"confirmed_by":null,"lon":30.340354,"lat":31.439453}},{"type":"Feature","geometry":{"type":"Polygon","coordinates":[[[30.338022,31.438525],[30.338032,31.438164],[30.338137,31.438167],[30.338145,31.437896],[30.33825,31.437898],[30.338255,31.437718],[30.338465,31.437723],[30.338453,31.438173],[30.338347,31.438171],[30.338337,31.438531],[30.338022,31.438525]]]},"properties":{"id":"nile_2025-11-11_mdd_28","region":"nile","date":"2025-11-11","area_m2":2500.0,"mean_prob":0.5664,"max_prob":0.6275,"model":"mdd","n_px":25,"px_area_m2":100.0,"confirmed":false,"confirmed_by":null,"lon":30.338253,"lat":31.438149}},{"type":"Feature","geometry":{"type":"Polygon","coordinates":[[[30.34066,31.438219],[30.34067,31.437859],[30.340775,31.437861],[30.340781,31.43768],[30.340886,31.437683],[30.340888,31.437593],[30.340993,31.437595],[30.340998,31.437414],[30.341104,31.437417],[30.341109,31.437236],[30.341214,31.437239],[30.341219,31.437058],[30.341324,31.43706],[30.341329,31.43688],[30.341434,31.436882],[30.341437,31.436792],[30.341542,31.436794],[30.341557,31.436254],[30.341662,31.436256],[30.34167,31.435985],[30.341775,31.435988],[30.341778,31.435898],[30.341988,31.435902],[30.341978,31.436262],[30.341872,31.43626],[30.341867,31.43644],[30.341762,31.436438],[30.34176,31.436528],[30.341655,31.436526],[30.341644,31.436887],[30.341539,31.436885],[30.341532,31.437155],[30.341427,31.437153],[30.341421,31.437333],[30.341316,31.437331],[30.341314,31.437421],[30.341209,31.437419],[30.341204,31.437599],[30.341098,31.437597],[30.341093,31.437777],[30.340988,31.437775],[30.340983,31.437955],[30.340878,31.437953],[30.340873,31.438133],[30.340768,31.438131],[30.340765,31.438221],[30.34066,31.438219]]]},"properties":{"id":"nile_2025-11-11_mdd_29","region":"nile","date":"2025-11-11","area_m2":5700.0,"mean_prob":0.5366,"max_prob":0.5961,"model":"mdd","n_px":57,"px_area_m2":100.0,"confirmed":false,"confirmed_by":null,"lon":30.341361,"lat":31.437019}},{"type":"Feature","geometry":{"type":"Polygon","coordinates":[[[30.342444,31.434649],[30.342467,31.433838],[30.342572,31.43384],[30.342592,31.433119],[30.342697,31.433121],[30.342662,31.434383],[30.342557,31.434381],[30.342549,31.434651],[30.342444,31.434649]]]},"properties":{"id":"nile_2025-11-11_mdd_30","region":"nile","date":"2025-11-11","area_m2":2300.0,"mean_prob":0.5214,"max_prob":0.5451,"model":"mdd","n_px":23,"px_area_m2":100.0,"confirmed":false,"confirmed_by":null,"lon":30.34258,"lat":31.433944}},{"type":"Feature","geometry":{"type":"Polygon","coordinates":[[[30.348656,31.434417],[30.348661,31.434237],[30.348556,31.434234],[30.348571,31.433694],[30.348781,31.433698],[30.348776,31.433878],[30.348881,31.43388],[30.348871,31.434241],[30.348766,31.434239],[30.348761,31.434419],[30.348656,31.434417]]]},"properties":{"id":"nile_2025-11-11_mdd_31","region":"nile","date":"2025-11-11","area_m2":1800.0,"mean_prob":0.5403,"max_prob":0.5961,"model":"mdd","n_px":18,"px_area_m2":100.0,"confirmed":false,"confirmed_by":null,"lon":30.348708,"lat":31.434027}},{"type":"Feature","geometry":{"type":"Polygon","coordinates":[[[30.348366,31.433509],[30.348368,31.433419],[30.348263,31.433417],[30.348271,31.433146],[30.348376,31.433149],[30.348379,31.433058],[30.348589,31.433063],[30.348586,31.433153],[30.348691,31.433155],[30.348686,31.433335],[30.348581,31.433333],[30.348576,31.433513],[30.348366,31.433509]]]},"properties":{"id":"nile_2025-11-11_mdd_32","region":"nile","date":"2025-11-11","area_m2":1500.0,"mean_prob":0.5796,"max_prob":0.6588,"model":"mdd","n_px":15,"px_area_m2":100.0,"confirmed":false,"confirmed_by":null,"lon":30.348467,"lat":31.43328}},{"type":"Feature","geometry":{"type":"Polygon","coordinates":[[[30.3427,31.433031],[30.342707,31.43276],[30.342813,31.432763],[30.342815,31.432673],[30.34292,31.432675],[30.342915,31.432855],[30.34281,31.432853],[30.342805,31.433033],[30.3427,31.433031]]]},"properties":{"id":"nile_2025-11-11_mdd_33","region":"nile","date":"2025-11-11","area_m2":500.0,"mean_prob":0.5184,"max_prob":0.5294,"model":"mdd","n_px":5,"px_area_m2":100.0,"confirmed":false,"confirmed_by":null,"lon":30.3428,"lat":31.432844}},{"type":"Feature","geometry":{"type":"Polygon","coordinates":[[[30.349537,31.432992],[30.349542,31.432812],[30.349648,31.432814],[30.34965,31.432724],[30.34986,31.432728],[30.349855,31.432909],[30.34975,31.432906],[30.349748,31.432997],[30.349537,31.432992]]]},"properties":{"id":"nile_2025-11-11_mdd_34","region":"nile","date":"2025-11-11","area_m2":700.0,"mean_prob":0.5305,"max_prob":0.5608,"model":"mdd","n_px":7,"px_area_m2":100.0,"confirmed":false,"confirmed_by":null,"lon":30.349699,"lat":31.43286}},{"type":"Feature","geometry":{"type":"Polygon","coordinates":[[[30.346878,31.430322],[30.346883,31.430142],[30.346988,31.430144],[30.346996,31.429873],[30.347101,31.429876],[30.347106,31.429695],[30.347211,31.429697],[30.347216,31.429517],[30.347426,31.429522],[30.347416,31.429882],[30.347311,31.42988],[30.347309,31.42997],[30.347204,31.429968],[30.347198,31.430148],[30.347093,31.430146],[30.347091,31.430236],[30.346986,31.430234],[30.346983,31.430324],[30.346878,31.430322]]]},"properties":{"id":"nile_2025-11-11_mdd_35","region":"nile","date":"2025-11-11","area_m2":2000.0,"mean_prob":0.5616,"max_prob":0.6196,"model":"mdd","n_px":20,"px_area_m2":100.0,"confirmed":false,"confirmed_by":null,"lon":30.347179,"lat":31.429891}}]}