{"type":"FeatureCollection","features":[{"type":"Feature","geometry":{"type":"Polygon","coordinates":[[[-43.04771,-22.70723],[-43.047708,-22.707321],[-43.048,-22.707324],[-43.047999,-22.707414],[-43.048194,-22.707417],[-43.048192,-22.707507],[-43.048484,-22.707511],[-43.048483,-22.707601],[-43.04858,-22.707602],[-43.048579,-22.707692],[-43.048871,-22.707696],[-43.04887,-22.707786],[-43.048967,-22.707787],[-43.048966,-22.707878],[-43.049258,-22.707881],[-43.049257,-22.707972],[-43.049451,-22.707974],[-43.04945,-22.708064],[-43.049742,-22.708068],[-43.049741,-22.708158],[-43.050032,-22.708162],[-43.050031,-22.708252],[-43.05042,-22.708257],[-43.050419,-22.708347],[-43.050711,-22.70835],[-43.05071,-22.708441],[-43.050904,-22.708443],[-43.050903,-22.708533],[-43.051098,-22.708536],[-43.051097,-22.708626],[-43.051388,-22.70863],[-43.051387,-22.70872],[-43.051582,-22.708722],[-43.051581,-22.708813],[-43.051775,-22.708815],[-43.051774,-22.708905],[-43.051969,-22.708908],[-43.051967,-22.708998],[-43.052162,-22.709],[-43.052161,-22.709091],[-43.051966,-22.709088],[-43.051965,-22.709178],[-43.0507,-22.709163],[-43.050701,-22.709073],[-43.050117,-22.709066],[-43.050118,-22.708975],[-43.049826,-22.708972],[-43.049828,-22.708882],[-43.049633,-22.708879],[-43.049634,-22.708789],[-43.049537,-22.708788],[-43.049538,-22.708697],[-43.049441,-22.708696],[-43.049442,-22.708606],[-43.049345,-22.708605],[-43.049346,-22.708514],[-43.049249,-22.708513],[-43.049251,-22.708333],[-43.049154,-22.708332],[-43.049155,-22.708241],[-43.049058,-22.70824],[-43.049059,-22.70815],[-43.048962,-22.708149],[-43.048963,-22.708058],[-43.048769,-22.708056],[-43.04877,-22.707966],[-43.048575,-22.707963],[-43.048577,-22.707873],[-43.048382,-22.707871],[-43.048383,-22.70778],[-43.048189,-22.707778],[-43.04819,-22.707688],[-43.047898,-22.707684],[-43.047899,-22.707594],[-43.047705,-22.707591],[-43.047706,-22.707501],[-43.047609,-22.7075],[-43.04761,-22.70741],[-43.047415,-22.707407],[-43.047418,-22.707227],[-43.04771,-22.70723]]]},"properties":{"id":"guanabara_2025-06-26_mdd_0","region":"guanabara","date":"2025-06-26","area_m2":25700.0,"mean_prob":0.5606,"max_prob":0.6471,"model":"mdd","n_px":257,"px_area_m2":100.0,"confirmed":false,"confirmed_by":null,"lon":-43.049983,"lat":-22.708455}},{"type":"Feature","geometry":{"type":"Polygon","coordinates":[[[-43.093847,-22.714108],[-43.093843,-22.714379],[-43.093746,-22.714378],[-43.093744,-22.714468],[-43.093647,-22.714467],[-43.093649,-22.714286],[-43.093747,-22.714287],[-43.093749,-22.714107],[-43.093847,-22.714108]]]},"properties":{"id":"guanabara_2025-06-26_mdd_1","region":"guanabara","date":"2025-06-26","area_m2":500.0,"mean_prob":0.5075,"max_prob":0.5176,"model":"mdd","n_px":5,"px_area_m2":100.0,"confirmed":false,"confirmed_by":null,"lon":-43.093756,"lat":-22.714297}},{"type":"Feature","geometry":{"type":"Polygon","coordinates":[[[-43.093736,-22.7151],[-43.093724,-22.715913],[-43.093627,-22.715911],[-43.093638,-22.715099],[-43.093736,-22.7151]]]},"properties":{"id":"guanabara_2025-06-26_mdd_2","region":"guanabara","date":"2025-06-26","area_m2":900.0,"mean_prob":0.5229,"max_prob":0.5294,"model":"mdd","n_px":9,"px_area_m2":100.0,"confirmed":false,"confirmed_by":null,"lon":-43.093681,"lat":-22.715506}},{"type":"Feature","geometry":{"type":"Polygon","coordinates":[[[-43.094118,-22.7226],[-43.094115,-22.722871],[-43.094017,-22.722869],[-43.094015,-22.72305],[-43.093917,-22.723049],[-43.093915,-22.723229],[-43.093818,-22.723228],[-43.093815,-22.723409],[-43.093718,-22.723408],[-43.093713,-22.723769],[-43.093615,-22.723768],[-43.09361,-22.724129],[-43.093513,-22.724128],[-43.093522,-22.723496],[-43.093619,-22.723497],[-43.093622,-22.723316],[-43.093719,-22.723317],[-43.093722,-22.723137],[-43.093819,-22.723138],[-43.093821,-22.722957],[-43.093919,-22.722959],[-43.093922,-22.722688],[-43.09402,-22.722689],[-43.094021,-22.722599],[-43.094118,-22.7226]]]},"properties":{"id":"guanabara_2025-06-26_mdd_3","region":"guanabara","date":"2025-06-26","area_m2":2500.0,"mean_prob":0.5211,"max_prob":0.5412,"model":"mdd","n_px":25,"px_area_m2":100.0,"artifact":"seam","confirmed":false,"confirmed_by":null,"lon":-43.093771,"lat":-22.723327}},{"type":"Feature","geometry":{"type":"Polygon","coordinates":[[[-43.094172,-22.725761],[-43.094169,-22.725941],[-43.094072,-22.72594],[-43.094068,-22.726211],[-43.093971,-22.72621],[-43.09397,-22.7263],[-43.093872,-22.726299],[-43.093875,-22.726119],[-43.093972,-22.72612],[-43.093975,-22.725939],[-43.094072,-22.72594],[-43.094075,-22.72576],[-43.094172,-22.725761]]]},"properties":{"id":"guanabara_2025-06-26_mdd_4","region":"guanabara","date":"2025-06-26","area_m2":700.0,"mean_prob":0.5109,"max_prob":0.5255,"model":"mdd","n_px":7,"px_area_m2":100.0,"artifact":"seam","confirmed":false,"confirmed_by":null,"lon":-43.094022,"lat":-22.726049}},{"type":"Feature","geometry":{"type":"Polygon","coordinates":[[[-43.093869,-22.72657],[-43.09386,-22.727202],[-43.093957,-22.727203],[-43.093953,-22.727474],[-43.094051,-22.727475],[-43.094048,-22.727656],[-43.094146,-22.727657],[-43.094141,-22.728018],[-43.094043,-22.728017],[-43.094045,-22.727927],[-43.093947,-22.727925],[-43.09395,-22.727745],[-43.093852,-22.727744],[-43.093857,-22.727383],[-43.09376,-22.727381],[-43.093771,-22.726569],[-43.093869,-22.72657]]]},"properties":{"id":"guanabara_2025-06-26_mdd_5","region":"guanabara","date":"2025-06-26","area_m2":2400.0,"mean_prob":0.5312,"max_prob":0.5843,"model":"mdd","n_px":24,"px_area_m2":100.0,"artifact":"seam","confirmed":true,"confirmed_by":"lgbm","lon":-43.093922,"lat":-22.727395}},{"type":"Feature","geometry":{"type":"Polygon","coordinates":[[[-43.051572,-22.730033],[-43.051571,-22.730123],[-43.052057,-22.730129],[-43.052056,-22.73022],[-43.052348,-22.730223],[-43.052347,-22.730314],[-43.052444,-22.730315],[-43.05244,-22.730586],[-43.051954,-22.73058],[-43.051955,-22.730489],[-43.051566,-22.730485],[-43.051567,-22.730394],[-43.051275,-22.730391],[-43.051276,-22.7303],[-43.051082,-22.730298],[-43.051083,-22.730208],[-43.050888,-22.730205],[-43.050889,-22.730115],[-43.050695,-22.730113],[-43.050696,-22.730022],[-43.051572,-22.730033]]]},"properties":{"id":"guanabara_2025-06-26_mdd_6","region":"guanabara","date":"2025-06-26","area_m2":6000.0,"mean_prob":0.5592,"max_prob":0.6157,"model":"mdd","n_px":60,"px_area_m2":100.0,"confirmed":false,"confirmed_by":null,"lon":-43.051692,"lat":-22.730283}},{"type":"Feature","geometry":{"type":"Polygon","coordinates":[[[-43.053795,-22.731144],[-43.053794,-22.731234],[-43.054183,-22.731239],[-43.054181,-22.731419],[-43.054083,-22.731418],[-43.054085,-22.731328],[-43.053695,-22.731323],[-43.053697,-22.731233],[-43.053599,-22.731232],[-43.053601,-22.731142],[-43.053795,-22.731144]]]},"properties":{"id":"guanabara_2025-06-26_mdd_7","region":"guanabara","date":"2025-06-26","area_m2":800.0,"mean_prob":0.5108,"max_prob":0.5255,"model":"mdd","n_px":8,"px_area_m2":100.0,"confirmed":true,"confirmed_by":"lgbm","lon":-43.053903,"lat":-22.731269}},{"type":"Feature","geometry":{"type":"Polygon","coordinates":[[[-43.17697,-22.736389],[-43.176968,-22.73657],[-43.17687,-22.736569],[-43.176869,-22.736659],[-43.176772,-22.736658],[-43.17677,-22.736839],[-43.176672,-22.736838],[-43.176671,-22.736928],[-43.176574,-22.736927],[-43.176571,-22.737107],[-43.176474,-22.737106],[-43.176473,-22.737197],[-43.176375,-22.737195],[-43.176373,-22.737376],[-43.176276,-22.737375],[-43.176273,-22.737556],[-43.176176,-22.737554],[-43.176175,-22.737645],[-43.176077,-22.737644],[-43.176075,-22.737824],[-43.175978,-22.737823],[-43.175976,-22.737913],[-43.175782,-22.737911],[-43.175783,-22.737821],[-43.17588,-22.737822],[-43.175883,-22.737641],[-43.17598,-22.737642],[-43.175984,-22.737372],[-43.176081,-22.737373],[-43.176082,-22.737282],[-43.17618,-22.737284],[-43.176182,-22.737103],[-43.176279,-22.737104],[-43.176282,-22.736923],[-43.176379,-22.736925],[-43.17638,-22.736834],[-43.176478,-22.736835],[-43.176479,-22.736745],[-43.176576,-22.736746],[-43.176577,-22.736656],[-43.176675,-22.736657],[-43.176676,-22.736567],[-43.176773,-22.736568],[-43.176774,-22.736478],[-43.176872,-22.736479],[-43.176873,-22.736388],[-43.17697,-22.736389]]]},"properties":{"id":"guanabara_2025-06-26_mdd_8","region":"guanabara","date":"2025-06-26","area_m2":4100.0,"mean_prob":0.5314,"max_prob":0.5608,"model":"mdd","n_px":41,"px_area_m2":100.0,"confirmed":false,"confirmed_by":null,"lon":-43.176351,"lat":-22.737165}},{"type":"Feature","geometry":{"type":"Polygon","coordinates":[[[-43.080614,-22.748626],[-43.080607,-22.749077],[-43.08051,-22.749076],[-43.080514,-22.748805],[-43.080417,-22.748804],[-43.080419,-22.748623],[-43.080614,-22.748626]]]},"properties":{"id":"guanabara_2025-06-26_mdd_9","region":"guanabara","date":"2025-06-26","area_m2":700.0,"mean_prob":0.5204,"max_prob":0.5412,"model":"mdd","n_px":7,"px_area_m2":100.0,"confirmed":false,"confirmed_by":null,"lon":-43.080535,"lat":-22.748812}},{"type":"Feature","geometry":{"type":"Polygon","coordinates":[[[-43.050809,-22.749529],[-43.050808,-22.749619],[-43.051392,-22.749626],[-43.05139,-22.749716],[-43.05178,-22.749721],[-43.051778,-22.749812],[-43.05207,-22.749815],[-43.052069,-22.749905],[-43.052166,-22.749907],[-43.052165,-22.749997],[-43.05236,-22.749999],[-43.052359,-22.750089],[-43.052651,-22.750093],[-43.052649,-22.750183],[-43.052844,-22.750186],[-43.052843,-22.750276],[-43.053037,-22.750278],[-43.053036,-22.750369],[-43.053134,-22.75037],[-43.053132,-22.75046],[-43.053327,-22.750463],[-43.053326,-22.750553],[-43.052936,-22.750548],[-43.052938,-22.750458],[-43.052548,-22.750453],[-43.052549,-22.750363],[-43.052257,-22.750359],[-43.052259,-22.750269],[-43.051967,-22.750265],[-43.051968,-22.750175],[-43.051579,-22.75017],[-43.05158,-22.75008],[-43.050704,-22.750069],[-43.050705,-22.749979],[-43.049537,-22.749965],[-43.049536,-22.750055],[-43.049049,-22.750049],[-43.04905,-22.749959],[-43.049342,-22.749962],[-43.049344,-22.749872],[-43.049636,-22.749876],[-43.049637,-22.749785],[-43.049832,-22.749788],[-43.049833,-22.749697],[-43.050027,-22.7497],[-43.050029,-22.74961],[-43.050515,-22.749615],[-43.050517,-22.749525],[-43.050809,-22.749529]]]},"properties":{"id":"guanabara_2025-06-26_mdd_10","region":"guanabara","date":"2025-06-26","area_m2":15100.0,"mean_prob":0.5925,"max_prob":0.702,"model":"mdd","n_px":151,"px_area_m2":100.0,"confirmed":false,"confirmed_by":null,"lon":-43.051254,"lat":-22.749963}},{"type":"Feature","geometry":{"type":"Polygon","coordinates":[[[-43.080983,-22.750075],[-43.080982,-22.750165],[-43.081079,-22.750166],[-43.081078,-22.750257],[-43.081175,-22.750258],[-43.081174,-22.750348],[-43.081271,-22.750349],[-43.08127,-22.75044],[-43.081367,-22.750441],[-43.081366,-22.750531],[-43.081463,-22.750532],[-43.081462,-22.750622],[-43.081657,-22.750625],[-43.081656,-22.750715],[-43.081948,-22.750719],[-43.081946,-22.750809],[-43.082141,-22.750811],[-43.08214,-22.750901],[-43.082334,-22.750904],[-43.082333,-22.750994],[-43.082431,-22.750995],[-43.082429,-22.751086],[-43.082527,-22.751087],[-43.082525,-22.751177],[-43.082623,-22.751178],[-43.082621,-22.751268],[-43.082719,-22.75127],[-43.082718,-22.75136],[-43.082815,-22.751361],[-43.082814,-22.751451],[-43.082911,-22.751453],[-43.08291,-22.751543],[-43.083007,-22.751544],[-43.083006,-22.751634],[-43.083103,-22.751635],[-43.083101,-22.751816],[-43.083198,-22.751817],[-43.083195,-22.751998],[-43.083293,-22.751999],[-43.08329,-22.752179],[-43.083388,-22.752181],[-43.083385,-22.752361],[-43.083482,-22.752362],[-43.083477,-22.752724],[-43.083575,-22.752725],[-43.083572,-22.752905],[-43.08367,-22.752906],[-43.083668,-22.752997],[-43.083766,-22.752998],[-43.083763,-22.753178],[-43.08386,-22.75318],[-43.083859,-22.75327],[-43.083957,-22.753271],[-43.083955,-22.753361],[-43.084053,-22.753363],[-43.08405,-22.753543],[-43.084147,-22.753544],[-43.084146,-22.753635],[-43.084244,-22.753636],[-43.084241,-22.753816],[-43.084338,-22.753818],[-43.084337,-22.753908],[-43.084435,-22.753909],[-43.084432,-22.75409],[-43.084529,-22.754091],[-43.084528,-22.754181],[-43.084625,-22.754182],[-43.084624,-22.754272],[-43.084722,-22.754274],[-43.08472,-22.754364],[-43.084818,-22.754365],[-43.084816,-22.754455],[-43.084914,-22.754457],[-43.084912,-22.754547],[-43.08501,-22.754548],[-43.085009,-22.754638],[-43.085106,-22.754639],[-43.085105,-22.75473],[-43.085202,-22.754731],[-43.085201,-22.754821],[-43.085298,-22.754822],[-43.085297,-22.754913],[-43.085394,-22.754914],[-43.085393,-22.755004],[-43.08549,-22.755005],[-43.085489,-22.755096],[-43.085586,-22.755097],[-43.085585,-22.755187],[-43.085682,-22.755188],[-43.085681,-22.755278],[-43.085876,-22.755281],[-43.085875,-22.755371],[-43.085972,-22.755372],[-43.085971,-22.755463],[-43.086068,-22.755464],[-43.086067,-22.755554],[-43.086164,-22.755555],[-43.086163,-22.755645],[-43.08626,-22.755647],[-43.086259,-22.755737],[-43.086356,-22.755738],[-43.086354,-22.755919],[-43.086159,-22.755916],[-43.086162,-22.755736],[-43.085967,-22.755733],[-43.085968,-22.755643],[-43.085871,-22.755642],[-43.085872,-22.755552],[-43.085775,-22.75555],[-43.085776,-22.75546],[-43.085581,-22.755458],[-43.085583,-22.755368],[-43.085485,-22.755366],[-43.085486,-22.755276],[-43.085389,-22.755275],[-43.08539,-22.755185],[-43.085293,-22.755183],[-43.085294,-22.755093],[-43.085197,-22.755092],[-43.085198,-22.755002],[-43.085003,-22.754999],[-43.085006,-22.754819],[-43.084909,-22.754818],[-43.08491,-22.754727],[-43.084813,-22.754726],[-43.084814,-22.754636],[-43.084716,-22.754635],[-43.084718,-22.754544],[-43.08462,-22.754543],[-43.084622,-22.754453],[-43.084524,-22.754452],[-43.084526,-22.754362],[-43.084428,-22.75436],[-43.084429,-22.75427],[-43.084332,-22.754269],[-43.084333,-22.754179],[-43.084236,-22.754177],[-43.084237,-22.754087],[-43.08414,-22.754086],[-43.084142,-22.753905],[-43.084045,-22.753904],[-43.084048,-22.753724],[-43.08395,-22.753723],[-43.083952,-22.753632],[-43.083854,-22.753631],[-43.083855,-22.753541],[-43.083758,-22.75354],[-43.083761,-22.753359],[-43.083663,-22.753358],[-43.083665,-22.753268],[-43.083567,-22.753266],[-43.08357,-22.753086],[-43.083472,-22.753085],[-43.083477,-22.752724],[-43.08338,-22.752722],[-43.083381,-22.752632],[-43.083284,-22.752631],[-43.083288,-22.75236],[-43.08319,-22.752359],[-43.083192,-22.752269],[-43.083094,-22.752267],[-43.083097,-22.752087],[-43.082999,-22.752086],[-43.083002,-22.751905],[-43.082905,-22.751904],[-43.082907,-22.751723],[-43.08281,-22.751722],[-43.082811,-22.751632],[-43.082714,-22.751631],[-43.082715,-22.75154],[-43.082618,-22.751539],[-43.082619,-22.751449],[-43.082522,-22.751448],[-43.082523,-22.751358],[-43.082425,-22.751356],[-43.082427,-22.751266],[-43.082329,-22.751265],[-43.082331,-22.751175],[-43.082136,-22.751172],[-43.082137,-22.751082],[-43.08204,-22.751081],[-43.082041,-22.750991],[-43.081944,-22.750989],[-43.081945,-22.750899],[-43.08175,-22.750897],[-43.081752,-22.750806],[-43.081557,-22.750804],[-43.081558,-22.750714],[-43.081364,-22.750712],[-43.081365,-22.750621],[-43.08117,-22.750619],[-43.081171,-22.750529],[-43.081074,-22.750527],[-43.081075,-22.750437],[-43.080978,-22.750436],[-43.08098,-22.750255],[-43.080883,-22.750254],[-43.080886,-22.750074],[-43.080983,-22.750075]]]},"properties":{"id":"guanabara_2025-06-26_mdd_11","region":"guanabara","date":"2025-06-26","area_m2":17800.0,"mean_prob":0.5457,"max_prob":0.6039,"model":"mdd","n_px":178,"px_area_m2":100.0,"confirmed":false,"confirmed_by":null,"lon":-43.083714,"lat":-22.753041}},{"type":"Feature","geometry":{"type":"Polygon","coordinates":[[[-43.054681,-22.751111],[-43.05468,-22.751201],[-43.054874,-22.751204],[-43.054873,-22.751294],[-43.05497,-22.751295],[-43.054969,-22.751386],[-43.055164,-22.751388],[-43.055162,-22.751478],[-43.05526,-22.751479],[-43.055258,-22.75157],[-43.055356,-22.751571],[-43.055355,-22.751661],[-43.055452,-22.751662],[-43.055451,-22.751753],[-43.055548,-22.751754],[-43.055547,-22.751844],[-43.055644,-22.751845],[-43.055643,-22.751936],[-43.05574,-22.751937],[-43.055739,-22.752027],[-43.055836,-22.752028],[-43.055834,-22.752209],[-43.055736,-22.752208],[-43.055738,-22.752117],[-43.05564,-22.752116],[-43.055641,-22.752026],[-43.055544,-22.752025],[-43.055545,-22.751934],[-43.055351,-22.751932],[-43.055352,-22.751842],[-43.055255,-22.75184],[-43.055256,-22.75175],[-43.055159,-22.751749],[-43.05516,-22.751659],[-43.054965,-22.751656],[-43.054966,-22.751566],[-43.054869,-22.751565],[-43.05487,-22.751475],[-43.054773,-22.751473],[-43.054774,-22.751383],[-43.054677,-22.751382],[-43.054678,-22.751292],[-43.054484,-22.751289],[-43.054485,-22.751199],[-43.054387,-22.751198],[-43.054389,-22.751108],[-43.054681,-22.751111]]]},"properties":{"id":"guanabara_2025-06-26_mdd_12","region":"guanabara","date":"2025-06-26","area_m2":3600.0,"mean_prob":0.5245,"max_prob":0.5569,"model":"mdd","n_px":36,"px_area_m2":100.0,"confirmed":false,"confirmed_by":null,"lon":-43.055131,"lat":-22.751588}},{"type":"Feature","geometry":{"type":"Polygon","coordinates":[[[-43.089334,-22.758663],[-43.089333,-22.758754],[-43.089235,-22.758752],[-43.089234,-22.758843],[-43.089137,-22.758842],[-43.089139,-22.758661],[-43.089334,-22.758663]]]},"properties":{"id":"guanabara_2025-06-26_mdd_13","region":"guanabara","date":"2025-06-26","area_m2":300.0,"mean_prob":0.5072,"max_prob":0.5098,"model":"mdd","n_px":3,"px_area_m2":100.0,"confirmed":false,"confirmed_by":null,"lon":-43.089219,"lat":-22.758737}},{"type":"Feature","geometry":{"type":"Polygon","coordinates":[[[-43.089129,-22.759383],[-43.089127,-22.759564],[-43.089029,-22.759563],[-43.089031,-22.759472],[-43.088933,-22.759471],[-43.088934,-22.759381],[-43.089129,-22.759383]]]},"properties":{"id":"guanabara_2025-06-26_mdd_14","region":"guanabara","date":"2025-06-26","area_m2":300.0,"mean_prob":0.5072,"max_prob":0.5137,"model":"mdd","n_px":3,"px_area_m2":100.0,"confirmed":false,"confirmed_by":null,"lon":-43.089047,"lat":-22.759458}},{"type":"Feature","geometry":{"type":"Polygon","coordinates":[[[-43.262737,-22.790627],[-43.262736,-22.790717],[-43.262834,-22.790718],[-43.262832,-22.790808],[-43.263027,-22.790811],[-43.263026,-22.790901],[-43.263123,-22.790902],[-43.263122,-22.790992],[-43.263609,-22.790998],[-43.26361,-22.790907],[-43.263805,-22.790909],[-43.263806,-22.790819],[-43.264001,-22.790821],[-43.264002,-22.790731],[-43.264197,-22.790733],[-43.264193,-22.791004],[-43.264096,-22.791003],[-43.264094,-22.791183],[-43.263996,-22.791182],[-43.263995,-22.791273],[-43.263898,-22.791272],[-43.263897,-22.791362],[-43.263702,-22.79136],[-43.263701,-22.79145],[-43.263603,-22.791449],[-43.263602,-22.791539],[-43.263505,-22.791538],[-43.263504,-22.791629],[-43.263406,-22.791627],[-43.263404,-22.791808],[-43.263307,-22.791807],[-43.263306,-22.791897],[-43.263208,-22.791896],[-43.263207,-22.791987],[-43.26311,-22.791985],[-43.263109,-22.792076],[-43.263011,-22.792075],[-43.263009,-22.792255],[-43.262911,-22.792254],[-43.26291,-22.792345],[-43.262813,-22.792343],[-43.262812,-22.792434],[-43.262714,-22.792433],[-43.262713,-22.792523],[-43.262616,-22.792522],[-43.262615,-22.792612],[-43.262517,-22.792611],[-43.262516,-22.792701],[-43.262127,-22.792697],[-43.262132,-22.792246],[-43.262035,-22.792245],[-43.262036,-22.792154],[-43.261939,-22.792153],[-43.261942,-22.791882],[-43.261845,-22.791881],[-43.261856,-22.790978],[-43.261954,-22.790979],[-43.261955,-22.790889],[-43.262052,-22.79089],[-43.262054,-22.79071],[-43.262249,-22.790712],[-43.26225,-22.790621],[-43.262737,-22.790627]]]},"properties":{"id":"guanabara_2025-06-26_mdd_15","region":"guanabara","date":"2025-06-26","area_m2":31300.0,"mean_prob":0.5772,"max_prob":0.6471,"model":"mdd","n_px":313,"px_area_m2":100.0,"confirmed":false,"confirmed_by":null,"lon":-43.262736,"lat":-22.791515}},{"type":"Feature","geometry":{"type":"Polygon","coordinates":[[[-43.124107,-22.836014],[-43.124105,-22.836194],[-43.124007,-22.836193],[-43.12401,-22.836012],[-43.124107,-22.836014]]]},"properties":{"id":"guanabara_2025-06-26_mdd_16","region":"guanabara","date":"2025-06-26","area_m2":200.0,"mean_prob":0.5196,"max_prob":0.5255,"model":"mdd","n_px":2,"px_area_m2":100.0,"artifact":"ship","confirmed":false,"confirmed_by":null,"lon":-43.124057,"lat":-22.836103}},{"type":"Feature","geometry":{"type":"Polygon","coordinates":[[[-43.124198,-22.836466],[-43.124195,-22.836737],[-43.124,-22.836735],[-43.124004,-22.836464],[-43.124198,-22.836466]]]},"properties":{"id":"guanabara_2025-06-26_mdd_17","region":"guanabara","date":"2025-06-26","area_m2":600.0,"mean_prob":0.5418,"max_prob":0.5765,"model":"mdd","n_px":6,"px_area_m2":100.0,"artifact":"ship","confirmed":false,"confirmed_by":null,"lon":-43.124099,"lat":-22.836601}},{"type":"Feature","geometry":{"type":"Polygon","coordinates":[[[-43.140039,-22.839361],[-43.140038,-22.839451],[-43.140136,-22.839453],[-43.140131,-22.839814],[-43.140033,-22.839813],[-43.140036,-22.839632],[-43.139938,-22.839631],[-43.139942,-22.83936],[-43.140039,-22.839361]]]},"properties":{"id":"guanabara_2025-06-26_mdd_18","region":"guanabara","date":"2025-06-26","area_m2":700.0,"mean_prob":0.5244,"max_prob":0.5569,"model":"mdd","n_px":7,"px_area_m2":100.0,"artifact":"ship","confirmed":false,"confirmed_by":null,"lon":-43.140043,"lat":-22.839574}},{"type":"Feature","geometry":{"type":"Polygon","coordinates":[[[-43.140227,-22.839905],[-43.140224,-22.840086],[-43.140127,-22.840085],[-43.140129,-22.839904],[-43.140227,-22.839905]]]},"properties":{"id":"guanabara_2025-06-26_mdd_19","region":"guanabara","date":"2025-06-26","area_m2":200.0,"mean_prob":0.5098,"max_prob":0.5176,"model":"mdd","n_px":2,"px_area_m2":100.0,"artifact":"ship","confirmed":false,"confirmed_by":null,"lon":-43.140177,"lat":-22.839995}},{"type":"Feature","geometry":{"type":"Polygon","coordinates":[[[-43.129397,-22.841043],[-43.129394,-22.841223],[-43.129492,-22.841224],[-43.129488,-22.841495],[-43.129585,-22.841496],[-43.129583,-22.841677],[-43.129486,-22.841676],[-43.129487,-22.841585],[-43.129389,-22.841584],[-43.129391,-22.841494],[-43.129293,-22.841493],[-43.129296,-22.841312],[-43.129198,-22.841311],[-43.129202,-22.84104],[-43.129397,-22.841043]]]},"properties":{"id":"guanabara_2025-06-26_mdd_20","region":"guanabara","date":"2025-06-26","area_m2":1400.0,"mean_prob":0.5563,"max_prob":0.6078,"model":"mdd","n_px":14,"px_area_m2":100.0,"artifact":"ship","confirmed":false,"confirmed_by":null,"lon":-43.129379,"lat":-22.841333}},{"type":"Feature","geometry":{"type":"Polygon","coordinates":[[[-43.136984,-22.841944],[-43.13698,-22.842215],[-43.136883,-22.842214],[-43.136884,-22.842124],[-43.136787,-22.842122],[-43.136789,-22.841942],[-43.136984,-22.841944]]]},"properties":{"id":"guanabara_2025-06-26_mdd_21","region":"guanabara","date":"2025-06-26","area_m2":500.0,"mean_prob":0.5286,"max_prob":0.549,"model":"mdd","n_px":5,"px_area_m2":100.0,"artifact":"ship","confirmed":false,"confirmed_by":null,"lon":-43.136895,"lat":-22.842061}},{"type":"Feature","geometry":{"type":"Polygon","coordinates":[[[-43.135774,-22.84491],[-43.135772,-22.845091],[-43.135674,-22.845089],[-43.135677,-22.844909],[-43.135774,-22.84491]]]},"properties":{"id":"guanabara_2025-06-26_mdd_22","region":"guanabara","date":"2025-06-26","area_m2":200.0,"mean_prob":0.5039,"max_prob":0.5059,"model":"mdd","n_px":2,"px_area_m2":100.0,"artifact":"ship","confirmed":false,"confirmed_by":null,"lon":-43.135724,"lat":-22.845}},{"type":"Feature","geometry":{"type":"Polygon","coordinates":[[[-43.132267,-22.844869],[-43.132265,-22.845049],[-43.132362,-22.845051],[-43.132359,-22.845321],[-43.132261,-22.84532],[-43.132265,-22.845049],[-43.132167,-22.845048],[-43.13217,-22.844868],[-43.132267,-22.844869]]]},"properties":{"id":"guanabara_2025-06-26_mdd_23","region":"guanabara","date":"2025-06-26","area_m2":500.0,"mean_prob":0.5122,"max_prob":0.5294,"model":"mdd","n_px":5,"px_area_m2":100.0,"artifact":"ship","confirmed":false,"confirmed_by":null,"lon":-43.132274,"lat":-22.845095}},{"type":"Feature","geometry":{"type":"Polygon","coordinates":[[[-43.140538,-22.845688],[-43.140535,-22.845869],[-43.140633,-22.84587],[-43.140629,-22.846141],[-43.140727,-22.846142],[-43.140724,-22.846322],[-43.140529,-22.84632],[-43.140532,-22.84614],[-43.140434,-22.846138],[-43.14044,-22.845687],[-43.140538,-22.845688]]]},"properties":{"id":"guanabara_2025-06-26_mdd_24","region":"guanabara","date":"2025-06-26","area_m2":1200.0,"mean_prob":0.531,"max_prob":0.5529,"model":"mdd","n_px":12,"px_area_m2":100.0,"artifact":"ship","confirmed":false,"confirmed_by":null,"lon":-43.140557,"lat":-22.846042}},{"type":"Feature","geometry":{"type":"Polygon","coordinates":[[[-43.145104,-22.846644],[-43.145101,-22.846915],[-43.145003,-22.846914],[-43.145006,-22.846734],[-43.144908,-22.846732],[-43.144909,-22.846642],[-43.145104,-22.846644]]]},"properties":{"id":"guanabara_2025-06-26_mdd_25","region":"guanabara","date":"2025-06-26","area_m2":400.0,"mean_prob":0.5137,"max_prob":0.5373,"model":"mdd","n_px":4,"px_area_m2":100.0,"artifact":"ship","confirmed":false,"confirmed_by":null,"lon":-43.14503,"lat":-22.846756}},{"type":"Feature","geometry":{"type":"Polygon","coordinates":[[[-43.142362,-22.847696],[-43.142356,-22.848148],[-43.142258,-22.848146],[-43.142259,-22.848056],[-43.142162,-22.848055],[-43.142167,-22.847694],[-43.142362,-22.847696]]]},"properties":{"id":"guanabara_2025-06-26_mdd_26","region":"guanabara","date":"2025-06-26","area_m2":900.0,"mean_prob":0.5503,"max_prob":0.5922,"model":"mdd","n_px":9,"px_area_m2":100.0,"artifact":"ship","confirmed":false,"confirmed_by":null,"lon":-43.142267,"lat":-22.847901}},{"type":"Feature","geometry":{"type":"Polygon","coordinates":[[[-43.138327,-22.850629],[-43.138325,-22.85081],[-43.138227,-22.850808],[-43.13823,-22.850628],[-43.138327,-22.850629]]]},"properties":{"id":"guanabara_2025-06-26_mdd_27","region":"guanabara","date":"2025-06-26","area_m2":200.0,"mean_prob":0.5039,"max_prob":0.5059,"model":"mdd","n_px":2,"px_area_m2":100.0,"artifact":"ship","confirmed":false,"confirmed_by":null,"lon":-43.138277,"lat":-22.850719}},{"type":"Feature","geometry":{"type":"Polygon","coordinates":[[[-43.203144,-22.886051],[-43.203143,-22.886141],[-43.20285,-22.886138],[-43.202851,-22.886048],[-43.203144,-22.886051]]]},"properties":{"id":"guanabara_2025-06-26_mdd_28","region":"guanabara","date":"2025-06-26","area_m2":300.0,"mean_prob":0.5268,"max_prob":0.5412,"model":"mdd","n_px":3,"px_area_m2":100.0,"artifact":"seam","confirmed":true,"confirmed_by":"lgbm","lon":-43.202997,"lat":-22.886095}},{"type":"Feature","geometry":{"type":"Polygon","coordinates":[[[-43.108024,-22.920977],[-43.108023,-22.921068],[-43.107925,-22.921067],[-43.107924,-22.921157],[-43.107827,-22.921156],[-43.107825,-22.921246],[-43.107728,-22.921245],[-43.107727,-22.921335],[-43.107629,-22.921334],[-43.10763,-22.921244],[-43.107728,-22.921245],[-43.107729,-22.921155],[-43.107827,-22.921156],[-43.107828,-22.921065],[-43.107925,-22.921067],[-43.107927,-22.920976],[-43.108024,-22.920977]]]},"properties":{"id":"guanabara_2025-06-26_mdd_29","region":"guanabara","date":"2025-06-26","area_m2":400.0,"mean_prob":0.5078,"max_prob":0.5176,"model":"mdd","n_px":4,"px_area_m2":100.0,"confirmed":false,"confirmed_by":null,"lon":-43.107827,"lat":-22.921156}},{"type":"Feature","geometry":{"type":"Polygon","coordinates":[[[-43.106838,-22.922137],[-43.106837,-22.922227],[-43.106739,-22.922226],[-43.106737,-22.922407],[-43.106639,-22.922406],[-43.106638,-22.922496],[-43.106541,-22.922495],[-43.106539,-22.922585],[-43.106442,-22.922584],[-43.106441,-22.922674],[-43.106343,-22.922673],[-43.106342,-22.922763],[-43.106245,-22.922762],[-43.106243,-22.922853],[-43.106146,-22.922851],[-43.106145,-22.922942],[-43.106047,-22.92294],[-43.106046,-22.923031],[-43.105948,-22.92303],[-43.105947,-22.92312],[-43.10585,-22.923119],[-43.105848,-22.923209],[-43.105751,-22.923208],[-43.10575,-22.923298],[-43.105652,-22.923297],[-43.105651,-22.923387],[-43.105553,-22.923386],[-43.105552,-22.923476],[-43.105455,-22.923475],[-43.105453,-22.923565],[-43.105356,-22.923564],[-43.105355,-22.923655],[-43.105257,-22.923653],[-43.105256,-22.923744],[-43.105159,-22.923743],[-43.105156,-22.923923],[-43.105059,-22.923922],[-43.105057,-22.924012],[-43.10496,-22.924011],[-43.104959,-22.924101],[-43.104861,-22.9241],[-43.10486,-22.924191],[-43.104762,-22.924189],[-43.104761,-22.92428],[-43.104664,-22.924278],[-43.104662,-22.924369],[-43.104565,-22.924368],[-43.104564,-22.924458],[-43.104466,-22.924457],[-43.104465,-22.924547],[-43.104367,-22.924546],[-43.104366,-22.924636],[-43.104269,-22.924635],[-43.104268,-22.924725],[-43.10417,-22.924724],[-43.104169,-22.924814],[-43.104071,-22.924813],[-43.10407,-22.924903],[-43.103875,-22.924901],[-43.103874,-22.924991],[-43.103776,-22.92499],[-43.103775,-22.925081],[-43.103678,-22.925079],[-43.103676,-22.92517],[-43.103579,-22.925169],[-43.103578,-22.925259],[-43.10348,-22.925258],[-43.103479,-22.925348],[-43.103381,-22.925347],[-43.103379,-22.925527],[-43.103281,-22.925526],[-43.103279,-22.925707],[-43.103181,-22.925706],[-43.10318,-22.925796],[-43.103083,-22.925795],[-43.103082,-22.925885],[-43.102984,-22.925884],[-43.102983,-22.925974],[-43.102885,-22.925973],[-43.102884,-22.926063],[-43.102787,-22.926062],[-43.102785,-22.926152],[-43.102688,-22.926151],[-43.102685,-22.926332],[-43.102588,-22.926331],[-43.102587,-22.926421],[-43.102489,-22.92642],[-43.102488,-22.92651],[-43.10239,-22.926509],[-43.102389,-22.926599],[-43.102292,-22.926598],[-43.102289,-22.926779],[-43.102192,-22.926777],[-43.10219,-22.926868],[-43.102093,-22.926866],[-43.102092,-22.926957],[-43.101897,-22.926954],[-43.101895,-22.927045],[-43.101798,-22.927044],[-43.101797,-22.927134],[-43.101699,-22.927133],[-43.101698,-22.927223],[-43.101503,-22.927221],[-43.101506,-22.92704],[-43.101603,-22.927041],[-43.101604,-22.926951],[-43.101702,-22.926952],[-43.101703,-22.926862],[-43.101801,-22.926863],[-43.101802,-22.926773],[-43.101899,-22.926774],[-43.101901,-22.926684],[-43.101998,-22.926685],[-43.101999,-22.926594],[-43.102097,-22.926596],[-43.102098,-22.926505],[-43.102195,-22.926506],[-43.102197,-22.926416],[-43.102294,-22.926417],[-43.102295,-22.926327],[-43.102393,-22.926328],[-43.102394,-22.926238],[-43.102492,-22.926239],[-43.102494,-22.926059],[-43.102592,-22.92606],[-43.102593,-22.925969],[-43.10269,-22.925971],[-43.102692,-22.92588],[-43.102789,-22.925881],[-43.10279,-22.925791],[-43.102888,-22.925792],[-43.102889,-22.925702],[-43.102987,-22.925703],[-43.102988,-22.925613],[-43.103085,-22.925614],[-43.103087,-22.925524],[-43.103184,-22.925525],[-43.103187,-22.925344],[-43.103284,-22.925346],[-43.103285,-22.925255],[-43.103383,-22.925256],[-43.103385,-22.925076],[-43.103483,-22.925077],[-43.103484,-22.924987],[-43.103581,-22.924988],[-43.103583,-22.924898],[-43.10368,-22.924899],[-43.103681,-22.924809],[-43.103779,-22.92481],[-43.10378,-22.924719],[-43.103878,-22.924721],[-43.103879,-22.92463],[-43.104074,-22.924633],[-43.104075,-22.924542],[-43.104173,-22.924544],[-43.104174,-22.924453],[-43.104271,-22.924454],[-43.104273,-22.924364],[-43.10437,-22.924365],[-43.104371,-22.924275],[-43.104469,-22.924276],[-43.10447,-22.924186],[-43.104567,-22.924187],[-43.104569,-22.924097],[-43.104666,-22.924098],[-43.104667,-22.924008],[-43.104765,-22.924009],[-43.104766,-22.923918],[-43.104864,-22.92392],[-43.104865,-22.923829],[-43.104962,-22.923831],[-43.104965,-22.92365],[-43.105062,-22.923651],[-43.105064,-22.923561],[-43.105161,-22.923562],[-43.105162,-22.923472],[-43.10526,-22.923473],[-43.105261,-22.923383],[-43.105359,-22.923384],[-43.10536,-22.923293],[-43.105457,-22.923295],[-43.105459,-22.923204],[-43.105556,-22.923206],[-43.105557,-22.923115],[-43.105655,-22.923116],[-43.105656,-22.923026],[-43.105753,-22.923027],[-43.105755,-22.922937],[-43.105852,-22.922938],[-43.105855,-22.922758],[-43.10605,-22.92276],[-43.106051,-22.92267],[-43.106148,-22.922671],[-43.10615,-22.92258],[-43.106247,-22.922582],[-43.106248,-22.922491],[-43.106346,-22.922493],[-43.106347,-22.922402],[-43.106445,-22.922403],[-43.106446,-22.922313],[-43.106543,-22.922314],[-43.106544,-22.922224],[-43.106642,-22.922225],[-43.106643,-22.922135],[-43.106838,-22.922137]]]},"properties":{"id":"guanabara_2025-06-26_mdd_30","region":"guanabara","date":"2025-06-26","area_m2":16800.0,"mean_prob":0.5457,"max_prob":0.5922,"model":"mdd","n_px":168,"px_area_m2":100.0,"confirmed":false,"confirmed_by":null,"lon":-43.104116,"lat":-22.924697}}]}