{"type": "FeatureCollection", "features": [{"type": "Feature", "id": "SZ-live-santo_domingo-2019-01-21-000", "geometry": {"type": "Polygon", "coordinates": [[[-69.700716, 18.286338], [-69.700716, 18.513476], [-69.939213, 18.513476], [-69.939213, 18.286338], [-69.700716, 18.286338]]]}, "properties": {"kind": "detection_zone", "layer_kind": "scene_zone", "zone_id": "SZ-live-santo_domingo-2019-01-21-000", "scene_key": "live-santo_domingo-2019-01-21", "scene_kind": "live", "scene_id": "S2A_19QDA_20190121_0_L2A", "region": "santo_domingo", "title": "Санто-Доминго (устье Осамы) · вся вырезка", "mission": "Sentinel-2", "datetime": "2019-01-21T15:17:50.451000Z", "detection_status": "not_detected", "status": "not_detected", "concentration_status": "unavailable", "flags": [], "n_cozar_filaments": 0, "measured": {"zone_area_km2": 633.56, "suspicious_area_m2": 500, "n_pixels": 5, "n_objects": 2, "water_km2": 475.192, "lwd_m2_km2": 1.05, "quality": {"valid_water_fraction": 0.757, "cloud_fraction": 0.049, "glint_fraction": 0.0}, "model": {"weights": "weights/lgbm", "file": "weights/lgbm/model.txt", "sha256": "0eeebf43fcccd8c7c07f053b7ec723229d1a3c9b92d12eec1bdb269258c51470", "sha256_short": "0eeebf43fccc", "trained_at": "2026-09-25T01:35:55Z", "threshold": 0.63, "harmonize": "none", "class": "MARIDA Marine Debris (любой плавающий мусор, не только пластик)"}}, "probable": {"prob_max": 0.976, "prob_mean": null, "signs": null, "n_cozar_filaments": 0}, "field_nearby": {"items": [{"source": "ADIS (4TU.ResearchData, судовая камера)", "segment_id": 416611, "ship": "RV Pelagia", "date": "2023-12-17", "days_from_scene": 1791, "distance_km": 749.4, "lon": -69.62766, "lat": 25.17519, "n_items": 0, "area_km2": 0.4738, "size_class": "> 5 см", "c_items_km2": 0.0, "ci95_lo": 0.0, "ci95_hi": 7.79, "ci95_method": "точный интервал Пуассона для N, делённый на A"}, {"source": "ADIS (4TU.ResearchData, судовая камера)", "segment_id": 416610, "ship": "RV Pelagia", "date": "2023-12-17", "days_from_scene": 1791, "distance_km": 749.7, "lon": -69.55526, "lat": 25.17532, "n_items": 0, "area_km2": 1.015, "size_class": "> 5 см", "c_items_km2": 0.0, "ci95_lo": 0.0, "ci95_hi": 3.63, "ci95_method": "точный интервал Пуассона для N, делённый на A"}, {"source": "ADIS (4TU.ResearchData, судовая камера)", "segment_id": 416609, "ship": "RV Pelagia", "date": "2023-12-17", "days_from_scene": 1791, "distance_km": 751.5, "lon": -69.45806, "lat": 25.18796, "n_items": 0, "area_km2": 1.0152, "size_class": "> 5 см", "c_items_km2": 0.0, "ci95_lo": 0.0, "ci95_hi": 3.63, "ci95_method": "точный интервал Пуассона для N, делённый на A"}], "nearest_organizer_sample": {"sample_id": "MPL-0239", "source_id": "S2_SARGASSO_MSM41", "distance_km": 644.4}, "note": "Измерение ≠ оценка: это независимые полевые счёты C = N/A в другое время и в другом месте; со сценой они не связаны и не калибруют её. Ближайший отрезок ADIS — за 749 км: только для порядка величин."}}}]}