{"type": "FeatureCollection", "features": [{"type": "Feature", "id": "SZ-fresh-honduras-2026-08-23-001", "geometry": {"type": "Polygon", "coordinates": [[[-88.130034, 15.766938], [-88.130873, 15.766662], [-88.131336, 15.766027], [-88.131334, 15.765666], [-88.132175, 15.765932], [-88.132735, 15.765839], [-88.133386, 15.765384], [-88.133477, 15.765022], [-88.13441, 15.765017], [-88.134968, 15.764562], [-88.13562, 15.764378], [-88.136083, 15.763743], [-88.136174, 15.7632], [-88.137015, 15.763467], [-88.137575, 15.763373], [-88.138225, 15.762827], [-88.139251, 15.762641], [-88.139714, 15.762006], [-88.139712, 15.761645], [-88.140366, 15.761822], [-88.141205, 15.761546], [-88.141575, 15.761002], [-88.142692, 15.760454], [-88.142968, 15.759639], [-88.142683, 15.758737], [-88.14156, 15.7582], [-88.140534, 15.758477], [-88.13914, 15.759569], [-88.138958, 15.760293], [-88.137837, 15.760208], [-88.137187, 15.760754], [-88.136161, 15.76094], [-88.135698, 15.761575], [-88.135608, 15.762118], [-88.134766, 15.761851], [-88.134113, 15.761945], [-88.132997, 15.762584], [-88.132627, 15.763218], [-88.13216, 15.76313], [-88.131321, 15.763406], [-88.130858, 15.764041], [-88.13086, 15.764402], [-88.130018, 15.764136], [-88.129087, 15.764412], [-88.128623, 15.765047], [-88.128629, 15.766041], [-88.129099, 15.766671], [-88.130034, 15.766938]], [[-88.136173, 15.763109], [-88.13608, 15.7632], [-88.13608, 15.76311], [-88.136173, 15.763109]], [[-88.135701, 15.762118], [-88.135608, 15.762208], [-88.135608, 15.762118], [-88.135701, 15.762118]]]}, "properties": {"kind": "detection_zone", "layer_kind": "scene_zone", "zone_id": "SZ-fresh-honduras-2026-08-23-001", "scene_key": "fresh-honduras-2026-08-23", "scene_kind": "fresh_s2", "scene_id": "S2C_MSIL2A_20260823T160821_R140_T16PCC_20260823T205803", "region": "honduras", "title": "Гондурасский залив (Омоа – Пуэрто-Кортес – устье Мотагуа) · зона 1", "mission": "Sentinel-2", "datetime": "2026-08-23T16:08:21.025000Z", "detection_status": "insufficient_data", "status": "insufficient_data", "concentration_status": "unavailable", "quantity": {"status": "not_confirmed", "label": "концентрация по снимку не подтверждена", "detail": "перевод площади в штуки не показываем: нет калибровочных пар (см. docs/QUANTITY.md)"}, "verification": "false_alarm_signs", "training_scene": null, "flags": ["shallow", "glint", "foam"], "n_cozar_filaments": 0, "crop_file": "crops/SZ-fresh-honduras-2026-08-23-001.jpg", "wind_high": false, "measured": {"zone_area_km2": 0.4485, "suspicious_area_m2": 1000, "n_pixels": 10, "n_objects": 9, "water_km2": 0.4494, "lwd_m2_km2": 2225.2, "lwd_note": null, "quality": {"valid_water_fraction": 1.0, "cloud_fraction": 0.0, "glint_fraction": 0.0}, "model": {"weights": "weights/lgbm", "file": "weights/lgbm/model.txt", "sha256": "0eeebf43fcccd8c7c07f053b7ec723229d1a3c9b92d12eec1bdb269258c51470", "sha256_short": "0eeebf43fccc", "trained_at": "2026-09-25T01:36:30Z", "threshold": 0.63, "harmonize": "none", "class": "MARIDA Marine Debris (любой плавающий мусор, не только пластик)"}}, "probable": {"prob_max": 0.973, "prob_mean": 0.811, "signs": {"foam": {"flag": true, "white_ratio_b2_b8": 0.967, "wind10m_ms": 0.97, "rule": "прирост B2 над водой ≥ 0.8 прироста B8 («белый» спектр) или ветер ≥ 7.0 м/с"}, "glint": {"flag": true, "b11_water_median": 0.0211, "glint_share": 0.0, "rule": "медиана B11 воды зоны > 0.01 или ≥ 20 % пикселей зоны — блик (маска качества)"}, "ship": {"flag": false, "share": 0, "bright_target_px_within_500m": 0, "rule": "≥ 30 % пикселей — у яркой цели или кильватера (reports/artifacts.md) или яркая цель с откликом в SWIR (судно, лодка: B11 ≥ 0,015) ближе 500 м, или малый яркий объект (≤ 40 пикс.) с B11 ≥ 0,01 ближе 500 м (лодка с кильватером)"}, "coast": {"flag": false, "land_px_within_300m": 0, "rule": "суша (маска качества) ближе 300 м — прибой, кромка берега"}, "shallow": {"flag": true, "b3_water_zone": 0.041, "b3_ratio_to_scene_water": 1.06, "rule": "медиана B3 воды зоны ≥ 2× медианы воды снимка и ≥ 0,03, или B4 воды зоны ≥ 0,02 и (≥ 2× воды снимка или B8 ≥ 0,013) — мелководье, яркое дно, илистая банка"}, "seam": {"flag": false, "share": 0, "rule": "≥ 30 % пикселей — прямая линия вдоль трека/границы яркости (шов)"}, "cloud": {"flag": false, "cloud_fraction": 0.0, "rule": "облака или тени облаков (маска качества) ≥ 20 % зоны"}, "diag": {"dist_land_m": null, "dist_bright_m": null, "n_bright_px_500m": 0, "b11_bright_max_500m": null, "b4_water_zone": 0.0318, "b8_water_zone": 0.0259, "b11_det_median": 0.0238, "b8_det_median": 0.0454, "water_scene_b3": 0.0386, "water_scene_b4": 0.0304, "n_det_px": 10, "n_obj": 9}, "note": "эвристики, не классификатор; на размеченных данных не проверены"}, "n_cozar_filaments": 0}, "field_nearby": {"items": [{"source": "ADIS (4TU.ResearchData, судовая камера)", "segment_id": 416634, "ship": "RV Pelagia", "date": "2023-12-19", "days_from_scene": -978, "distance_km": 1740.6, "lon": -75.79339, "lat": 25.94314, "n_items": 0, "area_km2": 0.9676, "size_class": "> 5 см", "c_items_km2": 0.0, "ci95_lo": 0.0, "ci95_hi": 3.81, "ci95_method": "точный интервал Пуассона для N, делённый на A", "raw_10cm_items_km2": 0.0, "authors_cal_10cm_items_km2": 0.0, "authors_cal_10cm_lo95": null, "authors_cal_10cm_hi95": null}, {"source": "ADIS (4TU.ResearchData, судовая камера)", "segment_id": 405468, "ship": "RV Pelagia", "date": "2023-12-19", "days_from_scene": -978, "distance_km": 1740.7, "lon": -75.79193, "lat": 25.94347, "n_items": 0, "area_km2": 0.72, "size_class": "> 5 см", "c_items_km2": 0.0, "ci95_lo": 0.0, "ci95_hi": 5.12, "ci95_method": "точный интервал Пуассона для N, делённый на A", "raw_10cm_items_km2": 0.0, "authors_cal_10cm_items_km2": 0.0, "authors_cal_10cm_lo95": null, "authors_cal_10cm_hi95": null}, {"source": "ADIS (4TU.ResearchData, судовая камера)", "segment_id": 416633, "ship": "RV Pelagia", "date": "2023-12-19", "days_from_scene": -978, "distance_km": 1750.1, "lon": -75.70128, "lat": 25.97146, "n_items": 0, "area_km2": 1.015, "size_class": "> 5 см", "c_items_km2": 0.0, "ci95_lo": 0.0, "ci95_hi": 3.63, "ci95_method": "точный интервал Пуассона для N, делённый на A", "raw_10cm_items_km2": 0.0, "authors_cal_10cm_items_km2": 0.0, "authors_cal_10cm_lo95": null, "authors_cal_10cm_hi95": null}], "nearest_organizer_sample": {"sample_id": "MPL-0239", "source_id": "S2_SARGASSO_MSM41", "distance_km": 2169.8}, "note": "Измерение ≠ оценка: это независимые полевые счёты C = N/A в другое время и в другом месте; со сценой они не связаны и не калибруют её. Ближайший отрезок ADIS — за 1741 км: только для порядка величин."}, "acquired_at": "2026-08-23T16:08:21.025000Z", "acquisition_date": "2026-08-23", "processed_at": "2026-09-26T19:26:22Z", "human_checked": false, "auto_label": "автоматически, не проверено человеком"}}, {"type": "Feature", "id": "SZ-fresh-honduras-2026-08-23-002", "geometry": {"type": "Polygon", "coordinates": [[[-88.218035, 15.732296], [-88.218873, 15.73202], [-88.219244, 15.731657], [-88.219519, 15.730842], [-88.219234, 15.729939], [-88.218578, 15.729491], [-88.217458, 15.729497], [-88.216715, 15.730044], [-88.216058, 15.729415], [-88.21419, 15.729244], [-88.213352, 15.72952], [-88.212889, 15.730156], [-88.212895, 15.73115], [-88.21374, 15.731959], [-88.215607, 15.732129], [-88.216724, 15.73158], [-88.217007, 15.732031], [-88.218035, 15.732296]]]}, "properties": {"kind": "detection_zone", "layer_kind": "scene_zone", "zone_id": "SZ-fresh-honduras-2026-08-23-002", "scene_key": "fresh-honduras-2026-08-23", "scene_kind": "fresh_s2", "scene_id": "S2C_MSIL2A_20260823T160821_R140_T16PCC_20260823T205803", "region": "honduras", "title": "Гондурасский залив (Омоа – Пуэрто-Кортес – устье Мотагуа) · зона 2", "mission": "Sentinel-2", "datetime": "2026-08-23T16:08:21.025000Z", "detection_status": "insufficient_data", "status": "insufficient_data", "concentration_status": "unavailable", "quantity": {"status": "not_confirmed", "label": "концентрация по снимку не подтверждена", "detail": "перевод площади в штуки не показываем: нет калибровочных пар (см. docs/QUANTITY.md)"}, "verification": "false_alarm_signs", "training_scene": null, "flags": ["shallow", "seam", "glint", "foam"], "n_cozar_filaments": 0, "crop_file": "crops/SZ-fresh-honduras-2026-08-23-002.jpg", "wind_high": false, "measured": {"zone_area_km2": 0.1851, "suspicious_area_m2": 900, "n_pixels": 9, "n_objects": 3, "water_km2": 0.1853, "lwd_m2_km2": 4857.0, "lwd_note": null, "quality": {"valid_water_fraction": 1.0, "cloud_fraction": 0.0, "glint_fraction": 0.0}, "model": {"weights": "weights/lgbm", "file": "weights/lgbm/model.txt", "sha256": "0eeebf43fcccd8c7c07f053b7ec723229d1a3c9b92d12eec1bdb269258c51470", "sha256_short": "0eeebf43fccc", "trained_at": "2026-09-25T01:36:30Z", "threshold": 0.63, "harmonize": "none", "class": "MARIDA Marine Debris (любой плавающий мусор, не только пластик)"}}, "probable": {"prob_max": 1.0, "prob_mean": 0.939, "signs": {"foam": {"flag": true, "white_ratio_b2_b8": 0.803, "wind10m_ms": 0.97, "rule": "прирост B2 над водой ≥ 0.8 прироста B8 («белый» спектр) или ветер ≥ 7.0 м/с"}, "glint": {"flag": true, "b11_water_median": 0.0244, "glint_share": 0.0, "rule": "медиана B11 воды зоны > 0.01 или ≥ 20 % пикселей зоны — блик (маска качества)"}, "ship": {"flag": false, "share": 0, "bright_target_px_within_500m": 0, "rule": "≥ 30 % пикселей — у яркой цели или кильватера (reports/artifacts.md) или яркая цель с откликом в SWIR (судно, лодка: B11 ≥ 0,015) ближе 500 м, или малый яркий объект (≤ 40 пикс.) с B11 ≥ 0,01 ближе 500 м (лодка с кильватером)"}, "coast": {"flag": false, "land_px_within_300m": 0, "rule": "суша (маска качества) ближе 300 м — прибой, кромка берега"}, "shallow": {"flag": true, "b3_water_zone": 0.0523, "b3_ratio_to_scene_water": 1.35, "rule": "медиана B3 воды зоны ≥ 2× медианы воды снимка и ≥ 0,03, или B4 воды зоны ≥ 0,02 и (≥ 2× воды снимка или B8 ≥ 0,013) — мелководье, яркое дно, илистая банка"}, "seam": {"flag": true, "share": 0.444, "rule": "≥ 30 % пикселей — прямая линия вдоль трека/границы яркости (шов)"}, "cloud": {"flag": false, "cloud_fraction": 0.0, "rule": "облака или тени облаков (маска качества) ≥ 20 % зоны"}, "diag": {"dist_land_m": 1109, "dist_bright_m": 1185, "n_bright_px_500m": 0, "b11_bright_max_500m": null, "b4_water_zone": 0.0415, "b8_water_zone": 0.0345, "b11_det_median": 0.029, "b8_det_median": 0.0591, "water_scene_b3": 0.0386, "water_scene_b4": 0.0304, "n_det_px": 9, "n_obj": 3}, "note": "эвристики, не классификатор; на размеченных данных не проверены"}, "n_cozar_filaments": 0}, "field_nearby": {"items": [{"source": "ADIS (4TU.ResearchData, судовая камера)", "segment_id": 416634, "ship": "RV Pelagia", "date": "2023-12-19", "days_from_scene": -978, "distance_km": 1740.6, "lon": -75.79339, "lat": 25.94314, "n_items": 0, "area_km2": 0.9676, "size_class": "> 5 см", "c_items_km2": 0.0, "ci95_lo": 0.0, "ci95_hi": 3.81, "ci95_method": "точный интервал Пуассона для N, делённый на A", "raw_10cm_items_km2": 0.0, "authors_cal_10cm_items_km2": 0.0, "authors_cal_10cm_lo95": null, "authors_cal_10cm_hi95": null}, {"source": "ADIS (4TU.ResearchData, судовая камера)", "segment_id": 405468, "ship": "RV Pelagia", "date": "2023-12-19", "days_from_scene": -978, "distance_km": 1740.7, "lon": -75.79193, "lat": 25.94347, "n_items": 0, "area_km2": 0.72, "size_class": "> 5 см", "c_items_km2": 0.0, "ci95_lo": 0.0, "ci95_hi": 5.12, "ci95_method": "точный интервал Пуассона для N, делённый на A", "raw_10cm_items_km2": 0.0, "authors_cal_10cm_items_km2": 0.0, "authors_cal_10cm_lo95": null, "authors_cal_10cm_hi95": null}, {"source": "ADIS (4TU.ResearchData, судовая камера)", "segment_id": 416633, "ship": "RV Pelagia", "date": "2023-12-19", "days_from_scene": -978, "distance_km": 1750.1, "lon": -75.70128, "lat": 25.97146, "n_items": 0, "area_km2": 1.015, "size_class": "> 5 см", "c_items_km2": 0.0, "ci95_lo": 0.0, "ci95_hi": 3.63, "ci95_method": "точный интервал Пуассона для N, делённый на A", "raw_10cm_items_km2": 0.0, "authors_cal_10cm_items_km2": 0.0, "authors_cal_10cm_lo95": null, "authors_cal_10cm_hi95": null}], "nearest_organizer_sample": {"sample_id": "MPL-0239", "source_id": "S2_SARGASSO_MSM41", "distance_km": 2169.8}, "note": "Измерение ≠ оценка: это независимые полевые счёты C = N/A в другое время и в другом месте; со сценой они не связаны и не калибруют её. Ближайший отрезок ADIS — за 1741 км: только для порядка величин."}, "acquired_at": "2026-08-23T16:08:21.025000Z", "acquisition_date": "2026-08-23", "processed_at": "2026-09-26T19:26:22Z", "human_checked": false, "auto_label": "автоматически, не проверено человеком"}}]}