{"type":"FeatureCollection","features":[{"type":"Feature","geometry":{"type":"Polygon","coordinates":[[[-69.911408,18.44932],[-69.911408,18.44923],[-69.911218,18.449231],[-69.911219,18.449321],[-69.911408,18.44932]]]},"properties":{"id":"santo_domingo_2025-10-18_lgbm_0","region":"santo_domingo","date":"2025-10-18","area_m2":200.0,"mean_prob":0.7902,"max_prob":0.8588,"model":"lgbm","n_px":2,"px_area_m2":100.0,"confirmed":false,"confirmed_by":null,"lon":-69.911313,"lat":18.449276}},{"type":"Feature","geometry":{"type":"Polygon","coordinates":[[[-69.900039,18.44829],[-69.900039,18.4482],[-69.899849,18.448201],[-69.89985,18.448291],[-69.900039,18.44829]]]},"properties":{"id":"santo_domingo_2025-10-18_lgbm_1","region":"santo_domingo","date":"2025-10-18","area_m2":200.0,"mean_prob":0.8157,"max_prob":0.8275,"model":"lgbm","n_px":2,"px_area_m2":100.0,"confirmed":false,"confirmed_by":null,"lon":-69.899944,"lat":18.448245}},{"type":"Feature","geometry":{"type":"Polygon","coordinates":[[[-69.889524,18.42909],[-69.889523,18.428909],[-69.889428,18.42891],[-69.889429,18.429091],[-69.889524,18.42909]]]},"properties":{"id":"santo_domingo_2025-10-18_lgbm_2","region":"santo_domingo","date":"2025-10-18","area_m2":200.0,"mean_prob":0.8314,"max_prob":0.8471,"model":"lgbm","n_px":2,"px_area_m2":100.0,"confirmed":false,"confirmed_by":null,"lon":-69.889476,"lat":18.429}},{"type":"Feature","geometry":{"type":"Polygon","coordinates":[[[-69.872658,18.426638],[-69.872657,18.426548],[-69.872468,18.426548],[-69.872468,18.426639],[-69.872658,18.426638]]]},"properties":{"id":"santo_domingo_2025-10-18_lgbm_3","region":"santo_domingo","date":"2025-10-18","area_m2":200.0,"mean_prob":0.849,"max_prob":0.9255,"model":"lgbm","n_px":2,"px_area_m2":100.0,"confirmed":false,"confirmed_by":null,"lon":-69.872563,"lat":18.426593}},{"type":"Feature","geometry":{"type":"Polygon","coordinates":[[[-69.91593,18.409082],[-69.915929,18.408992],[-69.91574,18.408993],[-69.91574,18.409083],[-69.91593,18.409082]]]},"properties":{"id":"santo_domingo_2025-10-18_lgbm_4","region":"santo_domingo","date":"2025-10-18","area_m2":200.0,"mean_prob":0.8686,"max_prob":0.9137,"model":"lgbm","n_px":2,"px_area_m2":100.0,"confirmed":false,"confirmed_by":null,"lon":-69.915835,"lat":18.409038}},{"type":"Feature","geometry":{"type":"Polygon","coordinates":[[[-69.935994,18.4079],[-69.935993,18.407719],[-69.935804,18.40772],[-69.935804,18.407811],[-69.935899,18.40781],[-69.935899,18.407901],[-69.935994,18.4079]]]},"properties":{"id":"santo_domingo_2025-10-18_lgbm_5","region":"santo_domingo","date":"2025-10-18","area_m2":300.0,"mean_prob":0.7386,"max_prob":0.8039,"model":"lgbm","n_px":3,"px_area_m2":100.0,"confirmed":false,"confirmed_by":null,"lon":-69.935914,"lat":18.407795}},{"type":"Feature","geometry":{"type":"Polygon","coordinates":[[[-69.927566,18.40749],[-69.927565,18.407309],[-69.92747,18.407309],[-69.927471,18.40749],[-69.927566,18.40749]]]},"properties":{"id":"santo_domingo_2025-10-18_lgbm_6","region":"santo_domingo","date":"2025-10-18","area_m2":200.0,"mean_prob":0.698,"max_prob":0.7373,"model":"lgbm","n_px":2,"px_area_m2":100.0,"confirmed":false,"confirmed_by":null,"lon":-69.927518,"lat":18.4074}},{"type":"Feature","geometry":{"type":"Polygon","coordinates":[[[-69.834684,18.405932],[-69.834684,18.405842],[-69.834495,18.405842],[-69.834495,18.405933],[-69.834684,18.405932]]]},"properties":{"id":"santo_domingo_2025-10-18_lgbm_7","region":"santo_domingo","date":"2025-10-18","area_m2":200.0,"mean_prob":0.7765,"max_prob":0.8,"model":"lgbm","n_px":2,"px_area_m2":100.0,"confirmed":false,"confirmed_by":null,"lon":-69.834589,"lat":18.405887}},{"type":"Feature","geometry":{"type":"Polygon","coordinates":[[[-69.924963,18.398736],[-69.924963,18.398646],[-69.924773,18.398647],[-69.924774,18.398737],[-69.924963,18.398736]]]},"properties":{"id":"santo_domingo_2025-10-18_lgbm_8","region":"santo_domingo","date":"2025-10-18","area_m2":200.0,"mean_prob":1.0,"max_prob":1.0,"model":"lgbm","n_px":2,"px_area_m2":100.0,"confirmed":false,"confirmed_by":null,"lon":-69.924868,"lat":18.398691}},{"type":"Feature","geometry":{"type":"Polygon","coordinates":[[[-69.880172,18.396057],[-69.880171,18.395966],[-69.880077,18.395967],[-69.880076,18.395877],[-69.879981,18.395877],[-69.879982,18.396058],[-69.880172,18.396057]]]},"properties":{"id":"santo_domingo_2025-10-18_lgbm_9","region":"santo_domingo","date":"2025-10-18","area_m2":300.0,"mean_prob":0.8941,"max_prob":1.0,"model":"lgbm","n_px":3,"px_area_m2":100.0,"confirmed":false,"confirmed_by":null,"lon":-69.880061,"lat":18.395982}},{"type":"Feature","geometry":{"type":"Polygon","coordinates":[[[-69.880831,18.395421],[-69.880831,18.395331],[-69.880641,18.395332],[-69.880642,18.395422],[-69.880831,18.395421]]]},"properties":{"id":"santo_domingo_2025-10-18_lgbm_10","region":"santo_domingo","date":"2025-10-18","area_m2":200.0,"mean_prob":0.798,"max_prob":0.851,"model":"lgbm","n_px":2,"px_area_m2":100.0,"confirmed":false,"confirmed_by":null,"lon":-69.880736,"lat":18.395376}},{"type":"Feature","geometry":{"type":"Polygon","coordinates":[[[-69.872119,18.394829],[-69.872118,18.394648],[-69.872023,18.394648],[-69.872024,18.394829],[-69.872119,18.394829]]]},"properties":{"id":"santo_domingo_2025-10-18_lgbm_11","region":"santo_domingo","date":"2025-10-18","area_m2":200.0,"mean_prob":0.9078,"max_prob":0.9725,"model":"lgbm","n_px":2,"px_area_m2":100.0,"confirmed":false,"confirmed_by":null,"lon":-69.872071,"lat":18.394739}},{"type":"Feature","geometry":{"type":"Polygon","coordinates":[[[-69.881773,18.394423],[-69.881772,18.394332],[-69.881867,18.394332],[-69.881866,18.394151],[-69.881771,18.394152],[-69.881772,18.394332],[-69.881678,18.394333],[-69.881678,18.394423],[-69.881773,18.394423]]]},"properties":{"id":"santo_domingo_2025-10-18_lgbm_12","region":"santo_domingo","date":"2025-10-18","area_m2":300.0,"mean_prob":0.8431,"max_prob":0.8902,"model":"lgbm","n_px":3,"px_area_m2":100.0,"confirmed":false,"confirmed_by":null,"lon":-69.881788,"lat":18.394287}},{"type":"Feature","geometry":{"type":"Polygon","coordinates":[[[-69.882619,18.393244],[-69.882618,18.393063],[-69.882523,18.393064],[-69.882524,18.393244],[-69.882619,18.393244]]]},"properties":{"id":"santo_domingo_2025-10-18_lgbm_13","region":"santo_domingo","date":"2025-10-18","area_m2":200.0,"mean_prob":0.8961,"max_prob":0.9176,"model":"lgbm","n_px":2,"px_area_m2":100.0,"confirmed":false,"confirmed_by":null,"lon":-69.882571,"lat":18.393154}},{"type":"Feature","geometry":{"type":"Polygon","coordinates":[[[-69.905712,18.392322],[-69.905711,18.392141],[-69.905616,18.392142],[-69.905617,18.392322],[-69.905712,18.392322]]]},"properties":{"id":"santo_domingo_2025-10-18_lgbm_14","region":"santo_domingo","date":"2025-10-18","area_m2":200.0,"mean_prob":0.9373,"max_prob":0.9412,"model":"lgbm","n_px":2,"px_area_m2":100.0,"confirmed":false,"confirmed_by":null,"lon":-69.905664,"lat":18.392232}},{"type":"Feature","geometry":{"type":"Polygon","coordinates":[[[-69.904953,18.392054],[-69.904952,18.391874],[-69.904858,18.391874],[-69.904859,18.392055],[-69.904953,18.392054]]]},"properties":{"id":"santo_domingo_2025-10-18_lgbm_15","region":"santo_domingo","date":"2025-10-18","area_m2":200.0,"mean_prob":0.9078,"max_prob":0.9647,"model":"lgbm","n_px":2,"px_area_m2":100.0,"confirmed":false,"confirmed_by":null,"lon":-69.904906,"lat":18.391964}},{"type":"Feature","geometry":{"type":"Polygon","coordinates":[[[-69.884311,18.390886],[-69.88431,18.390796],[-69.884405,18.390795],[-69.884404,18.390705],[-69.884215,18.390706],[-69.884216,18.390887],[-69.884311,18.390886]]]},"properties":{"id":"santo_domingo_2025-10-18_lgbm_16","region":"santo_domingo","date":"2025-10-18","area_m2":300.0,"mean_prob":0.7856,"max_prob":0.8392,"model":"lgbm","n_px":3,"px_area_m2":100.0,"confirmed":false,"confirmed_by":null,"lon":-69.884294,"lat":18.390781}},{"type":"Feature","geometry":{"type":"Polygon","coordinates":[[[-69.898782,18.388559],[-69.898782,18.388469],[-69.898592,18.38847],[-69.898593,18.38856],[-69.898782,18.388559]]]},"properties":{"id":"santo_domingo_2025-10-18_lgbm_17","region":"santo_domingo","date":"2025-10-18","area_m2":200.0,"mean_prob":0.798,"max_prob":0.902,"model":"lgbm","n_px":2,"px_area_m2":100.0,"confirmed":false,"confirmed_by":null,"lon":-69.898687,"lat":18.388514}},{"type":"Feature","geometry":{"type":"Polygon","coordinates":[[[-69.762211,18.37352],[-69.76221,18.373339],[-69.762116,18.37334],[-69.762117,18.373521],[-69.762211,18.37352]]]},"properties":{"id":"santo_domingo_2025-10-18_lgbm_18","region":"santo_domingo","date":"2025-10-18","area_m2":200.0,"mean_prob":0.8863,"max_prob":0.9294,"model":"lgbm","n_px":2,"px_area_m2":100.0,"confirmed":false,"confirmed_by":null,"lon":-69.762163,"lat":18.37343}},{"type":"Feature","geometry":{"type":"Polygon","coordinates":[[[-69.85014,18.372154],[-69.850139,18.371973],[-69.850044,18.371973],[-69.850045,18.372154],[-69.85014,18.372154]]]},"properties":{"id":"santo_domingo_2025-10-18_lgbm_19","region":"santo_domingo","date":"2025-10-18","area_m2":200.0,"mean_prob":0.9961,"max_prob":1.0,"model":"lgbm","n_px":2,"px_area_m2":100.0,"confirmed":false,"confirmed_by":null,"lon":-69.850092,"lat":18.372064}},{"type":"Feature","geometry":{"type":"Polygon","coordinates":[[[-69.826975,18.357615],[-69.826974,18.357434],[-69.826879,18.357435],[-69.82688,18.357615],[-69.826975,18.357615]]]},"properties":{"id":"santo_domingo_2025-10-18_lgbm_20","region":"santo_domingo","date":"2025-10-18","area_m2":200.0,"mean_prob":0.8157,"max_prob":0.9843,"model":"lgbm","n_px":2,"px_area_m2":100.0,"confirmed":false,"confirmed_by":null,"lon":-69.826927,"lat":18.357525}},{"type":"Feature","geometry":{"type":"Polygon","coordinates":[[[-69.705447,18.357562],[-69.705446,18.357471],[-69.705541,18.357471],[-69.705541,18.35738],[-69.705351,18.357381],[-69.705352,18.357562],[-69.705447,18.357562]]]},"properties":{"id":"santo_domingo_2025-10-18_lgbm_21","region":"santo_domingo","date":"2025-10-18","area_m2":300.0,"mean_prob":0.8758,"max_prob":0.9451,"model":"lgbm","n_px":3,"px_area_m2":100.0,"confirmed":false,"confirmed_by":null,"lon":-69.705431,"lat":18.357456}},{"type":"Feature","geometry":{"type":"Polygon","coordinates":[[[-69.826308,18.356714],[-69.826307,18.356533],[-69.826118,18.356534],[-69.826119,18.356715],[-69.826308,18.356714]]]},"properties":{"id":"santo_domingo_2025-10-18_lgbm_22","region":"santo_domingo","date":"2025-10-18","area_m2":400.0,"mean_prob":0.8235,"max_prob":0.9922,"model":"lgbm","n_px":4,"px_area_m2":100.0,"confirmed":false,"confirmed_by":null,"lon":-69.826213,"lat":18.356624}},{"type":"Feature","geometry":{"type":"Polygon","coordinates":[[[-69.815897,18.356669],[-69.815896,18.356578],[-69.815991,18.356578],[-69.81599,18.356487],[-69.815801,18.356488],[-69.815802,18.356669],[-69.815897,18.356669]]]},"properties":{"id":"santo_domingo_2025-10-18_lgbm_23","region":"santo_domingo","date":"2025-10-18","area_m2":300.0,"mean_prob":0.8654,"max_prob":0.9647,"model":"lgbm","n_px":3,"px_area_m2":100.0,"confirmed":false,"confirmed_by":null,"lon":-69.81588,"lat":18.356563}},{"type":"Feature","geometry":{"type":"Polygon","coordinates":[[[-69.830373,18.355793],[-69.830373,18.355702],[-69.830184,18.355703],[-69.830184,18.355794],[-69.830373,18.355793]]]},"properties":{"id":"santo_domingo_2025-10-18_lgbm_24","region":"santo_domingo","date":"2025-10-18","area_m2":200.0,"mean_prob":0.9745,"max_prob":0.9843,"model":"lgbm","n_px":2,"px_area_m2":100.0,"confirmed":false,"confirmed_by":null,"lon":-69.830278,"lat":18.355748}},{"type":"Feature","geometry":{"type":"Polygon","coordinates":[[[-69.706197,18.355932],[-69.706197,18.355842],[-69.706008,18.355842],[-69.706008,18.355933],[-69.706197,18.355932]]]},"properties":{"id":"santo_domingo_2025-10-18_lgbm_25","region":"santo_domingo","date":"2025-10-18","area_m2":200.0,"mean_prob":0.8412,"max_prob":0.9216,"model":"lgbm","n_px":2,"px_area_m2":100.0,"confirmed":false,"confirmed_by":null,"lon":-69.706102,"lat":18.355887}},{"type":"Feature","geometry":{"type":"Polygon","coordinates":[[[-69.821469,18.354205],[-69.821468,18.354024],[-69.821374,18.354024],[-69.821374,18.354205],[-69.821469,18.354205]]]},"properties":{"id":"santo_domingo_2025-10-18_lgbm_26","region":"santo_domingo","date":"2025-10-18","area_m2":200.0,"mean_prob":0.8118,"max_prob":0.8549,"model":"lgbm","n_px":2,"px_area_m2":100.0,"confirmed":false,"confirmed_by":null,"lon":-69.821421,"lat":18.354114}},{"type":"Feature","geometry":{"type":"Polygon","coordinates":[[[-69.794774,18.353052],[-69.794773,18.352962],[-69.794868,18.352962],[-69.794868,18.352871],[-69.794678,18.352872],[-69.794679,18.353053],[-69.794774,18.353052]]]},"properties":{"id":"santo_domingo_2025-10-18_lgbm_27","region":"santo_domingo","date":"2025-10-18","area_m2":300.0,"mean_prob":0.8654,"max_prob":0.9647,"model":"lgbm","n_px":3,"px_area_m2":100.0,"confirmed":false,"confirmed_by":null,"lon":-69.794758,"lat":18.352947}},{"type":"Feature","geometry":{"type":"Polygon","coordinates":[[[-69.796286,18.352594],[-69.796286,18.352504],[-69.796096,18.352505],[-69.796097,18.352595],[-69.796286,18.352594]]]},"properties":{"id":"santo_domingo_2025-10-18_lgbm_28","region":"santo_domingo","date":"2025-10-18","area_m2":200.0,"mean_prob":0.7922,"max_prob":0.8471,"model":"lgbm","n_px":2,"px_area_m2":100.0,"confirmed":false,"confirmed_by":null,"lon":-69.796191,"lat":18.35255}},{"type":"Feature","geometry":{"type":"Polygon","coordinates":[[[-69.8013,18.352121],[-69.801299,18.351941],[-69.801205,18.351941],[-69.801205,18.352122],[-69.8013,18.352121]]]},"properties":{"id":"santo_domingo_2025-10-18_lgbm_29","region":"santo_domingo","date":"2025-10-18","area_m2":200.0,"mean_prob":0.8157,"max_prob":0.9255,"model":"lgbm","n_px":2,"px_area_m2":100.0,"confirmed":false,"confirmed_by":null,"lon":-69.801252,"lat":18.352031}},{"type":"Feature","geometry":{"type":"Polygon","coordinates":[[[-69.802712,18.350398],[-69.802711,18.350308],[-69.802522,18.350309],[-69.802523,18.350399],[-69.802712,18.350398]]]},"properties":{"id":"santo_domingo_2025-10-18_lgbm_30","region":"santo_domingo","date":"2025-10-18","area_m2":200.0,"mean_prob":0.7784,"max_prob":0.8824,"model":"lgbm","n_px":2,"px_area_m2":100.0,"confirmed":false,"confirmed_by":null,"lon":-69.802617,"lat":18.350354}},{"type":"Feature","geometry":{"type":"Polygon","coordinates":[[[-69.814529,18.347547],[-69.814528,18.347456],[-69.814339,18.347457],[-69.81434,18.347547],[-69.814529,18.347547]]]},"properties":{"id":"santo_domingo_2025-10-18_lgbm_31","region":"santo_domingo","date":"2025-10-18","area_m2":200.0,"mean_prob":0.8294,"max_prob":0.8549,"model":"lgbm","n_px":2,"px_area_m2":100.0,"confirmed":false,"confirmed_by":null,"lon":-69.814434,"lat":18.347502}},{"type":"Feature","geometry":{"type":"Polygon","coordinates":[[[-69.866481,18.346414],[-69.866481,18.346323],[-69.866291,18.346324],[-69.866292,18.346415],[-69.866481,18.346414]]]},"properties":{"id":"santo_domingo_2025-10-18_lgbm_32","region":"santo_domingo","date":"2025-10-18","area_m2":200.0,"mean_prob":0.7922,"max_prob":0.8902,"model":"lgbm","n_px":2,"px_area_m2":100.0,"confirmed":false,"confirmed_by":null,"lon":-69.866386,"lat":18.346369}},{"type":"Feature","geometry":{"type":"Polygon","coordinates":[[[-69.830218,18.343141],[-69.830217,18.34296],[-69.830123,18.34296],[-69.830124,18.343141],[-69.830218,18.343141]]]},"properties":{"id":"santo_domingo_2025-10-18_lgbm_33","region":"santo_domingo","date":"2025-10-18","area_m2":200.0,"mean_prob":0.7706,"max_prob":0.7765,"model":"lgbm","n_px":2,"px_area_m2":100.0,"confirmed":false,"confirmed_by":null,"lon":-69.83017,"lat":18.343051}},{"type":"Feature","geometry":{"type":"Polygon","coordinates":[[[-69.824254,18.342805],[-69.824254,18.342624],[-69.824159,18.342625],[-69.82416,18.342806],[-69.824254,18.342805]]]},"properties":{"id":"santo_domingo_2025-10-18_lgbm_34","region":"santo_domingo","date":"2025-10-18","area_m2":200.0,"mean_prob":0.7706,"max_prob":0.898,"model":"lgbm","n_px":2,"px_area_m2":100.0,"confirmed":false,"confirmed_by":null,"lon":-69.824207,"lat":18.342715}},{"type":"Feature","geometry":{"type":"Polygon","coordinates":[[[-69.747219,18.343032],[-69.747218,18.342852],[-69.747123,18.342852],[-69.747124,18.343033],[-69.747219,18.343032]]]},"properties":{"id":"santo_domingo_2025-10-18_lgbm_35","region":"santo_domingo","date":"2025-10-18","area_m2":200.0,"mean_prob":0.702,"max_prob":0.7569,"model":"lgbm","n_px":2,"px_area_m2":100.0,"confirmed":false,"confirmed_by":null,"lon":-69.747171,"lat":18.342942}},{"type":"Feature","geometry":{"type":"Polygon","coordinates":[[[-69.857178,18.340762],[-69.857178,18.340581],[-69.857083,18.340582],[-69.857084,18.340763],[-69.857178,18.340762]]]},"properties":{"id":"santo_domingo_2025-10-18_lgbm_36","region":"santo_domingo","date":"2025-10-18","area_m2":200.0,"mean_prob":0.7627,"max_prob":0.8,"model":"lgbm","n_px":2,"px_area_m2":100.0,"confirmed":false,"confirmed_by":null,"lon":-69.857131,"lat":18.340672}},{"type":"Feature","geometry":{"type":"Polygon","coordinates":[[[-69.742287,18.340521],[-69.742286,18.340431],[-69.742097,18.340431],[-69.742098,18.340522],[-69.742287,18.340521]]]},"properties":{"id":"santo_domingo_2025-10-18_lgbm_37","region":"santo_domingo","date":"2025-10-18","area_m2":200.0,"mean_prob":0.6941,"max_prob":0.7137,"model":"lgbm","n_px":2,"px_area_m2":100.0,"confirmed":false,"confirmed_by":null,"lon":-69.742192,"lat":18.340476}},{"type":"Feature","geometry":{"type":"Polygon","coordinates":[[[-69.81298,18.340142],[-69.812979,18.339962],[-69.812884,18.339962],[-69.812885,18.340143],[-69.81298,18.340142]]]},"properties":{"id":"santo_domingo_2025-10-18_lgbm_38","region":"santo_domingo","date":"2025-10-18","area_m2":200.0,"mean_prob":0.7667,"max_prob":0.7961,"model":"lgbm","n_px":2,"px_area_m2":100.0,"confirmed":false,"confirmed_by":null,"lon":-69.812932,"lat":18.340052}},{"type":"Feature","geometry":{"type":"Polygon","coordinates":[[[-69.858307,18.339401],[-69.858307,18.339311],[-69.858118,18.339312],[-69.858118,18.339402],[-69.858307,18.339401]]]},"properties":{"id":"santo_domingo_2025-10-18_lgbm_39","region":"santo_domingo","date":"2025-10-18","area_m2":200.0,"mean_prob":0.802,"max_prob":0.8902,"model":"lgbm","n_px":2,"px_area_m2":100.0,"confirmed":false,"confirmed_by":null,"lon":-69.858213,"lat":18.339357}},{"type":"Feature","geometry":{"type":"Polygon","coordinates":[[[-69.74995,18.339858],[-69.749949,18.339768],[-69.74976,18.339769],[-69.74976,18.339859],[-69.74995,18.339858]]]},"properties":{"id":"santo_domingo_2025-10-18_lgbm_40","region":"santo_domingo","date":"2025-10-18","area_m2":200.0,"mean_prob":0.8176,"max_prob":0.851,"model":"lgbm","n_px":2,"px_area_m2":100.0,"confirmed":false,"confirmed_by":null,"lon":-69.749855,"lat":18.339814}},{"type":"Feature","geometry":{"type":"Polygon","coordinates":[[[-69.864361,18.338832],[-69.86436,18.338651],[-69.864266,18.338651],[-69.864267,18.338832],[-69.864361,18.338832]]]},"properties":{"id":"santo_domingo_2025-10-18_lgbm_41","region":"santo_domingo","date":"2025-10-18","area_m2":200.0,"mean_prob":0.7039,"max_prob":0.7529,"model":"lgbm","n_px":2,"px_area_m2":100.0,"confirmed":false,"confirmed_by":null,"lon":-69.864314,"lat":18.338742}},{"type":"Feature","geometry":{"type":"Polygon","coordinates":[[[-69.875527,18.3386],[-69.875526,18.338419],[-69.875432,18.33842],[-69.875433,18.338601],[-69.875527,18.3386]]]},"properties":{"id":"santo_domingo_2025-10-18_lgbm_42","region":"santo_domingo","date":"2025-10-18","area_m2":200.0,"mean_prob":0.9098,"max_prob":0.9725,"model":"lgbm","n_px":2,"px_area_m2":100.0,"confirmed":false,"confirmed_by":null,"lon":-69.875479,"lat":18.33851}},{"type":"Feature","geometry":{"type":"Polygon","coordinates":[[[-69.888958,18.337182],[-69.888958,18.337092],[-69.888768,18.337093],[-69.888769,18.337183],[-69.888958,18.337182]]]},"properties":{"id":"santo_domingo_2025-10-18_lgbm_43","region":"santo_domingo","date":"2025-10-18","area_m2":200.0,"mean_prob":0.6549,"max_prob":0.6588,"model":"lgbm","n_px":2,"px_area_m2":100.0,"confirmed":false,"confirmed_by":null,"lon":-69.888863,"lat":18.337138}},{"type":"Feature","geometry":{"type":"Polygon","coordinates":[[[-69.884226,18.337114],[-69.884225,18.336933],[-69.88413,18.336934],[-69.884131,18.337114],[-69.884226,18.337114]]]},"properties":{"id":"santo_domingo_2025-10-18_lgbm_44","region":"santo_domingo","date":"2025-10-18","area_m2":200.0,"mean_prob":0.8176,"max_prob":0.9804,"model":"lgbm","n_px":2,"px_area_m2":100.0,"confirmed":false,"confirmed_by":null,"lon":-69.884178,"lat":18.337024}},{"type":"Feature","geometry":{"type":"Polygon","coordinates":[[[-69.893971,18.336617],[-69.89397,18.336436],[-69.893875,18.336436],[-69.893876,18.336617],[-69.893971,18.336617]]]},"properties":{"id":"santo_domingo_2025-10-18_lgbm_45","region":"santo_domingo","date":"2025-10-18","area_m2":200.0,"mean_prob":0.8686,"max_prob":0.902,"model":"lgbm","n_px":2,"px_area_m2":100.0,"confirmed":false,"confirmed_by":null,"lon":-69.893923,"lat":18.336527}},{"type":"Feature","geometry":{"type":"Polygon","coordinates":[[[-69.754102,18.337221],[-69.754102,18.337131],[-69.754197,18.33713],[-69.754196,18.33704],[-69.754102,18.33704],[-69.754102,18.337131],[-69.754007,18.337131],[-69.754008,18.337221],[-69.754102,18.337221]]]},"properties":{"id":"santo_domingo_2025-10-18_lgbm_46","region":"santo_domingo","date":"2025-10-18","area_m2":200.0,"mean_prob":0.802,"max_prob":0.898,"model":"lgbm","n_px":2,"px_area_m2":100.0,"confirmed":false,"confirmed_by":null,"lon":-69.754102,"lat":18.337131}},{"type":"Feature","geometry":{"type":"Polygon","coordinates":[[[-69.799621,18.336765],[-69.79962,18.336584],[-69.799525,18.336584],[-69.799526,18.336765],[-69.799621,18.336765]]]},"properties":{"id":"santo_domingo_2025-10-18_lgbm_47","region":"santo_domingo","date":"2025-10-18","area_m2":200.0,"mean_prob":0.8118,"max_prob":0.8314,"model":"lgbm","n_px":2,"px_area_m2":100.0,"confirmed":false,"confirmed_by":null,"lon":-69.799573,"lat":18.336674}},{"type":"Feature","geometry":{"type":"Polygon","coordinates":[[[-69.755708,18.336492],[-69.755707,18.336311],[-69.755613,18.336311],[-69.755613,18.336492],[-69.755708,18.336492]]]},"properties":{"id":"santo_domingo_2025-10-18_lgbm_48","region":"santo_domingo","date":"2025-10-18","area_m2":200.0,"mean_prob":0.8098,"max_prob":0.9333,"model":"lgbm","n_px":2,"px_area_m2":100.0,"confirmed":false,"confirmed_by":null,"lon":-69.75566,"lat":18.336402}},{"type":"Feature","geometry":{"type":"Polygon","coordinates":[[[-69.795356,18.335517],[-69.795355,18.335336],[-69.795261,18.335337],[-69.795262,18.335517],[-69.795356,18.335517]]]},"properties":{"id":"santo_domingo_2025-10-18_lgbm_49","region":"santo_domingo","date":"2025-10-18","area_m2":200.0,"mean_prob":0.8804,"max_prob":0.8863,"model":"lgbm","n_px":2,"px_area_m2":100.0,"confirmed":false,"confirmed_by":null,"lon":-69.795308,"lat":18.335427}},{"type":"Feature","geometry":{"type":"Polygon","coordinates":[[[-69.801788,18.334858],[-69.801788,18.334677],[-69.801693,18.334677],[-69.801694,18.334858],[-69.801788,18.334858]]]},"properties":{"id":"santo_domingo_2025-10-18_lgbm_50","region":"santo_domingo","date":"2025-10-18","area_m2":200.0,"mean_prob":0.8157,"max_prob":0.8745,"model":"lgbm","n_px":2,"px_area_m2":100.0,"confirmed":false,"confirmed_by":null,"lon":-69.801741,"lat":18.334767}},{"type":"Feature","geometry":{"type":"Polygon","coordinates":[[[-69.855629,18.333629],[-69.855628,18.333449],[-69.855534,18.333449],[-69.855535,18.33363],[-69.855629,18.333629]]]},"properties":{"id":"santo_domingo_2025-10-18_lgbm_51","region":"santo_domingo","date":"2025-10-18","area_m2":200.0,"mean_prob":0.8451,"max_prob":0.9098,"model":"lgbm","n_px":2,"px_area_m2":100.0,"confirmed":false,"confirmed_by":null,"lon":-69.855581,"lat":18.333539}},{"type":"Feature","geometry":{"type":"Polygon","coordinates":[[[-69.852412,18.333644],[-69.852411,18.333553],[-69.852222,18.333554],[-69.852222,18.333645],[-69.852412,18.333644]]]},"properties":{"id":"santo_domingo_2025-10-18_lgbm_52","region":"santo_domingo","date":"2025-10-18","area_m2":200.0,"mean_prob":0.7745,"max_prob":0.8431,"model":"lgbm","n_px":2,"px_area_m2":100.0,"confirmed":false,"confirmed_by":null,"lon":-69.852317,"lat":18.333599}},{"type":"Feature","geometry":{"type":"Polygon","coordinates":[[[-69.788722,18.333466],[-69.788722,18.333376],[-69.788533,18.333376],[-69.788533,18.333467],[-69.788722,18.333466]]]},"properties":{"id":"santo_domingo_2025-10-18_lgbm_53","region":"santo_domingo","date":"2025-10-18","area_m2":200.0,"mean_prob":0.8176,"max_prob":0.9529,"model":"lgbm","n_px":2,"px_area_m2":100.0,"confirmed":false,"confirmed_by":null,"lon":-69.788628,"lat":18.333421}},{"type":"Feature","geometry":{"type":"Polygon","coordinates":[[[-69.794096,18.329015],[-69.794095,18.328834],[-69.794001,18.328835],[-69.794002,18.329016],[-69.794096,18.329015]]]},"properties":{"id":"santo_domingo_2025-10-18_lgbm_54","region":"santo_domingo","date":"2025-10-18","area_m2":200.0,"mean_prob":0.7059,"max_prob":0.7255,"model":"lgbm","n_px":2,"px_area_m2":100.0,"confirmed":false,"confirmed_by":null,"lon":-69.794049,"lat":18.328925}},{"type":"Feature","geometry":{"type":"Polygon","coordinates":[[[-69.787564,18.32841],[-69.787563,18.328229],[-69.787468,18.328229],[-69.787469,18.32841],[-69.787564,18.32841]]]},"properties":{"id":"santo_domingo_2025-10-18_lgbm_55","region":"santo_domingo","date":"2025-10-18","area_m2":200.0,"mean_prob":0.9059,"max_prob":0.9412,"model":"lgbm","n_px":2,"px_area_m2":100.0,"confirmed":false,"confirmed_by":null,"lon":-69.787516,"lat":18.32832}},{"type":"Feature","geometry":{"type":"Polygon","coordinates":[[[-69.790116,18.327676],[-69.790115,18.327495],[-69.79002,18.327496],[-69.790021,18.327586],[-69.789926,18.327587],[-69.789926,18.327677],[-69.790116,18.327676]]]},"properties":{"id":"santo_domingo_2025-10-18_lgbm_56","region":"santo_domingo","date":"2025-10-18","area_m2":300.0,"mean_prob":0.8706,"max_prob":0.9294,"model":"lgbm","n_px":3,"px_area_m2":100.0,"confirmed":false,"confirmed_by":null,"lon":-69.790036,"lat":18.327601}},{"type":"Feature","geometry":{"type":"Polygon","coordinates":[[[-69.787084,18.326875],[-69.787083,18.326785],[-69.786894,18.326786],[-69.786895,18.326876],[-69.787084,18.326875]]]},"properties":{"id":"santo_domingo_2025-10-18_lgbm_57","region":"santo_domingo","date":"2025-10-18","area_m2":200.0,"mean_prob":0.8451,"max_prob":0.8941,"model":"lgbm","n_px":2,"px_area_m2":100.0,"confirmed":false,"confirmed_by":null,"lon":-69.786989,"lat":18.32683}},{"type":"Feature","geometry":{"type":"Polygon","coordinates":[[[-69.790206,18.326682],[-69.790205,18.326591],[-69.790016,18.326592],[-69.790016,18.326682],[-69.790206,18.326682]]]},"properties":{"id":"santo_domingo_2025-10-18_lgbm_58","region":"santo_domingo","date":"2025-10-18","area_m2":200.0,"mean_prob":0.7333,"max_prob":0.7373,"model":"lgbm","n_px":2,"px_area_m2":100.0,"confirmed":false,"confirmed_by":null,"lon":-69.790111,"lat":18.326637}},{"type":"Feature","geometry":{"type":"Polygon","coordinates":[[[-69.707383,18.321765],[-69.707383,18.321584],[-69.707288,18.321584],[-69.707289,18.321765],[-69.707383,18.321765]]]},"properties":{"id":"santo_domingo_2025-10-18_lgbm_59","region":"santo_domingo","date":"2025-10-18","area_m2":200.0,"mean_prob":0.6784,"max_prob":0.7098,"model":"lgbm","n_px":2,"px_area_m2":100.0,"confirmed":false,"confirmed_by":null,"lon":-69.707336,"lat":18.321675}},{"type":"Feature","geometry":{"type":"Polygon","coordinates":[[[-69.753724,18.315351],[-69.753723,18.315171],[-69.753628,18.315171],[-69.753629,18.315352],[-69.753724,18.315351]]]},"properties":{"id":"santo_domingo_2025-10-18_lgbm_60","region":"santo_domingo","date":"2025-10-18","area_m2":200.0,"mean_prob":0.8118,"max_prob":0.8471,"model":"lgbm","n_px":2,"px_area_m2":100.0,"confirmed":false,"confirmed_by":null,"lon":-69.753676,"lat":18.315261}},{"type":"Feature","geometry":{"type":"Polygon","coordinates":[[[-69.723623,18.312847],[-69.723622,18.312666],[-69.723527,18.312666],[-69.723528,18.312757],[-69.723433,18.312757],[-69.723433,18.312848],[-69.723623,18.312847]]]},"properties":{"id":"santo_domingo_2025-10-18_lgbm_61","region":"santo_domingo","date":"2025-10-18","area_m2":300.0,"mean_prob":0.7752,"max_prob":0.851,"model":"lgbm","n_px":3,"px_area_m2":100.0,"confirmed":false,"confirmed_by":null,"lon":-69.723543,"lat":18.312772}},{"type":"Feature","geometry":{"type":"Polygon","coordinates":[[[-69.724753,18.311758],[-69.724753,18.311668],[-69.724564,18.311668],[-69.724564,18.311759],[-69.724753,18.311758]]]},"properties":{"id":"santo_domingo_2025-10-18_lgbm_62","region":"santo_domingo","date":"2025-10-18","area_m2":200.0,"mean_prob":0.7765,"max_prob":0.8863,"model":"lgbm","n_px":2,"px_area_m2":100.0,"confirmed":false,"confirmed_by":null,"lon":-69.724659,"lat":18.311713}},{"type":"Feature","geometry":{"type":"Polygon","coordinates":[[[-69.794949,18.308496],[-69.794948,18.308406],[-69.794759,18.308407],[-69.79476,18.308497],[-69.794949,18.308496]]]},"properties":{"id":"santo_domingo_2025-10-18_lgbm_63","region":"santo_domingo","date":"2025-10-18","area_m2":200.0,"mean_prob":0.7725,"max_prob":0.851,"model":"lgbm","n_px":2,"px_area_m2":100.0,"confirmed":false,"confirmed_by":null,"lon":-69.794854,"lat":18.308451}},{"type":"Feature","geometry":{"type":"Polygon","coordinates":[[[-69.729843,18.307039],[-69.729843,18.306858],[-69.729748,18.306859],[-69.729749,18.307039],[-69.729843,18.307039]]]},"properties":{"id":"santo_domingo_2025-10-18_lgbm_64","region":"santo_domingo","date":"2025-10-18","area_m2":200.0,"mean_prob":0.7471,"max_prob":0.8275,"model":"lgbm","n_px":2,"px_area_m2":100.0,"confirmed":false,"confirmed_by":null,"lon":-69.729796,"lat":18.306949}},{"type":"Feature","geometry":{"type":"Polygon","coordinates":[[[-69.728323,18.305418],[-69.728322,18.305237],[-69.728227,18.305238],[-69.728228,18.305418],[-69.728323,18.305418]]]},"properties":{"id":"santo_domingo_2025-10-18_lgbm_65","region":"santo_domingo","date":"2025-10-18","area_m2":200.0,"mean_prob":0.8471,"max_prob":0.9216,"model":"lgbm","n_px":2,"px_area_m2":100.0,"confirmed":false,"confirmed_by":null,"lon":-69.728275,"lat":18.305328}},{"type":"Feature","geometry":{"type":"Polygon","coordinates":[[[-69.706459,18.303964],[-69.706459,18.303873],[-69.706554,18.303873],[-69.706553,18.303783],[-69.706364,18.303783],[-69.706365,18.303964],[-69.706459,18.303964]]]},"properties":{"id":"santo_domingo_2025-10-18_lgbm_66","region":"santo_domingo","date":"2025-10-18","area_m2":300.0,"mean_prob":0.7216,"max_prob":0.749,"model":"lgbm","n_px":3,"px_area_m2":100.0,"confirmed":false,"confirmed_by":null,"lon":-69.706443,"lat":18.303858}},{"type":"Feature","geometry":{"type":"Polygon","coordinates":[[[-69.737297,18.30204],[-69.737297,18.301949],[-69.737108,18.30195],[-69.737108,18.30204],[-69.737297,18.30204]]]},"properties":{"id":"santo_domingo_2025-10-18_lgbm_67","region":"santo_domingo","date":"2025-10-18","area_m2":200.0,"mean_prob":0.7569,"max_prob":0.8314,"model":"lgbm","n_px":2,"px_area_m2":100.0,"confirmed":false,"confirmed_by":null,"lon":-69.737202,"lat":18.301995}},{"type":"Feature","geometry":{"type":"Polygon","coordinates":[[[-69.789575,18.29198],[-69.789574,18.291799],[-69.78948,18.291799],[-69.789481,18.29198],[-69.789575,18.29198]]]},"properties":{"id":"santo_domingo_2025-10-18_lgbm_68","region":"santo_domingo","date":"2025-10-18","area_m2":200.0,"mean_prob":0.7922,"max_prob":0.8706,"model":"lgbm","n_px":2,"px_area_m2":100.0,"confirmed":false,"confirmed_by":null,"lon":-69.789528,"lat":18.291889}},{"type":"Feature","geometry":{"type":"Polygon","coordinates":[[[-69.793446,18.290156],[-69.793445,18.289975],[-69.793351,18.289976],[-69.793351,18.290156],[-69.793446,18.290156]]]},"properties":{"id":"santo_domingo_2025-10-18_lgbm_69","region":"santo_domingo","date":"2025-10-18","area_m2":200.0,"mean_prob":0.6667,"max_prob":0.6824,"model":"lgbm","n_px":2,"px_area_m2":100.0,"confirmed":true,"confirmed_by":"mdd","lon":-69.793398,"lat":18.290066}},{"type":"Feature","geometry":{"type":"Polygon","coordinates":[[[-69.793822,18.289703],[-69.793822,18.289612],[-69.793633,18.289613],[-69.793633,18.289703],[-69.793822,18.289703]]]},"properties":{"id":"santo_domingo_2025-10-18_lgbm_70","region":"santo_domingo","date":"2025-10-18","area_m2":200.0,"mean_prob":0.8529,"max_prob":0.8627,"model":"lgbm","n_px":2,"px_area_m2":100.0,"confirmed":false,"confirmed_by":null,"lon":-69.793728,"lat":18.289658}},{"type":"Feature","geometry":{"type":"Polygon","coordinates":[[[-69.795049,18.289065],[-69.795049,18.288975],[-69.79486,18.288975],[-69.79486,18.289066],[-69.795049,18.289065]]]},"properties":{"id":"santo_domingo_2025-10-18_lgbm_71","region":"santo_domingo","date":"2025-10-18","area_m2":200.0,"mean_prob":0.9373,"max_prob":0.9765,"model":"lgbm","n_px":2,"px_area_m2":100.0,"confirmed":false,"confirmed_by":null,"lon":-69.794955,"lat":18.28902}}]}