{"type": "FeatureCollection", "features": [{"type": "Feature", "id": "SZ-fresh-manila-2026-09-18-001", "geometry": {"type": "Polygon", "coordinates": [[[120.797991, 14.532825], [120.796883, 14.532272], [120.796619, 14.530824], [120.796335, 14.531454], [120.795681, 14.531899], [120.795123, 14.531984], [120.794291, 14.531706], [120.793746, 14.530616], [120.793844, 14.530075], [120.794314, 14.529447], [120.793386, 14.529438], [120.79256, 14.528617], [120.792584, 14.526178], [120.793239, 14.525551], [120.793247, 14.524738], [120.793529, 14.524379], [120.793725, 14.523387], [120.794378, 14.522942], [120.795399, 14.522951], [120.796043, 14.523409], [120.796313, 14.524315], [120.795934, 14.525125], [120.795927, 14.525757], [120.796667, 14.525945], [120.797122, 14.526853], [120.797491, 14.527127], [120.797761, 14.527943], [120.797568, 14.528664], [120.798587, 14.528855], [120.799044, 14.529491], [120.799034, 14.530485], [120.799489, 14.531393], [120.799391, 14.531934], [120.798921, 14.532562], [120.797991, 14.532825]], [[120.796259, 14.529736], [120.796449, 14.529286], [120.7958, 14.52928], [120.795248, 14.528823], [120.79478, 14.52918], [120.795707, 14.529279], [120.796259, 14.529736]], [[120.794407, 14.529357], [120.794499, 14.529449], [120.7945, 14.529358], [120.794407, 14.529357]], [[120.794594, 14.529269], [120.794686, 14.52936], [120.794687, 14.52927], [120.794594, 14.529269]]]}, "properties": {"kind": "detection_zone", "layer_kind": "scene_zone", "zone_id": "SZ-fresh-manila-2026-09-18-001", "scene_key": "fresh-manila-2026-09-18", "scene_kind": "fresh_s2", "scene_id": "S2B_MSIL2A_20260918T021559_R003_T51PTS_20260918T043111", "region": "manila", "title": "Манильский залив · зона 1", "mission": "Sentinel-2", "datetime": "2026-09-18T02:15:59.024000Z", "detection_status": "insufficient_data", "status": "insufficient_data", "concentration_status": "unavailable", "quantity": {"status": "not_confirmed", "label": "концентрация по снимку не подтверждена", "detail": "перевод площади в штуки не показываем: нет калибровочных пар (см. docs/QUANTITY.md)"}, "verification": "false_alarm_signs", "training_scene": null, "flags": ["ship", "shallow"], "n_cozar_filaments": 0, "crop_file": "crops/SZ-fresh-manila-2026-09-18-001.jpg", "wind_high": false, "measured": {"zone_area_km2": 0.4603, "suspicious_area_m2": 1100, "n_pixels": 11, "n_objects": 10, "water_km2": 0.465, "lwd_m2_km2": 2365.6, "lwd_note": null, "quality": {"valid_water_fraction": 1.0, "cloud_fraction": 0.0, "glint_fraction": 0.0}, "model": {"weights": "weights/lgbm", "file": "weights/lgbm/model.txt", "sha256": "0eeebf43fcccd8c7c07f053b7ec723229d1a3c9b92d12eec1bdb269258c51470", "sha256_short": "0eeebf43fccc", "trained_at": "2026-09-25T01:36:30Z", "threshold": 0.63, "harmonize": "none", "class": "MARIDA Marine Debris (любой плавающий мусор, не только пластик)"}}, "probable": {"prob_max": 1.0, "prob_mean": 0.875, "signs": {"foam": {"flag": false, "white_ratio_b2_b8": 0.477, "wind10m_ms": 1.21, "rule": "прирост B2 над водой ≥ 0.8 прироста B8 («белый» спектр) или ветер ≥ 7.0 м/с"}, "glint": {"flag": false, "b11_water_median": 0.0083, "glint_share": 0.0, "rule": "медиана B11 воды зоны > 0.01 или ≥ 20 % пикселей зоны — блик (маска качества)"}, "ship": {"flag": true, "share": 0.091, "bright_target_px_within_500m": 63, "rule": "≥ 30 % пикселей — у яркой цели или кильватера (reports/artifacts.md) или яркая цель с откликом в SWIR (судно, лодка: B11 ≥ 0,015) ближе 500 м, или малый яркий объект (≤ 40 пикс.) с B11 ≥ 0,01 ближе 500 м (лодка с кильватером)"}, "coast": {"flag": false, "land_px_within_300m": 0, "rule": "суша (маска качества) ближе 300 м — прибой, кромка берега"}, "shallow": {"flag": true, "b3_water_zone": 0.0423, "b3_ratio_to_scene_water": 0.86, "rule": "медиана B3 воды зоны ≥ 2× медианы воды снимка и ≥ 0,03, или B4 воды зоны ≥ 0,02 и (≥ 2× воды снимка или B8 ≥ 0,013) — мелководье, яркое дно, илистая банка"}, "seam": {"flag": false, "share": 0, "rule": "≥ 30 % пикселей — прямая линия вдоль трека/границы яркости (шов)"}, "cloud": {"flag": false, "cloud_fraction": 0.0, "rule": "облака или тени облаков (маска качества) ≥ 20 % зоны"}, "diag": {"dist_land_m": null, "dist_bright_m": 14, "n_bright_px_500m": 4, "b11_bright_max_500m": 0.0393, "b4_water_zone": 0.0269, "b8_water_zone": 0.0153, "b11_det_median": 0.0221, "b8_det_median": 0.0583, "water_scene_b3": 0.0493, "water_scene_b4": 0.0316, "n_det_px": 11, "n_obj": 10}, "note": "эвристики, не классификатор; на размеченных данных не проверены"}, "n_cozar_filaments": 0}, "field_nearby": {"items": [{"source": "ADIS (4TU.ResearchData, судовая камера)", "segment_id": 339924, "ship": "R/V Tinro", "date": "2022-02-07", "days_from_scene": -1684, "distance_km": 3554.1, "lon": 139.33376, "lat": 41.2048, "n_items": 0, "area_km2": 0.8103, "size_class": "> 5 см", "c_items_km2": 0.0, "ci95_lo": 0.0, "ci95_hi": 4.55, "ci95_method": "точный интервал Пуассона для N, делённый на A", "raw_10cm_items_km2": 0.0, "authors_cal_10cm_items_km2": 0.0, "authors_cal_10cm_lo95": null, "authors_cal_10cm_hi95": null}, {"source": "ADIS (4TU.ResearchData, судовая камера)", "segment_id": 339927, "ship": "R/V Tinro", "date": "2022-02-07", "days_from_scene": -1684, "distance_km": 3564.5, "lon": 139.59261, "lat": 41.14731, "n_items": 0, "area_km2": 0.8108, "size_class": "> 5 см", "c_items_km2": 0.0, "ci95_lo": 0.0, "ci95_hi": 4.55, "ci95_method": "точный интервал Пуассона для N, делённый на A", "raw_10cm_items_km2": 0.0, "authors_cal_10cm_items_km2": 0.0, "authors_cal_10cm_lo95": null, "authors_cal_10cm_hi95": null}, {"source": "ADIS (4TU.ResearchData, судовая камера)", "segment_id": 339928, "ship": "R/V Tinro", "date": "2022-02-07", "days_from_scene": -1684, "distance_km": 3569.3, "lon": 139.70705, "lat": 41.12296, "n_items": 0, "area_km2": 0.8112, "size_class": "> 5 см", "c_items_km2": 0.0, "ci95_lo": 0.0, "ci95_hi": 4.55, "ci95_method": "точный интервал Пуассона для N, делённый на A", "raw_10cm_items_km2": 0.0, "authors_cal_10cm_items_km2": 0.0, "authors_cal_10cm_lo95": null, "authors_cal_10cm_hi95": null}], "nearest_organizer_sample": {"sample_id": "MPL-0923", "source_id": "S4_BLACK_SEA_DOORS3", "distance_km": 9041.9}, "note": "Измерение ≠ оценка: это независимые полевые счёты C = N/A в другое время и в другом месте; со сценой они не связаны и не калибруют её. Ближайший отрезок ADIS — за 3554 км: только для порядка величин."}, "acquired_at": "2026-09-18T02:15:59.024000Z", "acquisition_date": "2026-09-18", "processed_at": "2026-09-26T19:07:34Z", "human_checked": false, "auto_label": "автоматически, не проверено человеком"}}]}