{"type": "FeatureCollection", "features": [{"type": "Feature", "id": "SZ-fresh-haiti-2026-08-20-000", "geometry": {"type": "Polygon", "coordinates": [[[-72.429578, 18.605186], [-72.429578, 18.834759], [-72.670518, 18.834759], [-72.670518, 18.605186], [-72.429578, 18.605186]]]}, "properties": {"kind": "detection_zone", "layer_kind": "scene_zone", "zone_id": "SZ-fresh-haiti-2026-08-20-000", "scene_key": "fresh-haiti-2026-08-20", "scene_kind": "fresh_s2", "scene_id": "S2B_MSIL2A_20260820T152649_R025_T18QYF_20260820T185800", "region": "haiti", "title": "Залив Порт-о-Пренс (Гаити) · вся вырезка", "mission": "Sentinel-2", "datetime": "2026-08-20T15:26:49.025000Z", "detection_status": "not_detected", "status": "not_detected", "concentration_status": "unavailable", "wind_high": false, "quantity": {"status": "not_confirmed", "label": "концентрация по снимку не подтверждена", "detail": "перевод площади в штуки не показываем: нет калибровочных пар (см. docs/QUANTITY.md)"}, "flags": [], "n_cozar_filaments": 0, "verification": null, "measured": {"zone_area_km2": 645.728, "suspicious_area_m2": 1800, "n_pixels": 18, "n_objects": 14, "water_km2": 411.412, "lwd_m2_km2": 4.38, "lwd_note": null, "quality": {"valid_water_fraction": 0.654, "cloud_fraction": 0.181, "glint_fraction": 0.0}, "model": {"weights": "weights/lgbm", "file": "weights/lgbm/model.txt", "sha256": "0eeebf43fcccd8c7c07f053b7ec723229d1a3c9b92d12eec1bdb269258c51470", "sha256_short": "0eeebf43fccc", "trained_at": "2026-09-25T01:36:30Z", "threshold": 0.63, "harmonize": "none", "class": "MARIDA Marine Debris (любой плавающий мусор, не только пластик)"}}, "probable": {"prob_max": 0.929, "prob_mean": null, "signs": null, "n_cozar_filaments": 0}, "field_nearby": {"items": [{"source": "ADIS (4TU.ResearchData, судовая камера)", "segment_id": 416611, "ship": "RV Pelagia", "date": "2023-12-17", "days_from_scene": -977, "distance_km": 777.4, "lon": -69.62766, "lat": 25.17519, "n_items": 0, "area_km2": 0.4738, "size_class": "> 5 см", "c_items_km2": 0.0, "ci95_lo": 0.0, "ci95_hi": 7.79, "ci95_method": "точный интервал Пуассона для N, делённый на A", "raw_10cm_items_km2": 0.0, "authors_cal_10cm_items_km2": 0.0, "authors_cal_10cm_lo95": null, "authors_cal_10cm_hi95": null}, {"source": "ADIS (4TU.ResearchData, судовая камера)", "segment_id": 416610, "ship": "RV Pelagia", "date": "2023-12-17", "days_from_scene": -977, "distance_km": 780.5, "lon": -69.55526, "lat": 25.17532, "n_items": 0, "area_km2": 1.015, "size_class": "> 5 см", "c_items_km2": 0.0, "ci95_lo": 0.0, "ci95_hi": 3.63, "ci95_method": "точный интервал Пуассона для N, делённый на A", "raw_10cm_items_km2": 0.0, "authors_cal_10cm_items_km2": 0.0, "authors_cal_10cm_lo95": null, "authors_cal_10cm_hi95": null}, {"source": "ADIS (4TU.ResearchData, судовая камера)", "segment_id": 416609, "ship": "RV Pelagia", "date": "2023-12-17", "days_from_scene": -977, "distance_km": 786.0, "lon": -69.45806, "lat": 25.18796, "n_items": 0, "area_km2": 1.0152, "size_class": "> 5 см", "c_items_km2": 0.0, "ci95_lo": 0.0, "ci95_hi": 3.63, "ci95_method": "точный интервал Пуассона для N, делённый на A", "raw_10cm_items_km2": 0.0, "authors_cal_10cm_items_km2": 0.0, "authors_cal_10cm_lo95": null, "authors_cal_10cm_hi95": null}], "nearest_organizer_sample": {"sample_id": "MPL-0239", "source_id": "S2_SARGASSO_MSM41", "distance_km": 668.8}, "note": "Измерение ≠ оценка: это независимые полевые счёты C = N/A в другое время и в другом месте; со сценой они не связаны и не калибруют её. Ближайший отрезок ADIS — за 777 км: только для порядка величин."}, "acquired_at": "2026-08-20T15:26:49.025000Z", "acquisition_date": "2026-08-20", "processed_at": "2026-09-26T19:31:18Z", "human_checked": false, "auto_label": "автоматически, не проверено человеком"}}]}