{"type": "FeatureCollection", "features": [{"type": "Feature", "id": "D-SZ-fresh-scotland-2026-09-23-001-1", "geometry": {"type": "Polygon", "coordinates": [[[-2.2841138, 56.1281202], [-2.2841155, 56.1280304], [-2.2844372, 56.1280323], [-2.2844405, 56.1278526], [-2.2841188, 56.1278507], [-2.2841172, 56.1279406], [-2.2837954, 56.1279387], [-2.2837938, 56.1280285], [-2.2839546, 56.1280295], [-2.283953, 56.1281193], [-2.2841138, 56.1281202]]]}, "properties": {"kind": "detection", "det_id": "D-SZ-fresh-scotland-2026-09-23-001-1", "zone_id": "SZ-fresh-scotland-2026-09-23-001", "scene_id": "S2B_MSIL2A_20260923T113319_R080_T30VWH_20260923T151947", "datetime": "2026-09-23T11:33:19.024000Z", "n_pixels": 7, "area_m2": 700, "prob_max": 0.9804, "prob_mean": 0.8342, "threshold": 0.63, "in_strip": true, "artifact": "seam"}}]}