{"type": "FeatureCollection", "features": [{"type": "Feature", "id": "SZ-fresh-scotland-2026-09-23-001", "geometry": {"type": "Polygon", "coordinates": [[[-2.284089, 56.129468], [-2.285865, 56.129119], [-2.28685, 56.128046], [-2.286386, 56.127055], [-2.284466, 56.126505], [-2.282368, 56.126852], [-2.281383, 56.127925], [-2.281848, 56.128826], [-2.282485, 56.129189], [-2.284089, 56.129468]]]}, "properties": {"kind": "detection_zone", "layer_kind": "scene_zone", "zone_id": "SZ-fresh-scotland-2026-09-23-001", "scene_key": "fresh-scotland-2026-09-23", "scene_kind": "fresh_s2", "scene_id": "S2B_MSIL2A_20260923T113319_R080_T30VWH_20260923T151947", "region": "scotland", "title": "Шотландия (Ферт-оф-Форт) · зона 1", "mission": "Sentinel-2", "datetime": "2026-09-23T11:33:19.024000Z", "detection_status": "insufficient_data", "status": "insufficient_data", "concentration_status": "unavailable", "quantity": {"status": "not_confirmed", "label": "концентрация по снимку не подтверждена", "detail": "перевод площади в штуки не показываем: нет калибровочных пар (см. docs/QUANTITY.md)"}, "verification": "false_alarm_signs", "training_scene": null, "flags": ["ship", "seam", "glint", "foam"], "n_cozar_filaments": 0, "crop_file": "crops/SZ-fresh-scotland-2026-09-23-001.jpg", "wind_high": true, "measured": {"zone_area_km2": 0.0813, "suspicious_area_m2": 700, "n_pixels": 7, "n_objects": 1, "water_km2": 0.0767, "lwd_m2_km2": null, "lwd_note": "ветер > 5 м/с: по правилу Cózar 2024 эта вода не входит в знаменатель «обследовано» — LWD не считается", "quality": {"valid_water_fraction": 0.922, "cloud_fraction": 0.075, "glint_fraction": 0.0}, "model": {"weights": "weights/lgbm", "file": "weights/lgbm/model.txt", "sha256": "0eeebf43fcccd8c7c07f053b7ec723229d1a3c9b92d12eec1bdb269258c51470", "sha256_short": "0eeebf43fccc", "trained_at": "2026-09-25T01:36:30Z", "threshold": 0.63, "harmonize": "none", "class": "MARIDA Marine Debris (любой плавающий мусор, не только пластик)"}}, "probable": {"prob_max": 0.98, "prob_mean": 0.834, "signs": {"foam": {"flag": true, "white_ratio_b2_b8": 1.016, "wind10m_ms": 5.25, "rule": "прирост B2 над водой ≥ 0.8 прироста B8 («белый» спектр) или ветер ≥ 7.0 м/с"}, "glint": {"flag": true, "b11_water_median": 0.0131, "glint_share": 0.0, "rule": "медиана B11 воды зоны > 0.01 или ≥ 20 % пикселей зоны — блик (маска качества)"}, "ship": {"flag": true, "share": 0, "bright_target_px_within_500m": 396, "rule": "≥ 30 % пикселей — у яркой цели или кильватера (reports/artifacts.md) или яркая цель с откликом в SWIR (судно, лодка: B11 ≥ 0,015) ближе 500 м, или малый яркий объект (≤ 40 пикс.) с B11 ≥ 0,01 ближе 500 м (лодка с кильватером)"}, "coast": {"flag": false, "land_px_within_300m": 0, "rule": "суша (маска качества) ближе 300 м — прибой, кромка берега"}, "shallow": {"flag": false, "b3_water_zone": 0.0218, "b3_ratio_to_scene_water": 1.07, "rule": "медиана B3 воды зоны ≥ 2× медианы воды снимка и ≥ 0,03, или B4 воды зоны ≥ 0,02 и (≥ 2× воды снимка или B8 ≥ 0,013) — мелководье, яркое дно, илистая банка"}, "seam": {"flag": true, "share": 1.0, "rule": "≥ 30 % пикселей — прямая линия вдоль трека/границы яркости (шов)"}, "cloud": {"flag": false, "cloud_fraction": 0.075, "rule": "облака или тени облаков (маска качества) ≥ 20 % зоны"}, "diag": {"dist_land_m": null, "dist_bright_m": 10, "n_bright_px_500m": 30, "b11_bright_max_500m": 0.0533, "b4_water_zone": 0.0166, "b8_water_zone": 0.014, "b11_det_median": 0.0181, "b8_det_median": 0.0489, "water_scene_b3": 0.0204, "water_scene_b4": 0.0128, "n_det_px": 7, "n_obj": 1}, "note": "эвристики, не классификатор; на размеченных данных не проверены"}, "n_cozar_filaments": 0}, "field_nearby": {"items": [{"source": "ADIS (4TU.ResearchData, судовая камера)", "segment_id": 338026, "ship": "R/V Akademik Mstislav Keldysh", "date": "2022-03-31", "days_from_scene": -1637, "distance_km": 445.8, "lon": -7.91336, "lat": 58.80967, "n_items": 0, "area_km2": 0.6996, "size_class": "> 5 см", "c_items_km2": 0.0, "ci95_lo": 0.0, "ci95_hi": 5.27, "ci95_method": "точный интервал Пуассона для N, делённый на A", "raw_10cm_items_km2": 0.0, "authors_cal_10cm_items_km2": 0.0, "authors_cal_10cm_lo95": null, "authors_cal_10cm_hi95": null}, {"source": "ADIS (4TU.ResearchData, судовая камера)", "segment_id": 338025, "ship": "R/V Akademik Mstislav Keldysh", "date": "2022-03-31", "days_from_scene": -1637, "distance_km": 446.3, "lon": -8.02644, "lat": 58.74178, "n_items": 0, "area_km2": 0.7, "size_class": "> 5 см", "c_items_km2": 0.0, "ci95_lo": 0.0, "ci95_hi": 5.27, "ci95_method": "точный интервал Пуассона для N, делённый на A", "raw_10cm_items_km2": 0.0, "authors_cal_10cm_items_km2": 0.0, "authors_cal_10cm_lo95": null, "authors_cal_10cm_hi95": null}, {"source": "ADIS (4TU.ResearchData, судовая камера)", "segment_id": 338475, "ship": "R/V Akademik Mstislav Keldysh", "date": "2022-03-31", "days_from_scene": -1637, "distance_km": 447.1, "lon": -8.13141, "lat": 58.679, "n_items": 0, "area_km2": 0.9498, "size_class": "> 5 см", "c_items_km2": 0.0, "ci95_lo": 0.0, "ci95_hi": 3.88, "ci95_method": "точный интервал Пуассона для N, делённый на A", "raw_10cm_items_km2": 0.0, "authors_cal_10cm_items_km2": 0.0, "authors_cal_10cm_lo95": null, "authors_cal_10cm_hi95": null}], "nearest_organizer_sample": {"sample_id": "MPL-0092", "source_id": "S3_SE_NORTH_SEA", "distance_km": 365.8}, "note": "Измерение ≠ оценка: это независимые полевые счёты C = N/A в другое время и в другом месте; со сценой они не связаны и не калибруют её. Ближайший отрезок ADIS — за 446 км: только для порядка величин."}, "acquired_at": "2026-09-23T11:33:19.024000Z", "acquisition_date": "2026-09-23", "processed_at": "2026-09-26T19:06:13Z", "human_checked": false, "auto_label": "автоматически, не проверено человеком"}}]}