{"type":"FeatureCollection","features":[{"type":"Feature","geometry":{"type":"Polygon","coordinates":[[[-2.454061,56.078223],[-2.454063,56.078133],[-2.453902,56.078133],[-2.453903,56.078043],[-2.453743,56.078042],[-2.453741,56.078132],[-2.453902,56.078133],[-2.453901,56.078222],[-2.454061,56.078223]]]},"properties":{"id":"scotland_2018-03-26_mdd_0","region":"scotland","date":"2018-03-26","area_m2":200.0,"mean_prob":0.5157,"max_prob":0.5176,"model":"mdd","n_px":2,"px_area_m2":100.0,"confirmed":true,"confirmed_by":"lgbm","lon":-2.453902,"lat":56.078133}}]}