{"type": "FeatureCollection", "features": [{"type": "Feature", "id": "D-SZ-fresh-guanabara-2026-08-02-001-5", "geometry": {"type": "Polygon", "coordinates": [[[-43.1972253, -22.7285821], [-43.1972241, -22.7286724], [-43.1970294, -22.7286702], [-43.1970306, -22.7285799], [-43.1972253, -22.7285821]]]}, "properties": {"kind": "detection", "det_id": "D-SZ-fresh-guanabara-2026-08-02-001-5", "zone_id": "SZ-fresh-guanabara-2026-08-02-001", "scene_id": "S2A_MSIL2A_20260802T130301_R095_T23KPQ_20260802T222314", "datetime": "2026-08-02T13:03:01.024000Z", "n_pixels": 2, "area_m2": 200, "prob_max": 0.6941, "prob_mean": 0.6843, "threshold": 0.63, "in_strip": true, "artifact": null}}, {"type": "Feature", "id": "D-SZ-fresh-guanabara-2026-08-02-001-7", "geometry": {"type": "Polygon", "coordinates": [[[-43.1971197, -22.7292131], [-43.1971185, -22.7293034], [-43.1970211, -22.7293023], [-43.1970223, -22.729212], [-43.1971197, -22.7292131]]]}, "properties": {"kind": "detection", "det_id": "D-SZ-fresh-guanabara-2026-08-02-001-7", "zone_id": "SZ-fresh-guanabara-2026-08-02-001", "scene_id": "S2A_MSIL2A_20260802T130301_R095_T23KPQ_20260802T222314", "datetime": "2026-08-02T13:03:01.024000Z", "n_pixels": 1, "area_m2": 100, "prob_max": 0.702, "prob_mean": 0.702, "threshold": 0.63, "in_strip": true, "artifact": "ship"}}, {"type": "Feature", "id": "D-SZ-fresh-guanabara-2026-08-02-001-8", "geometry": {"type": "Polygon", "coordinates": [[[-43.1968277, -22.7292098], [-43.1968265, -22.7293001], [-43.1967291, -22.729299], [-43.1967303, -22.7292087], [-43.1968277, -22.7292098]]]}, "properties": {"kind": "detection", "det_id": "D-SZ-fresh-guanabara-2026-08-02-001-8", "zone_id": "SZ-fresh-guanabara-2026-08-02-001", "scene_id": "S2A_MSIL2A_20260802T130301_R095_T23KPQ_20260802T222314", "datetime": "2026-08-02T13:03:01.024000Z", "n_pixels": 1, "area_m2": 100, "prob_max": 0.7294, "prob_mean": 0.7294, "threshold": 0.63, "in_strip": true, "artifact": "ship"}}, {"type": "Feature", "id": "D-SZ-fresh-guanabara-2026-08-02-001-9", "geometry": {"type": "Polygon", "coordinates": [[[-43.1966306, -22.7293882], [-43.1966282, -22.7295687], [-43.1965309, -22.7295676], [-43.1965333, -22.7293871], [-43.1966306, -22.7293882]]]}, "properties": {"kind": "detection", "det_id": "D-SZ-fresh-guanabara-2026-08-02-001-9", "zone_id": "SZ-fresh-guanabara-2026-08-02-001", "scene_id": "S2A_MSIL2A_20260802T130301_R095_T23KPQ_20260802T222314", "datetime": "2026-08-02T13:03:01.024000Z", "n_pixels": 2, "area_m2": 200, "prob_max": 0.9882, "prob_mean": 0.9765, "threshold": 0.63, "in_strip": true, "artifact": "ship"}}, {"type": "Feature", "id": "D-SZ-fresh-guanabara-2026-08-02-001-10", "geometry": {"type": "Polygon", "coordinates": [[[-43.1971149, -22.7295742], [-43.1971137, -22.7296645], [-43.1969191, -22.7296623], [-43.1969203, -22.729572], [-43.1971149, -22.7295742]]]}, "properties": {"kind": "detection", "det_id": "D-SZ-fresh-guanabara-2026-08-02-001-10", "zone_id": "SZ-fresh-guanabara-2026-08-02-001", "scene_id": "S2A_MSIL2A_20260802T130301_R095_T23KPQ_20260802T222314", "datetime": "2026-08-02T13:03:01.024000Z", "n_pixels": 2, "area_m2": 200, "prob_max": 0.9725, "prob_mean": 0.8588, "threshold": 0.63, "in_strip": true, "artifact": "ship"}}, {"type": "Feature", "id": "D-SZ-fresh-guanabara-2026-08-02-001-11", "geometry": {"type": "Polygon", "coordinates": [[[-43.1967244, -22.7296601], [-43.196722, -22.7298407], [-43.1966247, -22.7298396], [-43.1966259, -22.7297493], [-43.1965285, -22.7297482], [-43.1965297, -22.7296579], [-43.1967244, -22.7296601]]]}, "properties": {"kind": "detection", "det_id": "D-SZ-fresh-guanabara-2026-08-02-001-11", "zone_id": "SZ-fresh-guanabara-2026-08-02-001", "scene_id": "S2A_MSIL2A_20260802T130301_R095_T23KPQ_20260802T222314", "datetime": "2026-08-02T13:03:01.024000Z", "n_pixels": 3, "area_m2": 300, "prob_max": 0.9961, "prob_mean": 0.9203, "threshold": 0.63, "in_strip": true, "artifact": "ship"}}, {"type": "Feature", "id": "D-SZ-fresh-guanabara-2026-08-02-002-13", "geometry": {"type": "Polygon", "coordinates": [[[-43.0354831, -22.7319131], [-43.0354805, -22.7320937], [-43.0355778, -22.7320948], [-43.0355765, -22.7321851], [-43.0356739, -22.7321863], [-43.0356687, -22.7325475], [-43.035766, -22.7325487], [-43.0357647, -22.7326389], [-43.0353754, -22.7326342], [-43.0353767, -22.7325439], [-43.035182, -22.7325415], [-43.0351833, -22.7324512], [-43.035378, -22.7324536], [-43.0353793, -22.7323633], [-43.035282, -22.7323621], [-43.0352832, -22.7322718], [-43.0353806, -22.732273], [-43.0353857, -22.7319119], [-43.0354831, -22.7319131]]]}, "properties": {"kind": "detection", "det_id": "D-SZ-fresh-guanabara-2026-08-02-002-13", "zone_id": "SZ-fresh-guanabara-2026-08-02-002", "scene_id": "S2A_MSIL2A_20260802T130301_R095_T23KPQ_20260802T222314", "datetime": "2026-08-02T13:03:01.024000Z", "n_pixels": 23, "area_m2": 2300, "prob_max": 0.9843, "prob_mean": 0.8888, "threshold": 0.63, "in_strip": true, "artifact": "seam"}}, {"type": "Feature", "id": "D-SZ-fresh-guanabara-2026-08-02-003-14", "geometry": {"type": "Polygon", "coordinates": [[[-43.0891574, -22.7363567], [-43.0891561, -22.736447], [-43.0890588, -22.7364458], [-43.0890601, -22.7363555], [-43.0891574, -22.7363567]]]}, "properties": {"kind": "detection", "det_id": "D-SZ-fresh-guanabara-2026-08-02-003-14", "zone_id": "SZ-fresh-guanabara-2026-08-02-003", "scene_id": "S2A_MSIL2A_20260802T130301_R095_T23KPQ_20260802T222314", "datetime": "2026-08-02T13:03:01.024000Z", "n_pixels": 1, "area_m2": 100, "prob_max": 0.7333, "prob_mean": 0.7333, "threshold": 0.63, "in_strip": true, "artifact": null}}, {"type": "Feature", "id": "D-SZ-fresh-guanabara-2026-08-02-003-16", "geometry": {"type": "Polygon", "coordinates": [[[-43.08456, -22.7379271], [-43.0845562, -22.7381979], [-43.0844588, -22.7381968], [-43.0844626, -22.7379259], [-43.08456, -22.7379271]]]}, "properties": {"kind": "detection", "det_id": "D-SZ-fresh-guanabara-2026-08-02-003-16", "zone_id": "SZ-fresh-guanabara-2026-08-02-003", "scene_id": "S2A_MSIL2A_20260802T130301_R095_T23KPQ_20260802T222314", "datetime": "2026-08-02T13:03:01.024000Z", "n_pixels": 3, "area_m2": 300, "prob_max": 0.9882, "prob_mean": 0.9569, "threshold": 0.63, "in_strip": true, "artifact": null}}, {"type": "Feature", "id": "D-SZ-fresh-guanabara-2026-08-02-003-17", "geometry": {"type": "Polygon", "coordinates": [[[-43.0872804, -22.7383209], [-43.0872791, -22.7384111], [-43.0871818, -22.73841], [-43.087183, -22.7383197], [-43.0872804, -22.7383209]]]}, "properties": {"kind": "detection", "det_id": "D-SZ-fresh-guanabara-2026-08-02-003-17", "zone_id": "SZ-fresh-guanabara-2026-08-02-003", "scene_id": "S2A_MSIL2A_20260802T130301_R095_T23KPQ_20260802T222314", "datetime": "2026-08-02T13:03:01.024000Z", "n_pixels": 1, "area_m2": 100, "prob_max": 0.7137, "prob_mean": 0.7137, "threshold": 0.63, "in_strip": true, "artifact": null}}, {"type": "Feature", "id": "D-SZ-fresh-guanabara-2026-08-02-003-18", "geometry": {"type": "Polygon", "coordinates": [[[-43.0864904, -22.7391241], [-43.0864891, -22.7392144], [-43.0863918, -22.7392132], [-43.086393, -22.739123], [-43.0864904, -22.7391241]]]}, "properties": {"kind": "detection", "det_id": "D-SZ-fresh-guanabara-2026-08-02-003-18", "zone_id": "SZ-fresh-guanabara-2026-08-02-003", "scene_id": "S2A_MSIL2A_20260802T130301_R095_T23KPQ_20260802T222314", "datetime": "2026-08-02T13:03:01.024000Z", "n_pixels": 1, "area_m2": 100, "prob_max": 0.9255, "prob_mean": 0.9255, "threshold": 0.63, "in_strip": true, "artifact": null}}, {"type": "Feature", "id": "D-SZ-fresh-guanabara-2026-08-02-003-19", "geometry": {"type": "Polygon", "coordinates": [[[-43.0854159, -22.7393821], [-43.0854146, -22.7394724], [-43.0853173, -22.7394713], [-43.0853185, -22.739381], [-43.0854159, -22.7393821]]]}, "properties": {"kind": "detection", "det_id": "D-SZ-fresh-guanabara-2026-08-02-003-19", "zone_id": "SZ-fresh-guanabara-2026-08-02-003", "scene_id": "S2A_MSIL2A_20260802T130301_R095_T23KPQ_20260802T222314", "datetime": "2026-08-02T13:03:01.024000Z", "n_pixels": 1, "area_m2": 100, "prob_max": 0.8078, "prob_mean": 0.8078, "threshold": 0.63, "in_strip": true, "artifact": null}}, {"type": "Feature", "id": "D-SZ-fresh-guanabara-2026-08-02-004-24", "geometry": {"type": "Polygon", "coordinates": [[[-43.0481446, -22.7520246], [-43.0481408, -22.7522955], [-43.0477514, -22.7522907], [-43.0477501, -22.752381], [-43.0473607, -22.7523763], [-43.0473594, -22.7524665], [-43.0468727, -22.7524606], [-43.046874, -22.7523703], [-43.0464846, -22.7523655], [-43.0464859, -22.7522753], [-43.0463885, -22.7522741], [-43.0463911, -22.7520935], [-43.0478513, -22.7521114], [-43.0478526, -22.7520211], [-43.0481446, -22.7520246]]]}, "properties": {"kind": "detection", "det_id": "D-SZ-fresh-guanabara-2026-08-02-004-24", "zone_id": "SZ-fresh-guanabara-2026-08-02-004", "scene_id": "S2A_MSIL2A_20260802T130301_R095_T23KPQ_20260802T222314", "datetime": "2026-08-02T13:03:01.024000Z", "n_pixels": 57, "area_m2": 5700, "prob_max": 0.9961, "prob_mean": 0.9439, "threshold": 0.63, "in_strip": true, "artifact": null}}, {"type": "Feature", "id": "D-SZ-fresh-guanabara-2026-08-02-005-27", "geometry": {"type": "Polygon", "coordinates": [[[-43.0593167, -22.7606491], [-43.0593154, -22.7607394], [-43.0594128, -22.7607406], [-43.0594115, -22.7608308], [-43.0591194, -22.7608273], [-43.059122, -22.7606467], [-43.0593167, -22.7606491]]]}, "properties": {"kind": "detection", "det_id": "D-SZ-fresh-guanabara-2026-08-02-005-27", "zone_id": "SZ-fresh-guanabara-2026-08-02-005", "scene_id": "S2A_MSIL2A_20260802T130301_R095_T23KPQ_20260802T222314", "datetime": "2026-08-02T13:03:01.024000Z", "n_pixels": 5, "area_m2": 500, "prob_max": 1.0, "prob_mean": 0.9004, "threshold": 0.63, "in_strip": true, "artifact": null}}, {"type": "Feature", "id": "D-SZ-fresh-guanabara-2026-08-02-006-30", "geometry": {"type": "Polygon", "coordinates": [[[-43.1793404, -22.7632371], [-43.1793392, -22.7633274], [-43.1792418, -22.7633263], [-43.179243, -22.763236], [-43.1793404, -22.7632371]]]}, "properties": {"kind": "detection", "det_id": "D-SZ-fresh-guanabara-2026-08-02-006-30", "zone_id": "SZ-fresh-guanabara-2026-08-02-006", "scene_id": "S2A_MSIL2A_20260802T130301_R095_T23KPQ_20260802T222314", "datetime": "2026-08-02T13:03:01.024000Z", "n_pixels": 1, "area_m2": 100, "prob_max": 0.6549, "prob_mean": 0.6549, "threshold": 0.63, "in_strip": true, "artifact": null}}, {"type": "Feature", "id": "D-SZ-fresh-guanabara-2026-08-02-006-31", "geometry": {"type": "Polygon", "coordinates": [[[-43.1815749, -22.7636238], [-43.1815737, -22.7637141], [-43.181379, -22.7637119], [-43.1813802, -22.7636216], [-43.1815749, -22.7636238]]]}, "properties": {"kind": "detection", "det_id": "D-SZ-fresh-guanabara-2026-08-02-006-31", "zone_id": "SZ-fresh-guanabara-2026-08-02-006", "scene_id": "S2A_MSIL2A_20260802T130301_R095_T23KPQ_20260802T222314", "datetime": "2026-08-02T13:03:01.024000Z", "n_pixels": 2, "area_m2": 200, "prob_max": 0.8549, "prob_mean": 0.8412, "threshold": 0.63, "in_strip": true, "artifact": null}}, {"type": "Feature", "id": "D-SZ-fresh-guanabara-2026-08-02-006-32", "geometry": {"type": "Polygon", "coordinates": [[[-43.1824499, -22.7637241], [-43.1824475, -22.7639047], [-43.1823502, -22.7639036], [-43.1823526, -22.763723], [-43.1824499, -22.7637241]]]}, "properties": {"kind": "detection", "det_id": "D-SZ-fresh-guanabara-2026-08-02-006-32", "zone_id": "SZ-fresh-guanabara-2026-08-02-006", "scene_id": "S2A_MSIL2A_20260802T130301_R095_T23KPQ_20260802T222314", "datetime": "2026-08-02T13:03:01.024000Z", "n_pixels": 2, "area_m2": 200, "prob_max": 0.8863, "prob_mean": 0.7608, "threshold": 0.63, "in_strip": true, "artifact": null}}, {"type": "Feature", "id": "D-SZ-fresh-guanabara-2026-08-02-006-33", "geometry": {"type": "Polygon", "coordinates": [[[-43.1828334, -22.76418], [-43.1828322, -22.7642703], [-43.1826375, -22.7642681], [-43.1826387, -22.7641778], [-43.1828334, -22.76418]]]}, "properties": {"kind": "detection", "det_id": "D-SZ-fresh-guanabara-2026-08-02-006-33", "zone_id": "SZ-fresh-guanabara-2026-08-02-006", "scene_id": "S2A_MSIL2A_20260802T130301_R095_T23KPQ_20260802T222314", "datetime": "2026-08-02T13:03:01.024000Z", "n_pixels": 2, "area_m2": 200, "prob_max": 0.9922, "prob_mean": 0.8157, "threshold": 0.63, "in_strip": true, "artifact": null}}, {"type": "Feature", "id": "D-SZ-fresh-guanabara-2026-08-02-006-35", "geometry": {"type": "Polygon", "coordinates": [[[-43.1842663, -22.7662733], [-43.1842628, -22.7665442], [-43.1841654, -22.7665431], [-43.184169, -22.7662722], [-43.1842663, -22.7662733]]]}, "properties": {"kind": "detection", "det_id": "D-SZ-fresh-guanabara-2026-08-02-006-35", "zone_id": "SZ-fresh-guanabara-2026-08-02-006", "scene_id": "S2A_MSIL2A_20260802T130301_R095_T23KPQ_20260802T222314", "datetime": "2026-08-02T13:03:01.024000Z", "n_pixels": 3, "area_m2": 300, "prob_max": 0.9765, "prob_mean": 0.9346, "threshold": 0.63, "in_strip": true, "artifact": null}}, {"type": "Feature", "id": "D-SZ-fresh-guanabara-2026-08-02-006-36", "geometry": {"type": "Polygon", "coordinates": [[[-43.1844563, -22.7666367], [-43.1844551, -22.766727], [-43.1843577, -22.7667259], [-43.1843589, -22.7666356], [-43.1844563, -22.7666367]]]}, "properties": {"kind": "detection", "det_id": "D-SZ-fresh-guanabara-2026-08-02-006-36", "zone_id": "SZ-fresh-guanabara-2026-08-02-006", "scene_id": "S2A_MSIL2A_20260802T130301_R095_T23KPQ_20260802T222314", "datetime": "2026-08-02T13:03:01.024000Z", "n_pixels": 1, "area_m2": 100, "prob_max": 0.7765, "prob_mean": 0.7765, "threshold": 0.63, "in_strip": true, "artifact": null}}, {"type": "Feature", "id": "D-SZ-fresh-guanabara-2026-08-02-007-44", "geometry": {"type": "Polygon", "coordinates": [[[-43.2082202, -22.7812639], [-43.2082191, -22.7813542], [-43.2080243, -22.781352], [-43.2080255, -22.7812617], [-43.2082202, -22.7812639]]]}, "properties": {"kind": "detection", "det_id": "D-SZ-fresh-guanabara-2026-08-02-007-44", "zone_id": "SZ-fresh-guanabara-2026-08-02-007", "scene_id": "S2A_MSIL2A_20260802T130301_R095_T23KPQ_20260802T222314", "datetime": "2026-08-02T13:03:01.024000Z", "n_pixels": 2, "area_m2": 200, "prob_max": 0.7333, "prob_mean": 0.7137, "threshold": 0.63, "in_strip": true, "artifact": null}}, {"type": "Feature", "id": "D-SZ-fresh-guanabara-2026-08-02-007-45", "geometry": {"type": "Polygon", "coordinates": [[[-43.2059759, -22.7815999], [-43.2059747, -22.7816902], [-43.2060721, -22.7816913], [-43.2060709, -22.7817816], [-43.2059736, -22.7817805], [-43.2059747, -22.7816902], [-43.2058774, -22.7816891], [-43.2058785, -22.7815988], [-43.2059759, -22.7815999]]]}, "properties": {"kind": "detection", "det_id": "D-SZ-fresh-guanabara-2026-08-02-007-45", "zone_id": "SZ-fresh-guanabara-2026-08-02-007", "scene_id": "S2A_MSIL2A_20260802T130301_R095_T23KPQ_20260802T222314", "datetime": "2026-08-02T13:03:01.024000Z", "n_pixels": 2, "area_m2": 200, "prob_max": 0.8275, "prob_mean": 0.8275, "threshold": 0.63, "in_strip": true, "artifact": null}}, {"type": "Feature", "id": "D-SZ-fresh-guanabara-2026-08-02-007-46", "geometry": {"type": "Polygon", "coordinates": [[[-43.2062669, -22.7816935], [-43.2062657, -22.7817838], [-43.2061683, -22.7817827], [-43.2061695, -22.7816924], [-43.2062669, -22.7816935]]]}, "properties": {"kind": "detection", "det_id": "D-SZ-fresh-guanabara-2026-08-02-007-46", "zone_id": "SZ-fresh-guanabara-2026-08-02-007", "scene_id": "S2A_MSIL2A_20260802T130301_R095_T23KPQ_20260802T222314", "datetime": "2026-08-02T13:03:01.024000Z", "n_pixels": 1, "area_m2": 100, "prob_max": 0.8784, "prob_mean": 0.8784, "threshold": 0.63, "in_strip": true, "artifact": null}}, {"type": "Feature", "id": "D-SZ-fresh-guanabara-2026-08-02-007-47", "geometry": {"type": "Polygon", "coordinates": [[[-43.2064604, -22.781786], [-43.2064592, -22.7818763], [-43.2063619, -22.7818752], [-43.206363, -22.7817849], [-43.2064604, -22.781786]]]}, "properties": {"kind": "detection", "det_id": "D-SZ-fresh-guanabara-2026-08-02-007-47", "zone_id": "SZ-fresh-guanabara-2026-08-02-007", "scene_id": "S2A_MSIL2A_20260802T130301_R095_T23KPQ_20260802T222314", "datetime": "2026-08-02T13:03:01.024000Z", "n_pixels": 1, "area_m2": 100, "prob_max": 0.9294, "prob_mean": 0.9294, "threshold": 0.63, "in_strip": true, "artifact": null}}, {"type": "Feature", "id": "D-SZ-fresh-guanabara-2026-08-02-007-48", "geometry": {"type": "Polygon", "coordinates": [[[-43.2076207, -22.7824311], [-43.2076195, -22.7825214], [-43.2077169, -22.7825225], [-43.2077157, -22.7826128], [-43.2078131, -22.7826139], [-43.2078119, -22.7827042], [-43.2077145, -22.7827031], [-43.2077157, -22.7826128], [-43.2075209, -22.7826106], [-43.2075233, -22.7824301], [-43.2076207, -22.7824311]]]}, "properties": {"kind": "detection", "det_id": "D-SZ-fresh-guanabara-2026-08-02-007-48", "zone_id": "SZ-fresh-guanabara-2026-08-02-007", "scene_id": "S2A_MSIL2A_20260802T130301_R095_T23KPQ_20260802T222314", "datetime": "2026-08-02T13:03:01.024000Z", "n_pixels": 4, "area_m2": 400, "prob_max": 0.9725, "prob_mean": 0.7971, "threshold": 0.63, "in_strip": true, "artifact": null}}, {"type": "Feature", "id": "D-SZ-fresh-guanabara-2026-08-02-007-49", "geometry": {"type": "Polygon", "coordinates": [[[-43.2094684, -22.7826325], [-43.2094649, -22.7829034], [-43.2093675, -22.7829023], [-43.2093687, -22.782812], [-43.2092713, -22.7828109], [-43.2092725, -22.7827206], [-43.2093699, -22.7827217], [-43.2093711, -22.7826314], [-43.2094684, -22.7826325]]]}, "properties": {"kind": "detection", "det_id": "D-SZ-fresh-guanabara-2026-08-02-007-49", "zone_id": "SZ-fresh-guanabara-2026-08-02-007", "scene_id": "S2A_MSIL2A_20260802T130301_R095_T23KPQ_20260802T222314", "datetime": "2026-08-02T13:03:01.024000Z", "n_pixels": 4, "area_m2": 400, "prob_max": 0.9961, "prob_mean": 0.9039, "threshold": 0.63, "in_strip": true, "artifact": null}}, {"type": "Feature", "id": "D-SZ-fresh-guanabara-2026-08-02-007-50", "geometry": {"type": "Polygon", "coordinates": [[[-43.2119908, -22.7833832], [-43.2119896, -22.7834735], [-43.212087, -22.7834746], [-43.2120858, -22.7835649], [-43.2118911, -22.7835627], [-43.2118922, -22.7834725], [-43.2117949, -22.7834714], [-43.211796, -22.7833811], [-43.2119908, -22.7833832]]]}, "properties": {"kind": "detection", "det_id": "D-SZ-fresh-guanabara-2026-08-02-007-50", "zone_id": "SZ-fresh-guanabara-2026-08-02-007", "scene_id": "S2A_MSIL2A_20260802T130301_R095_T23KPQ_20260802T222314", "datetime": "2026-08-02T13:03:01.024000Z", "n_pixels": 4, "area_m2": 400, "prob_max": 0.9882, "prob_mean": 0.9304, "threshold": 0.63, "in_strip": true, "artifact": null}}, {"type": "Feature", "id": "D-SZ-fresh-guanabara-2026-08-02-008-53", "geometry": {"type": "Polygon", "coordinates": [[[-43.1420887, -22.7960396], [-43.1420875, -22.7961299], [-43.1419901, -22.7961287], [-43.1419913, -22.7960384], [-43.1420887, -22.7960396]]]}, "properties": {"kind": "detection", "det_id": "D-SZ-fresh-guanabara-2026-08-02-008-53", "zone_id": "SZ-fresh-guanabara-2026-08-02-008", "scene_id": "S2A_MSIL2A_20260802T130301_R095_T23KPQ_20260802T222314", "datetime": "2026-08-02T13:03:01.024000Z", "n_pixels": 1, "area_m2": 100, "prob_max": 0.8353, "prob_mean": 0.8353, "threshold": 0.63, "in_strip": true, "artifact": null}}, {"type": "Feature", "id": "D-SZ-fresh-guanabara-2026-08-02-008-54", "geometry": {"type": "Polygon", "coordinates": [[[-43.1438404, -22.7961503], [-43.1438379, -22.7963309], [-43.1437405, -22.7963297], [-43.143743, -22.7961492], [-43.1438404, -22.7961503]]]}, "properties": {"kind": "detection", "det_id": "D-SZ-fresh-guanabara-2026-08-02-008-54", "zone_id": "SZ-fresh-guanabara-2026-08-02-008", "scene_id": "S2A_MSIL2A_20260802T130301_R095_T23KPQ_20260802T222314", "datetime": "2026-08-02T13:03:01.024000Z", "n_pixels": 2, "area_m2": 200, "prob_max": 0.9059, "prob_mean": 0.8961, "threshold": 0.63, "in_strip": true, "artifact": null}}, {"type": "Feature", "id": "D-SZ-fresh-guanabara-2026-08-02-008-55", "geometry": {"type": "Polygon", "coordinates": [[[-43.1431587, -22.7961424], [-43.1431562, -22.7963229], [-43.1430589, -22.7963218], [-43.1430613, -22.7961412], [-43.1431587, -22.7961424]]]}, "properties": {"kind": "detection", "det_id": "D-SZ-fresh-guanabara-2026-08-02-008-55", "zone_id": "SZ-fresh-guanabara-2026-08-02-008", "scene_id": "S2A_MSIL2A_20260802T130301_R095_T23KPQ_20260802T222314", "datetime": "2026-08-02T13:03:01.024000Z", "n_pixels": 2, "area_m2": 200, "prob_max": 0.9255, "prob_mean": 0.851, "threshold": 0.63, "in_strip": true, "artifact": null}}, {"type": "Feature", "id": "D-SZ-fresh-guanabara-2026-08-02-008-56", "geometry": {"type": "Polygon", "coordinates": [[[-43.1455749, -22.797525], [-43.1455737, -22.7976153], [-43.1453789, -22.797613], [-43.1453801, -22.7975228], [-43.1455749, -22.797525]]]}, "properties": {"kind": "detection", "det_id": "D-SZ-fresh-guanabara-2026-08-02-008-56", "zone_id": "SZ-fresh-guanabara-2026-08-02-008", "scene_id": "S2A_MSIL2A_20260802T130301_R095_T23KPQ_20260802T222314", "datetime": "2026-08-02T13:03:01.024000Z", "n_pixels": 2, "area_m2": 200, "prob_max": 0.9725, "prob_mean": 0.951, "threshold": 0.63, "in_strip": true, "artifact": null}}, {"type": "Feature", "id": "D-SZ-fresh-guanabara-2026-08-02-008-57", "geometry": {"type": "Polygon", "coordinates": [[[-43.1433351, -22.797499], [-43.1433339, -22.7975892], [-43.1432365, -22.7975881], [-43.1432377, -22.7974978], [-43.1433351, -22.797499]]]}, "properties": {"kind": "detection", "det_id": "D-SZ-fresh-guanabara-2026-08-02-008-57", "zone_id": "SZ-fresh-guanabara-2026-08-02-008", "scene_id": "S2A_MSIL2A_20260802T130301_R095_T23KPQ_20260802T222314", "datetime": "2026-08-02T13:03:01.024000Z", "n_pixels": 1, "area_m2": 100, "prob_max": 0.8824, "prob_mean": 0.8824, "threshold": 0.63, "in_strip": true, "artifact": null}}, {"type": "Feature", "id": "D-SZ-fresh-guanabara-2026-08-02-008-58", "geometry": {"type": "Polygon", "coordinates": [[[-43.1419669, -22.7978442], [-43.1419656, -22.7979345], [-43.1418683, -22.7979334], [-43.1418695, -22.7978431], [-43.1419669, -22.7978442]]]}, "properties": {"kind": "detection", "det_id": "D-SZ-fresh-guanabara-2026-08-02-008-58", "zone_id": "SZ-fresh-guanabara-2026-08-02-008", "scene_id": "S2A_MSIL2A_20260802T130301_R095_T23KPQ_20260802T222314", "datetime": "2026-08-02T13:03:01.024000Z", "n_pixels": 1, "area_m2": 100, "prob_max": 0.7412, "prob_mean": 0.7412, "threshold": 0.63, "in_strip": true, "artifact": null}}, {"type": "Feature", "id": "D-SZ-fresh-guanabara-2026-08-02-008-59", "geometry": {"type": "Polygon", "coordinates": [[[-43.1424489, -22.7982111], [-43.1424477, -22.7983013], [-43.1423503, -22.7983002], [-43.1423515, -22.7982099], [-43.1424489, -22.7982111]]]}, "properties": {"kind": "detection", "det_id": "D-SZ-fresh-guanabara-2026-08-02-008-59", "zone_id": "SZ-fresh-guanabara-2026-08-02-008", "scene_id": "S2A_MSIL2A_20260802T130301_R095_T23KPQ_20260802T222314", "datetime": "2026-08-02T13:03:01.024000Z", "n_pixels": 1, "area_m2": 100, "prob_max": 0.8863, "prob_mean": 0.8863, "threshold": 0.63, "in_strip": true, "artifact": null}}, {"type": "Feature", "id": "D-SZ-fresh-guanabara-2026-08-02-008-60", "geometry": {"type": "Polygon", "coordinates": [[[-43.1449723, -22.7988726], [-43.1449711, -22.7989629], [-43.1448737, -22.7989617], [-43.1448749, -22.7988714], [-43.1449723, -22.7988726]]]}, "properties": {"kind": "detection", "det_id": "D-SZ-fresh-guanabara-2026-08-02-008-60", "zone_id": "SZ-fresh-guanabara-2026-08-02-008", "scene_id": "S2A_MSIL2A_20260802T130301_R095_T23KPQ_20260802T222314", "datetime": "2026-08-02T13:03:01.024000Z", "n_pixels": 1, "area_m2": 100, "prob_max": 0.9373, "prob_mean": 0.9373, "threshold": 0.63, "in_strip": true, "artifact": null}}, {"type": "Feature", "id": "D-SZ-fresh-guanabara-2026-08-02-008-61", "geometry": {"type": "Polygon", "coordinates": [[[-43.1427325, -22.7988465], [-43.1427312, -22.7989368], [-43.1426339, -22.7989356], [-43.1426351, -22.7988454], [-43.1427325, -22.7988465]]]}, "properties": {"kind": "detection", "det_id": "D-SZ-fresh-guanabara-2026-08-02-008-61", "zone_id": "SZ-fresh-guanabara-2026-08-02-008", "scene_id": "S2A_MSIL2A_20260802T130301_R095_T23KPQ_20260802T222314", "datetime": "2026-08-02T13:03:01.024000Z", "n_pixels": 1, "area_m2": 100, "prob_max": 0.8706, "prob_mean": 0.8706, "threshold": 0.63, "in_strip": true, "artifact": null}}, {"type": "Feature", "id": "D-SZ-fresh-guanabara-2026-08-02-008-62", "geometry": {"type": "Polygon", "coordinates": [[[-43.1437002, -22.7993093], [-43.143699, -22.7993996], [-43.1436016, -22.7993984], [-43.1436028, -22.7993081], [-43.1437002, -22.7993093]]]}, "properties": {"kind": "detection", "det_id": "D-SZ-fresh-guanabara-2026-08-02-008-62", "zone_id": "SZ-fresh-guanabara-2026-08-02-008", "scene_id": "S2A_MSIL2A_20260802T130301_R095_T23KPQ_20260802T222314", "datetime": "2026-08-02T13:03:01.024000Z", "n_pixels": 1, "area_m2": 100, "prob_max": 0.6353, "prob_mean": 0.6353, "threshold": 0.63, "in_strip": true, "artifact": null}}, {"type": "Feature", "id": "D-SZ-fresh-guanabara-2026-08-02-008-63", "geometry": {"type": "Polygon", "coordinates": [[[-43.1430112, -22.7998431], [-43.1430099, -22.7999334], [-43.1428152, -22.7999311], [-43.1428164, -22.7998408], [-43.1430112, -22.7998431]]]}, "properties": {"kind": "detection", "det_id": "D-SZ-fresh-guanabara-2026-08-02-008-63", "zone_id": "SZ-fresh-guanabara-2026-08-02-008", "scene_id": "S2A_MSIL2A_20260802T130301_R095_T23KPQ_20260802T222314", "datetime": "2026-08-02T13:03:01.024000Z", "n_pixels": 2, "area_m2": 200, "prob_max": 0.7569, "prob_mean": 0.7333, "threshold": 0.63, "in_strip": true, "artifact": null}}, {"type": "Feature", "id": "D-SZ-fresh-guanabara-2026-08-02-008-64", "geometry": {"type": "Polygon", "coordinates": [[[-43.143005, -22.8002945], [-43.1430038, -22.8003848], [-43.1429064, -22.8003837], [-43.1429077, -22.8002934], [-43.143005, -22.8002945]]]}, "properties": {"kind": "detection", "det_id": "D-SZ-fresh-guanabara-2026-08-02-008-64", "zone_id": "SZ-fresh-guanabara-2026-08-02-008", "scene_id": "S2A_MSIL2A_20260802T130301_R095_T23KPQ_20260802T222314", "datetime": "2026-08-02T13:03:01.024000Z", "n_pixels": 1, "area_m2": 100, "prob_max": 0.8627, "prob_mean": 0.8627, "threshold": 0.63, "in_strip": true, "artifact": null}}, {"type": "Feature", "id": "D-SZ-fresh-guanabara-2026-08-02-008-66", "geometry": {"type": "Polygon", "coordinates": [[[-43.1437804, -22.8005745], [-43.1437792, -22.8006647], [-43.1436818, -22.8006636], [-43.1436831, -22.8005733], [-43.1437804, -22.8005745]]]}, "properties": {"kind": "detection", "det_id": "D-SZ-fresh-guanabara-2026-08-02-008-66", "zone_id": "SZ-fresh-guanabara-2026-08-02-008", "scene_id": "S2A_MSIL2A_20260802T130301_R095_T23KPQ_20260802T222314", "datetime": "2026-08-02T13:03:01.024000Z", "n_pixels": 1, "area_m2": 100, "prob_max": 0.7333, "prob_mean": 0.7333, "threshold": 0.63, "in_strip": true, "artifact": null}}, {"type": "Feature", "id": "D-SZ-fresh-guanabara-2026-08-02-008-67", "geometry": {"type": "Polygon", "coordinates": [[[-43.1436574, -22.8024694], [-43.1436561, -22.8025597], [-43.1435588, -22.8025585], [-43.14356, -22.8024683], [-43.1436574, -22.8024694]]]}, "properties": {"kind": "detection", "det_id": "D-SZ-fresh-guanabara-2026-08-02-008-67", "zone_id": "SZ-fresh-guanabara-2026-08-02-008", "scene_id": "S2A_MSIL2A_20260802T130301_R095_T23KPQ_20260802T222314", "datetime": "2026-08-02T13:03:01.024000Z", "n_pixels": 1, "area_m2": 100, "prob_max": 0.9647, "prob_mean": 0.9647, "threshold": 0.63, "in_strip": true, "artifact": null}}, {"type": "Feature", "id": "D-SZ-fresh-guanabara-2026-08-02-008-68", "geometry": {"type": "Polygon", "coordinates": [[[-43.1437523, -22.8026511], [-43.1437499, -22.8028317], [-43.1436525, -22.8028306], [-43.1436549, -22.80265], [-43.1437523, -22.8026511]]]}, "properties": {"kind": "detection", "det_id": "D-SZ-fresh-guanabara-2026-08-02-008-68", "zone_id": "SZ-fresh-guanabara-2026-08-02-008", "scene_id": "S2A_MSIL2A_20260802T130301_R095_T23KPQ_20260802T222314", "datetime": "2026-08-02T13:03:01.024000Z", "n_pixels": 2, "area_m2": 200, "prob_max": 0.9843, "prob_mean": 0.9373, "threshold": 0.63, "in_strip": true, "artifact": null}}, {"type": "Feature", "id": "D-SZ-fresh-guanabara-2026-08-02-008-69", "geometry": {"type": "Polygon", "coordinates": [[[-43.1440408, -22.8029254], [-43.1440396, -22.8030157], [-43.1439422, -22.8030145], [-43.1439434, -22.8029242], [-43.1440408, -22.8029254]]]}, "properties": {"kind": "detection", "det_id": "D-SZ-fresh-guanabara-2026-08-02-008-69", "zone_id": "SZ-fresh-guanabara-2026-08-02-008", "scene_id": "S2A_MSIL2A_20260802T130301_R095_T23KPQ_20260802T222314", "datetime": "2026-08-02T13:03:01.024000Z", "n_pixels": 1, "area_m2": 100, "prob_max": 0.8, "prob_mean": 0.8, "threshold": 0.63, "in_strip": true, "artifact": "ship"}}, {"type": "Feature", "id": "D-SZ-fresh-guanabara-2026-08-02-009-70", "geometry": {"type": "Polygon", "coordinates": [[[-43.0692321, -22.803301], [-43.0692296, -22.8034816], [-43.0690348, -22.8034792], [-43.0690361, -22.8033889], [-43.0691335, -22.8033901], [-43.0691348, -22.8032998], [-43.0692321, -22.803301]]]}, "properties": {"kind": "detection", "det_id": "D-SZ-fresh-guanabara-2026-08-02-009-70", "zone_id": "SZ-fresh-guanabara-2026-08-02-009", "scene_id": "S2A_MSIL2A_20260802T130301_R095_T23KPQ_20260802T222314", "datetime": "2026-08-02T13:03:01.024000Z", "n_pixels": 3, "area_m2": 300, "prob_max": 0.9961, "prob_mean": 0.7961, "threshold": 0.63, "in_strip": true, "artifact": null}}, {"type": "Feature", "id": "D-SZ-fresh-guanabara-2026-08-02-009-71", "geometry": {"type": "Polygon", "coordinates": [[[-43.0688299, -22.8041991], [-43.0688273, -22.8043797], [-43.06873, -22.8043785], [-43.0687312, -22.8042882], [-43.0686339, -22.8042871], [-43.0686351, -22.8041968], [-43.0688299, -22.8041991]]]}, "properties": {"kind": "detection", "det_id": "D-SZ-fresh-guanabara-2026-08-02-009-71", "zone_id": "SZ-fresh-guanabara-2026-08-02-009", "scene_id": "S2A_MSIL2A_20260802T130301_R095_T23KPQ_20260802T222314", "datetime": "2026-08-02T13:03:01.024000Z", "n_pixels": 3, "area_m2": 300, "prob_max": 0.9922, "prob_mean": 0.8967, "threshold": 0.63, "in_strip": true, "artifact": null}}, {"type": "Feature", "id": "D-SZ-fresh-guanabara-2026-08-02-009-72", "geometry": {"type": "Polygon", "coordinates": [[[-43.0695103, -22.8042977], [-43.069509, -22.804388], [-43.0696064, -22.8043891], [-43.0696051, -22.8044794], [-43.0697025, -22.8044806], [-43.0697012, -22.8045709], [-43.0694091, -22.8045674], [-43.0694104, -22.8044771], [-43.0692156, -22.8044747], [-43.0692182, -22.8042941], [-43.0695103, -22.8042977]]]}, "properties": {"kind": "detection", "det_id": "D-SZ-fresh-guanabara-2026-08-02-009-72", "zone_id": "SZ-fresh-guanabara-2026-08-02-009", "scene_id": "S2A_MSIL2A_20260802T130301_R095_T23KPQ_20260802T222314", "datetime": "2026-08-02T13:03:01.024000Z", "n_pixels": 10, "area_m2": 1000, "prob_max": 0.9961, "prob_mean": 0.9376, "threshold": 0.63, "in_strip": true, "artifact": null}}, {"type": "Feature", "id": "D-SZ-fresh-guanabara-2026-08-02-010-79", "geometry": {"type": "Polygon", "coordinates": [[[-43.0876419, -22.8171584], [-43.0876394, -22.817339], [-43.087542, -22.8173378], [-43.0875446, -22.8171573], [-43.0876419, -22.8171584]]]}, "properties": {"kind": "detection", "det_id": "D-SZ-fresh-guanabara-2026-08-02-010-79", "zone_id": "SZ-fresh-guanabara-2026-08-02-010", "scene_id": "S2A_MSIL2A_20260802T130301_R095_T23KPQ_20260802T222314", "datetime": "2026-08-02T13:03:01.024000Z", "n_pixels": 2, "area_m2": 200, "prob_max": 0.9961, "prob_mean": 0.9157, "threshold": 0.63, "in_strip": true, "artifact": null}}, {"type": "Feature", "id": "D-SZ-fresh-guanabara-2026-08-02-010-80", "geometry": {"type": "Polygon", "coordinates": [[[-43.0866604, -22.8176884], [-43.0866579, -22.817869], [-43.0864631, -22.8178667], [-43.0864644, -22.8177764], [-43.0865618, -22.8177776], [-43.0865631, -22.8176873], [-43.0866604, -22.8176884]]]}, "properties": {"kind": "detection", "det_id": "D-SZ-fresh-guanabara-2026-08-02-010-80", "zone_id": "SZ-fresh-guanabara-2026-08-02-010", "scene_id": "S2A_MSIL2A_20260802T130301_R095_T23KPQ_20260802T222314", "datetime": "2026-08-02T13:03:01.024000Z", "n_pixels": 3, "area_m2": 300, "prob_max": 0.9373, "prob_mean": 0.7699, "threshold": 0.63, "in_strip": true, "artifact": null}}, {"type": "Feature", "id": "D-SZ-fresh-guanabara-2026-08-02-010-81", "geometry": {"type": "Polygon", "coordinates": [[[-43.0874207, -22.8190521], [-43.0874194, -22.8191424], [-43.087322, -22.8191412], [-43.0873233, -22.8190509], [-43.0874207, -22.8190521]]]}, "properties": {"kind": "detection", "det_id": "D-SZ-fresh-guanabara-2026-08-02-010-81", "zone_id": "SZ-fresh-guanabara-2026-08-02-010", "scene_id": "S2A_MSIL2A_20260802T130301_R095_T23KPQ_20260802T222314", "datetime": "2026-08-02T13:03:01.024000Z", "n_pixels": 1, "area_m2": 100, "prob_max": 0.8078, "prob_mean": 0.8078, "threshold": 0.63, "in_strip": true, "artifact": null}}, {"type": "Feature", "id": "D-SZ-fresh-guanabara-2026-08-02-010-82", "geometry": {"type": "Polygon", "coordinates": [[[-43.0871234, -22.8194097], [-43.0871222, -22.8195], [-43.0870248, -22.8194988], [-43.087026, -22.8194086], [-43.0871234, -22.8194097]]]}, "properties": {"kind": "detection", "det_id": "D-SZ-fresh-guanabara-2026-08-02-010-82", "zone_id": "SZ-fresh-guanabara-2026-08-02-010", "scene_id": "S2A_MSIL2A_20260802T130301_R095_T23KPQ_20260802T222314", "datetime": "2026-08-02T13:03:01.024000Z", "n_pixels": 1, "area_m2": 100, "prob_max": 0.6627, "prob_mean": 0.6627, "threshold": 0.63, "in_strip": true, "artifact": null}}, {"type": "Feature", "id": "D-SZ-fresh-guanabara-2026-08-02-010-83", "geometry": {"type": "Polygon", "coordinates": [[[-43.0872183, -22.8195915], [-43.0872171, -22.8196818], [-43.0871197, -22.8196806], [-43.0871209, -22.8195903], [-43.0872183, -22.8195915]]]}, "properties": {"kind": "detection", "det_id": "D-SZ-fresh-guanabara-2026-08-02-010-83", "zone_id": "SZ-fresh-guanabara-2026-08-02-010", "scene_id": "S2A_MSIL2A_20260802T130301_R095_T23KPQ_20260802T222314", "datetime": "2026-08-02T13:03:01.024000Z", "n_pixels": 1, "area_m2": 100, "prob_max": 0.7373, "prob_mean": 0.7373, "threshold": 0.63, "in_strip": true, "artifact": null}}, {"type": "Feature", "id": "D-SZ-fresh-guanabara-2026-08-02-010-84", "geometry": {"type": "Polygon", "coordinates": [[[-43.0888551, -22.8209656], [-43.0888539, -22.8210559], [-43.0886591, -22.8210536], [-43.0886603, -22.8209633], [-43.0888551, -22.8209656]]]}, "properties": {"kind": "detection", "det_id": "D-SZ-fresh-guanabara-2026-08-02-010-84", "zone_id": "SZ-fresh-guanabara-2026-08-02-010", "scene_id": "S2A_MSIL2A_20260802T130301_R095_T23KPQ_20260802T222314", "datetime": "2026-08-02T13:03:01.024000Z", "n_pixels": 2, "area_m2": 200, "prob_max": 0.6745, "prob_mean": 0.6667, "threshold": 0.63, "in_strip": true, "artifact": null}}, {"type": "Feature", "id": "D-SZ-fresh-guanabara-2026-08-02-011-121", "geometry": {"type": "Polygon", "coordinates": [[[-43.1163764, -22.923244], [-43.1163752, -22.9233343], [-43.1161802, -22.9233319], [-43.1161815, -22.9232417], [-43.1163764, -22.923244]]]}, "properties": {"kind": "detection", "det_id": "D-SZ-fresh-guanabara-2026-08-02-011-121", "zone_id": "SZ-fresh-guanabara-2026-08-02-011", "scene_id": "S2A_MSIL2A_20260802T130301_R095_T23KPQ_20260802T222314", "datetime": "2026-08-02T13:03:01.024000Z", "n_pixels": 2, "area_m2": 200, "prob_max": 0.9647, "prob_mean": 0.8902, "threshold": 0.63, "in_strip": true, "artifact": null}}, {"type": "Feature", "id": "D-SZ-fresh-guanabara-2026-08-02-011-122", "geometry": {"type": "Polygon", "coordinates": [[[-43.1184171, -22.9237197], [-43.1184158, -22.92381], [-43.1182209, -22.9238076], [-43.1182221, -22.9237174], [-43.1184171, -22.9237197]]]}, "properties": {"kind": "detection", "det_id": "D-SZ-fresh-guanabara-2026-08-02-011-122", "zone_id": "SZ-fresh-guanabara-2026-08-02-011", "scene_id": "S2A_MSIL2A_20260802T130301_R095_T23KPQ_20260802T222314", "datetime": "2026-08-02T13:03:01.024000Z", "n_pixels": 2, "area_m2": 200, "prob_max": 0.9098, "prob_mean": 0.8627, "threshold": 0.63, "in_strip": true, "artifact": null}}, {"type": "Feature", "id": "D-SZ-fresh-guanabara-2026-08-02-011-123", "geometry": {"type": "Polygon", "coordinates": [[[-43.1179972, -22.9258819], [-43.117996, -22.9259722], [-43.1178985, -22.9259711], [-43.1178998, -22.9258808], [-43.1179972, -22.9258819]]]}, "properties": {"kind": "detection", "det_id": "D-SZ-fresh-guanabara-2026-08-02-011-123", "zone_id": "SZ-fresh-guanabara-2026-08-02-011", "scene_id": "S2A_MSIL2A_20260802T130301_R095_T23KPQ_20260802T222314", "datetime": "2026-08-02T13:03:01.024000Z", "n_pixels": 1, "area_m2": 100, "prob_max": 0.6431, "prob_mean": 0.6431, "threshold": 0.63, "in_strip": true, "artifact": null}}]}