{"type": "FeatureCollection", "features": [{"type": "Feature", "id": "D-SZ-drift-guanabara-2025-09-09-001-1", "geometry": {"type": "Polygon", "coordinates": [[[-43.0536701, -22.7055872], [-43.0536688, -22.7056775], [-43.0535715, -22.7056763], [-43.0535728, -22.705586], [-43.0536701, -22.7055872]]]}, "properties": {"kind": "detection", "det_id": "D-SZ-drift-guanabara-2025-09-09-001-1", "zone_id": "SZ-drift-guanabara-2025-09-09-001", "scene_id": "S2B_MSIL2A_20250909T130249_R095_T23KPQ_20250909T163025", "datetime": "2025-09-09T13:02:49.024000Z", "n_pixels": 1, "area_m2": 100, "prob_max": 0.6745, "prob_mean": 0.6745, "threshold": 0.63, "in_strip": true, "artifact": null}}, {"type": "Feature", "id": "D-SZ-drift-guanabara-2025-09-09-001-2", "geometry": {"type": "Polygon", "coordinates": [[[-43.0534755, -22.7055848], [-43.0534742, -22.7056751], [-43.0529876, -22.7056692], [-43.0529864, -22.7057595], [-43.052889, -22.7057583], [-43.0528903, -22.705668], [-43.052793, -22.7056668], [-43.0527917, -22.7057571], [-43.0526944, -22.7057559], [-43.0526957, -22.7056657], [-43.0525984, -22.7056645], [-43.0525971, -22.7057548], [-43.0523052, -22.7057512], [-43.0523064, -22.7056609], [-43.0521118, -22.7056585], [-43.0521105, -22.7057488], [-43.0519159, -22.7057465], [-43.0519172, -22.7056562], [-43.0515279, -22.7056514], [-43.0515267, -22.7057417], [-43.0509428, -22.7057346], [-43.0509441, -22.7056443], [-43.0508468, -22.7056431], [-43.050848, -22.7055528], [-43.052697, -22.7055754], [-43.0526957, -22.7056657], [-43.052793, -22.7056668], [-43.0527943, -22.7055766], [-43.0534755, -22.7055848]]]}, "properties": {"kind": "detection", "det_id": "D-SZ-drift-guanabara-2025-09-09-001-2", "zone_id": "SZ-drift-guanabara-2025-09-09-001", "scene_id": "S2B_MSIL2A_20250909T130249_R095_T23KPQ_20250909T163025", "datetime": "2025-09-09T13:02:49.024000Z", "n_pixels": 39, "area_m2": 3900, "prob_max": 0.949, "prob_mean": 0.8292, "threshold": 0.63, "in_strip": true, "artifact": null}}, {"type": "Feature", "id": "D-SZ-drift-guanabara-2025-09-09-001-3", "geometry": {"type": "Polygon", "coordinates": [[[-43.0505561, -22.7055493], [-43.0505548, -22.7056396], [-43.0504575, -22.7056384], [-43.0504588, -22.7055481], [-43.0505561, -22.7055493]]]}, "properties": {"kind": "detection", "det_id": "D-SZ-drift-guanabara-2025-09-09-001-3", "zone_id": "SZ-drift-guanabara-2025-09-09-001", "scene_id": "S2B_MSIL2A_20250909T130249_R095_T23KPQ_20250909T163025", "datetime": "2025-09-09T13:02:49.024000Z", "n_pixels": 1, "area_m2": 100, "prob_max": 0.6902, "prob_mean": 0.6902, "threshold": 0.63, "in_strip": true, "artifact": null}}, {"type": "Feature", "id": "D-SZ-drift-guanabara-2025-09-09-002-6", "geometry": {"type": "Polygon", "coordinates": [[[-43.0528752, -22.7136143], [-43.052874, -22.7137046], [-43.0530686, -22.713707], [-43.0530673, -22.7137973], [-43.0531646, -22.7137984], [-43.0531634, -22.7138887], [-43.0535526, -22.7138935], [-43.0535514, -22.7139838], [-43.053746, -22.7139861], [-43.0537422, -22.714257], [-43.0536448, -22.7142558], [-43.0536461, -22.7141655], [-43.0534515, -22.7141631], [-43.0534528, -22.7140729], [-43.0531608, -22.7140693], [-43.0531621, -22.713979], [-43.0530648, -22.7139778], [-43.053066, -22.7138875], [-43.0528714, -22.7138852], [-43.052874, -22.7137046], [-43.052582, -22.713701], [-43.0525833, -22.7136108], [-43.0528752, -22.7136143]]]}, "properties": {"kind": "detection", "det_id": "D-SZ-drift-guanabara-2025-09-09-002-6", "zone_id": "SZ-drift-guanabara-2025-09-09-002", "scene_id": "S2B_MSIL2A_20250909T130249_R095_T23KPQ_20250909T163025", "datetime": "2025-09-09T13:02:49.024000Z", "n_pixels": 23, "area_m2": 2300, "prob_max": 0.9137, "prob_mean": 0.8038, "threshold": 0.63, "in_strip": true, "artifact": null}}, {"type": "Feature", "id": "D-SZ-drift-guanabara-2025-09-09-002-9", "geometry": {"type": "Polygon", "coordinates": [[[-43.0515781, -22.715856], [-43.0515769, -22.7159463], [-43.0514795, -22.7159451], [-43.0514808, -22.7158548], [-43.0515781, -22.715856]]]}, "properties": {"kind": "detection", "det_id": "D-SZ-drift-guanabara-2025-09-09-002-9", "zone_id": "SZ-drift-guanabara-2025-09-09-002", "scene_id": "S2B_MSIL2A_20250909T130249_R095_T23KPQ_20250909T163025", "datetime": "2025-09-09T13:02:49.024000Z", "n_pixels": 1, "area_m2": 100, "prob_max": 0.6745, "prob_mean": 0.6745, "threshold": 0.63, "in_strip": true, "artifact": null}}, {"type": "Feature", "id": "D-SZ-drift-guanabara-2025-09-09-002-10", "geometry": {"type": "Polygon", "coordinates": [[[-43.0530341, -22.7161447], [-43.0530328, -22.716235], [-43.0531301, -22.7162361], [-43.0531289, -22.7163264], [-43.0533235, -22.7163288], [-43.0533197, -22.7165997], [-43.0530277, -22.7165961], [-43.053029, -22.7165058], [-43.052737, -22.7165023], [-43.0527383, -22.716412], [-43.0525437, -22.7164096], [-43.0525475, -22.7161387], [-43.0530341, -22.7161447]]]}, "properties": {"kind": "detection", "det_id": "D-SZ-drift-guanabara-2025-09-09-002-10", "zone_id": "SZ-drift-guanabara-2025-09-09-002", "scene_id": "S2B_MSIL2A_20250909T130249_R095_T23KPQ_20250909T163025", "datetime": "2025-09-09T13:02:49.024000Z", "n_pixels": 28, "area_m2": 2800, "prob_max": 0.9961, "prob_mean": 0.9151, "threshold": 0.63, "in_strip": true, "artifact": null}}, {"type": "Feature", "id": "D-SZ-drift-guanabara-2025-09-09-003-7", "geometry": {"type": "Polygon", "coordinates": [[[-43.1663462, -22.7154075], [-43.166345, -22.7154978], [-43.1662476, -22.7154967], [-43.1662488, -22.7154064], [-43.1663462, -22.7154075]]]}, "properties": {"kind": "detection", "det_id": "D-SZ-drift-guanabara-2025-09-09-003-7", "zone_id": "SZ-drift-guanabara-2025-09-09-003", "scene_id": "S2B_MSIL2A_20250909T130249_R095_T23KPQ_20250909T163025", "datetime": "2025-09-09T13:02:49.024000Z", "n_pixels": 1, "area_m2": 100, "prob_max": 0.8706, "prob_mean": 0.8706, "threshold": 0.63, "in_strip": true, "artifact": null}}, {"type": "Feature", "id": "D-SZ-drift-guanabara-2025-09-09-003-8", "geometry": {"type": "Polygon", "coordinates": [[[-43.1664411, -22.7155892], [-43.1664399, -22.7156795], [-43.1665372, -22.7156806], [-43.1665348, -22.7158612], [-43.1664375, -22.7158601], [-43.1664387, -22.7157698], [-43.1663413, -22.7157686], [-43.1663438, -22.7155881], [-43.1664411, -22.7155892]]]}, "properties": {"kind": "detection", "det_id": "D-SZ-drift-guanabara-2025-09-09-003-8", "zone_id": "SZ-drift-guanabara-2025-09-09-003", "scene_id": "S2B_MSIL2A_20250909T130249_R095_T23KPQ_20250909T163025", "datetime": "2025-09-09T13:02:49.024000Z", "n_pixels": 4, "area_m2": 400, "prob_max": 0.9961, "prob_mean": 0.9843, "threshold": 0.63, "in_strip": true, "artifact": null}}, {"type": "Feature", "id": "D-SZ-drift-guanabara-2025-09-09-004-14", "geometry": {"type": "Polygon", "coordinates": [[[-43.1773253, -22.7242926], [-43.1773241, -22.7243829], [-43.1772267, -22.7243818], [-43.1772279, -22.7242915], [-43.1773253, -22.7242926]]]}, "properties": {"kind": "detection", "det_id": "D-SZ-drift-guanabara-2025-09-09-004-14", "zone_id": "SZ-drift-guanabara-2025-09-09-004", "scene_id": "S2B_MSIL2A_20250909T130249_R095_T23KPQ_20250909T163025", "datetime": "2025-09-09T13:02:49.024000Z", "n_pixels": 1, "area_m2": 100, "prob_max": 0.9765, "prob_mean": 0.9765, "threshold": 0.63, "in_strip": true, "artifact": null}}, {"type": "Feature", "id": "D-SZ-drift-guanabara-2025-09-09-004-15", "geometry": {"type": "Polygon", "coordinates": [[[-43.1775175, -22.7244754], [-43.1775164, -22.7245657], [-43.177419, -22.7245646], [-43.1774202, -22.7244743], [-43.1775175, -22.7244754]]]}, "properties": {"kind": "detection", "det_id": "D-SZ-drift-guanabara-2025-09-09-004-15", "zone_id": "SZ-drift-guanabara-2025-09-09-004", "scene_id": "S2B_MSIL2A_20250909T130249_R095_T23KPQ_20250909T163025", "datetime": "2025-09-09T13:02:49.024000Z", "n_pixels": 1, "area_m2": 100, "prob_max": 0.8902, "prob_mean": 0.8902, "threshold": 0.63, "in_strip": true, "artifact": null}}, {"type": "Feature", "id": "D-SZ-drift-guanabara-2025-09-09-004-16", "geometry": {"type": "Polygon", "coordinates": [[[-43.1787793, -22.7247607], [-43.1787781, -22.724851], [-43.1786808, -22.7248499], [-43.178682, -22.7247596], [-43.1787793, -22.7247607]]]}, "properties": {"kind": "detection", "det_id": "D-SZ-drift-guanabara-2025-09-09-004-16", "zone_id": "SZ-drift-guanabara-2025-09-09-004", "scene_id": "S2B_MSIL2A_20250909T130249_R095_T23KPQ_20250909T163025", "datetime": "2025-09-09T13:02:49.024000Z", "n_pixels": 1, "area_m2": 100, "prob_max": 0.8039, "prob_mean": 0.8039, "threshold": 0.63, "in_strip": true, "artifact": null}}, {"type": "Feature", "id": "D-SZ-drift-guanabara-2025-09-09-004-17", "geometry": {"type": "Polygon", "coordinates": [[[-43.1827687, -22.7248965], [-43.1827664, -22.725077], [-43.1825717, -22.7250748], [-43.1825705, -22.7251651], [-43.1824732, -22.725164], [-43.182472, -22.7252543], [-43.1822773, -22.7252521], [-43.1822761, -22.7253424], [-43.1821788, -22.7253413], [-43.1821776, -22.7254316], [-43.1819829, -22.7254294], [-43.1819817, -22.7255196], [-43.1818844, -22.7255185], [-43.1818868, -22.725338], [-43.1817894, -22.7253368], [-43.1817883, -22.7254271], [-43.1815936, -22.7254249], [-43.1815948, -22.7253346], [-43.1816921, -22.7253357], [-43.1816933, -22.7252455], [-43.181888, -22.7252477], [-43.1818892, -22.7251574], [-43.1819865, -22.7251585], [-43.1819877, -22.7250682], [-43.1821824, -22.7250704], [-43.1821836, -22.7249801], [-43.1822809, -22.7249812], [-43.1822821, -22.7248909], [-43.1827687, -22.7248965]]]}, "properties": {"kind": "detection", "det_id": "D-SZ-drift-guanabara-2025-09-09-004-17", "zone_id": "SZ-drift-guanabara-2025-09-09-004", "scene_id": "S2B_MSIL2A_20250909T130249_R095_T23KPQ_20250909T163025", "datetime": "2025-09-09T13:02:49.024000Z", "n_pixels": 35, "area_m2": 3500, "prob_max": 0.9922, "prob_mean": 0.9457, "threshold": 0.63, "in_strip": true, "artifact": "ship"}}, {"type": "Feature", "id": "D-SZ-drift-guanabara-2025-09-09-004-18", "geometry": {"type": "Polygon", "coordinates": [[[-43.178092, -22.7252044], [-43.1780908, -22.7252947], [-43.1779934, -22.7252936], [-43.1779923, -22.7253839], [-43.1778949, -22.7253828], [-43.1778973, -22.7252022], [-43.178092, -22.7252044]]]}, "properties": {"kind": "detection", "det_id": "D-SZ-drift-guanabara-2025-09-09-004-18", "zone_id": "SZ-drift-guanabara-2025-09-09-004", "scene_id": "S2B_MSIL2A_20250909T130249_R095_T23KPQ_20250909T163025", "datetime": "2025-09-09T13:02:49.024000Z", "n_pixels": 3, "area_m2": 300, "prob_max": 0.9843, "prob_mean": 0.9216, "threshold": 0.63, "in_strip": true, "artifact": "ship"}}, {"type": "Feature", "id": "D-SZ-drift-guanabara-2025-09-09-004-19", "geometry": {"type": "Polygon", "coordinates": [[[-43.1814001, -22.7253324], [-43.1813977, -22.725513], [-43.1813004, -22.7255119], [-43.1813028, -22.7253313], [-43.1814001, -22.7253324]]]}, "properties": {"kind": "detection", "det_id": "D-SZ-drift-guanabara-2025-09-09-004-19", "zone_id": "SZ-drift-guanabara-2025-09-09-004", "scene_id": "S2B_MSIL2A_20250909T130249_R095_T23KPQ_20250909T163025", "datetime": "2025-09-09T13:02:49.024000Z", "n_pixels": 2, "area_m2": 200, "prob_max": 0.8314, "prob_mean": 0.8294, "threshold": 0.63, "in_strip": true, "artifact": "ship"}}, {"type": "Feature", "id": "D-SZ-drift-guanabara-2025-09-09-004-20", "geometry": {"type": "Polygon", "coordinates": [[[-43.1790605, -22.7255767], [-43.1790581, -22.7257573], [-43.1788635, -22.7257551], [-43.1788647, -22.7256648], [-43.178962, -22.7256659], [-43.1789632, -22.7255756], [-43.1790605, -22.7255767]]]}, "properties": {"kind": "detection", "det_id": "D-SZ-drift-guanabara-2025-09-09-004-20", "zone_id": "SZ-drift-guanabara-2025-09-09-004", "scene_id": "S2B_MSIL2A_20250909T130249_R095_T23KPQ_20250909T163025", "datetime": "2025-09-09T13:02:49.024000Z", "n_pixels": 3, "area_m2": 300, "prob_max": 0.9765, "prob_mean": 0.8026, "threshold": 0.63, "in_strip": true, "artifact": "ship"}}, {"type": "Feature", "id": "D-SZ-drift-guanabara-2025-09-09-005-22", "geometry": {"type": "Polygon", "coordinates": [[[-43.1992895, -22.7270702], [-43.1992883, -22.7271605], [-43.1990936, -22.7271583], [-43.1990948, -22.727068], [-43.1992895, -22.7270702]]]}, "properties": {"kind": "detection", "det_id": "D-SZ-drift-guanabara-2025-09-09-005-22", "zone_id": "SZ-drift-guanabara-2025-09-09-005", "scene_id": "S2B_MSIL2A_20250909T130249_R095_T23KPQ_20250909T163025", "datetime": "2025-09-09T13:02:49.024000Z", "n_pixels": 2, "area_m2": 200, "prob_max": 0.8, "prob_mean": 0.7863, "threshold": 0.63, "in_strip": true, "artifact": null}}, {"type": "Feature", "id": "D-SZ-drift-guanabara-2025-09-09-005-24", "geometry": {"type": "Polygon", "coordinates": [[[-43.1995649, -22.7283376], [-43.1995637, -22.7284279], [-43.1993691, -22.7284257], [-43.1993702, -22.7283354], [-43.1995649, -22.7283376]]]}, "properties": {"kind": "detection", "det_id": "D-SZ-drift-guanabara-2025-09-09-005-24", "zone_id": "SZ-drift-guanabara-2025-09-09-005", "scene_id": "S2B_MSIL2A_20250909T130249_R095_T23KPQ_20250909T163025", "datetime": "2025-09-09T13:02:49.024000Z", "n_pixels": 2, "area_m2": 200, "prob_max": 0.7373, "prob_mean": 0.7059, "threshold": 0.63, "in_strip": true, "artifact": null}}, {"type": "Feature", "id": "D-SZ-drift-guanabara-2025-09-09-005-26", "geometry": {"type": "Polygon", "coordinates": [[[-43.2007223, -22.7291634], [-43.2007211, -22.7292536], [-43.2006238, -22.7292526], [-43.200625, -22.7291623], [-43.2007223, -22.7291634]]]}, "properties": {"kind": "detection", "det_id": "D-SZ-drift-guanabara-2025-09-09-005-26", "zone_id": "SZ-drift-guanabara-2025-09-09-005", "scene_id": "S2B_MSIL2A_20250909T130249_R095_T23KPQ_20250909T163025", "datetime": "2025-09-09T13:02:49.024000Z", "n_pixels": 1, "area_m2": 100, "prob_max": 0.6941, "prob_mean": 0.6941, "threshold": 0.63, "in_strip": true, "artifact": null}}, {"type": "Feature", "id": "D-SZ-drift-guanabara-2025-09-09-005-27", "geometry": {"type": "Polygon", "coordinates": [[[-43.2008173, -22.729345], [-43.2008149, -22.7295256], [-43.2007176, -22.7295245], [-43.20072, -22.7293439], [-43.2008173, -22.729345]]]}, "properties": {"kind": "detection", "det_id": "D-SZ-drift-guanabara-2025-09-09-005-27", "zone_id": "SZ-drift-guanabara-2025-09-09-005", "scene_id": "S2B_MSIL2A_20250909T130249_R095_T23KPQ_20250909T163025", "datetime": "2025-09-09T13:02:49.024000Z", "n_pixels": 2, "area_m2": 200, "prob_max": 0.7843, "prob_mean": 0.7157, "threshold": 0.63, "in_strip": true, "artifact": null}}, {"type": "Feature", "id": "D-SZ-drift-guanabara-2025-09-09-005-28", "geometry": {"type": "Polygon", "coordinates": [[[-43.200809, -22.7299771], [-43.2008078, -22.7300674], [-43.2007105, -22.7300663], [-43.2007117, -22.729976], [-43.200809, -22.7299771]]]}, "properties": {"kind": "detection", "det_id": "D-SZ-drift-guanabara-2025-09-09-005-28", "zone_id": "SZ-drift-guanabara-2025-09-09-005", "scene_id": "S2B_MSIL2A_20250909T130249_R095_T23KPQ_20250909T163025", "datetime": "2025-09-09T13:02:49.024000Z", "n_pixels": 1, "area_m2": 100, "prob_max": 0.6941, "prob_mean": 0.6941, "threshold": 0.63, "in_strip": true, "artifact": null}}, {"type": "Feature", "id": "D-SZ-drift-guanabara-2025-09-09-006-23", "geometry": {"type": "Polygon", "coordinates": [[[-43.040236, -22.7262825], [-43.0402347, -22.7263728], [-43.040332, -22.726374], [-43.0403307, -22.7264643], [-43.0404281, -22.7264655], [-43.0404268, -22.7265558], [-43.0400375, -22.726551], [-43.0400387, -22.7264607], [-43.0399414, -22.7264595], [-43.0399427, -22.7263692], [-43.0398454, -22.726368], [-43.0398467, -22.7262778], [-43.040236, -22.7262825]]]}, "properties": {"kind": "detection", "det_id": "D-SZ-drift-guanabara-2025-09-09-006-23", "zone_id": "SZ-drift-guanabara-2025-09-09-006", "scene_id": "S2B_MSIL2A_20250909T130249_R095_T23KPQ_20250909T163025", "datetime": "2025-09-09T13:02:49.024000Z", "n_pixels": 12, "area_m2": 1200, "prob_max": 1.0, "prob_mean": 0.9663, "threshold": 0.63, "in_strip": true, "artifact": null}}, {"type": "Feature", "id": "D-SZ-drift-guanabara-2025-09-09-006-29", "geometry": {"type": "Polygon", "coordinates": [[[-43.0422515, -22.7282938], [-43.0422503, -22.7283841], [-43.0426396, -22.7283889], [-43.0426383, -22.7284792], [-43.0421516, -22.7284732], [-43.0421542, -22.7282927], [-43.0422515, -22.7282938]]]}, "properties": {"kind": "detection", "det_id": "D-SZ-drift-guanabara-2025-09-09-006-29", "zone_id": "SZ-drift-guanabara-2025-09-09-006", "scene_id": "S2B_MSIL2A_20250909T130249_R095_T23KPQ_20250909T163025", "datetime": "2025-09-09T13:02:49.024000Z", "n_pixels": 6, "area_m2": 600, "prob_max": 0.9765, "prob_mean": 0.9229, "threshold": 0.63, "in_strip": true, "artifact": "seam"}}, {"type": "Feature", "id": "D-SZ-drift-guanabara-2025-09-09-006-30", "geometry": {"type": "Polygon", "coordinates": [[[-43.0428304, -22.7286621], [-43.0428291, -22.7287524], [-43.0427318, -22.7287512], [-43.042733, -22.7286609], [-43.0428304, -22.7286621]]]}, "properties": {"kind": "detection", "det_id": "D-SZ-drift-guanabara-2025-09-09-006-30", "zone_id": "SZ-drift-guanabara-2025-09-09-006", "scene_id": "S2B_MSIL2A_20250909T130249_R095_T23KPQ_20250909T163025", "datetime": "2025-09-09T13:02:49.024000Z", "n_pixels": 1, "area_m2": 100, "prob_max": 0.949, "prob_mean": 0.949, "threshold": 0.63, "in_strip": true, "artifact": null}}, {"type": "Feature", "id": "D-SZ-drift-guanabara-2025-09-09-007-25", "geometry": {"type": "Polygon", "coordinates": [[[-43.0461626, -22.7270775], [-43.0461613, -22.7271678], [-43.0462587, -22.727169], [-43.0462574, -22.7272593], [-43.0463547, -22.7272605], [-43.0463534, -22.7273507], [-43.0464507, -22.7273519], [-43.0464495, -22.7274422], [-43.0465468, -22.7274434], [-43.0465455, -22.7275337], [-43.0467402, -22.7275361], [-43.0467389, -22.7276264], [-43.0469335, -22.7276287], [-43.0469323, -22.727719], [-43.0472242, -22.7277226], [-43.047223, -22.7278129], [-43.0474176, -22.7278153], [-43.0474163, -22.7279055], [-43.047611, -22.7279079], [-43.0476097, -22.7279982], [-43.047707, -22.7279994], [-43.0477045, -22.72818], [-43.0475098, -22.7281776], [-43.0475111, -22.7280873], [-43.0471218, -22.7280825], [-43.0471231, -22.7279923], [-43.0469284, -22.7279899], [-43.0469297, -22.7278996], [-43.046735, -22.7278972], [-43.0467363, -22.7278069], [-43.0465417, -22.7278045], [-43.0465429, -22.7277143], [-43.0463483, -22.7277119], [-43.0463496, -22.7276216], [-43.0461549, -22.7276192], [-43.0461562, -22.7275289], [-43.0460589, -22.7275277], [-43.0460602, -22.7274375], [-43.0458655, -22.7274351], [-43.0458668, -22.7273448], [-43.0457695, -22.7273436], [-43.0457733, -22.7270727], [-43.0461626, -22.7270775]]]}, "properties": {"kind": "detection", "det_id": "D-SZ-drift-guanabara-2025-09-09-007-25", "zone_id": "SZ-drift-guanabara-2025-09-09-007", "scene_id": "S2B_MSIL2A_20250909T130249_R095_T23KPQ_20250909T163025", "datetime": "2025-09-09T13:02:49.024000Z", "n_pixels": 67, "area_m2": 6700, "prob_max": 1.0, "prob_mean": 0.9508, "threshold": 0.63, "in_strip": true, "artifact": null}}, {"type": "Feature", "id": "D-SZ-drift-guanabara-2025-09-09-007-32", "geometry": {"type": "Polygon", "coordinates": [[[-43.0488429, -22.7302708], [-43.0488417, -22.7303611], [-43.0491336, -22.7303646], [-43.0491324, -22.7304549], [-43.049327, -22.7304573], [-43.0493257, -22.7305476], [-43.0494231, -22.7305488], [-43.0494218, -22.730639], [-43.0496164, -22.7306414], [-43.0496139, -22.730822], [-43.0498085, -22.7308244], [-43.0498073, -22.7309147], [-43.0497099, -22.7309135], [-43.0497087, -22.7310037], [-43.049514, -22.7310014], [-43.0495153, -22.7309111], [-43.0494179, -22.7309099], [-43.0494192, -22.7308196], [-43.0492246, -22.7308172], [-43.0492258, -22.730727], [-43.0490312, -22.7307246], [-43.0490325, -22.7306343], [-43.0488378, -22.7306319], [-43.0488391, -22.7305416], [-43.0487418, -22.7305404], [-43.0487443, -22.7303599], [-43.048647, -22.7303587], [-43.0486483, -22.7302684], [-43.0488429, -22.7302708]], [[-43.0496139, -22.730822], [-43.0495166, -22.7308208], [-43.0495153, -22.7309111], [-43.0496126, -22.7309123], [-43.0496139, -22.730822]]]}, "properties": {"kind": "detection", "det_id": "D-SZ-drift-guanabara-2025-09-09-007-32", "zone_id": "SZ-drift-guanabara-2025-09-09-007", "scene_id": "S2B_MSIL2A_20250909T130249_R095_T23KPQ_20250909T163025", "datetime": "2025-09-09T13:02:49.024000Z", "n_pixels": 33, "area_m2": 3300, "prob_max": 0.9961, "prob_mean": 0.9381, "threshold": 0.63, "in_strip": true, "artifact": null}}, {"type": "Feature", "id": "D-SZ-drift-guanabara-2025-09-09-007-33", "geometry": {"type": "Polygon", "coordinates": [[[-43.0500019, -22.730917], [-43.0500006, -22.7310073], [-43.0499033, -22.7310061], [-43.0499046, -22.7309158], [-43.0500019, -22.730917]]]}, "properties": {"kind": "detection", "det_id": "D-SZ-drift-guanabara-2025-09-09-007-33", "zone_id": "SZ-drift-guanabara-2025-09-09-007", "scene_id": "S2B_MSIL2A_20250909T130249_R095_T23KPQ_20250909T163025", "datetime": "2025-09-09T13:02:49.024000Z", "n_pixels": 1, "area_m2": 100, "prob_max": 0.7412, "prob_mean": 0.7412, "threshold": 0.63, "in_strip": true, "artifact": null}}, {"type": "Feature", "id": "D-SZ-drift-guanabara-2025-09-09-007-34", "geometry": {"type": "Polygon", "coordinates": [[[-43.0506794, -22.7311962], [-43.0506781, -22.7312865], [-43.0507754, -22.7312877], [-43.0507742, -22.731378], [-43.0509688, -22.7313803], [-43.0509663, -22.7315609], [-43.0506743, -22.7315573], [-43.0506756, -22.731467], [-43.0505782, -22.7314659], [-43.0505769, -22.7315561], [-43.0504796, -22.731555], [-43.0504822, -22.7313744], [-43.0503848, -22.7313732], [-43.0503861, -22.7312829], [-43.0501915, -22.7312805], [-43.0501927, -22.7311903], [-43.0506794, -22.7311962]]]}, "properties": {"kind": "detection", "det_id": "D-SZ-drift-guanabara-2025-09-09-007-34", "zone_id": "SZ-drift-guanabara-2025-09-09-007", "scene_id": "S2B_MSIL2A_20250909T130249_R095_T23KPQ_20250909T163025", "datetime": "2025-09-09T13:02:49.024000Z", "n_pixels": 18, "area_m2": 1800, "prob_max": 0.9765, "prob_mean": 0.785, "threshold": 0.63, "in_strip": true, "artifact": null}}, {"type": "Feature", "id": "D-SZ-drift-guanabara-2025-09-09-007-36", "geometry": {"type": "Polygon", "coordinates": [[[-43.0512583, -22.7315645], [-43.051257, -22.7316547], [-43.051549, -22.7316583], [-43.0515464, -22.7318389], [-43.0513518, -22.7318365], [-43.0513505, -22.7319268], [-43.0512531, -22.7319256], [-43.0512544, -22.7318353], [-43.0510598, -22.7318329], [-43.051061, -22.7317427], [-43.0509637, -22.7317415], [-43.050965, -22.7316512], [-43.0511596, -22.7316536], [-43.0511609, -22.7315633], [-43.0512583, -22.7315645]]]}, "properties": {"kind": "detection", "det_id": "D-SZ-drift-guanabara-2025-09-09-007-36", "zone_id": "SZ-drift-guanabara-2025-09-09-007", "scene_id": "S2B_MSIL2A_20250909T130249_R095_T23KPQ_20250909T163025", "datetime": "2025-09-09T13:02:49.024000Z", "n_pixels": 13, "area_m2": 1300, "prob_max": 0.8745, "prob_mean": 0.7701, "threshold": 0.63, "in_strip": true, "artifact": null}}, {"type": "Feature", "id": "D-SZ-drift-guanabara-2025-09-09-008-38", "geometry": {"type": "Polygon", "coordinates": [[[-43.0398114, -22.7355782], [-43.0398101, -22.7356685], [-43.0399075, -22.7356697], [-43.0399062, -22.73576], [-43.0397115, -22.7357576], [-43.0397141, -22.7355771], [-43.0398114, -22.7355782]]]}, "properties": {"kind": "detection", "det_id": "D-SZ-drift-guanabara-2025-09-09-008-38", "zone_id": "SZ-drift-guanabara-2025-09-09-008", "scene_id": "S2B_MSIL2A_20250909T130249_R095_T23KPQ_20250909T163025", "datetime": "2025-09-09T13:02:49.024000Z", "n_pixels": 3, "area_m2": 300, "prob_max": 0.8745, "prob_mean": 0.8588, "threshold": 0.63, "in_strip": true, "artifact": null}}, {"type": "Feature", "id": "D-SZ-drift-guanabara-2025-09-09-008-39", "geometry": {"type": "Polygon", "coordinates": [[[-43.0396155, -22.7356661], [-43.0396142, -22.7357564], [-43.0394195, -22.735754], [-43.0394208, -22.7356638], [-43.0396155, -22.7356661]]]}, "properties": {"kind": "detection", "det_id": "D-SZ-drift-guanabara-2025-09-09-008-39", "zone_id": "SZ-drift-guanabara-2025-09-09-008", "scene_id": "S2B_MSIL2A_20250909T130249_R095_T23KPQ_20250909T163025", "datetime": "2025-09-09T13:02:49.024000Z", "n_pixels": 2, "area_m2": 200, "prob_max": 0.8549, "prob_mean": 0.851, "threshold": 0.63, "in_strip": true, "artifact": null}}, {"type": "Feature", "id": "D-SZ-drift-guanabara-2025-09-09-009-52", "geometry": {"type": "Polygon", "coordinates": [[[-43.0569864, -22.7533064], [-43.0569851, -22.7533967], [-43.0568878, -22.7533955], [-43.0568891, -22.7533052], [-43.0569864, -22.7533064]]]}, "properties": {"kind": "detection", "det_id": "D-SZ-drift-guanabara-2025-09-09-009-52", "zone_id": "SZ-drift-guanabara-2025-09-09-009", "scene_id": "S2B_MSIL2A_20250909T130249_R095_T23KPQ_20250909T163025", "datetime": "2025-09-09T13:02:49.024000Z", "n_pixels": 1, "area_m2": 100, "prob_max": 0.7255, "prob_mean": 0.7255, "threshold": 0.63, "in_strip": true, "artifact": null}}, {"type": "Feature", "id": "D-SZ-drift-guanabara-2025-09-09-009-53", "geometry": {"type": "Polygon", "coordinates": [[[-43.0591127, -22.7544159], [-43.0591102, -22.7545964], [-43.0590128, -22.7545952], [-43.0590115, -22.7546855], [-43.0591089, -22.7546867], [-43.0591076, -22.754777], [-43.0588156, -22.7547735], [-43.0588168, -22.7546832], [-43.0589142, -22.7546844], [-43.0589167, -22.7545038], [-43.0588194, -22.7545026], [-43.0588207, -22.7544123], [-43.0591127, -22.7544159]]]}, "properties": {"kind": "detection", "det_id": "D-SZ-drift-guanabara-2025-09-09-009-53", "zone_id": "SZ-drift-guanabara-2025-09-09-009", "scene_id": "S2B_MSIL2A_20250909T130249_R095_T23KPQ_20250909T163025", "datetime": "2025-09-09T13:02:49.024000Z", "n_pixels": 9, "area_m2": 900, "prob_max": 0.9843, "prob_mean": 0.8797, "threshold": 0.63, "in_strip": true, "artifact": null}}, {"type": "Feature", "id": "D-SZ-drift-guanabara-2025-09-09-010-54", "geometry": {"type": "Polygon", "coordinates": [[[-43.0478038, -22.7554519], [-43.0478025, -22.7555422], [-43.0478999, -22.7555434], [-43.0478986, -22.7556336], [-43.0478012, -22.7556325], [-43.0478, -22.7557227], [-43.0477026, -22.7557216], [-43.0477013, -22.7558118], [-43.047604, -22.7558106], [-43.0476053, -22.7557204], [-43.0475079, -22.7557192], [-43.0475092, -22.7556289], [-43.0474118, -22.7556277], [-43.0474144, -22.7554471], [-43.0478038, -22.7554519]]]}, "properties": {"kind": "detection", "det_id": "D-SZ-drift-guanabara-2025-09-09-010-54", "zone_id": "SZ-drift-guanabara-2025-09-09-010", "scene_id": "S2B_MSIL2A_20250909T130249_R095_T23KPQ_20250909T163025", "datetime": "2025-09-09T13:02:49.024000Z", "n_pixels": 13, "area_m2": 1300, "prob_max": 0.9804, "prob_mean": 0.838, "threshold": 0.63, "in_strip": true, "artifact": "ship"}}, {"type": "Feature", "id": "D-SZ-drift-guanabara-2025-09-09-011-77", "geometry": {"type": "Polygon", "coordinates": [[[-43.0789059, -22.8010701], [-43.0789034, -22.8012506], [-43.0787087, -22.8012483], [-43.0787112, -22.8010677], [-43.0789059, -22.8010701]]]}, "properties": {"kind": "detection", "det_id": "D-SZ-drift-guanabara-2025-09-09-011-77", "zone_id": "SZ-drift-guanabara-2025-09-09-011", "scene_id": "S2B_MSIL2A_20250909T130249_R095_T23KPQ_20250909T163025", "datetime": "2025-09-09T13:02:49.024000Z", "n_pixels": 4, "area_m2": 400, "prob_max": 0.9843, "prob_mean": 0.9765, "threshold": 0.63, "in_strip": true, "artifact": null}}, {"type": "Feature", "id": "D-SZ-drift-guanabara-2025-09-09-011-79", "geometry": {"type": "Polygon", "coordinates": [[[-43.0785114, -22.8014265], [-43.0785101, -22.8015168], [-43.0784127, -22.8015156], [-43.078414, -22.8014253], [-43.0785114, -22.8014265]]]}, "properties": {"kind": "detection", "det_id": "D-SZ-drift-guanabara-2025-09-09-011-79", "zone_id": "SZ-drift-guanabara-2025-09-09-011", "scene_id": "S2B_MSIL2A_20250909T130249_R095_T23KPQ_20250909T163025", "datetime": "2025-09-09T13:02:49.024000Z", "n_pixels": 1, "area_m2": 100, "prob_max": 0.8157, "prob_mean": 0.8157, "threshold": 0.63, "in_strip": true, "artifact": null}}, {"type": "Feature", "id": "D-SZ-drift-guanabara-2025-09-09-011-80", "geometry": {"type": "Polygon", "coordinates": [[[-43.0768559, -22.8014065], [-43.0768546, -22.8014968], [-43.0767572, -22.8014957], [-43.076756, -22.8015859], [-43.0766586, -22.8015848], [-43.0766611, -22.8014042], [-43.0768559, -22.8014065]]]}, "properties": {"kind": "detection", "det_id": "D-SZ-drift-guanabara-2025-09-09-011-80", "zone_id": "SZ-drift-guanabara-2025-09-09-011", "scene_id": "S2B_MSIL2A_20250909T130249_R095_T23KPQ_20250909T163025", "datetime": "2025-09-09T13:02:49.024000Z", "n_pixels": 3, "area_m2": 300, "prob_max": 0.9882, "prob_mean": 0.885, "threshold": 0.63, "in_strip": true, "artifact": null}}, {"type": "Feature", "id": "D-SZ-drift-guanabara-2025-09-09-012-82", "geometry": {"type": "Polygon", "coordinates": [[[-43.069327, -22.8034828], [-43.0693257, -22.803573], [-43.0691309, -22.8035707], [-43.0691322, -22.8034804], [-43.069327, -22.8034828]]]}, "properties": {"kind": "detection", "det_id": "D-SZ-drift-guanabara-2025-09-09-012-82", "zone_id": "SZ-drift-guanabara-2025-09-09-012", "scene_id": "S2B_MSIL2A_20250909T130249_R095_T23KPQ_20250909T163025", "datetime": "2025-09-09T13:02:49.024000Z", "n_pixels": 2, "area_m2": 200, "prob_max": 0.7176, "prob_mean": 0.6824, "threshold": 0.63, "in_strip": true, "artifact": "ship"}}, {"type": "Feature", "id": "D-SZ-drift-guanabara-2025-09-09-012-83", "geometry": {"type": "Polygon", "coordinates": [[[-43.0690247, -22.8042015], [-43.0690221, -22.8043821], [-43.0692169, -22.8043844], [-43.0692156, -22.8044747], [-43.0690208, -22.8044724], [-43.0690196, -22.8045626], [-43.0689222, -22.8045615], [-43.0689235, -22.8044712], [-43.0687287, -22.8044688], [-43.06873, -22.8043785], [-43.0686326, -22.8043773], [-43.0686339, -22.8042871], [-43.0685365, -22.8042859], [-43.0685377, -22.8041956], [-43.0686351, -22.8041968], [-43.0686339, -22.8042871], [-43.068926, -22.8042906], [-43.0689273, -22.8042003], [-43.0690247, -22.8042015]]]}, "properties": {"kind": "detection", "det_id": "D-SZ-drift-guanabara-2025-09-09-012-83", "zone_id": "SZ-drift-guanabara-2025-09-09-012", "scene_id": "S2B_MSIL2A_20250909T130249_R095_T23KPQ_20250909T163025", "datetime": "2025-09-09T13:02:49.024000Z", "n_pixels": 12, "area_m2": 1200, "prob_max": 0.9961, "prob_mean": 0.883, "threshold": 0.63, "in_strip": true, "artifact": "ship"}}, {"type": "Feature", "id": "D-SZ-drift-guanabara-2025-09-09-012-84", "geometry": {"type": "Polygon", "coordinates": [[[-43.0699959, -22.8043939], [-43.0699947, -22.8044841], [-43.0701894, -22.8044865], [-43.0701882, -22.8045768], [-43.0703829, -22.8045791], [-43.0703817, -22.8046694], [-43.0701869, -22.8046671], [-43.0701856, -22.8047574], [-43.0699909, -22.804755], [-43.0699934, -22.8045744], [-43.069896, -22.8045733], [-43.0698986, -22.8043927], [-43.0699959, -22.8043939]]]}, "properties": {"kind": "detection", "det_id": "D-SZ-drift-guanabara-2025-09-09-012-84", "zone_id": "SZ-drift-guanabara-2025-09-09-012", "scene_id": "S2B_MSIL2A_20250909T130249_R095_T23KPQ_20250909T163025", "datetime": "2025-09-09T13:02:49.024000Z", "n_pixels": 10, "area_m2": 1000, "prob_max": 0.9922, "prob_mean": 0.8933, "threshold": 0.63, "in_strip": true, "artifact": "ship"}}, {"type": "Feature", "id": "D-SZ-drift-guanabara-2025-09-09-012-85", "geometry": {"type": "Polygon", "coordinates": [[[-43.0698012, -22.8043915], [-43.0697986, -22.8045721], [-43.0697012, -22.8045709], [-43.0697, -22.8046612], [-43.0696026, -22.80466], [-43.0696039, -22.8045697], [-43.0695065, -22.8045685], [-43.0695078, -22.8044782], [-43.0696051, -22.8044794], [-43.0696064, -22.8043891], [-43.0698012, -22.8043915]]]}, "properties": {"kind": "detection", "det_id": "D-SZ-drift-guanabara-2025-09-09-012-85", "zone_id": "SZ-drift-guanabara-2025-09-09-012", "scene_id": "S2B_MSIL2A_20250909T130249_R095_T23KPQ_20250909T163025", "datetime": "2025-09-09T13:02:49.024000Z", "n_pixels": 6, "area_m2": 600, "prob_max": 0.9961, "prob_mean": 0.8817, "threshold": 0.63, "in_strip": true, "artifact": "ship"}}, {"type": "Feature", "id": "D-SZ-drift-guanabara-2025-09-09-013-89", "geometry": {"type": "Polygon", "coordinates": [[[-43.0868779, -22.8160656], [-43.0868767, -22.8161559], [-43.0867793, -22.8161548], [-43.0867805, -22.8160645], [-43.0868779, -22.8160656]]]}, "properties": {"kind": "detection", "det_id": "D-SZ-drift-guanabara-2025-09-09-013-89", "zone_id": "SZ-drift-guanabara-2025-09-09-013", "scene_id": "S2B_MSIL2A_20250909T130249_R095_T23KPQ_20250909T163025", "datetime": "2025-09-09T13:02:49.024000Z", "n_pixels": 1, "area_m2": 100, "prob_max": 0.9882, "prob_mean": 0.9882, "threshold": 0.63, "in_strip": true, "artifact": null}}, {"type": "Feature", "id": "D-SZ-drift-guanabara-2025-09-09-013-91", "geometry": {"type": "Polygon", "coordinates": [[[-43.0876533, -22.8163458], [-43.0876508, -22.8165264], [-43.0875534, -22.8165253], [-43.0875546, -22.816435], [-43.0874573, -22.8164338], [-43.0874585, -22.8163435], [-43.0876533, -22.8163458]]]}, "properties": {"kind": "detection", "det_id": "D-SZ-drift-guanabara-2025-09-09-013-91", "zone_id": "SZ-drift-guanabara-2025-09-09-013", "scene_id": "S2B_MSIL2A_20250909T130249_R095_T23KPQ_20250909T163025", "datetime": "2025-09-09T13:02:49.024000Z", "n_pixels": 3, "area_m2": 300, "prob_max": 0.7647, "prob_mean": 0.6915, "threshold": 0.63, "in_strip": true, "artifact": "ship"}}, {"type": "Feature", "id": "D-SZ-drift-guanabara-2025-09-09-013-92", "geometry": {"type": "Polygon", "coordinates": [[[-43.0858813, -22.8176791], [-43.08588, -22.8177694], [-43.0857826, -22.8177682], [-43.0857814, -22.8178585], [-43.085684, -22.8178573], [-43.0856865, -22.8176767], [-43.0858813, -22.8176791]]]}, "properties": {"kind": "detection", "det_id": "D-SZ-drift-guanabara-2025-09-09-013-92", "zone_id": "SZ-drift-guanabara-2025-09-09-013", "scene_id": "S2B_MSIL2A_20250909T130249_R095_T23KPQ_20250909T163025", "datetime": "2025-09-09T13:02:49.024000Z", "n_pixels": 3, "area_m2": 300, "prob_max": 0.9647, "prob_mean": 0.9307, "threshold": 0.63, "in_strip": true, "artifact": null}}, {"type": "Feature", "id": "D-SZ-drift-guanabara-2025-09-09-014-110", "geometry": {"type": "Polygon", "coordinates": [[[-43.1452513, -22.850168], [-43.1452488, -22.8503486], [-43.1451514, -22.8503474], [-43.1451539, -22.8501669], [-43.1452513, -22.850168]]]}, "properties": {"kind": "detection", "det_id": "D-SZ-drift-guanabara-2025-09-09-014-110", "zone_id": "SZ-drift-guanabara-2025-09-09-014", "scene_id": "S2B_MSIL2A_20250909T130249_R095_T23KPQ_20250909T163025", "datetime": "2025-09-09T13:02:49.024000Z", "n_pixels": 2, "area_m2": 200, "prob_max": 1.0, "prob_mean": 1.0, "threshold": 0.63, "in_strip": true, "artifact": null}}, {"type": "Feature", "id": "D-SZ-drift-guanabara-2025-09-09-014-111", "geometry": {"type": "Polygon", "coordinates": [[[-43.1456348, -22.850624], [-43.1456336, -22.8507143], [-43.1455362, -22.8507131], [-43.1455374, -22.8506229], [-43.1456348, -22.850624]]]}, "properties": {"kind": "detection", "det_id": "D-SZ-drift-guanabara-2025-09-09-014-111", "zone_id": "SZ-drift-guanabara-2025-09-09-014", "scene_id": "S2B_MSIL2A_20250909T130249_R095_T23KPQ_20250909T163025", "datetime": "2025-09-09T13:02:49.024000Z", "n_pixels": 1, "area_m2": 100, "prob_max": 0.8353, "prob_mean": 0.8353, "threshold": 0.63, "in_strip": true, "artifact": null}}, {"type": "Feature", "id": "D-SZ-drift-guanabara-2025-09-09-014-112", "geometry": {"type": "Polygon", "coordinates": [[[-43.1463934, -22.852168], [-43.1463909, -22.8523486], [-43.1462935, -22.8523474], [-43.146296, -22.8521668], [-43.1463934, -22.852168]]]}, "properties": {"kind": "detection", "det_id": "D-SZ-drift-guanabara-2025-09-09-014-112", "zone_id": "SZ-drift-guanabara-2025-09-09-014", "scene_id": "S2B_MSIL2A_20250909T130249_R095_T23KPQ_20250909T163025", "datetime": "2025-09-09T13:02:49.024000Z", "n_pixels": 2, "area_m2": 200, "prob_max": 0.9961, "prob_mean": 0.9765, "threshold": 0.63, "in_strip": true, "artifact": null}}, {"type": "Feature", "id": "D-SZ-drift-guanabara-2025-09-09-015-113", "geometry": {"type": "Polygon", "coordinates": [[[-43.1580731, -22.8531163], [-43.1580694, -22.8533872], [-43.157972, -22.8533861], [-43.1579732, -22.8532958], [-43.1578758, -22.8532946], [-43.1578782, -22.8531141], [-43.1580731, -22.8531163]]]}, "properties": {"kind": "detection", "det_id": "D-SZ-drift-guanabara-2025-09-09-015-113", "zone_id": "SZ-drift-guanabara-2025-09-09-015", "scene_id": "S2B_MSIL2A_20250909T130249_R095_T23KPQ_20250909T163025", "datetime": "2025-09-09T13:02:49.024000Z", "n_pixels": 5, "area_m2": 500, "prob_max": 0.9922, "prob_mean": 0.9349, "threshold": 0.63, "in_strip": true, "artifact": null}}, {"type": "Feature", "id": "D-SZ-drift-guanabara-2025-09-09-016-122", "geometry": {"type": "Polygon", "coordinates": [[[-43.2043167, -22.8857934], [-43.2043155, -22.8858837], [-43.2042181, -22.8858826], [-43.2042169, -22.8859729], [-43.2039245, -22.8859696], [-43.2039257, -22.8858793], [-43.2041206, -22.8858815], [-43.2041218, -22.8857912], [-43.2043167, -22.8857934]]]}, "properties": {"kind": "detection", "det_id": "D-SZ-drift-guanabara-2025-09-09-016-122", "zone_id": "SZ-drift-guanabara-2025-09-09-016", "scene_id": "S2B_MSIL2A_20250909T130249_R095_T23KPQ_20250909T163025", "datetime": "2025-09-09T13:02:49.024000Z", "n_pixels": 5, "area_m2": 500, "prob_max": 0.9647, "prob_mean": 0.9396, "threshold": 0.63, "in_strip": true, "artifact": null}}]}