{"type": "FeatureCollection", "features": [{"type": "Feature", "id": "SZ-drift-guanabara-2025-09-09-001", "geometry": {"type": "Polygon", "coordinates": [[[-43.05513, -22.705605], [-43.055025, -22.706145], [-43.054529, -22.706772], [-43.052967, -22.707114], [-43.049953, -22.706896], [-43.049278, -22.706437], [-43.048998, -22.705621], [-43.05513, -22.705605]]]}, "properties": {"kind": "detection_zone", "layer_kind": "scene_zone", "zone_id": "SZ-drift-guanabara-2025-09-09-001", "scene_key": "drift-guanabara-2025-09-09", "scene_kind": "drift", "scene_id": "S2B_MSIL2A_20250909T130249_R095_T23KPQ_20250909T163025", "region": "guanabara", "title": "Залив Гуанабара (Рио-де-Жанейро) · зона 1", "mission": "Sentinel-2", "datetime": "2025-09-09T13:02:49.024000Z", "detection_status": "insufficient_data", "status": "insufficient_data", "concentration_status": "unavailable", "quantity": {"status": "not_confirmed", "label": "концентрация по снимку не подтверждена", "detail": "перевод площади в штуки не показываем: нет калибровочных пар (см. docs/QUANTITY.md)"}, "verification": "false_alarm_signs", "training_scene": null, "flags": ["ship", "shallow"], "n_cozar_filaments": 0, "crop_file": "crops/SZ-drift-guanabara-2025-09-09-001.jpg", "wind_high": false, "measured": {"zone_area_km2": 0.0859, "suspicious_area_m2": 4100, "n_pixels": 41, "n_objects": 3, "water_km2": 0.0894, "lwd_m2_km2": 45861.3, "lwd_note": null, "quality": {"valid_water_fraction": 1.0, "cloud_fraction": 0.0, "glint_fraction": 0.0}, "model": {"weights": "weights/lgbm", "file": "weights/lgbm/model.txt", "sha256": "0eeebf43fcccd8c7c07f053b7ec723229d1a3c9b92d12eec1bdb269258c51470", "sha256_short": "0eeebf43fccc", "trained_at": "2026-09-25T01:35:55Z", "threshold": 0.63, "harmonize": "none", "class": "MARIDA Marine Debris (любой плавающий мусор, не только пластик)"}}, "probable": {"prob_max": 0.949, "prob_mean": 0.822, "signs": {"foam": {"flag": false, "white_ratio_b2_b8": 0.233, "wind10m_ms": 3.18, "rule": "прирост B2 над водой ≥ 0.8 прироста B8 («белый» спектр) или ветер ≥ 7.0 м/с"}, "glint": {"flag": false, "b11_water_median": 0.0023, "glint_share": 0.0, "rule": "медиана B11 воды зоны > 0.01 или ≥ 20 % пикселей зоны — блик (маска качества)"}, "ship": {"flag": true, "share": 0, "bright_target_px_within_500m": 29, "rule": "≥ 30 % пикселей — у яркой цели или кильватера (reports/artifacts.md) или яркая цель с откликом в SWIR (судно, лодка: B11 ≥ 0,015) ближе 500 м, или малый яркий объект (≤ 40 пикс.) с B11 ≥ 0,01 ближе 500 м (лодка с кильватером)"}, "coast": {"flag": false, "land_px_within_300m": 0, "rule": "суша (маска качества) ближе 300 м — прибой, кромка берега"}, "shallow": {"flag": true, "b3_water_zone": 0.027, "b3_ratio_to_scene_water": 1.02, "rule": "медиана B3 воды зоны ≥ 2× медианы воды снимка и ≥ 0,03, или B4 воды зоны ≥ 0,02 и (≥ 2× воды снимка или B8 ≥ 0,013) — мелководье, яркое дно, илистая банка"}, "seam": {"flag": false, "share": 0, "rule": "≥ 30 % пикселей — прямая линия вдоль трека/границы яркости (шов)"}, "cloud": {"flag": false, "cloud_fraction": 0.0, "rule": "облака или тени облаков (маска качества) ≥ 20 % зоны"}, "diag": {"dist_land_m": null, "dist_bright_m": 706, "n_bright_px_500m": 0, "b11_bright_max_500m": null, "b4_water_zone": 0.0248, "b8_water_zone": 0.0154, "b11_det_median": 0.0024, "b8_det_median": 0.028, "water_scene_b3": 0.0264, "water_scene_b4": 0.0188, "n_det_px": 41, "n_obj": 3}, "note": "эвристики, не классификатор; на размеченных данных не проверены"}, "n_cozar_filaments": 0}, "field_nearby": {"items": [{"source": "ADIS (4TU.ResearchData, судовая камера)", "segment_id": 336436, "ship": "Bark Europa", "date": "2022-10-31", "days_from_scene": -1044, "distance_km": 347.4, "lon": -40.0369, "lat": -24.05508, "n_items": 0, "area_km2": 0.3704, "size_class": "> 5 см", "c_items_km2": 0.0, "ci95_lo": 0.0, "ci95_hi": 9.96, "ci95_method": "точный интервал Пуассона для N, делённый на A", "raw_10cm_items_km2": 0.0, "authors_cal_10cm_items_km2": 0.0, "authors_cal_10cm_lo95": null, "authors_cal_10cm_hi95": null}, {"source": "ADIS (4TU.ResearchData, судовая камера)", "segment_id": 336437, "ship": "Bark Europa", "date": "2022-10-31", "days_from_scene": -1044, "distance_km": 348.5, "lon": -40.06524, "lat": -24.14022, "n_items": 0, "area_km2": 0.3705, "size_class": "> 5 см", "c_items_km2": 0.0, "ci95_lo": 0.0, "ci95_hi": 9.96, "ci95_method": "точный интервал Пуассона для N, делённый на A", "raw_10cm_items_km2": 0.0, "authors_cal_10cm_items_km2": 0.0, "authors_cal_10cm_lo95": null, "authors_cal_10cm_hi95": null}, {"source": "ADIS (4TU.ResearchData, судовая камера)", "segment_id": 336438, "ship": "Bark Europa", "date": "2022-10-31", "days_from_scene": -1044, "distance_km": 349.7, "lon": -40.09594, "lat": -24.22453, "n_items": 0, "area_km2": 0.3702, "size_class": "> 5 см", "c_items_km2": 0.0, "ci95_lo": 0.0, "ci95_hi": 9.96, "ci95_method": "точный интервал Пуассона для N, делённый на A", "raw_10cm_items_km2": 0.0, "authors_cal_10cm_items_km2": 0.0, "authors_cal_10cm_lo95": null, "authors_cal_10cm_hi95": null}], "nearest_organizer_sample": {"sample_id": "MPL-0513", "source_id": "S2_SARGASSO_MSM41", "distance_km": 5301.6}, "note": "Измерение ≠ оценка: это независимые полевые счёты C = N/A в другое время и в другом месте; со сценой они не связаны и не калибруют её. Ближайший отрезок ADIS — за 347 км: только для порядка величин."}}}, {"type": "Feature", "id": "SZ-drift-guanabara-2025-09-09-002", "geometry": {"type": "Polygon", "coordinates": [[[-43.052894, -22.71226], [-43.054637, -22.712913], [-43.055206, -22.714004], [-43.054898, -22.715084], [-43.054408, -22.715349], [-43.054783, -22.716347], [-43.054676, -22.717068], [-43.05418, -22.717694], [-43.053301, -22.717954], [-43.052233, -22.71776], [-43.051462, -22.717209], [-43.050588, -22.717018], [-43.05002, -22.715927], [-43.050325, -22.715028], [-43.051012, -22.714585], [-43.051499, -22.714591], [-43.051122, -22.713683], [-43.051427, -22.712784], [-43.052115, -22.712341], [-43.052894, -22.71226]]]}, "properties": {"kind": "detection_zone", "layer_kind": "scene_zone", "zone_id": "SZ-drift-guanabara-2025-09-09-002", "scene_key": "drift-guanabara-2025-09-09", "scene_kind": "drift", "scene_id": "S2B_MSIL2A_20250909T130249_R095_T23KPQ_20250909T163025", "region": "guanabara", "title": "Залив Гуанабара (Рио-де-Жанейро) · зона 2", "mission": "Sentinel-2", "datetime": "2025-09-09T13:02:49.024000Z", "detection_status": "insufficient_data", "status": "insufficient_data", "concentration_status": "unavailable", "quantity": {"status": "not_confirmed", "label": "концентрация по снимку не подтверждена", "detail": "перевод площади в штуки не показываем: нет калибровочных пар (см. docs/QUANTITY.md)"}, "verification": "false_alarm_signs", "training_scene": null, "flags": ["ship", "shallow"], "n_cozar_filaments": 0, "crop_file": "crops/SZ-drift-guanabara-2025-09-09-002.jpg", "wind_high": false, "measured": {"zone_area_km2": 0.2322, "suspicious_area_m2": 5200, "n_pixels": 52, "n_objects": 3, "water_km2": 0.234, "lwd_m2_km2": 22222.2, "lwd_note": null, "quality": {"valid_water_fraction": 1.0, "cloud_fraction": 0.0, "glint_fraction": 0.0}, "model": {"weights": "weights/lgbm", "file": "weights/lgbm/model.txt", "sha256": "0eeebf43fcccd8c7c07f053b7ec723229d1a3c9b92d12eec1bdb269258c51470", "sha256_short": "0eeebf43fccc", "trained_at": "2026-09-25T01:35:55Z", "threshold": 0.63, "harmonize": "none", "class": "MARIDA Marine Debris (любой плавающий мусор, не только пластик)"}}, "probable": {"prob_max": 0.996, "prob_mean": 0.861, "signs": {"foam": {"flag": false, "white_ratio_b2_b8": -0.145, "wind10m_ms": 3.18, "rule": "прирост B2 над водой ≥ 0.8 прироста B8 («белый» спектр) или ветер ≥ 7.0 м/с"}, "glint": {"flag": false, "b11_water_median": 0.0025, "glint_share": 0.0, "rule": "медиана B11 воды зоны > 0.01 или ≥ 20 % пикселей зоны — блик (маска качества)"}, "ship": {"flag": true, "share": 0, "bright_target_px_within_500m": 23, "rule": "≥ 30 % пикселей — у яркой цели или кильватера (reports/artifacts.md) или яркая цель с откликом в SWIR (судно, лодка: B11 ≥ 0,015) ближе 500 м, или малый яркий объект (≤ 40 пикс.) с B11 ≥ 0,01 ближе 500 м (лодка с кильватером)"}, "coast": {"flag": false, "land_px_within_300m": 0, "rule": "суша (маска качества) ближе 300 м — прибой, кромка берега"}, "shallow": {"flag": true, "b3_water_zone": 0.024, "b3_ratio_to_scene_water": 0.91, "rule": "медиана B3 воды зоны ≥ 2× медианы воды снимка и ≥ 0,03, или B4 воды зоны ≥ 0,02 и (≥ 2× воды снимка или B8 ≥ 0,013) — мелководье, яркое дно, илистая банка"}, "seam": {"flag": false, "share": 0, "rule": "≥ 30 % пикселей — прямая линия вдоль трека/границы яркости (шов)"}, "cloud": {"flag": false, "cloud_fraction": 0.0, "rule": "облака или тени облаков (маска качества) ≥ 20 % зоны"}, "diag": {"dist_land_m": null, "dist_bright_m": 10, "n_bright_px_500m": 31, "b11_bright_max_500m": 0.0247, "b4_water_zone": 0.0219, "b8_water_zone": 0.0141, "b11_det_median": 0.0025, "b8_det_median": 0.0277, "water_scene_b3": 0.0264, "water_scene_b4": 0.0188, "n_det_px": 52, "n_obj": 3}, "note": "эвристики, не классификатор; на размеченных данных не проверены"}, "n_cozar_filaments": 0}, "field_nearby": {"items": [{"source": "ADIS (4TU.ResearchData, судовая камера)", "segment_id": 336436, "ship": "Bark Europa", "date": "2022-10-31", "days_from_scene": -1044, "distance_km": 347.4, "lon": -40.0369, "lat": -24.05508, "n_items": 0, "area_km2": 0.3704, "size_class": "> 5 см", "c_items_km2": 0.0, "ci95_lo": 0.0, "ci95_hi": 9.96, "ci95_method": "точный интервал Пуассона для N, делённый на A", "raw_10cm_items_km2": 0.0, "authors_cal_10cm_items_km2": 0.0, "authors_cal_10cm_lo95": null, "authors_cal_10cm_hi95": null}, {"source": "ADIS (4TU.ResearchData, судовая камера)", "segment_id": 336437, "ship": "Bark Europa", "date": "2022-10-31", "days_from_scene": -1044, "distance_km": 348.5, "lon": -40.06524, "lat": -24.14022, "n_items": 0, "area_km2": 0.3705, "size_class": "> 5 см", "c_items_km2": 0.0, "ci95_lo": 0.0, "ci95_hi": 9.96, "ci95_method": "точный интервал Пуассона для N, делённый на A", "raw_10cm_items_km2": 0.0, "authors_cal_10cm_items_km2": 0.0, "authors_cal_10cm_lo95": null, "authors_cal_10cm_hi95": null}, {"source": "ADIS (4TU.ResearchData, судовая камера)", "segment_id": 336438, "ship": "Bark Europa", "date": "2022-10-31", "days_from_scene": -1044, "distance_km": 349.7, "lon": -40.09594, "lat": -24.22453, "n_items": 0, "area_km2": 0.3702, "size_class": "> 5 см", "c_items_km2": 0.0, "ci95_lo": 0.0, "ci95_hi": 9.96, "ci95_method": "точный интервал Пуассона для N, делённый на A", "raw_10cm_items_km2": 0.0, "authors_cal_10cm_items_km2": 0.0, "authors_cal_10cm_lo95": null, "authors_cal_10cm_hi95": null}], "nearest_organizer_sample": {"sample_id": "MPL-0513", "source_id": "S2_SARGASSO_MSM41", "distance_km": 5301.6}, "note": "Измерение ≠ оценка: это независимые полевые счёты C = N/A в другое время и в другом месте; со сценой они не связаны и не калибруют её. Ближайший отрезок ADIS — за 347 км: только для порядка величин."}}}, {"type": "Feature", "id": "SZ-drift-guanabara-2025-09-09-003", "geometry": {"type": "Polygon", "coordinates": [[[-43.166364, -22.714053], [-43.167525, -22.714608], [-43.167997, -22.715697], [-43.167692, -22.716687], [-43.166517, -22.717216], [-43.165934, -22.717119], [-43.165163, -22.716568], [-43.164788, -22.71548], [-43.165092, -22.71458], [-43.165779, -22.714137], [-43.166364, -22.714053]]]}, "properties": {"kind": "detection_zone", "layer_kind": "scene_zone", "zone_id": "SZ-drift-guanabara-2025-09-09-003", "scene_key": "drift-guanabara-2025-09-09", "scene_kind": "drift", "scene_id": "S2B_MSIL2A_20250909T130249_R095_T23KPQ_20250909T163025", "region": "guanabara", "title": "Залив Гуанабара (Рио-де-Жанейро) · зона 3", "mission": "Sentinel-2", "datetime": "2025-09-09T13:02:49.024000Z", "detection_status": "insufficient_data", "status": "insufficient_data", "concentration_status": "unavailable", "quantity": {"status": "not_confirmed", "label": "концентрация по снимку не подтверждена", "detail": "перевод площади в штуки не показываем: нет калибровочных пар (см. docs/QUANTITY.md)"}, "verification": "false_alarm_signs", "training_scene": null, "flags": ["ship", "coast", "shallow", "glint"], "n_cozar_filaments": 0, "crop_file": "crops/SZ-drift-guanabara-2025-09-09-003.jpg", "wind_high": false, "measured": {"zone_area_km2": 0.0841, "suspicious_area_m2": 500, "n_pixels": 5, "n_objects": 2, "water_km2": 0.085, "lwd_m2_km2": 5882.4, "lwd_note": null, "quality": {"valid_water_fraction": 1.0, "cloud_fraction": 0.0, "glint_fraction": 0.0}, "model": {"weights": "weights/lgbm", "file": "weights/lgbm/model.txt", "sha256": "0eeebf43fcccd8c7c07f053b7ec723229d1a3c9b92d12eec1bdb269258c51470", "sha256_short": "0eeebf43fccc", "trained_at": "2026-09-25T01:35:55Z", "threshold": 0.63, "harmonize": "none", "class": "MARIDA Marine Debris (любой плавающий мусор, не только пластик)"}}, "probable": {"prob_max": 0.996, "prob_mean": 0.962, "signs": {"foam": {"flag": false, "white_ratio_b2_b8": 0.434, "wind10m_ms": 3.18, "rule": "прирост B2 над водой ≥ 0.8 прироста B8 («белый» спектр) или ветер ≥ 7.0 м/с"}, "glint": {"flag": true, "b11_water_median": 0.013, "glint_share": 0.0, "rule": "медиана B11 воды зоны > 0.01 или ≥ 20 % пикселей зоны — блик (маска качества)"}, "ship": {"flag": true, "share": 0, "bright_target_px_within_500m": 257, "rule": "≥ 30 % пикселей — у яркой цели или кильватера (reports/artifacts.md) или яркая цель с откликом в SWIR (судно, лодка: B11 ≥ 0,015) ближе 500 м, или малый яркий объект (≤ 40 пикс.) с B11 ≥ 0,01 ближе 500 м (лодка с кильватером)"}, "coast": {"flag": true, "land_px_within_300m": 170, "rule": "суша (маска качества) ближе 300 м — прибой, кромка берега"}, "shallow": {"flag": true, "b3_water_zone": 0.031, "b3_ratio_to_scene_water": 1.18, "rule": "медиана B3 воды зоны ≥ 2× медианы воды снимка и ≥ 0,03, или B4 воды зоны ≥ 0,02 и (≥ 2× воды снимка или B8 ≥ 0,013) — мелководье, яркое дно, илистая банка"}, "seam": {"flag": false, "share": 0, "rule": "≥ 30 % пикселей — прямая линия вдоль трека/границы яркости (шов)"}, "cloud": {"flag": false, "cloud_fraction": 0.0, "rule": "облака или тени облаков (маска качества) ≥ 20 % зоны"}, "diag": {"dist_land_m": 180, "dist_bright_m": 350, "n_bright_px_500m": 6, "b11_bright_max_500m": 0.4212, "b4_water_zone": 0.0269, "b8_water_zone": 0.0163, "b11_det_median": 0.0122, "b8_det_median": 0.0362, "water_scene_b3": 0.0264, "water_scene_b4": 0.0188, "n_det_px": 5, "n_obj": 2}, "note": "эвристики, не классификатор; на размеченных данных не проверены"}, "n_cozar_filaments": 0}, "field_nearby": {"items": [{"source": "ADIS (4TU.ResearchData, судовая камера)", "segment_id": 336436, "ship": "Bark Europa", "date": "2022-10-31", "days_from_scene": -1044, "distance_km": 347.4, "lon": -40.0369, "lat": -24.05508, "n_items": 0, "area_km2": 0.3704, "size_class": "> 5 см", "c_items_km2": 0.0, "ci95_lo": 0.0, "ci95_hi": 9.96, "ci95_method": "точный интервал Пуассона для N, делённый на A", "raw_10cm_items_km2": 0.0, "authors_cal_10cm_items_km2": 0.0, "authors_cal_10cm_lo95": null, "authors_cal_10cm_hi95": null}, {"source": "ADIS (4TU.ResearchData, судовая камера)", "segment_id": 336437, "ship": "Bark Europa", "date": "2022-10-31", "days_from_scene": -1044, "distance_km": 348.5, "lon": -40.06524, "lat": -24.14022, "n_items": 0, "area_km2": 0.3705, "size_class": "> 5 см", "c_items_km2": 0.0, "ci95_lo": 0.0, "ci95_hi": 9.96, "ci95_method": "точный интервал Пуассона для N, делённый на A", "raw_10cm_items_km2": 0.0, "authors_cal_10cm_items_km2": 0.0, "authors_cal_10cm_lo95": null, "authors_cal_10cm_hi95": null}, {"source": "ADIS (4TU.ResearchData, судовая камера)", "segment_id": 336438, "ship": "Bark Europa", "date": "2022-10-31", "days_from_scene": -1044, "distance_km": 349.7, "lon": -40.09594, "lat": -24.22453, "n_items": 0, "area_km2": 0.3702, "size_class": "> 5 см", "c_items_km2": 0.0, "ci95_lo": 0.0, "ci95_hi": 9.96, "ci95_method": "точный интервал Пуассона для N, делённый на A", "raw_10cm_items_km2": 0.0, "authors_cal_10cm_items_km2": 0.0, "authors_cal_10cm_lo95": null, "authors_cal_10cm_hi95": null}], "nearest_organizer_sample": {"sample_id": "MPL-0513", "source_id": "S2_SARGASSO_MSM41", "distance_km": 5301.6}, "note": "Измерение ≠ оценка: это независимые полевые счёты C = N/A в другое время и в другом месте; со сценой они не связаны и не калибруют её. Ближайший отрезок ADIS — за 347 км: только для порядка величин."}}}, {"type": "Feature", "id": "SZ-drift-guanabara-2025-09-09-004", "geometry": {"type": "Polygon", "coordinates": [[[-43.177343, -22.722938], [-43.178216, -22.723219], [-43.178407, -22.723492], [-43.178797, -22.723406], [-43.17967, -22.723687], [-43.180146, -22.724505], [-43.181812, -22.723621], [-43.183272, -22.723638], [-43.184137, -22.72446], [-43.184123, -22.725544], [-43.183628, -22.726171], [-43.182452, -22.726789], [-43.181282, -22.726866], [-43.180218, -22.726403], [-43.179528, -22.727027], [-43.17836, -22.727014], [-43.177878, -22.726647], [-43.177005, -22.726456], [-43.175858, -22.724818], [-43.175768, -22.724275], [-43.176071, -22.723466], [-43.176758, -22.723022], [-43.177343, -22.722938]]]}, "properties": {"kind": "detection_zone", "layer_kind": "scene_zone", "zone_id": "SZ-drift-guanabara-2025-09-09-004", "scene_key": "drift-guanabara-2025-09-09", "scene_kind": "drift", "scene_id": "S2B_MSIL2A_20250909T130249_R095_T23KPQ_20250909T163025", "region": "guanabara", "title": "Залив Гуанабара (Рио-де-Жанейро) · зона 4", "mission": "Sentinel-2", "datetime": "2025-09-09T13:02:49.024000Z", "detection_status": "insufficient_data", "status": "insufficient_data", "concentration_status": "unavailable", "quantity": {"status": "not_confirmed", "label": "концентрация по снимку не подтверждена", "detail": "перевод площади в штуки не показываем: нет калибровочных пар (см. docs/QUANTITY.md)"}, "verification": "false_alarm_signs", "training_scene": null, "flags": ["shallow", "ship", "glint"], "n_cozar_filaments": 0, "crop_file": "crops/SZ-drift-guanabara-2025-09-09-004.jpg", "wind_high": false, "measured": {"zone_area_km2": 0.2721, "suspicious_area_m2": 4600, "n_pixels": 46, "n_objects": 7, "water_km2": 0.2589, "lwd_m2_km2": 17767.5, "lwd_note": null, "quality": {"valid_water_fraction": 0.947, "cloud_fraction": 0.001, "glint_fraction": 0.0}, "model": {"weights": "weights/lgbm", "file": "weights/lgbm/model.txt", "sha256": "0eeebf43fcccd8c7c07f053b7ec723229d1a3c9b92d12eec1bdb269258c51470", "sha256_short": "0eeebf43fccc", "trained_at": "2026-09-25T01:35:55Z", "threshold": 0.63, "harmonize": "none", "class": "MARIDA Marine Debris (любой плавающий мусор, не только пластик)"}}, "probable": {"prob_max": 0.992, "prob_mean": 0.926, "signs": {"foam": {"flag": false, "white_ratio_b2_b8": 0.328, "wind10m_ms": 3.18, "rule": "прирост B2 над водой ≥ 0.8 прироста B8 («белый» спектр) или ветер ≥ 7.0 м/с"}, "glint": {"flag": true, "b11_water_median": 0.0162, "glint_share": 0.0, "rule": "медиана B11 воды зоны > 0.01 или ≥ 20 % пикселей зоны — блик (маска качества)"}, "ship": {"flag": true, "share": 0.935, "bright_target_px_within_500m": 546, "rule": "≥ 30 % пикселей — у яркой цели или кильватера (reports/artifacts.md) или яркая цель с откликом в SWIR (судно, лодка: B11 ≥ 0,015) ближе 500 м, или малый яркий объект (≤ 40 пикс.) с B11 ≥ 0,01 ближе 500 м (лодка с кильватером)"}, "coast": {"flag": false, "land_px_within_300m": 0, "rule": "суша (маска качества) ближе 300 м — прибой, кромка берега"}, "shallow": {"flag": true, "b3_water_zone": 0.036, "b3_ratio_to_scene_water": 1.36, "rule": "медиана B3 воды зоны ≥ 2× медианы воды снимка и ≥ 0,03, или B4 воды зоны ≥ 0,02 и (≥ 2× воды снимка или B8 ≥ 0,013) — мелководье, яркое дно, илистая банка"}, "seam": {"flag": false, "share": 0, "rule": "≥ 30 % пикселей — прямая линия вдоль трека/границы яркости (шов)"}, "cloud": {"flag": false, "cloud_fraction": 0.001, "rule": "облака или тени облаков (маска качества) ≥ 20 % зоны"}, "diag": {"dist_land_m": 342, "dist_bright_m": 10, "n_bright_px_500m": 41, "b11_bright_max_500m": 0.0414, "b4_water_zone": 0.0329, "b8_water_zone": 0.0252, "b11_det_median": 0.0078, "b8_det_median": 0.0544, "water_scene_b3": 0.0264, "water_scene_b4": 0.0188, "n_det_px": 46, "n_obj": 7}, "note": "эвристики, не классификатор; на размеченных данных не проверены"}, "n_cozar_filaments": 0}, "field_nearby": {"items": [{"source": "ADIS (4TU.ResearchData, судовая камера)", "segment_id": 336436, "ship": "Bark Europa", "date": "2022-10-31", "days_from_scene": -1044, "distance_km": 347.4, "lon": -40.0369, "lat": -24.05508, "n_items": 0, "area_km2": 0.3704, "size_class": "> 5 см", "c_items_km2": 0.0, "ci95_lo": 0.0, "ci95_hi": 9.96, "ci95_method": "точный интервал Пуассона для N, делённый на A", "raw_10cm_items_km2": 0.0, "authors_cal_10cm_items_km2": 0.0, "authors_cal_10cm_lo95": null, "authors_cal_10cm_hi95": null}, {"source": "ADIS (4TU.ResearchData, судовая камера)", "segment_id": 336437, "ship": "Bark Europa", "date": "2022-10-31", "days_from_scene": -1044, "distance_km": 348.5, "lon": -40.06524, "lat": -24.14022, "n_items": 0, "area_km2": 0.3705, "size_class": "> 5 см", "c_items_km2": 0.0, "ci95_lo": 0.0, "ci95_hi": 9.96, "ci95_method": "точный интервал Пуассона для N, делённый на A", "raw_10cm_items_km2": 0.0, "authors_cal_10cm_items_km2": 0.0, "authors_cal_10cm_lo95": null, "authors_cal_10cm_hi95": null}, {"source": "ADIS (4TU.ResearchData, судовая камера)", "segment_id": 336438, "ship": "Bark Europa", "date": "2022-10-31", "days_from_scene": -1044, "distance_km": 349.7, "lon": -40.09594, "lat": -24.22453, "n_items": 0, "area_km2": 0.3702, "size_class": "> 5 см", "c_items_km2": 0.0, "ci95_lo": 0.0, "ci95_hi": 9.96, "ci95_method": "точный интервал Пуассона для N, делённый на A", "raw_10cm_items_km2": 0.0, "authors_cal_10cm_items_km2": 0.0, "authors_cal_10cm_lo95": null, "authors_cal_10cm_hi95": null}], "nearest_organizer_sample": {"sample_id": "MPL-0513", "source_id": "S2_SARGASSO_MSM41", "distance_km": 5301.6}, "note": "Измерение ≠ оценка: это независимые полевые счёты C = N/A в другое время и в другом месте; со сценой они не связаны и не калибруют её. Ближайший отрезок ADIS — за 347 км: только для порядка величин."}}}, {"type": "Feature", "id": "SZ-drift-guanabara-2025-09-09-005", "geometry": {"type": "Polygon", "coordinates": [[[-43.199307, -22.725716], [-43.200468, -22.726271], [-43.200836, -22.7279], [-43.201613, -22.72809], [-43.202186, -22.728909], [-43.202165, -22.730534], [-43.201278, -22.731337], [-43.200693, -22.731421], [-43.19982, -22.73114], [-43.199342, -22.730502], [-43.199353, -22.72969], [-43.198479, -22.729499], [-43.198, -22.728862], [-43.198012, -22.727959], [-43.197634, -22.727142], [-43.197738, -22.726601], [-43.198233, -22.725975], [-43.199307, -22.725716]]]}, "properties": {"kind": "detection_zone", "layer_kind": "scene_zone", "zone_id": "SZ-drift-guanabara-2025-09-09-005", "scene_key": "drift-guanabara-2025-09-09", "scene_kind": "drift", "scene_id": "S2B_MSIL2A_20250909T130249_R095_T23KPQ_20250909T163025", "region": "guanabara", "title": "Залив Гуанабара (Рио-де-Жанейро) · зона 5", "mission": "Sentinel-2", "datetime": "2025-09-09T13:02:49.024000Z", "detection_status": "insufficient_data", "status": "insufficient_data", "concentration_status": "unavailable", "quantity": {"status": "not_confirmed", "label": "концентрация по снимку не подтверждена", "detail": "перевод площади в штуки не показываем: нет калибровочных пар (см. docs/QUANTITY.md)"}, "verification": "false_alarm_signs", "training_scene": null, "flags": ["ship", "coast", "shallow"], "n_cozar_filaments": 0, "crop_file": "crops/SZ-drift-guanabara-2025-09-09-005.jpg", "wind_high": false, "measured": {"zone_area_km2": 0.1849, "suspicious_area_m2": 800, "n_pixels": 8, "n_objects": 5, "water_km2": 0.1863, "lwd_m2_km2": 4294.1, "lwd_note": null, "quality": {"valid_water_fraction": 0.996, "cloud_fraction": 0.0, "glint_fraction": 0.0}, "model": {"weights": "weights/lgbm", "file": "weights/lgbm/model.txt", "sha256": "0eeebf43fcccd8c7c07f053b7ec723229d1a3c9b92d12eec1bdb269258c51470", "sha256_short": "0eeebf43fccc", "trained_at": "2026-09-25T01:35:55Z", "threshold": 0.63, "harmonize": "none", "class": "MARIDA Marine Debris (любой плавающий мусор, не только пластик)"}}, "probable": {"prob_max": 0.8, "prob_mean": 0.725, "signs": {"foam": {"flag": false, "white_ratio_b2_b8": 0.394, "wind10m_ms": 3.18, "rule": "прирост B2 над водой ≥ 0.8 прироста B8 («белый» спектр) или ветер ≥ 7.0 м/с"}, "glint": {"flag": false, "b11_water_median": 0.0092, "glint_share": 0.0, "rule": "медиана B11 воды зоны > 0.01 или ≥ 20 % пикселей зоны — блик (маска качества)"}, "ship": {"flag": true, "share": 0, "bright_target_px_within_500m": 574, "rule": "≥ 30 % пикселей — у яркой цели или кильватера (reports/artifacts.md) или яркая цель с откликом в SWIR (судно, лодка: B11 ≥ 0,015) ближе 500 м, или малый яркий объект (≤ 40 пикс.) с B11 ≥ 0,01 ближе 500 м (лодка с кильватером)"}, "coast": {"flag": true, "land_px_within_300m": 115, "rule": "суша (маска качества) ближе 300 м — прибой, кромка берега"}, "shallow": {"flag": true, "b3_water_zone": 0.0366, "b3_ratio_to_scene_water": 1.39, "rule": "медиана B3 воды зоны ≥ 2× медианы воды снимка и ≥ 0,03, или B4 воды зоны ≥ 0,02 и (≥ 2× воды снимка или B8 ≥ 0,013) — мелководье, яркое дно, илистая банка"}, "seam": {"flag": false, "share": 0, "rule": "≥ 30 % пикселей — прямая линия вдоль трека/границы яркости (шов)"}, "cloud": {"flag": false, "cloud_fraction": 0.0, "rule": "облака или тени облаков (маска качества) ≥ 20 % зоны"}, "diag": {"dist_land_m": 170, "dist_bright_m": 10, "n_bright_px_500m": 129, "b11_bright_max_500m": 0.0404, "b4_water_zone": 0.0358, "b8_water_zone": 0.0368, "b11_det_median": 0.0087, "b8_det_median": 0.0458, "water_scene_b3": 0.0264, "water_scene_b4": 0.0188, "n_det_px": 8, "n_obj": 5}, "note": "эвристики, не классификатор; на размеченных данных не проверены"}, "n_cozar_filaments": 0}, "field_nearby": {"items": [{"source": "ADIS (4TU.ResearchData, судовая камера)", "segment_id": 336436, "ship": "Bark Europa", "date": "2022-10-31", "days_from_scene": -1044, "distance_km": 347.4, "lon": -40.0369, "lat": -24.05508, "n_items": 0, "area_km2": 0.3704, "size_class": "> 5 см", "c_items_km2": 0.0, "ci95_lo": 0.0, "ci95_hi": 9.96, "ci95_method": "точный интервал Пуассона для N, делённый на A", "raw_10cm_items_km2": 0.0, "authors_cal_10cm_items_km2": 0.0, "authors_cal_10cm_lo95": null, "authors_cal_10cm_hi95": null}, {"source": "ADIS (4TU.ResearchData, судовая камера)", "segment_id": 336437, "ship": "Bark Europa", "date": "2022-10-31", "days_from_scene": -1044, "distance_km": 348.5, "lon": -40.06524, "lat": -24.14022, "n_items": 0, "area_km2": 0.3705, "size_class": "> 5 см", "c_items_km2": 0.0, "ci95_lo": 0.0, "ci95_hi": 9.96, "ci95_method": "точный интервал Пуассона для N, делённый на A", "raw_10cm_items_km2": 0.0, "authors_cal_10cm_items_km2": 0.0, "authors_cal_10cm_lo95": null, "authors_cal_10cm_hi95": null}, {"source": "ADIS (4TU.ResearchData, судовая камера)", "segment_id": 336438, "ship": "Bark Europa", "date": "2022-10-31", "days_from_scene": -1044, "distance_km": 349.7, "lon": -40.09594, "lat": -24.22453, "n_items": 0, "area_km2": 0.3702, "size_class": "> 5 см", "c_items_km2": 0.0, "ci95_lo": 0.0, "ci95_hi": 9.96, "ci95_method": "точный интервал Пуассона для N, делённый на A", "raw_10cm_items_km2": 0.0, "authors_cal_10cm_items_km2": 0.0, "authors_cal_10cm_lo95": null, "authors_cal_10cm_hi95": null}], "nearest_organizer_sample": {"sample_id": "MPL-0513", "source_id": "S2_SARGASSO_MSM41", "distance_km": 5301.6}, "note": "Измерение ≠ оценка: это независимые полевые счёты C = N/A в другое время и в другом месте; со сценой они не связаны и не калибруют её. Ближайший отрезок ADIS — за 347 км: только для порядка величин."}}}, {"type": "Feature", "id": "SZ-drift-guanabara-2025-09-09-006", "geometry": {"type": "Polygon", "coordinates": [[[-43.040255, -22.724928], [-43.041127, -22.72521], [-43.041608, -22.725667], [-43.041888, -22.726483], [-43.041783, -22.727024], [-43.043144, -22.727131], [-43.043819, -22.727591], [-43.044289, -22.72877], [-43.04369, -22.729847], [-43.042712, -22.730105], [-43.04126, -22.729546], [-43.040783, -22.728908], [-43.040798, -22.727825], [-43.039533, -22.727809], [-43.038666, -22.727166], [-43.038385, -22.72635], [-43.03869, -22.725451], [-43.039378, -22.725008], [-43.040255, -22.724928]]]}, "properties": {"kind": "detection_zone", "layer_kind": "scene_zone", "zone_id": "SZ-drift-guanabara-2025-09-09-006", "scene_key": "drift-guanabara-2025-09-09", "scene_kind": "drift", "scene_id": "S2B_MSIL2A_20250909T130249_R095_T23KPQ_20250909T163025", "region": "guanabara", "title": "Залив Гуанабара (Рио-де-Жанейро) · зона 6", "mission": "Sentinel-2", "datetime": "2025-09-09T13:02:49.024000Z", "detection_status": "insufficient_data", "status": "insufficient_data", "concentration_status": "unavailable", "quantity": {"status": "not_confirmed", "label": "концентрация по снимку не подтверждена", "detail": "перевод площади в штуки не показываем: нет калибровочных пар (см. docs/QUANTITY.md)"}, "verification": "false_alarm_signs", "training_scene": null, "flags": ["ship", "shallow", "seam"], "n_cozar_filaments": 0, "crop_file": "crops/SZ-drift-guanabara-2025-09-09-006.jpg", "wind_high": false, "measured": {"zone_area_km2": 0.1812, "suspicious_area_m2": 1900, "n_pixels": 19, "n_objects": 3, "water_km2": 0.1821, "lwd_m2_km2": 10433.8, "lwd_note": null, "quality": {"valid_water_fraction": 1.0, "cloud_fraction": 0.0, "glint_fraction": 0.0}, "model": {"weights": "weights/lgbm", "file": "weights/lgbm/model.txt", "sha256": "0eeebf43fcccd8c7c07f053b7ec723229d1a3c9b92d12eec1bdb269258c51470", "sha256_short": "0eeebf43fccc", "trained_at": "2026-09-25T01:35:55Z", "threshold": 0.63, "harmonize": "none", "class": "MARIDA Marine Debris (любой плавающий мусор, не только пластик)"}}, "probable": {"prob_max": 1.0, "prob_mean": 0.952, "signs": {"foam": {"flag": false, "white_ratio_b2_b8": 0.129, "wind10m_ms": 3.18, "rule": "прирост B2 над водой ≥ 0.8 прироста B8 («белый» спектр) или ветер ≥ 7.0 м/с"}, "glint": {"flag": false, "b11_water_median": 0.0024, "glint_share": 0.0, "rule": "медиана B11 воды зоны > 0.01 или ≥ 20 % пикселей зоны — блик (маска качества)"}, "ship": {"flag": true, "share": 0, "bright_target_px_within_500m": 171, "rule": "≥ 30 % пикселей — у яркой цели или кильватера (reports/artifacts.md) или яркая цель с откликом в SWIR (судно, лодка: B11 ≥ 0,015) ближе 500 м, или малый яркий объект (≤ 40 пикс.) с B11 ≥ 0,01 ближе 500 м (лодка с кильватером)"}, "coast": {"flag": false, "land_px_within_300m": 0, "rule": "суша (маска качества) ближе 300 м — прибой, кромка берега"}, "shallow": {"flag": true, "b3_water_zone": 0.0233, "b3_ratio_to_scene_water": 0.88, "rule": "медиана B3 воды зоны ≥ 2× медианы воды снимка и ≥ 0,03, или B4 воды зоны ≥ 0,02 и (≥ 2× воды снимка или B8 ≥ 0,013) — мелководье, яркое дно, илистая банка"}, "seam": {"flag": true, "share": 0.316, "rule": "≥ 30 % пикселей — прямая линия вдоль трека/границы яркости (шов)"}, "cloud": {"flag": false, "cloud_fraction": 0.0, "rule": "облака или тени облаков (маска качества) ≥ 20 % зоны"}, "diag": {"dist_land_m": 1067, "dist_bright_m": 182, "n_bright_px_500m": 22, "b11_bright_max_500m": 0.0166, "b4_water_zone": 0.0221, "b8_water_zone": 0.0131, "b11_det_median": 0.0024, "b8_det_median": 0.0313, "water_scene_b3": 0.0264, "water_scene_b4": 0.0188, "n_det_px": 19, "n_obj": 3}, "note": "эвристики, не классификатор; на размеченных данных не проверены"}, "n_cozar_filaments": 0}, "field_nearby": {"items": [{"source": "ADIS (4TU.ResearchData, судовая камера)", "segment_id": 336436, "ship": "Bark Europa", "date": "2022-10-31", "days_from_scene": -1044, "distance_km": 347.4, "lon": -40.0369, "lat": -24.05508, "n_items": 0, "area_km2": 0.3704, "size_class": "> 5 см", "c_items_km2": 0.0, "ci95_lo": 0.0, "ci95_hi": 9.96, "ci95_method": "точный интервал Пуассона для N, делённый на A", "raw_10cm_items_km2": 0.0, "authors_cal_10cm_items_km2": 0.0, "authors_cal_10cm_lo95": null, "authors_cal_10cm_hi95": null}, {"source": "ADIS (4TU.ResearchData, судовая камера)", "segment_id": 336437, "ship": "Bark Europa", "date": "2022-10-31", "days_from_scene": -1044, "distance_km": 348.5, "lon": -40.06524, "lat": -24.14022, "n_items": 0, "area_km2": 0.3705, "size_class": "> 5 см", "c_items_km2": 0.0, "ci95_lo": 0.0, "ci95_hi": 9.96, "ci95_method": "точный интервал Пуассона для N, делённый на A", "raw_10cm_items_km2": 0.0, "authors_cal_10cm_items_km2": 0.0, "authors_cal_10cm_lo95": null, "authors_cal_10cm_hi95": null}, {"source": "ADIS (4TU.ResearchData, судовая камера)", "segment_id": 336438, "ship": "Bark Europa", "date": "2022-10-31", "days_from_scene": -1044, "distance_km": 349.7, "lon": -40.09594, "lat": -24.22453, "n_items": 0, "area_km2": 0.3702, "size_class": "> 5 см", "c_items_km2": 0.0, "ci95_lo": 0.0, "ci95_hi": 9.96, "ci95_method": "точный интервал Пуассона для N, делённый на A", "raw_10cm_items_km2": 0.0, "authors_cal_10cm_items_km2": 0.0, "authors_cal_10cm_lo95": null, "authors_cal_10cm_hi95": null}], "nearest_organizer_sample": {"sample_id": "MPL-0513", "source_id": "S2_SARGASSO_MSM41", "distance_km": 5301.6}, "note": "Измерение ≠ оценка: это независимые полевые счёты C = N/A в другое время и в другом месте; со сценой они не связаны и не калибруют её. Ближайший отрезок ADIS — за 347 км: только для порядка величин."}}}, {"type": "Feature", "id": "SZ-drift-guanabara-2025-09-09-007", "geometry": {"type": "Polygon", "coordinates": [[[-43.046182, -22.725723], [-43.047054, -22.726005], [-43.047437, -22.726461], [-43.048502, -22.726835], [-43.048886, -22.727201], [-43.049167, -22.728017], [-43.048861, -22.729007], [-43.049638, -22.729107], [-43.052728, -22.73086], [-43.053006, -22.731857], [-43.052407, -22.732933], [-43.051331, -22.733281], [-43.050749, -22.733184], [-43.049588, -22.732628], [-43.049301, -22.732263], [-43.047946, -22.731705], [-43.047278, -22.730793], [-43.047188, -22.730251], [-43.047492, -22.729442], [-43.046617, -22.729341], [-43.04459, -22.728142], [-43.04431, -22.727326], [-43.044617, -22.726246], [-43.045305, -22.725803], [-43.046182, -22.725723]]]}, "properties": {"kind": "detection_zone", "layer_kind": "scene_zone", "zone_id": "SZ-drift-guanabara-2025-09-09-007", "scene_key": "drift-guanabara-2025-09-09", "scene_kind": "drift", "scene_id": "S2B_MSIL2A_20250909T130249_R095_T23KPQ_20250909T163025", "region": "guanabara", "title": "Залив Гуанабара (Рио-де-Жанейро) · зона 7", "mission": "Sentinel-2", "datetime": "2025-09-09T13:02:49.024000Z", "detection_status": "insufficient_data", "status": "insufficient_data", "concentration_status": "unavailable", "quantity": {"status": "not_confirmed", "label": "концентрация по снимку не подтверждена", "detail": "перевод площади в штуки не показываем: нет калибровочных пар (см. docs/QUANTITY.md)"}, "verification": "false_alarm_signs", "training_scene": null, "flags": ["ship", "shallow"], "n_cozar_filaments": 0, "crop_file": "crops/SZ-drift-guanabara-2025-09-09-007.jpg", "wind_high": false, "measured": {"zone_area_km2": 0.3237, "suspicious_area_m2": 13200, "n_pixels": 132, "n_objects": 5, "water_km2": 0.3244, "lwd_m2_km2": 40690.5, "lwd_note": null, "quality": {"valid_water_fraction": 1.0, "cloud_fraction": 0.0, "glint_fraction": 0.0}, "model": {"weights": "weights/lgbm", "file": "weights/lgbm/model.txt", "sha256": "0eeebf43fcccd8c7c07f053b7ec723229d1a3c9b92d12eec1bdb269258c51470", "sha256_short": "0eeebf43fccc", "trained_at": "2026-09-25T01:35:55Z", "threshold": 0.63, "harmonize": "none", "class": "MARIDA Marine Debris (любой плавающий мусор, не только пластик)"}}, "probable": {"prob_max": 1.0, "prob_mean": 0.906, "signs": {"foam": {"flag": false, "white_ratio_b2_b8": 0.154, "wind10m_ms": 3.18, "rule": "прирост B2 над водой ≥ 0.8 прироста B8 («белый» спектр) или ветер ≥ 7.0 м/с"}, "glint": {"flag": false, "b11_water_median": 0.0021, "glint_share": 0.0, "rule": "медиана B11 воды зоны > 0.01 или ≥ 20 % пикселей зоны — блик (маска качества)"}, "ship": {"flag": true, "share": 0, "bright_target_px_within_500m": 0, "rule": "≥ 30 % пикселей — у яркой цели или кильватера (reports/artifacts.md) или яркая цель с откликом в SWIR (судно, лодка: B11 ≥ 0,015) ближе 500 м, или малый яркий объект (≤ 40 пикс.) с B11 ≥ 0,01 ближе 500 м (лодка с кильватером)"}, "coast": {"flag": false, "land_px_within_300m": 0, "rule": "суша (маска качества) ближе 300 м — прибой, кромка берега"}, "shallow": {"flag": true, "b3_water_zone": 0.0224, "b3_ratio_to_scene_water": 0.85, "rule": "медиана B3 воды зоны ≥ 2× медианы воды снимка и ≥ 0,03, или B4 воды зоны ≥ 0,02 и (≥ 2× воды снимка или B8 ≥ 0,013) — мелководье, яркое дно, илистая банка"}, "seam": {"flag": false, "share": 0, "rule": "≥ 30 % пикселей — прямая линия вдоль трека/границы яркости (шов)"}, "cloud": {"flag": false, "cloud_fraction": 0.0, "rule": "облака или тени облаков (маска качества) ≥ 20 % зоны"}, "diag": {"dist_land_m": null, "dist_bright_m": 416, "n_bright_px_500m": 24, "b11_bright_max_500m": 0.0262, "b4_water_zone": 0.0218, "b8_water_zone": 0.017, "b11_det_median": 0.0023, "b8_det_median": 0.0324, "water_scene_b3": 0.0264, "water_scene_b4": 0.0188, "n_det_px": 132, "n_obj": 5}, "note": "эвристики, не классификатор; на размеченных данных не проверены"}, "n_cozar_filaments": 0}, "field_nearby": {"items": [{"source": "ADIS (4TU.ResearchData, судовая камера)", "segment_id": 336436, "ship": "Bark Europa", "date": "2022-10-31", "days_from_scene": -1044, "distance_km": 347.4, "lon": -40.0369, "lat": -24.05508, "n_items": 0, "area_km2": 0.3704, "size_class": "> 5 см", "c_items_km2": 0.0, "ci95_lo": 0.0, "ci95_hi": 9.96, "ci95_method": "точный интервал Пуассона для N, делённый на A", "raw_10cm_items_km2": 0.0, "authors_cal_10cm_items_km2": 0.0, "authors_cal_10cm_lo95": null, "authors_cal_10cm_hi95": null}, {"source": "ADIS (4TU.ResearchData, судовая камера)", "segment_id": 336437, "ship": "Bark Europa", "date": "2022-10-31", "days_from_scene": -1044, "distance_km": 348.5, "lon": -40.06524, "lat": -24.14022, "n_items": 0, "area_km2": 0.3705, "size_class": "> 5 см", "c_items_km2": 0.0, "ci95_lo": 0.0, "ci95_hi": 9.96, "ci95_method": "точный интервал Пуассона для N, делённый на A", "raw_10cm_items_km2": 0.0, "authors_cal_10cm_items_km2": 0.0, "authors_cal_10cm_lo95": null, "authors_cal_10cm_hi95": null}, {"source": "ADIS (4TU.ResearchData, судовая камера)", "segment_id": 336438, "ship": "Bark Europa", "date": "2022-10-31", "days_from_scene": -1044, "distance_km": 349.7, "lon": -40.09594, "lat": -24.22453, "n_items": 0, "area_km2": 0.3702, "size_class": "> 5 см", "c_items_km2": 0.0, "ci95_lo": 0.0, "ci95_hi": 9.96, "ci95_method": "точный интервал Пуассона для N, делённый на A", "raw_10cm_items_km2": 0.0, "authors_cal_10cm_items_km2": 0.0, "authors_cal_10cm_lo95": null, "authors_cal_10cm_hi95": null}], "nearest_organizer_sample": {"sample_id": "MPL-0513", "source_id": "S2_SARGASSO_MSM41", "distance_km": 5301.6}, "note": "Измерение ≠ оценка: это независимые полевые счёты C = N/A в другое время и в другом месте; со сценой они не связаны и не калибруют её. Ближайший отрезок ADIS — за 347 км: только для порядка величин."}}}, {"type": "Feature", "id": "SZ-drift-guanabara-2025-09-09-008", "geometry": {"type": "Polygon", "coordinates": [[[-43.039831, -22.734224], [-43.040703, -22.734506], [-43.041087, -22.734871], [-43.041367, -22.735688], [-43.041262, -22.736228], [-43.040375, -22.73703], [-43.038915, -22.737012], [-43.03805, -22.736189], [-43.038065, -22.735196], [-43.03856, -22.73457], [-43.039831, -22.734224]]]}, "properties": {"kind": "detection_zone", "layer_kind": "scene_zone", "zone_id": "SZ-drift-guanabara-2025-09-09-008", "scene_key": "drift-guanabara-2025-09-09", "scene_kind": "drift", "scene_id": "S2B_MSIL2A_20250909T130249_R095_T23KPQ_20250909T163025", "region": "guanabara", "title": "Залив Гуанабара (Рио-де-Жанейро) · зона 8", "mission": "Sentinel-2", "datetime": "2025-09-09T13:02:49.024000Z", "detection_status": "insufficient_data", "status": "insufficient_data", "concentration_status": "unavailable", "quantity": {"status": "not_confirmed", "label": "концентрация по снимку не подтверждена", "detail": "перевод площади в штуки не показываем: нет калибровочных пар (см. docs/QUANTITY.md)"}, "verification": "false_alarm_signs", "training_scene": null, "flags": ["ship", "shallow"], "n_cozar_filaments": 0, "crop_file": "crops/SZ-drift-guanabara-2025-09-09-008.jpg", "wind_high": false, "measured": {"zone_area_km2": 0.0829, "suspicious_area_m2": 500, "n_pixels": 5, "n_objects": 2, "water_km2": 0.0841, "lwd_m2_km2": 5945.3, "lwd_note": null, "quality": {"valid_water_fraction": 1.0, "cloud_fraction": 0.0, "glint_fraction": 0.0}, "model": {"weights": "weights/lgbm", "file": "weights/lgbm/model.txt", "sha256": "0eeebf43fcccd8c7c07f053b7ec723229d1a3c9b92d12eec1bdb269258c51470", "sha256_short": "0eeebf43fccc", "trained_at": "2026-09-25T01:35:55Z", "threshold": 0.63, "harmonize": "none", "class": "MARIDA Marine Debris (любой плавающий мусор, не только пластик)"}}, "probable": {"prob_max": 0.875, "prob_mean": 0.856, "signs": {"foam": {"flag": false, "white_ratio_b2_b8": 0.025, "wind10m_ms": 3.18, "rule": "прирост B2 над водой ≥ 0.8 прироста B8 («белый» спектр) или ветер ≥ 7.0 м/с"}, "glint": {"flag": false, "b11_water_median": 0.0035, "glint_share": 0.0, "rule": "медиана B11 воды зоны > 0.01 или ≥ 20 % пикселей зоны — блик (маска качества)"}, "ship": {"flag": true, "share": 0, "bright_target_px_within_500m": 12, "rule": "≥ 30 % пикселей — у яркой цели или кильватера (reports/artifacts.md) или яркая цель с откликом в SWIR (судно, лодка: B11 ≥ 0,015) ближе 500 м, или малый яркий объект (≤ 40 пикс.) с B11 ≥ 0,01 ближе 500 м (лодка с кильватером)"}, "coast": {"flag": false, "land_px_within_300m": 0, "rule": "суша (маска качества) ближе 300 м — прибой, кромка берега"}, "shallow": {"flag": true, "b3_water_zone": 0.0296, "b3_ratio_to_scene_water": 1.12, "rule": "медиана B3 воды зоны ≥ 2× медианы воды снимка и ≥ 0,03, или B4 воды зоны ≥ 0,02 и (≥ 2× воды снимка или B8 ≥ 0,013) — мелководье, яркое дно, илистая банка"}, "seam": {"flag": false, "share": 0, "rule": "≥ 30 % пикселей — прямая линия вдоль трека/границы яркости (шов)"}, "cloud": {"flag": false, "cloud_fraction": 0.0, "rule": "облака или тени облаков (маска качества) ≥ 20 % зоны"}, "diag": {"dist_land_m": 977, "dist_bright_m": 335, "n_bright_px_500m": 44, "b11_bright_max_500m": 0.0236, "b4_water_zone": 0.0285, "b8_water_zone": 0.0195, "b11_det_median": 0.0033, "b8_det_median": 0.0306, "water_scene_b3": 0.0264, "water_scene_b4": 0.0188, "n_det_px": 5, "n_obj": 2}, "note": "эвристики, не классификатор; на размеченных данных не проверены"}, "n_cozar_filaments": 0}, "field_nearby": {"items": [{"source": "ADIS (4TU.ResearchData, судовая камера)", "segment_id": 336436, "ship": "Bark Europa", "date": "2022-10-31", "days_from_scene": -1044, "distance_km": 347.4, "lon": -40.0369, "lat": -24.05508, "n_items": 0, "area_km2": 0.3704, "size_class": "> 5 см", "c_items_km2": 0.0, "ci95_lo": 0.0, "ci95_hi": 9.96, "ci95_method": "точный интервал Пуассона для N, делённый на A", "raw_10cm_items_km2": 0.0, "authors_cal_10cm_items_km2": 0.0, "authors_cal_10cm_lo95": null, "authors_cal_10cm_hi95": null}, {"source": "ADIS (4TU.ResearchData, судовая камера)", "segment_id": 336437, "ship": "Bark Europa", "date": "2022-10-31", "days_from_scene": -1044, "distance_km": 348.5, "lon": -40.06524, "lat": -24.14022, "n_items": 0, "area_km2": 0.3705, "size_class": "> 5 см", "c_items_km2": 0.0, "ci95_lo": 0.0, "ci95_hi": 9.96, "ci95_method": "точный интервал Пуассона для N, делённый на A", "raw_10cm_items_km2": 0.0, "authors_cal_10cm_items_km2": 0.0, "authors_cal_10cm_lo95": null, "authors_cal_10cm_hi95": null}, {"source": "ADIS (4TU.ResearchData, судовая камера)", "segment_id": 336438, "ship": "Bark Europa", "date": "2022-10-31", "days_from_scene": -1044, "distance_km": 349.7, "lon": -40.09594, "lat": -24.22453, "n_items": 0, "area_km2": 0.3702, "size_class": "> 5 см", "c_items_km2": 0.0, "ci95_lo": 0.0, "ci95_hi": 9.96, "ci95_method": "точный интервал Пуассона для N, делённый на A", "raw_10cm_items_km2": 0.0, "authors_cal_10cm_items_km2": 0.0, "authors_cal_10cm_lo95": null, "authors_cal_10cm_hi95": null}], "nearest_organizer_sample": {"sample_id": "MPL-0513", "source_id": "S2_SARGASSO_MSM41", "distance_km": 5301.6}, "note": "Измерение ≠ оценка: это независимые полевые счёты C = N/A в другое время и в другом месте; со сценой они не связаны и не калибруют её. Ближайший отрезок ADIS — за 347 км: только для порядка величин."}}}, {"type": "Feature", "id": "SZ-drift-guanabara-2025-09-09-009", "geometry": {"type": "Polygon", "coordinates": [[[-43.057006, -22.751952], [-43.057878, -22.752234], [-43.058352, -22.753142], [-43.059617, -22.753158], [-43.060292, -22.753617], [-43.060568, -22.754795], [-43.059968, -22.755871], [-43.059088, -22.756131], [-43.058311, -22.756032], [-43.057636, -22.755572], [-43.057357, -22.754665], [-43.056383, -22.754654], [-43.055708, -22.754194], [-43.055428, -22.753378], [-43.055732, -22.752478], [-43.05642, -22.752035], [-43.057006, -22.751952]]]}, "properties": {"kind": "detection_zone", "layer_kind": "scene_zone", "zone_id": "SZ-drift-guanabara-2025-09-09-009", "scene_key": "drift-guanabara-2025-09-09", "scene_kind": "drift", "scene_id": "S2B_MSIL2A_20250909T130249_R095_T23KPQ_20250909T163025", "region": "guanabara", "title": "Залив Гуанабара (Рио-де-Жанейро) · зона 9", "mission": "Sentinel-2", "datetime": "2025-09-09T13:02:49.024000Z", "detection_status": "insufficient_data", "status": "insufficient_data", "concentration_status": "unavailable", "quantity": {"status": "not_confirmed", "label": "концентрация по снимку не подтверждена", "detail": "перевод площади в штуки не показываем: нет калибровочных пар (см. docs/QUANTITY.md)"}, "verification": "false_alarm_signs", "training_scene": null, "flags": ["ship", "shallow"], "n_cozar_filaments": 0, "crop_file": "crops/SZ-drift-guanabara-2025-09-09-009.jpg", "wind_high": false, "measured": {"zone_area_km2": 0.1478, "suspicious_area_m2": 1000, "n_pixels": 10, "n_objects": 2, "water_km2": 0.1489, "lwd_m2_km2": 6715.9, "lwd_note": null, "quality": {"valid_water_fraction": 1.0, "cloud_fraction": 0.0, "glint_fraction": 0.0}, "model": {"weights": "weights/lgbm", "file": "weights/lgbm/model.txt", "sha256": "0eeebf43fcccd8c7c07f053b7ec723229d1a3c9b92d12eec1bdb269258c51470", "sha256_short": "0eeebf43fccc", "trained_at": "2026-09-25T01:35:55Z", "threshold": 0.63, "harmonize": "none", "class": "MARIDA Marine Debris (любой плавающий мусор, не только пластик)"}}, "probable": {"prob_max": 0.984, "prob_mean": 0.864, "signs": {"foam": {"flag": false, "white_ratio_b2_b8": 0.518, "wind10m_ms": 3.18, "rule": "прирост B2 над водой ≥ 0.8 прироста B8 («белый» спектр) или ветер ≥ 7.0 м/с"}, "glint": {"flag": false, "b11_water_median": 0.0026, "glint_share": 0.0, "rule": "медиана B11 воды зоны > 0.01 или ≥ 20 % пикселей зоны — блик (маска качества)"}, "ship": {"flag": true, "share": 0, "bright_target_px_within_500m": 0, "rule": "≥ 30 % пикселей — у яркой цели или кильватера (reports/artifacts.md) или яркая цель с откликом в SWIR (судно, лодка: B11 ≥ 0,015) ближе 500 м, или малый яркий объект (≤ 40 пикс.) с B11 ≥ 0,01 ближе 500 м (лодка с кильватером)"}, "coast": {"flag": false, "land_px_within_300m": 0, "rule": "суша (маска качества) ближе 300 м — прибой, кромка берега"}, "shallow": {"flag": true, "b3_water_zone": 0.0287, "b3_ratio_to_scene_water": 1.09, "rule": "медиана B3 воды зоны ≥ 2× медианы воды снимка и ≥ 0,03, или B4 воды зоны ≥ 0,02 и (≥ 2× воды снимка или B8 ≥ 0,013) — мелководье, яркое дно, илистая банка"}, "seam": {"flag": false, "share": 0, "rule": "≥ 30 % пикселей — прямая линия вдоль трека/границы яркости (шов)"}, "cloud": {"flag": false, "cloud_fraction": 0.0, "rule": "облака или тени облаков (маска качества) ≥ 20 % зоны"}, "diag": {"dist_land_m": 764, "dist_bright_m": 85, "n_bright_px_500m": 48, "b11_bright_max_500m": 0.0149, "b4_water_zone": 0.0294, "b8_water_zone": 0.0239, "b11_det_median": 0.0025, "b8_det_median": 0.0351, "water_scene_b3": 0.0264, "water_scene_b4": 0.0188, "n_det_px": 10, "n_obj": 2}, "note": "эвристики, не классификатор; на размеченных данных не проверены"}, "n_cozar_filaments": 0}, "field_nearby": {"items": [{"source": "ADIS (4TU.ResearchData, судовая камера)", "segment_id": 336436, "ship": "Bark Europa", "date": "2022-10-31", "days_from_scene": -1044, "distance_km": 347.4, "lon": -40.0369, "lat": -24.05508, "n_items": 0, "area_km2": 0.3704, "size_class": "> 5 см", "c_items_km2": 0.0, "ci95_lo": 0.0, "ci95_hi": 9.96, "ci95_method": "точный интервал Пуассона для N, делённый на A", "raw_10cm_items_km2": 0.0, "authors_cal_10cm_items_km2": 0.0, "authors_cal_10cm_lo95": null, "authors_cal_10cm_hi95": null}, {"source": "ADIS (4TU.ResearchData, судовая камера)", "segment_id": 336437, "ship": "Bark Europa", "date": "2022-10-31", "days_from_scene": -1044, "distance_km": 348.5, "lon": -40.06524, "lat": -24.14022, "n_items": 0, "area_km2": 0.3705, "size_class": "> 5 см", "c_items_km2": 0.0, "ci95_lo": 0.0, "ci95_hi": 9.96, "ci95_method": "точный интервал Пуассона для N, делённый на A", "raw_10cm_items_km2": 0.0, "authors_cal_10cm_items_km2": 0.0, "authors_cal_10cm_lo95": null, "authors_cal_10cm_hi95": null}, {"source": "ADIS (4TU.ResearchData, судовая камера)", "segment_id": 336438, "ship": "Bark Europa", "date": "2022-10-31", "days_from_scene": -1044, "distance_km": 349.7, "lon": -40.09594, "lat": -24.22453, "n_items": 0, "area_km2": 0.3702, "size_class": "> 5 см", "c_items_km2": 0.0, "ci95_lo": 0.0, "ci95_hi": 9.96, "ci95_method": "точный интервал Пуассона для N, делённый на A", "raw_10cm_items_km2": 0.0, "authors_cal_10cm_items_km2": 0.0, "authors_cal_10cm_lo95": null, "authors_cal_10cm_hi95": null}], "nearest_organizer_sample": {"sample_id": "MPL-0513", "source_id": "S2_SARGASSO_MSM41", "distance_km": 5301.6}, "note": "Измерение ≠ оценка: это независимые полевые счёты C = N/A в другое время и в другом месте; со сценой они не связаны и не калибруют её. Ближайший отрезок ADIS — за 347 км: только для порядка величин."}}}, {"type": "Feature", "id": "SZ-drift-guanabara-2025-09-09-010", "geometry": {"type": "Polygon", "coordinates": [[[-43.047823, -22.754098], [-43.048695, -22.754379], [-43.04908, -22.754745], [-43.049359, -22.755651], [-43.049055, -22.75646], [-43.048562, -22.756906], [-43.047585, -22.757165], [-43.046712, -22.756883], [-43.046232, -22.756426], [-43.045954, -22.755429], [-43.046554, -22.754353], [-43.047823, -22.754098]]]}, "properties": {"kind": "detection_zone", "layer_kind": "scene_zone", "zone_id": "SZ-drift-guanabara-2025-09-09-010", "scene_key": "drift-guanabara-2025-09-09", "scene_kind": "drift", "scene_id": "S2B_MSIL2A_20250909T130249_R095_T23KPQ_20250909T163025", "region": "guanabara", "title": "Залив Гуанабара (Рио-де-Жанейро) · зона 10", "mission": "Sentinel-2", "datetime": "2025-09-09T13:02:49.024000Z", "detection_status": "insufficient_data", "status": "insufficient_data", "concentration_status": "unavailable", "quantity": {"status": "not_confirmed", "label": "концентрация по снимку не подтверждена", "detail": "перевод площади в штуки не показываем: нет калибровочных пар (см. docs/QUANTITY.md)"}, "verification": "false_alarm_signs", "training_scene": null, "flags": ["coast", "shallow", "ship", "glint"], "n_cozar_filaments": 0, "crop_file": "crops/SZ-drift-guanabara-2025-09-09-010.jpg", "wind_high": false, "measured": {"zone_area_km2": 0.0885, "suspicious_area_m2": 1300, "n_pixels": 13, "n_objects": 1, "water_km2": 0.0828, "lwd_m2_km2": 15700.5, "lwd_note": null, "quality": {"valid_water_fraction": 0.935, "cloud_fraction": 0.0, "glint_fraction": 0.0}, "model": {"weights": "weights/lgbm", "file": "weights/lgbm/model.txt", "sha256": "0eeebf43fcccd8c7c07f053b7ec723229d1a3c9b92d12eec1bdb269258c51470", "sha256_short": "0eeebf43fccc", "trained_at": "2026-09-25T01:35:55Z", "threshold": 0.63, "harmonize": "none", "class": "MARIDA Marine Debris (любой плавающий мусор, не только пластик)"}}, "probable": {"prob_max": 0.98, "prob_mean": 0.838, "signs": {"foam": {"flag": false, "white_ratio_b2_b8": 0.619, "wind10m_ms": 3.18, "rule": "прирост B2 над водой ≥ 0.8 прироста B8 («белый» спектр) или ветер ≥ 7.0 м/с"}, "glint": {"flag": true, "b11_water_median": 0.0236, "glint_share": 0.0, "rule": "медиана B11 воды зоны > 0.01 или ≥ 20 % пикселей зоны — блик (маска качества)"}, "ship": {"flag": true, "share": 1.0, "bright_target_px_within_500m": 408, "rule": "≥ 30 % пикселей — у яркой цели или кильватера (reports/artifacts.md) или яркая цель с откликом в SWIR (судно, лодка: B11 ≥ 0,015) ближе 500 м, или малый яркий объект (≤ 40 пикс.) с B11 ≥ 0,01 ближе 500 м (лодка с кильватером)"}, "coast": {"flag": true, "land_px_within_300m": 724, "rule": "суша (маска качества) ближе 300 м — прибой, кромка берега"}, "shallow": {"flag": true, "b3_water_zone": 0.0359, "b3_ratio_to_scene_water": 1.36, "rule": "медиана B3 воды зоны ≥ 2× медианы воды снимка и ≥ 0,03, или B4 воды зоны ≥ 0,02 и (≥ 2× воды снимка или B8 ≥ 0,013) — мелководье, яркое дно, илистая банка"}, "seam": {"flag": false, "share": 0, "rule": "≥ 30 % пикселей — прямая линия вдоль трека/границы яркости (шов)"}, "cloud": {"flag": false, "cloud_fraction": 0.0, "rule": "облака или тени облаков (маска качества) ≥ 20 % зоны"}, "diag": {"dist_land_m": 140, "dist_bright_m": 620, "n_bright_px_500m": 0, "b11_bright_max_500m": null, "b4_water_zone": 0.0402, "b8_water_zone": 0.046, "b11_det_median": 0.005, "b8_det_median": 0.0674, "water_scene_b3": 0.0264, "water_scene_b4": 0.0188, "n_det_px": 13, "n_obj": 1}, "note": "эвристики, не классификатор; на размеченных данных не проверены"}, "n_cozar_filaments": 0}, "field_nearby": {"items": [{"source": "ADIS (4TU.ResearchData, судовая камера)", "segment_id": 336436, "ship": "Bark Europa", "date": "2022-10-31", "days_from_scene": -1044, "distance_km": 347.4, "lon": -40.0369, "lat": -24.05508, "n_items": 0, "area_km2": 0.3704, "size_class": "> 5 см", "c_items_km2": 0.0, "ci95_lo": 0.0, "ci95_hi": 9.96, "ci95_method": "точный интервал Пуассона для N, делённый на A", "raw_10cm_items_km2": 0.0, "authors_cal_10cm_items_km2": 0.0, "authors_cal_10cm_lo95": null, "authors_cal_10cm_hi95": null}, {"source": "ADIS (4TU.ResearchData, судовая камера)", "segment_id": 336437, "ship": "Bark Europa", "date": "2022-10-31", "days_from_scene": -1044, "distance_km": 348.5, "lon": -40.06524, "lat": -24.14022, "n_items": 0, "area_km2": 0.3705, "size_class": "> 5 см", "c_items_km2": 0.0, "ci95_lo": 0.0, "ci95_hi": 9.96, "ci95_method": "точный интервал Пуассона для N, делённый на A", "raw_10cm_items_km2": 0.0, "authors_cal_10cm_items_km2": 0.0, "authors_cal_10cm_lo95": null, "authors_cal_10cm_hi95": null}, {"source": "ADIS (4TU.ResearchData, судовая камера)", "segment_id": 336438, "ship": "Bark Europa", "date": "2022-10-31", "days_from_scene": -1044, "distance_km": 349.7, "lon": -40.09594, "lat": -24.22453, "n_items": 0, "area_km2": 0.3702, "size_class": "> 5 см", "c_items_km2": 0.0, "ci95_lo": 0.0, "ci95_hi": 9.96, "ci95_method": "точный интервал Пуассона для N, делённый на A", "raw_10cm_items_km2": 0.0, "authors_cal_10cm_items_km2": 0.0, "authors_cal_10cm_lo95": null, "authors_cal_10cm_hi95": null}], "nearest_organizer_sample": {"sample_id": "MPL-0513", "source_id": "S2_SARGASSO_MSM41", "distance_km": 5301.6}, "note": "Измерение ≠ оценка: это независимые полевые счёты C = N/A в другое время и в другом месте; со сценой они не связаны и не калибруют её. Ближайший отрезок ADIS — за 347 км: только для порядка величин."}}}, {"type": "Feature", "id": "SZ-drift-guanabara-2025-09-09-011", "geometry": {"type": "Polygon", "coordinates": [[[-43.078925, -22.799716], [-43.079798, -22.799997], [-43.080276, -22.800635], [-43.08026, -22.801718], [-43.079765, -22.802345], [-43.078979, -22.802787], [-43.078394, -22.80287], [-43.077618, -22.80259], [-43.076737, -22.80294], [-43.076154, -22.802843], [-43.075479, -22.802383], [-43.0752, -22.801387], [-43.0758, -22.80031], [-43.07668, -22.80005], [-43.077651, -22.800242], [-43.078242, -22.799798], [-43.078925, -22.799716]]]}, "properties": {"kind": "detection_zone", "layer_kind": "scene_zone", "zone_id": "SZ-drift-guanabara-2025-09-09-011", "scene_key": "drift-guanabara-2025-09-09", "scene_kind": "drift", "scene_id": "S2B_MSIL2A_20250909T130249_R095_T23KPQ_20250909T163025", "region": "guanabara", "title": "Залив Гуанабара (Рио-де-Жанейро) · зона 11", "mission": "Sentinel-2", "datetime": "2025-09-09T13:02:49.024000Z", "detection_status": "insufficient_data", "status": "insufficient_data", "concentration_status": "unavailable", "quantity": {"status": "not_confirmed", "label": "концентрация по снимку не подтверждена", "detail": "перевод площади в штуки не показываем: нет калибровочных пар (см. docs/QUANTITY.md)"}, "verification": "false_alarm_signs", "training_scene": null, "flags": ["ship", "coast", "shallow"], "n_cozar_filaments": 0, "crop_file": "crops/SZ-drift-guanabara-2025-09-09-011.jpg", "wind_high": false, "measured": {"zone_area_km2": 0.1426, "suspicious_area_m2": 800, "n_pixels": 8, "n_objects": 3, "water_km2": 0.1227, "lwd_m2_km2": 6520.0, "lwd_note": null, "quality": {"valid_water_fraction": 0.86, "cloud_fraction": 0.0, "glint_fraction": 0.0}, "model": {"weights": "weights/lgbm", "file": "weights/lgbm/model.txt", "sha256": "0eeebf43fcccd8c7c07f053b7ec723229d1a3c9b92d12eec1bdb269258c51470", "sha256_short": "0eeebf43fccc", "trained_at": "2026-09-25T01:35:55Z", "threshold": 0.63, "harmonize": "none", "class": "MARIDA Marine Debris (любой плавающий мусор, не только пластик)"}}, "probable": {"prob_max": 0.988, "prob_mean": 0.922, "signs": {"foam": {"flag": false, "white_ratio_b2_b8": 0.135, "wind10m_ms": 3.18, "rule": "прирост B2 над водой ≥ 0.8 прироста B8 («белый» спектр) или ветер ≥ 7.0 м/с"}, "glint": {"flag": false, "b11_water_median": 0.0033, "glint_share": 0.0, "rule": "медиана B11 воды зоны > 0.01 или ≥ 20 % пикселей зоны — блик (маска качества)"}, "ship": {"flag": true, "share": 0, "bright_target_px_within_500m": 732, "rule": "≥ 30 % пикселей — у яркой цели или кильватера (reports/artifacts.md) или яркая цель с откликом в SWIR (судно, лодка: B11 ≥ 0,015) ближе 500 м, или малый яркий объект (≤ 40 пикс.) с B11 ≥ 0,01 ближе 500 м (лодка с кильватером)"}, "coast": {"flag": true, "land_px_within_300m": 415, "rule": "суша (маска качества) ближе 300 м — прибой, кромка берега"}, "shallow": {"flag": true, "b3_water_zone": 0.0283, "b3_ratio_to_scene_water": 1.07, "rule": "медиана B3 воды зоны ≥ 2× медианы воды снимка и ≥ 0,03, или B4 воды зоны ≥ 0,02 и (≥ 2× воды снимка или B8 ≥ 0,013) — мелководье, яркое дно, илистая банка"}, "seam": {"flag": false, "share": 0, "rule": "≥ 30 % пикселей — прямая линия вдоль трека/границы яркости (шов)"}, "cloud": {"flag": false, "cloud_fraction": 0.0, "rule": "облака или тени облаков (маска качества) ≥ 20 % зоны"}, "diag": {"dist_land_m": 86, "dist_bright_m": 72, "n_bright_px_500m": 80, "b11_bright_max_500m": 0.0293, "b4_water_zone": 0.0286, "b8_water_zone": 0.0221, "b11_det_median": 0.0035, "b8_det_median": 0.0363, "water_scene_b3": 0.0264, "water_scene_b4": 0.0188, "n_det_px": 8, "n_obj": 3}, "note": "эвристики, не классификатор; на размеченных данных не проверены"}, "n_cozar_filaments": 0}, "field_nearby": {"items": [{"source": "ADIS (4TU.ResearchData, судовая камера)", "segment_id": 336436, "ship": "Bark Europa", "date": "2022-10-31", "days_from_scene": -1044, "distance_km": 347.4, "lon": -40.0369, "lat": -24.05508, "n_items": 0, "area_km2": 0.3704, "size_class": "> 5 см", "c_items_km2": 0.0, "ci95_lo": 0.0, "ci95_hi": 9.96, "ci95_method": "точный интервал Пуассона для N, делённый на A", "raw_10cm_items_km2": 0.0, "authors_cal_10cm_items_km2": 0.0, "authors_cal_10cm_lo95": null, "authors_cal_10cm_hi95": null}, {"source": "ADIS (4TU.ResearchData, судовая камера)", "segment_id": 336437, "ship": "Bark Europa", "date": "2022-10-31", "days_from_scene": -1044, "distance_km": 348.5, "lon": -40.06524, "lat": -24.14022, "n_items": 0, "area_km2": 0.3705, "size_class": "> 5 см", "c_items_km2": 0.0, "ci95_lo": 0.0, "ci95_hi": 9.96, "ci95_method": "точный интервал Пуассона для N, делённый на A", "raw_10cm_items_km2": 0.0, "authors_cal_10cm_items_km2": 0.0, "authors_cal_10cm_lo95": null, "authors_cal_10cm_hi95": null}, {"source": "ADIS (4TU.ResearchData, судовая камера)", "segment_id": 336438, "ship": "Bark Europa", "date": "2022-10-31", "days_from_scene": -1044, "distance_km": 349.7, "lon": -40.09594, "lat": -24.22453, "n_items": 0, "area_km2": 0.3702, "size_class": "> 5 см", "c_items_km2": 0.0, "ci95_lo": 0.0, "ci95_hi": 9.96, "ci95_method": "точный интервал Пуассона для N, делённый на A", "raw_10cm_items_km2": 0.0, "authors_cal_10cm_items_km2": 0.0, "authors_cal_10cm_lo95": null, "authors_cal_10cm_hi95": null}], "nearest_organizer_sample": {"sample_id": "MPL-0513", "source_id": "S2_SARGASSO_MSM41", "distance_km": 5301.6}, "note": "Измерение ≠ оценка: это независимые полевые счёты C = N/A в другое время и в другом месте; со сценой они не связаны и не калибруют её. Ближайший отрезок ADIS — за 347 км: только для порядка величин."}}}, {"type": "Feature", "id": "SZ-drift-guanabara-2025-09-09-012", "geometry": {"type": "Polygon", "coordinates": [[[-43.069346, -22.802128], [-43.070219, -22.80241], [-43.070693, -22.803319], [-43.071275, -22.803506], [-43.071753, -22.804144], [-43.071842, -22.804687], [-43.071539, -22.805496], [-43.070655, -22.806027], [-43.069972, -22.806109], [-43.068417, -22.80582], [-43.067837, -22.805542], [-43.067167, -22.804721], [-43.067181, -22.803728], [-43.067975, -22.802654], [-43.068663, -22.802211], [-43.069346, -22.802128]]]}, "properties": {"kind": "detection_zone", "layer_kind": "scene_zone", "zone_id": "SZ-drift-guanabara-2025-09-09-012", "scene_key": "drift-guanabara-2025-09-09", "scene_kind": "drift", "scene_id": "S2B_MSIL2A_20250909T130249_R095_T23KPQ_20250909T163025", "region": "guanabara", "title": "Залив Гуанабара (Рио-де-Жанейро) · зона 12", "mission": "Sentinel-2", "datetime": "2025-09-09T13:02:49.024000Z", "detection_status": "insufficient_data", "status": "insufficient_data", "concentration_status": "unavailable", "quantity": {"status": "not_confirmed", "label": "концентрация по снимку не подтверждена", "detail": "перевод площади в штуки не показываем: нет калибровочных пар (см. docs/QUANTITY.md)"}, "verification": "false_alarm_signs", "training_scene": null, "flags": ["coast", "shallow", "ship", "glint"], "n_cozar_filaments": 0, "crop_file": "crops/SZ-drift-guanabara-2025-09-09-012.jpg", "wind_high": false, "measured": {"zone_area_km2": 0.1534, "suspicious_area_m2": 3000, "n_pixels": 30, "n_objects": 4, "water_km2": 0.1405, "lwd_m2_km2": 21352.3, "lwd_note": null, "quality": {"valid_water_fraction": 0.927, "cloud_fraction": 0.0, "glint_fraction": 0.0}, "model": {"weights": "weights/lgbm", "file": "weights/lgbm/model.txt", "sha256": "0eeebf43fcccd8c7c07f053b7ec723229d1a3c9b92d12eec1bdb269258c51470", "sha256_short": "0eeebf43fccc", "trained_at": "2026-09-25T01:35:55Z", "threshold": 0.63, "harmonize": "none", "class": "MARIDA Marine Debris (любой плавающий мусор, не только пластик)"}}, "probable": {"prob_max": 0.996, "prob_mean": 0.873, "signs": {"foam": {"flag": false, "white_ratio_b2_b8": 0.344, "wind10m_ms": 3.18, "rule": "прирост B2 над водой ≥ 0.8 прироста B8 («белый» спектр) или ветер ≥ 7.0 м/с"}, "glint": {"flag": true, "b11_water_median": 0.0141, "glint_share": 0.0, "rule": "медиана B11 воды зоны > 0.01 или ≥ 20 % пикселей зоны — блик (маска качества)"}, "ship": {"flag": true, "share": 1.0, "bright_target_px_within_500m": 414, "rule": "≥ 30 % пикселей — у яркой цели или кильватера (reports/artifacts.md) или яркая цель с откликом в SWIR (судно, лодка: B11 ≥ 0,015) ближе 500 м, или малый яркий объект (≤ 40 пикс.) с B11 ≥ 0,01 ближе 500 м (лодка с кильватером)"}, "coast": {"flag": true, "land_px_within_300m": 817, "rule": "суша (маска качества) ближе 300 м — прибой, кромка берега"}, "shallow": {"flag": true, "b3_water_zone": 0.0317, "b3_ratio_to_scene_water": 1.2, "rule": "медиана B3 воды зоны ≥ 2× медианы воды снимка и ≥ 0,03, или B4 воды зоны ≥ 0,02 и (≥ 2× воды снимка или B8 ≥ 0,013) — мелководье, яркое дно, илистая банка"}, "seam": {"flag": false, "share": 0, "rule": "≥ 30 % пикселей — прямая линия вдоль трека/границы яркости (шов)"}, "cloud": {"flag": false, "cloud_fraction": 0.0, "rule": "облака или тени облаков (маска качества) ≥ 20 % зоны"}, "diag": {"dist_land_m": 100, "dist_bright_m": 10, "n_bright_px_500m": 132, "b11_bright_max_500m": 0.0926, "b4_water_zone": 0.0346, "b8_water_zone": 0.0346, "b11_det_median": 0.0107, "b8_det_median": 0.0476, "water_scene_b3": 0.0264, "water_scene_b4": 0.0188, "n_det_px": 30, "n_obj": 4}, "note": "эвристики, не классификатор; на размеченных данных не проверены"}, "n_cozar_filaments": 0}, "field_nearby": {"items": [{"source": "ADIS (4TU.ResearchData, судовая камера)", "segment_id": 336436, "ship": "Bark Europa", "date": "2022-10-31", "days_from_scene": -1044, "distance_km": 347.4, "lon": -40.0369, "lat": -24.05508, "n_items": 0, "area_km2": 0.3704, "size_class": "> 5 см", "c_items_km2": 0.0, "ci95_lo": 0.0, "ci95_hi": 9.96, "ci95_method": "точный интервал Пуассона для N, делённый на A", "raw_10cm_items_km2": 0.0, "authors_cal_10cm_items_km2": 0.0, "authors_cal_10cm_lo95": null, "authors_cal_10cm_hi95": null}, {"source": "ADIS (4TU.ResearchData, судовая камера)", "segment_id": 336437, "ship": "Bark Europa", "date": "2022-10-31", "days_from_scene": -1044, "distance_km": 348.5, "lon": -40.06524, "lat": -24.14022, "n_items": 0, "area_km2": 0.3705, "size_class": "> 5 см", "c_items_km2": 0.0, "ci95_lo": 0.0, "ci95_hi": 9.96, "ci95_method": "точный интервал Пуассона для N, делённый на A", "raw_10cm_items_km2": 0.0, "authors_cal_10cm_items_km2": 0.0, "authors_cal_10cm_lo95": null, "authors_cal_10cm_hi95": null}, {"source": "ADIS (4TU.ResearchData, судовая камера)", "segment_id": 336438, "ship": "Bark Europa", "date": "2022-10-31", "days_from_scene": -1044, "distance_km": 349.7, "lon": -40.09594, "lat": -24.22453, "n_items": 0, "area_km2": 0.3702, "size_class": "> 5 см", "c_items_km2": 0.0, "ci95_lo": 0.0, "ci95_hi": 9.96, "ci95_method": "точный интервал Пуассона для N, делённый на A", "raw_10cm_items_km2": 0.0, "authors_cal_10cm_items_km2": 0.0, "authors_cal_10cm_lo95": null, "authors_cal_10cm_hi95": null}], "nearest_organizer_sample": {"sample_id": "MPL-0513", "source_id": "S2_SARGASSO_MSM41", "distance_km": 5301.6}, "note": "Измерение ≠ оценка: это независимые полевые счёты C = N/A в другое время и в другом месте; со сценой они не связаны и не калибруют её. Ближайший отрезок ADIS — за 347 км: только для порядка величин."}}}, {"type": "Feature", "id": "SZ-drift-guanabara-2025-09-09-013", "geometry": {"type": "Polygon", "coordinates": [[[-43.086897, -22.814711], [-43.088158, -22.815088], [-43.088833, -22.815547], [-43.089114, -22.816363], [-43.089008, -22.816994], [-43.088512, -22.81762], [-43.087632, -22.817881], [-43.087244, -22.817786], [-43.087237, -22.818237], [-43.086643, -22.818952], [-43.085762, -22.819213], [-43.085179, -22.819115], [-43.084314, -22.818292], [-43.084329, -22.817209], [-43.084825, -22.816583], [-43.085412, -22.816409], [-43.08532, -22.816047], [-43.085623, -22.815238], [-43.086311, -22.814795], [-43.086897, -22.814711]]]}, "properties": {"kind": "detection_zone", "layer_kind": "scene_zone", "zone_id": "SZ-drift-guanabara-2025-09-09-013", "scene_key": "drift-guanabara-2025-09-09", "scene_kind": "drift", "scene_id": "S2B_MSIL2A_20250909T130249_R095_T23KPQ_20250909T163025", "region": "guanabara", "title": "Залив Гуанабара (Рио-де-Жанейро) · зона 13", "mission": "Sentinel-2", "datetime": "2025-09-09T13:02:49.024000Z", "detection_status": "insufficient_data", "status": "insufficient_data", "concentration_status": "unavailable", "quantity": {"status": "not_confirmed", "label": "концентрация по снимку не подтверждена", "detail": "перевод площади в штуки не показываем: нет калибровочных пар (см. docs/QUANTITY.md)"}, "verification": "false_alarm_signs", "training_scene": null, "flags": ["ship"], "n_cozar_filaments": 0, "crop_file": "crops/SZ-drift-guanabara-2025-09-09-013.jpg", "wind_high": false, "measured": {"zone_area_km2": 0.1599, "suspicious_area_m2": 700, "n_pixels": 7, "n_objects": 3, "water_km2": 0.1587, "lwd_m2_km2": 4410.8, "lwd_note": null, "quality": {"valid_water_fraction": 1.0, "cloud_fraction": 0.0, "glint_fraction": 0.0}, "model": {"weights": "weights/lgbm", "file": "weights/lgbm/model.txt", "sha256": "0eeebf43fcccd8c7c07f053b7ec723229d1a3c9b92d12eec1bdb269258c51470", "sha256_short": "0eeebf43fccc", "trained_at": "2026-09-25T01:35:55Z", "threshold": 0.63, "harmonize": "none", "class": "MARIDA Marine Debris (любой плавающий мусор, не только пластик)"}}, "probable": {"prob_max": 0.988, "prob_mean": 0.836, "signs": {"foam": {"flag": false, "white_ratio_b2_b8": 0.284, "wind10m_ms": 3.18, "rule": "прирост B2 над водой ≥ 0.8 прироста B8 («белый» спектр) или ветер ≥ 7.0 м/с"}, "glint": {"flag": false, "b11_water_median": 0.0029, "glint_share": 0.0, "rule": "медиана B11 воды зоны > 0.01 или ≥ 20 % пикселей зоны — блик (маска качества)"}, "ship": {"flag": true, "share": 0.429, "bright_target_px_within_500m": 380, "rule": "≥ 30 % пикселей — у яркой цели или кильватера (reports/artifacts.md) или яркая цель с откликом в SWIR (судно, лодка: B11 ≥ 0,015) ближе 500 м, или малый яркий объект (≤ 40 пикс.) с B11 ≥ 0,01 ближе 500 м (лодка с кильватером)"}, "coast": {"flag": false, "land_px_within_300m": 0, "rule": "суша (маска качества) ближе 300 м — прибой, кромка берега"}, "shallow": {"flag": false, "b3_water_zone": 0.0246, "b3_ratio_to_scene_water": 0.93, "rule": "медиана B3 воды зоны ≥ 2× медианы воды снимка и ≥ 0,03, или B4 воды зоны ≥ 0,02 и (≥ 2× воды снимка или B8 ≥ 0,013) — мелководье, яркое дно, илистая банка"}, "seam": {"flag": false, "share": 0, "rule": "≥ 30 % пикселей — прямая линия вдоль трека/границы яркости (шов)"}, "cloud": {"flag": false, "cloud_fraction": 0.0, "rule": "облака или тени облаков (маска качества) ≥ 20 % зоны"}, "diag": {"dist_land_m": 349, "dist_bright_m": 91, "n_bright_px_500m": 9, "b11_bright_max_500m": 0.0344, "b4_water_zone": 0.0164, "b8_water_zone": 0.0059, "b11_det_median": 0.0107, "b8_det_median": 0.0446, "water_scene_b3": 0.0264, "water_scene_b4": 0.0188, "n_det_px": 7, "n_obj": 3}, "note": "эвристики, не классификатор; на размеченных данных не проверены"}, "n_cozar_filaments": 0}, "field_nearby": {"items": [{"source": "ADIS (4TU.ResearchData, судовая камера)", "segment_id": 336436, "ship": "Bark Europa", "date": "2022-10-31", "days_from_scene": -1044, "distance_km": 347.4, "lon": -40.0369, "lat": -24.05508, "n_items": 0, "area_km2": 0.3704, "size_class": "> 5 см", "c_items_km2": 0.0, "ci95_lo": 0.0, "ci95_hi": 9.96, "ci95_method": "точный интервал Пуассона для N, делённый на A", "raw_10cm_items_km2": 0.0, "authors_cal_10cm_items_km2": 0.0, "authors_cal_10cm_lo95": null, "authors_cal_10cm_hi95": null}, {"source": "ADIS (4TU.ResearchData, судовая камера)", "segment_id": 336437, "ship": "Bark Europa", "date": "2022-10-31", "days_from_scene": -1044, "distance_km": 348.5, "lon": -40.06524, "lat": -24.14022, "n_items": 0, "area_km2": 0.3705, "size_class": "> 5 см", "c_items_km2": 0.0, "ci95_lo": 0.0, "ci95_hi": 9.96, "ci95_method": "точный интервал Пуассона для N, делённый на A", "raw_10cm_items_km2": 0.0, "authors_cal_10cm_items_km2": 0.0, "authors_cal_10cm_lo95": null, "authors_cal_10cm_hi95": null}, {"source": "ADIS (4TU.ResearchData, судовая камера)", "segment_id": 336438, "ship": "Bark Europa", "date": "2022-10-31", "days_from_scene": -1044, "distance_km": 349.7, "lon": -40.09594, "lat": -24.22453, "n_items": 0, "area_km2": 0.3702, "size_class": "> 5 см", "c_items_km2": 0.0, "ci95_lo": 0.0, "ci95_hi": 9.96, "ci95_method": "точный интервал Пуассона для N, делённый на A", "raw_10cm_items_km2": 0.0, "authors_cal_10cm_items_km2": 0.0, "authors_cal_10cm_lo95": null, "authors_cal_10cm_hi95": null}], "nearest_organizer_sample": {"sample_id": "MPL-0513", "source_id": "S2_SARGASSO_MSM41", "distance_km": 5301.6}, "note": "Измерение ≠ оценка: это независимые полевые счёты C = N/A в другое время и в другом месте; со сценой они не связаны и не калибруют её. Ближайший отрезок ADIS — за 347 км: только для порядка величин."}}}, {"type": "Feature", "id": "SZ-drift-guanabara-2025-09-09-014", "geometry": {"type": "Polygon", "coordinates": [[[-43.14527, -22.848814], [-43.146431, -22.849369], [-43.147005, -22.850188], [-43.146994, -22.851001], [-43.147763, -22.851732], [-43.147749, -22.852816], [-43.146861, -22.853618], [-43.146275, -22.853702], [-43.145402, -22.853421], [-43.144923, -22.852783], [-43.144936, -22.85188], [-43.143781, -22.850783], [-43.143693, -22.85015], [-43.143996, -22.849341], [-43.144684, -22.848897], [-43.14527, -22.848814]]]}, "properties": {"kind": "detection_zone", "layer_kind": "scene_zone", "zone_id": "SZ-drift-guanabara-2025-09-09-014", "scene_key": "drift-guanabara-2025-09-09", "scene_kind": "drift", "scene_id": "S2B_MSIL2A_20250909T130249_R095_T23KPQ_20250909T163025", "region": "guanabara", "title": "Залив Гуанабара (Рио-де-Жанейро) · зона 14", "mission": "Sentinel-2", "datetime": "2025-09-09T13:02:49.024000Z", "detection_status": "insufficient_data", "status": "insufficient_data", "concentration_status": "unavailable", "quantity": {"status": "not_confirmed", "label": "концентрация по снимку не подтверждена", "detail": "перевод площади в штуки не показываем: нет калибровочных пар (см. docs/QUANTITY.md)"}, "verification": "false_alarm_signs", "training_scene": null, "flags": ["ship"], "n_cozar_filaments": 0, "crop_file": "crops/SZ-drift-guanabara-2025-09-09-014.jpg", "wind_high": false, "measured": {"zone_area_km2": 0.144, "suspicious_area_m2": 500, "n_pixels": 5, "n_objects": 3, "water_km2": 0.1465, "lwd_m2_km2": 3413.0, "lwd_note": null, "quality": {"valid_water_fraction": 1.0, "cloud_fraction": 0.0, "glint_fraction": 0.0}, "model": {"weights": "weights/lgbm", "file": "weights/lgbm/model.txt", "sha256": "0eeebf43fcccd8c7c07f053b7ec723229d1a3c9b92d12eec1bdb269258c51470", "sha256_short": "0eeebf43fccc", "trained_at": "2026-09-25T01:35:55Z", "threshold": 0.63, "harmonize": "none", "class": "MARIDA Marine Debris (любой плавающий мусор, не только пластик)"}}, "probable": {"prob_max": 1.0, "prob_mean": 0.958, "signs": {"foam": {"flag": false, "white_ratio_b2_b8": 0.448, "wind10m_ms": 3.18, "rule": "прирост B2 над водой ≥ 0.8 прироста B8 («белый» спектр) или ветер ≥ 7.0 м/с"}, "glint": {"flag": false, "b11_water_median": 0.0061, "glint_share": 0.0, "rule": "медиана B11 воды зоны > 0.01 или ≥ 20 % пикселей зоны — блик (маска качества)"}, "ship": {"flag": true, "share": 0, "bright_target_px_within_500m": 124, "rule": "≥ 30 % пикселей — у яркой цели или кильватера (reports/artifacts.md) или яркая цель с откликом в SWIR (судно, лодка: B11 ≥ 0,015) ближе 500 м, или малый яркий объект (≤ 40 пикс.) с B11 ≥ 0,01 ближе 500 м (лодка с кильватером)"}, "coast": {"flag": false, "land_px_within_300m": 0, "rule": "суша (маска качества) ближе 300 м — прибой, кромка берега"}, "shallow": {"flag": false, "b3_water_zone": 0.0183, "b3_ratio_to_scene_water": 0.69, "rule": "медиана B3 воды зоны ≥ 2× медианы воды снимка и ≥ 0,03, или B4 воды зоны ≥ 0,02 и (≥ 2× воды снимка или B8 ≥ 0,013) — мелководье, яркое дно, илистая банка"}, "seam": {"flag": false, "share": 0, "rule": "≥ 30 % пикселей — прямая линия вдоль трека/границы яркости (шов)"}, "cloud": {"flag": false, "cloud_fraction": 0.0, "rule": "облака или тени облаков (маска качества) ≥ 20 % зоны"}, "diag": {"dist_land_m": null, "dist_bright_m": 100, "n_bright_px_500m": 157, "b11_bright_max_500m": 0.133, "b4_water_zone": 0.0117, "b8_water_zone": 0.0081, "b11_det_median": 0.0112, "b8_det_median": 0.0296, "water_scene_b3": 0.0264, "water_scene_b4": 0.0188, "n_det_px": 5, "n_obj": 3}, "note": "эвристики, не классификатор; на размеченных данных не проверены"}, "n_cozar_filaments": 0}, "field_nearby": {"items": [{"source": "ADIS (4TU.ResearchData, судовая камера)", "segment_id": 336436, "ship": "Bark Europa", "date": "2022-10-31", "days_from_scene": -1044, "distance_km": 347.4, "lon": -40.0369, "lat": -24.05508, "n_items": 0, "area_km2": 0.3704, "size_class": "> 5 см", "c_items_km2": 0.0, "ci95_lo": 0.0, "ci95_hi": 9.96, "ci95_method": "точный интервал Пуассона для N, делённый на A", "raw_10cm_items_km2": 0.0, "authors_cal_10cm_items_km2": 0.0, "authors_cal_10cm_lo95": null, "authors_cal_10cm_hi95": null}, {"source": "ADIS (4TU.ResearchData, судовая камера)", "segment_id": 336437, "ship": "Bark Europa", "date": "2022-10-31", "days_from_scene": -1044, "distance_km": 348.5, "lon": -40.06524, "lat": -24.14022, "n_items": 0, "area_km2": 0.3705, "size_class": "> 5 см", "c_items_km2": 0.0, "ci95_lo": 0.0, "ci95_hi": 9.96, "ci95_method": "точный интервал Пуассона для N, делённый на A", "raw_10cm_items_km2": 0.0, "authors_cal_10cm_items_km2": 0.0, "authors_cal_10cm_lo95": null, "authors_cal_10cm_hi95": null}, {"source": "ADIS (4TU.ResearchData, судовая камера)", "segment_id": 336438, "ship": "Bark Europa", "date": "2022-10-31", "days_from_scene": -1044, "distance_km": 349.7, "lon": -40.09594, "lat": -24.22453, "n_items": 0, "area_km2": 0.3702, "size_class": "> 5 см", "c_items_km2": 0.0, "ci95_lo": 0.0, "ci95_hi": 9.96, "ci95_method": "точный интервал Пуассона для N, делённый на A", "raw_10cm_items_km2": 0.0, "authors_cal_10cm_items_km2": 0.0, "authors_cal_10cm_lo95": null, "authors_cal_10cm_hi95": null}], "nearest_organizer_sample": {"sample_id": "MPL-0513", "source_id": "S2_SARGASSO_MSM41", "distance_km": 5301.6}, "note": "Измерение ≠ оценка: это независимые полевые счёты C = N/A в другое время и в другом месте; со сценой они не связаны и не калибруют её. Ближайший отрезок ADIS — за 347 км: только для порядка величин."}}}, {"type": "Feature", "id": "SZ-drift-guanabara-2025-09-09-015", "geometry": {"type": "Polygon", "coordinates": [[[-43.158091, -22.851762], [-43.159253, -22.852317], [-43.159531, -22.853404], [-43.158932, -22.854481], [-43.157954, -22.85474], [-43.157081, -22.854459], [-43.156696, -22.854094], [-43.156417, -22.853097], [-43.157016, -22.85202], [-43.158091, -22.851762]]]}, "properties": {"kind": "detection_zone", "layer_kind": "scene_zone", "zone_id": "SZ-drift-guanabara-2025-09-09-015", "scene_key": "drift-guanabara-2025-09-09", "scene_kind": "drift", "scene_id": "S2B_MSIL2A_20250909T130249_R095_T23KPQ_20250909T163025", "region": "guanabara", "title": "Залив Гуанабара (Рио-де-Жанейро) · зона 15", "mission": "Sentinel-2", "datetime": "2025-09-09T13:02:49.024000Z", "detection_status": "insufficient_data", "status": "insufficient_data", "concentration_status": "unavailable", "quantity": {"status": "not_confirmed", "label": "концентрация по снимку не подтверждена", "detail": "перевод площади в штуки не показываем: нет калибровочных пар (см. docs/QUANTITY.md)"}, "verification": "false_alarm_signs", "training_scene": null, "flags": ["ship"], "n_cozar_filaments": 0, "crop_file": "crops/SZ-drift-guanabara-2025-09-09-015.jpg", "wind_high": false, "measured": {"zone_area_km2": 0.0773, "suspicious_area_m2": 500, "n_pixels": 5, "n_objects": 1, "water_km2": 0.0794, "lwd_m2_km2": 6297.2, "lwd_note": null, "quality": {"valid_water_fraction": 1.0, "cloud_fraction": 0.0, "glint_fraction": 0.0}, "model": {"weights": "weights/lgbm", "file": "weights/lgbm/model.txt", "sha256": "0eeebf43fcccd8c7c07f053b7ec723229d1a3c9b92d12eec1bdb269258c51470", "sha256_short": "0eeebf43fccc", "trained_at": "2026-09-25T01:35:55Z", "threshold": 0.63, "harmonize": "none", "class": "MARIDA Marine Debris (любой плавающий мусор, не только пластик)"}}, "probable": {"prob_max": 0.992, "prob_mean": 0.935, "signs": {"foam": {"flag": false, "white_ratio_b2_b8": 0.383, "wind10m_ms": 3.18, "rule": "прирост B2 над водой ≥ 0.8 прироста B8 («белый» спектр) или ветер ≥ 7.0 м/с"}, "glint": {"flag": false, "b11_water_median": 0.0064, "glint_share": 0.0, "rule": "медиана B11 воды зоны > 0.01 или ≥ 20 % пикселей зоны — блик (маска качества)"}, "ship": {"flag": true, "share": 0, "bright_target_px_within_500m": 46, "rule": "≥ 30 % пикселей — у яркой цели или кильватера (reports/artifacts.md) или яркая цель с откликом в SWIR (судно, лодка: B11 ≥ 0,015) ближе 500 м, или малый яркий объект (≤ 40 пикс.) с B11 ≥ 0,01 ближе 500 м (лодка с кильватером)"}, "coast": {"flag": false, "land_px_within_300m": 0, "rule": "суша (маска качества) ближе 300 м — прибой, кромка берега"}, "shallow": {"flag": false, "b3_water_zone": 0.0202, "b3_ratio_to_scene_water": 0.77, "rule": "медиана B3 воды зоны ≥ 2× медианы воды снимка и ≥ 0,03, или B4 воды зоны ≥ 0,02 и (≥ 2× воды снимка или B8 ≥ 0,013) — мелководье, яркое дно, илистая банка"}, "seam": {"flag": false, "share": 0, "rule": "≥ 30 % пикселей — прямая линия вдоль трека/границы яркости (шов)"}, "cloud": {"flag": false, "cloud_fraction": 0.0, "rule": "облака или тени облаков (маска качества) ≥ 20 % зоны"}, "diag": {"dist_land_m": null, "dist_bright_m": 230, "n_bright_px_500m": 59, "b11_bright_max_500m": 0.1534, "b4_water_zone": 0.013, "b8_water_zone": 0.0084, "b11_det_median": 0.0147, "b8_det_median": 0.0344, "water_scene_b3": 0.0264, "water_scene_b4": 0.0188, "n_det_px": 5, "n_obj": 1}, "note": "эвристики, не классификатор; на размеченных данных не проверены"}, "n_cozar_filaments": 0}, "field_nearby": {"items": [{"source": "ADIS (4TU.ResearchData, судовая камера)", "segment_id": 336436, "ship": "Bark Europa", "date": "2022-10-31", "days_from_scene": -1044, "distance_km": 347.4, "lon": -40.0369, "lat": -24.05508, "n_items": 0, "area_km2": 0.3704, "size_class": "> 5 см", "c_items_km2": 0.0, "ci95_lo": 0.0, "ci95_hi": 9.96, "ci95_method": "точный интервал Пуассона для N, делённый на A", "raw_10cm_items_km2": 0.0, "authors_cal_10cm_items_km2": 0.0, "authors_cal_10cm_lo95": null, "authors_cal_10cm_hi95": null}, {"source": "ADIS (4TU.ResearchData, судовая камера)", "segment_id": 336437, "ship": "Bark Europa", "date": "2022-10-31", "days_from_scene": -1044, "distance_km": 348.5, "lon": -40.06524, "lat": -24.14022, "n_items": 0, "area_km2": 0.3705, "size_class": "> 5 см", "c_items_km2": 0.0, "ci95_lo": 0.0, "ci95_hi": 9.96, "ci95_method": "точный интервал Пуассона для N, делённый на A", "raw_10cm_items_km2": 0.0, "authors_cal_10cm_items_km2": 0.0, "authors_cal_10cm_lo95": null, "authors_cal_10cm_hi95": null}, {"source": "ADIS (4TU.ResearchData, судовая камера)", "segment_id": 336438, "ship": "Bark Europa", "date": "2022-10-31", "days_from_scene": -1044, "distance_km": 349.7, "lon": -40.09594, "lat": -24.22453, "n_items": 0, "area_km2": 0.3702, "size_class": "> 5 см", "c_items_km2": 0.0, "ci95_lo": 0.0, "ci95_hi": 9.96, "ci95_method": "точный интервал Пуассона для N, делённый на A", "raw_10cm_items_km2": 0.0, "authors_cal_10cm_items_km2": 0.0, "authors_cal_10cm_lo95": null, "authors_cal_10cm_hi95": null}], "nearest_organizer_sample": {"sample_id": "MPL-0513", "source_id": "S2_SARGASSO_MSM41", "distance_km": 5301.6}, "note": "Измерение ≠ оценка: это независимые полевые счёты C = N/A в другое время и в другом месте; со сценой они не связаны и не калибруют её. Ближайший отрезок ADIS — за 347 км: только для порядка величин."}}}, {"type": "Feature", "id": "SZ-drift-guanabara-2025-09-09-016", "geometry": {"type": "Polygon", "coordinates": [[[-43.204335, -22.884439], [-43.205497, -22.884994], [-43.205778, -22.88581], [-43.205674, -22.886351], [-43.204687, -22.887242], [-43.203421, -22.887228], [-43.202554, -22.886406], [-43.202567, -22.885412], [-43.203063, -22.884786], [-43.204335, -22.884439]]]}, "properties": {"kind": "detection_zone", "layer_kind": "scene_zone", "zone_id": "SZ-drift-guanabara-2025-09-09-016", "scene_key": "drift-guanabara-2025-09-09", "scene_kind": "drift", "scene_id": "S2B_MSIL2A_20250909T130249_R095_T23KPQ_20250909T163025", "region": "guanabara", "title": "Залив Гуанабара (Рио-де-Жанейро) · зона 16", "mission": "Sentinel-2", "datetime": "2025-09-09T13:02:49.024000Z", "detection_status": "insufficient_data", "status": "insufficient_data", "concentration_status": "unavailable", "quantity": {"status": "not_confirmed", "label": "концентрация по снимку не подтверждена", "detail": "перевод площади в штуки не показываем: нет калибровочных пар (см. docs/QUANTITY.md)"}, "verification": "false_alarm_signs", "training_scene": null, "flags": ["ship"], "n_cozar_filaments": 0, "crop_file": "crops/SZ-drift-guanabara-2025-09-09-016.jpg", "wind_high": false, "measured": {"zone_area_km2": 0.0788, "suspicious_area_m2": 500, "n_pixels": 5, "n_objects": 1, "water_km2": 0.0812, "lwd_m2_km2": 6157.6, "lwd_note": null, "quality": {"valid_water_fraction": 1.0, "cloud_fraction": 0.0, "glint_fraction": 0.0}, "model": {"weights": "weights/lgbm", "file": "weights/lgbm/model.txt", "sha256": "0eeebf43fcccd8c7c07f053b7ec723229d1a3c9b92d12eec1bdb269258c51470", "sha256_short": "0eeebf43fccc", "trained_at": "2026-09-25T01:35:55Z", "threshold": 0.63, "harmonize": "none", "class": "MARIDA Marine Debris (любой плавающий мусор, не только пластик)"}}, "probable": {"prob_max": 0.965, "prob_mean": 0.94, "signs": {"foam": {"flag": false, "white_ratio_b2_b8": 0.558, "wind10m_ms": 3.18, "rule": "прирост B2 над водой ≥ 0.8 прироста B8 («белый» спектр) или ветер ≥ 7.0 м/с"}, "glint": {"flag": false, "b11_water_median": 0.006, "glint_share": 0.0, "rule": "медиана B11 воды зоны > 0.01 или ≥ 20 % пикселей зоны — блик (маска качества)"}, "ship": {"flag": true, "share": 0, "bright_target_px_within_500m": 99, "rule": "≥ 30 % пикселей — у яркой цели или кильватера (reports/artifacts.md) или яркая цель с откликом в SWIR (судно, лодка: B11 ≥ 0,015) ближе 500 м, или малый яркий объект (≤ 40 пикс.) с B11 ≥ 0,01 ближе 500 м (лодка с кильватером)"}, "coast": {"flag": false, "land_px_within_300m": 0, "rule": "суша (маска качества) ближе 300 м — прибой, кромка берега"}, "shallow": {"flag": false, "b3_water_zone": 0.0431, "b3_ratio_to_scene_water": 1.63, "rule": "медиана B3 воды зоны ≥ 2× медианы воды снимка и ≥ 0,03, или B4 воды зоны ≥ 0,02 и (≥ 2× воды снимка или B8 ≥ 0,013) — мелководье, яркое дно, илистая банка"}, "seam": {"flag": false, "share": 0, "rule": "≥ 30 % пикселей — прямая линия вдоль трека/границы яркости (шов)"}, "cloud": {"flag": false, "cloud_fraction": 0.0, "rule": "облака или тени облаков (маска качества) ≥ 20 % зоны"}, "diag": {"dist_land_m": 411, "dist_bright_m": 82, "n_bright_px_500m": 16, "b11_bright_max_500m": 0.0271, "b4_water_zone": 0.0315, "b8_water_zone": 0.012, "b11_det_median": 0.0051, "b8_det_median": 0.0328, "water_scene_b3": 0.0264, "water_scene_b4": 0.0188, "n_det_px": 5, "n_obj": 1}, "note": "эвристики, не классификатор; на размеченных данных не проверены"}, "n_cozar_filaments": 0}, "field_nearby": {"items": [{"source": "ADIS (4TU.ResearchData, судовая камера)", "segment_id": 336436, "ship": "Bark Europa", "date": "2022-10-31", "days_from_scene": -1044, "distance_km": 347.4, "lon": -40.0369, "lat": -24.05508, "n_items": 0, "area_km2": 0.3704, "size_class": "> 5 см", "c_items_km2": 0.0, "ci95_lo": 0.0, "ci95_hi": 9.96, "ci95_method": "точный интервал Пуассона для N, делённый на A", "raw_10cm_items_km2": 0.0, "authors_cal_10cm_items_km2": 0.0, "authors_cal_10cm_lo95": null, "authors_cal_10cm_hi95": null}, {"source": "ADIS (4TU.ResearchData, судовая камера)", "segment_id": 336437, "ship": "Bark Europa", "date": "2022-10-31", "days_from_scene": -1044, "distance_km": 348.5, "lon": -40.06524, "lat": -24.14022, "n_items": 0, "area_km2": 0.3705, "size_class": "> 5 см", "c_items_km2": 0.0, "ci95_lo": 0.0, "ci95_hi": 9.96, "ci95_method": "точный интервал Пуассона для N, делённый на A", "raw_10cm_items_km2": 0.0, "authors_cal_10cm_items_km2": 0.0, "authors_cal_10cm_lo95": null, "authors_cal_10cm_hi95": null}, {"source": "ADIS (4TU.ResearchData, судовая камера)", "segment_id": 336438, "ship": "Bark Europa", "date": "2022-10-31", "days_from_scene": -1044, "distance_km": 349.7, "lon": -40.09594, "lat": -24.22453, "n_items": 0, "area_km2": 0.3702, "size_class": "> 5 см", "c_items_km2": 0.0, "ci95_lo": 0.0, "ci95_hi": 9.96, "ci95_method": "точный интервал Пуассона для N, делённый на A", "raw_10cm_items_km2": 0.0, "authors_cal_10cm_items_km2": 0.0, "authors_cal_10cm_lo95": null, "authors_cal_10cm_hi95": null}], "nearest_organizer_sample": {"sample_id": "MPL-0513", "source_id": "S2_SARGASSO_MSM41", "distance_km": 5301.6}, "note": "Измерение ≠ оценка: это независимые полевые счёты C = N/A в другое время и в другом месте; со сценой они не связаны и не калибруют её. Ближайший отрезок ADIS — за 347 км: только для порядка величин."}}}]}