{"type": "FeatureCollection", "features": [{"type": "Feature", "id": "D-SZ-drift-honduras-2026-02-19-001-3", "geometry": {"type": "Polygon", "coordinates": [[[-88.1045994, 15.8274497], [-88.1045984, 15.8272689], [-88.1045051, 15.8272694], [-88.1045061, 15.8274502], [-88.1045994, 15.8274497]]]}, "properties": {"kind": "detection", "det_id": "D-SZ-drift-honduras-2026-02-19-001-3", "zone_id": "SZ-drift-honduras-2026-02-19-001", "scene_id": "S2B_MSIL2A_20260219T161219_R140_T16PCC_20260219T195937", "datetime": "2026-02-19T16:12:19.024000Z", "n_pixels": 2, "area_m2": 200, "prob_max": 0.9529, "prob_mean": 0.949, "threshold": 0.63, "in_strip": true, "artifact": null}}, {"type": "Feature", "id": "D-SZ-drift-honduras-2026-02-19-001-4", "geometry": {"type": "Polygon", "coordinates": [[[-88.1045975, 15.8270882], [-88.104597, 15.8269978], [-88.1046903, 15.8269973], [-88.1046894, 15.8268165], [-88.1047827, 15.8268161], [-88.1047822, 15.8267257], [-88.1046889, 15.8267261], [-88.1046894, 15.8268165], [-88.104596, 15.826817], [-88.1045965, 15.8269074], [-88.1045031, 15.8269079], [-88.1045041, 15.8270886], [-88.1045975, 15.8270882]]]}, "properties": {"kind": "detection", "det_id": "D-SZ-drift-honduras-2026-02-19-001-4", "zone_id": "SZ-drift-honduras-2026-02-19-001", "scene_id": "S2B_MSIL2A_20260219T161219_R140_T16PCC_20260219T195937", "datetime": "2026-02-19T16:12:19.024000Z", "n_pixels": 5, "area_m2": 500, "prob_max": 0.9804, "prob_mean": 0.9224, "threshold": 0.63, "in_strip": true, "artifact": null}}, {"type": "Feature", "id": "D-SZ-drift-honduras-2026-02-19-001-5", "geometry": {"type": "Polygon", "coordinates": [[[-88.1048717, 15.8260021], [-88.1048707, 15.8258213], [-88.1047773, 15.8258218], [-88.1047768, 15.8257314], [-88.1046835, 15.8257319], [-88.104683, 15.8256415], [-88.1044962, 15.8256424], [-88.1044957, 15.825552], [-88.1040289, 15.8255544], [-88.1040299, 15.8257352], [-88.1042166, 15.8257342], [-88.1042161, 15.8256439], [-88.1044962, 15.8256424], [-88.1044967, 15.8257328], [-88.1044034, 15.8257333], [-88.1044038, 15.8258237], [-88.1042171, 15.8258246], [-88.1042176, 15.825915], [-88.1044977, 15.8259136], [-88.1044972, 15.8258232], [-88.104684, 15.8258223], [-88.1046844, 15.8259126], [-88.1047778, 15.8259122], [-88.1047783, 15.8260026], [-88.1048717, 15.8260021]]]}, "properties": {"kind": "detection", "det_id": "D-SZ-drift-honduras-2026-02-19-001-5", "zone_id": "SZ-drift-honduras-2026-02-19-001", "scene_id": "S2B_MSIL2A_20260219T161219_R140_T16PCC_20260219T195937", "datetime": "2026-02-19T16:12:19.024000Z", "n_pixels": 19, "area_m2": 1900, "prob_max": 1.0, "prob_mean": 0.9746, "threshold": 0.63, "in_strip": true, "artifact": "ship"}}, {"type": "Feature", "id": "D-SZ-drift-honduras-2026-02-19-002-7", "geometry": {"type": "Polygon", "coordinates": [[[-88.1033583, 15.787955], [-88.1033578, 15.7878646], [-88.1034512, 15.7878642], [-88.1034507, 15.7877738], [-88.103544, 15.7877733], [-88.1035435, 15.7876829], [-88.1034502, 15.7876834], [-88.1034507, 15.7877738], [-88.1033573, 15.7877742], [-88.1033578, 15.7878646], [-88.1031711, 15.7878656], [-88.1031716, 15.787956], [-88.1033583, 15.787955]]]}, "properties": {"kind": "detection", "det_id": "D-SZ-drift-honduras-2026-02-19-002-7", "zone_id": "SZ-drift-honduras-2026-02-19-002", "scene_id": "S2B_MSIL2A_20260219T161219_R140_T16PCC_20260219T195937", "datetime": "2026-02-19T16:12:19.024000Z", "n_pixels": 4, "area_m2": 400, "prob_max": 0.9882, "prob_mean": 0.8245, "threshold": 0.63, "in_strip": true, "artifact": null}}, {"type": "Feature", "id": "D-SZ-drift-honduras-2026-02-19-002-8", "geometry": {"type": "Polygon", "coordinates": [[[-88.1047556, 15.7874056], [-88.1047551, 15.7873152], [-88.1046618, 15.7873157], [-88.1046623, 15.787406], [-88.1047556, 15.7874056]]]}, "properties": {"kind": "detection", "det_id": "D-SZ-drift-honduras-2026-02-19-002-8", "zone_id": "SZ-drift-honduras-2026-02-19-002", "scene_id": "S2B_MSIL2A_20260219T161219_R140_T16PCC_20260219T195937", "datetime": "2026-02-19T16:12:19.024000Z", "n_pixels": 1, "area_m2": 100, "prob_max": 0.8627, "prob_mean": 0.8627, "threshold": 0.63, "in_strip": true, "artifact": null}}, {"type": "Feature", "id": "D-SZ-drift-honduras-2026-02-19-002-9", "geometry": {"type": "Polygon", "coordinates": [[[-88.1052209, 15.787132], [-88.1052204, 15.7870416], [-88.1051271, 15.7870421], [-88.1051275, 15.7871325], [-88.1052209, 15.787132]]]}, "properties": {"kind": "detection", "det_id": "D-SZ-drift-honduras-2026-02-19-002-9", "zone_id": "SZ-drift-honduras-2026-02-19-002", "scene_id": "S2B_MSIL2A_20260219T161219_R140_T16PCC_20260219T195937", "datetime": "2026-02-19T16:12:19.024000Z", "n_pixels": 1, "area_m2": 100, "prob_max": 0.7412, "prob_mean": 0.7412, "threshold": 0.63, "in_strip": true, "artifact": null}}, {"type": "Feature", "id": "D-SZ-drift-honduras-2026-02-19-002-10", "geometry": {"type": "Polygon", "coordinates": [[[-88.1063391, 15.7867648], [-88.1063386, 15.7866744], [-88.1062453, 15.7866749], [-88.1062458, 15.7867653], [-88.1063391, 15.7867648]]]}, "properties": {"kind": "detection", "det_id": "D-SZ-drift-honduras-2026-02-19-002-10", "zone_id": "SZ-drift-honduras-2026-02-19-002", "scene_id": "S2B_MSIL2A_20260219T161219_R140_T16PCC_20260219T195937", "datetime": "2026-02-19T16:12:19.024000Z", "n_pixels": 1, "area_m2": 100, "prob_max": 0.9922, "prob_mean": 0.9922, "threshold": 0.63, "in_strip": true, "artifact": null}}, {"type": "Feature", "id": "D-SZ-drift-honduras-2026-02-19-002-11", "geometry": {"type": "Polygon", "coordinates": [[[-88.1066187, 15.786673], [-88.1066182, 15.7865826], [-88.1067115, 15.7865821], [-88.1067111, 15.7864917], [-88.1065244, 15.7864927], [-88.1065253, 15.7866734], [-88.1066187, 15.786673]]]}, "properties": {"kind": "detection", "det_id": "D-SZ-drift-honduras-2026-02-19-002-11", "zone_id": "SZ-drift-honduras-2026-02-19-002", "scene_id": "S2B_MSIL2A_20260219T161219_R140_T16PCC_20260219T195937", "datetime": "2026-02-19T16:12:19.024000Z", "n_pixels": 3, "area_m2": 300, "prob_max": 0.9961, "prob_mean": 0.9634, "threshold": 0.63, "in_strip": true, "artifact": null}}, {"type": "Feature", "id": "D-SZ-drift-honduras-2026-02-19-002-12", "geometry": {"type": "Polygon", "coordinates": [[[-88.107363, 15.7862172], [-88.1073625, 15.7861268], [-88.1072692, 15.7861273], [-88.1072697, 15.7862177], [-88.107363, 15.7862172]]]}, "properties": {"kind": "detection", "det_id": "D-SZ-drift-honduras-2026-02-19-002-12", "zone_id": "SZ-drift-honduras-2026-02-19-002", "scene_id": "S2B_MSIL2A_20260219T161219_R140_T16PCC_20260219T195937", "datetime": "2026-02-19T16:12:19.024000Z", "n_pixels": 1, "area_m2": 100, "prob_max": 0.9961, "prob_mean": 0.9961, "threshold": 0.63, "in_strip": true, "artifact": null}}, {"type": "Feature", "id": "D-SZ-drift-honduras-2026-02-19-002-13", "geometry": {"type": "Polygon", "coordinates": [[[-88.1082946, 15.7858509], [-88.1082941, 15.7857605], [-88.1084808, 15.7857596], [-88.1084803, 15.7856692], [-88.1082002, 15.7856706], [-88.1082012, 15.7858514], [-88.1082946, 15.7858509]]]}, "properties": {"kind": "detection", "det_id": "D-SZ-drift-honduras-2026-02-19-002-13", "zone_id": "SZ-drift-honduras-2026-02-19-002", "scene_id": "S2B_MSIL2A_20260219T161219_R140_T16PCC_20260219T195937", "datetime": "2026-02-19T16:12:19.024000Z", "n_pixels": 4, "area_m2": 400, "prob_max": 1.0, "prob_mean": 0.9961, "threshold": 0.63, "in_strip": true, "artifact": null}}, {"type": "Feature", "id": "D-SZ-drift-honduras-2026-02-19-002-16", "geometry": {"type": "Polygon", "coordinates": [[[-88.1101537, 15.7843952], [-88.1101532, 15.7843048], [-88.1100598, 15.7843053], [-88.1100593, 15.7842149], [-88.109966, 15.7842153], [-88.109967, 15.7843961], [-88.1101537, 15.7843952]]]}, "properties": {"kind": "detection", "det_id": "D-SZ-drift-honduras-2026-02-19-002-16", "zone_id": "SZ-drift-honduras-2026-02-19-002", "scene_id": "S2B_MSIL2A_20260219T161219_R140_T16PCC_20260219T195937", "datetime": "2026-02-19T16:12:19.024000Z", "n_pixels": 3, "area_m2": 300, "prob_max": 1.0, "prob_mean": 0.9935, "threshold": 0.63, "in_strip": true, "artifact": null}}, {"type": "Feature", "id": "D-SZ-drift-honduras-2026-02-19-002-17", "geometry": {"type": "Polygon", "coordinates": [[[-88.1113652, 15.7840274], [-88.1113647, 15.783937], [-88.1114581, 15.7839365], [-88.1114576, 15.7838462], [-88.1111775, 15.7838476], [-88.111178, 15.783938], [-88.1110847, 15.7839385], [-88.1110852, 15.7840288], [-88.1113652, 15.7840274]]]}, "properties": {"kind": "detection", "det_id": "D-SZ-drift-honduras-2026-02-19-002-17", "zone_id": "SZ-drift-honduras-2026-02-19-002", "scene_id": "S2B_MSIL2A_20260219T161219_R140_T16PCC_20260219T195937", "datetime": "2026-02-19T16:12:19.024000Z", "n_pixels": 6, "area_m2": 600, "prob_max": 1.0, "prob_mean": 0.9405, "threshold": 0.63, "in_strip": true, "artifact": null}}, {"type": "Feature", "id": "D-SZ-drift-honduras-2026-02-19-002-18", "geometry": {"type": "Polygon", "coordinates": [[[-88.1109918, 15.7840293], [-88.1109913, 15.7839389], [-88.110898, 15.7839394], [-88.1108985, 15.7840298], [-88.1109918, 15.7840293]]]}, "properties": {"kind": "detection", "det_id": "D-SZ-drift-honduras-2026-02-19-002-18", "zone_id": "SZ-drift-honduras-2026-02-19-002", "scene_id": "S2B_MSIL2A_20260219T161219_R140_T16PCC_20260219T195937", "datetime": "2026-02-19T16:12:19.024000Z", "n_pixels": 1, "area_m2": 100, "prob_max": 0.7373, "prob_mean": 0.7373, "threshold": 0.63, "in_strip": true, "artifact": null}}, {"type": "Feature", "id": "D-SZ-drift-honduras-2026-02-19-002-19", "geometry": {"type": "Polygon", "coordinates": [[[-88.1117381, 15.7839351], [-88.1117371, 15.7837543], [-88.1115504, 15.7837553], [-88.1115509, 15.7838457], [-88.1116443, 15.7838452], [-88.1116448, 15.7839356], [-88.1117381, 15.7839351]]]}, "properties": {"kind": "detection", "det_id": "D-SZ-drift-honduras-2026-02-19-002-19", "zone_id": "SZ-drift-honduras-2026-02-19-002", "scene_id": "S2B_MSIL2A_20260219T161219_R140_T16PCC_20260219T195937", "datetime": "2026-02-19T16:12:19.024000Z", "n_pixels": 3, "area_m2": 300, "prob_max": 0.851, "prob_mean": 0.8052, "threshold": 0.63, "in_strip": true, "artifact": null}}, {"type": "Feature", "id": "D-SZ-drift-honduras-2026-02-19-002-20", "geometry": {"type": "Polygon", "coordinates": [[[-88.1119238, 15.7837534], [-88.1119233, 15.783663], [-88.11183, 15.7836635], [-88.1118305, 15.7837539], [-88.1119238, 15.7837534]]]}, "properties": {"kind": "detection", "det_id": "D-SZ-drift-honduras-2026-02-19-002-20", "zone_id": "SZ-drift-honduras-2026-02-19-002", "scene_id": "S2B_MSIL2A_20260219T161219_R140_T16PCC_20260219T195937", "datetime": "2026-02-19T16:12:19.024000Z", "n_pixels": 1, "area_m2": 100, "prob_max": 0.8627, "prob_mean": 0.8627, "threshold": 0.63, "in_strip": true, "artifact": null}}, {"type": "Feature", "id": "D-SZ-drift-honduras-2026-02-19-003-21", "geometry": {"type": "Polygon", "coordinates": [[[-88.1146215, 15.7820221], [-88.114621, 15.7819318], [-88.1145277, 15.7819322], [-88.1145282, 15.7820226], [-88.1146215, 15.7820221]]]}, "properties": {"kind": "detection", "det_id": "D-SZ-drift-honduras-2026-02-19-003-21", "zone_id": "SZ-drift-honduras-2026-02-19-003", "scene_id": "S2B_MSIL2A_20260219T161219_R140_T16PCC_20260219T195937", "datetime": "2026-02-19T16:12:19.024000Z", "n_pixels": 1, "area_m2": 100, "prob_max": 0.8824, "prob_mean": 0.8824, "threshold": 0.63, "in_strip": true, "artifact": null}}, {"type": "Feature", "id": "D-SZ-drift-honduras-2026-02-19-003-22", "geometry": {"type": "Polygon", "coordinates": [[[-88.1148077, 15.7819308], [-88.1148072, 15.7818404], [-88.1147139, 15.7818409], [-88.1147144, 15.7819313], [-88.1148077, 15.7819308]]]}, "properties": {"kind": "detection", "det_id": "D-SZ-drift-honduras-2026-02-19-003-22", "zone_id": "SZ-drift-honduras-2026-02-19-003", "scene_id": "S2B_MSIL2A_20260219T161219_R140_T16PCC_20260219T195937", "datetime": "2026-02-19T16:12:19.024000Z", "n_pixels": 1, "area_m2": 100, "prob_max": 0.9843, "prob_mean": 0.9843, "threshold": 0.63, "in_strip": true, "artifact": null}}, {"type": "Feature", "id": "D-SZ-drift-honduras-2026-02-19-003-23", "geometry": {"type": "Polygon", "coordinates": [[[-88.1157407, 15.7818356], [-88.1157402, 15.7817452], [-88.1156469, 15.7817457], [-88.1156474, 15.7818361], [-88.1157407, 15.7818356]]]}, "properties": {"kind": "detection", "det_id": "D-SZ-drift-honduras-2026-02-19-003-23", "zone_id": "SZ-drift-honduras-2026-02-19-003", "scene_id": "S2B_MSIL2A_20260219T161219_R140_T16PCC_20260219T195937", "datetime": "2026-02-19T16:12:19.024000Z", "n_pixels": 1, "area_m2": 100, "prob_max": 0.7686, "prob_mean": 0.7686, "threshold": 0.63, "in_strip": true, "artifact": null}}, {"type": "Feature", "id": "D-SZ-drift-honduras-2026-02-19-003-24", "geometry": {"type": "Polygon", "coordinates": [[[-88.1163907, 15.7811996], [-88.1163902, 15.7811092], [-88.1162035, 15.7811101], [-88.116204, 15.7812005], [-88.1163907, 15.7811996]]]}, "properties": {"kind": "detection", "det_id": "D-SZ-drift-honduras-2026-02-19-003-24", "zone_id": "SZ-drift-honduras-2026-02-19-003", "scene_id": "S2B_MSIL2A_20260219T161219_R140_T16PCC_20260219T195937", "datetime": "2026-02-19T16:12:19.024000Z", "n_pixels": 2, "area_m2": 200, "prob_max": 1.0, "prob_mean": 1.0, "threshold": 0.63, "in_strip": true, "artifact": null}}, {"type": "Feature", "id": "D-SZ-drift-honduras-2026-02-19-003-25", "geometry": {"type": "Polygon", "coordinates": [[[-88.1176007, 15.7805606], [-88.1176002, 15.7804702], [-88.1175069, 15.7804707], [-88.1175064, 15.7803803], [-88.117413, 15.7803808], [-88.117414, 15.7805616], [-88.1176007, 15.7805606]]]}, "properties": {"kind": "detection", "det_id": "D-SZ-drift-honduras-2026-02-19-003-25", "zone_id": "SZ-drift-honduras-2026-02-19-003", "scene_id": "S2B_MSIL2A_20260219T161219_R140_T16PCC_20260219T195937", "datetime": "2026-02-19T16:12:19.024000Z", "n_pixels": 3, "area_m2": 300, "prob_max": 0.9961, "prob_mean": 0.8667, "threshold": 0.63, "in_strip": true, "artifact": null}}, {"type": "Feature", "id": "D-SZ-drift-honduras-2026-02-19-003-26", "geometry": {"type": "Polygon", "coordinates": [[[-88.1173207, 15.780562], [-88.1173202, 15.7804716], [-88.1171335, 15.7804726], [-88.117134, 15.780563], [-88.1173207, 15.780562]]]}, "properties": {"kind": "detection", "det_id": "D-SZ-drift-honduras-2026-02-19-003-26", "zone_id": "SZ-drift-honduras-2026-02-19-003", "scene_id": "S2B_MSIL2A_20260219T161219_R140_T16PCC_20260219T195937", "datetime": "2026-02-19T16:12:19.024000Z", "n_pixels": 2, "area_m2": 200, "prob_max": 1.0, "prob_mean": 1.0, "threshold": 0.63, "in_strip": true, "artifact": null}}, {"type": "Feature", "id": "D-SZ-drift-honduras-2026-02-19-003-27", "geometry": {"type": "Polygon", "coordinates": [[[-88.1178797, 15.7803784], [-88.1178793, 15.780288], [-88.1176926, 15.780289], [-88.1176931, 15.7803793], [-88.1178797, 15.7803784]]]}, "properties": {"kind": "detection", "det_id": "D-SZ-drift-honduras-2026-02-19-003-27", "zone_id": "SZ-drift-honduras-2026-02-19-003", "scene_id": "S2B_MSIL2A_20260219T161219_R140_T16PCC_20260219T195937", "datetime": "2026-02-19T16:12:19.024000Z", "n_pixels": 2, "area_m2": 200, "prob_max": 0.9647, "prob_mean": 0.9569, "threshold": 0.63, "in_strip": true, "artifact": null}}, {"type": "Feature", "id": "D-SZ-drift-honduras-2026-02-19-003-28", "geometry": {"type": "Polygon", "coordinates": [[[-88.1192785, 15.7801], [-88.119278, 15.7800096], [-88.1191846, 15.7800101], [-88.1191851, 15.7801005], [-88.1192785, 15.7801]]]}, "properties": {"kind": "detection", "det_id": "D-SZ-drift-honduras-2026-02-19-003-28", "zone_id": "SZ-drift-honduras-2026-02-19-003", "scene_id": "S2B_MSIL2A_20260219T161219_R140_T16PCC_20260219T195937", "datetime": "2026-02-19T16:12:19.024000Z", "n_pixels": 1, "area_m2": 100, "prob_max": 0.8549, "prob_mean": 0.8549, "threshold": 0.63, "in_strip": true, "artifact": null}}, {"type": "Feature", "id": "D-SZ-drift-honduras-2026-02-19-003-29", "geometry": {"type": "Polygon", "coordinates": [[[-88.1194646, 15.7800087], [-88.1194642, 15.7799183], [-88.1193708, 15.7799188], [-88.1193713, 15.7800091], [-88.1194646, 15.7800087]]]}, "properties": {"kind": "detection", "det_id": "D-SZ-drift-honduras-2026-02-19-003-29", "zone_id": "SZ-drift-honduras-2026-02-19-003", "scene_id": "S2B_MSIL2A_20260219T161219_R140_T16PCC_20260219T195937", "datetime": "2026-02-19T16:12:19.024000Z", "n_pixels": 1, "area_m2": 100, "prob_max": 0.7412, "prob_mean": 0.7412, "threshold": 0.63, "in_strip": true, "artifact": null}}, {"type": "Feature", "id": "D-SZ-drift-honduras-2026-02-19-003-30", "geometry": {"type": "Polygon", "coordinates": [[[-88.1196508, 15.7799173], [-88.1196503, 15.7798269], [-88.119557, 15.7798274], [-88.1195575, 15.7799178], [-88.1196508, 15.7799173]]]}, "properties": {"kind": "detection", "det_id": "D-SZ-drift-honduras-2026-02-19-003-30", "zone_id": "SZ-drift-honduras-2026-02-19-003", "scene_id": "S2B_MSIL2A_20260219T161219_R140_T16PCC_20260219T195937", "datetime": "2026-02-19T16:12:19.024000Z", "n_pixels": 1, "area_m2": 100, "prob_max": 0.9961, "prob_mean": 0.9961, "threshold": 0.63, "in_strip": true, "artifact": null}}, {"type": "Feature", "id": "D-SZ-drift-honduras-2026-02-19-004-31", "geometry": {"type": "Polygon", "coordinates": [[[-88.1253404, 15.7790744], [-88.1253399, 15.7789841], [-88.1252466, 15.7789845], [-88.1252471, 15.7790749], [-88.1253404, 15.7790744]]]}, "properties": {"kind": "detection", "det_id": "D-SZ-drift-honduras-2026-02-19-004-31", "zone_id": "SZ-drift-honduras-2026-02-19-004", "scene_id": "S2B_MSIL2A_20260219T161219_R140_T16PCC_20260219T195937", "datetime": "2026-02-19T16:12:19.024000Z", "n_pixels": 1, "area_m2": 100, "prob_max": 0.9059, "prob_mean": 0.9059, "threshold": 0.63, "in_strip": true, "artifact": null}}, {"type": "Feature", "id": "D-SZ-drift-honduras-2026-02-19-004-32", "geometry": {"type": "Polygon", "coordinates": [[[-88.1292579, 15.7785118], [-88.1292574, 15.7784214], [-88.1293508, 15.7784209], [-88.1293498, 15.7782402], [-88.1292564, 15.7782406], [-88.1292569, 15.778331], [-88.1291636, 15.7783315], [-88.1291646, 15.7785123], [-88.1292579, 15.7785118]]]}, "properties": {"kind": "detection", "det_id": "D-SZ-drift-honduras-2026-02-19-004-32", "zone_id": "SZ-drift-honduras-2026-02-19-004", "scene_id": "S2B_MSIL2A_20260219T161219_R140_T16PCC_20260219T195937", "datetime": "2026-02-19T16:12:19.024000Z", "n_pixels": 4, "area_m2": 400, "prob_max": 0.9843, "prob_mean": 0.9627, "threshold": 0.63, "in_strip": true, "artifact": null}}, {"type": "Feature", "id": "D-SZ-drift-honduras-2026-02-19-004-33", "geometry": {"type": "Polygon", "coordinates": [[[-88.1267376, 15.7785249], [-88.1267371, 15.7784345], [-88.1268305, 15.778434], [-88.12683, 15.7783436], [-88.1266433, 15.7783446], [-88.1266443, 15.7785254], [-88.1267376, 15.7785249]]]}, "properties": {"kind": "detection", "det_id": "D-SZ-drift-honduras-2026-02-19-004-33", "zone_id": "SZ-drift-honduras-2026-02-19-004", "scene_id": "S2B_MSIL2A_20260219T161219_R140_T16PCC_20260219T195937", "datetime": "2026-02-19T16:12:19.024000Z", "n_pixels": 3, "area_m2": 300, "prob_max": 1.0, "prob_mean": 0.9817, "threshold": 0.63, "in_strip": true, "artifact": null}}, {"type": "Feature", "id": "D-SZ-drift-honduras-2026-02-19-004-34", "geometry": {"type": "Polygon", "coordinates": [[[-88.1305618, 15.7779627], [-88.1305608, 15.7777819], [-88.1304674, 15.7777824], [-88.1304684, 15.7779632], [-88.1305618, 15.7779627]]]}, "properties": {"kind": "detection", "det_id": "D-SZ-drift-honduras-2026-02-19-004-34", "zone_id": "SZ-drift-honduras-2026-02-19-004", "scene_id": "S2B_MSIL2A_20260219T161219_R140_T16PCC_20260219T195937", "datetime": "2026-02-19T16:12:19.024000Z", "n_pixels": 2, "area_m2": 200, "prob_max": 0.9843, "prob_mean": 0.9843, "threshold": 0.63, "in_strip": true, "artifact": null}}, {"type": "Feature", "id": "D-SZ-drift-honduras-2026-02-19-004-35", "geometry": {"type": "Polygon", "coordinates": [[[-88.1278548, 15.7779767], [-88.1278543, 15.7778863], [-88.1277609, 15.7778868], [-88.1277614, 15.7779772], [-88.1278548, 15.7779767]]]}, "properties": {"kind": "detection", "det_id": "D-SZ-drift-honduras-2026-02-19-004-35", "zone_id": "SZ-drift-honduras-2026-02-19-004", "scene_id": "S2B_MSIL2A_20260219T161219_R140_T16PCC_20260219T195937", "datetime": "2026-02-19T16:12:19.024000Z", "n_pixels": 1, "area_m2": 100, "prob_max": 0.9843, "prob_mean": 0.9843, "threshold": 0.63, "in_strip": true, "artifact": null}}, {"type": "Feature", "id": "D-SZ-drift-honduras-2026-02-19-004-36", "geometry": {"type": "Polygon", "coordinates": [[[-88.1307475, 15.7777809], [-88.130747, 15.7776905], [-88.1306536, 15.777691], [-88.1306541, 15.7777814], [-88.1307475, 15.7777809]]]}, "properties": {"kind": "detection", "det_id": "D-SZ-drift-honduras-2026-02-19-004-36", "zone_id": "SZ-drift-honduras-2026-02-19-004", "scene_id": "S2B_MSIL2A_20260219T161219_R140_T16PCC_20260219T195937", "datetime": "2026-02-19T16:12:19.024000Z", "n_pixels": 1, "area_m2": 100, "prob_max": 0.6471, "prob_mean": 0.6471, "threshold": 0.63, "in_strip": true, "artifact": null}}, {"type": "Feature", "id": "D-SZ-drift-honduras-2026-02-19-004-37", "geometry": {"type": "Polygon", "coordinates": [[[-88.1298105, 15.7771531], [-88.1298095, 15.7769723], [-88.1297162, 15.7769728], [-88.1297167, 15.7770632], [-88.1296233, 15.7770636], [-88.1296238, 15.777154], [-88.1298105, 15.7771531]]]}, "properties": {"kind": "detection", "det_id": "D-SZ-drift-honduras-2026-02-19-004-37", "zone_id": "SZ-drift-honduras-2026-02-19-004", "scene_id": "S2B_MSIL2A_20260219T161219_R140_T16PCC_20260219T195937", "datetime": "2026-02-19T16:12:19.024000Z", "n_pixels": 3, "area_m2": 300, "prob_max": 0.9922, "prob_mean": 0.9176, "threshold": 0.63, "in_strip": true, "artifact": null}}, {"type": "Feature", "id": "D-SZ-drift-honduras-2026-02-19-004-38", "geometry": {"type": "Polygon", "coordinates": [[[-88.1303691, 15.776879], [-88.1303686, 15.7767886], [-88.1302752, 15.7767891], [-88.1302757, 15.7768795], [-88.1303691, 15.776879]]]}, "properties": {"kind": "detection", "det_id": "D-SZ-drift-honduras-2026-02-19-004-38", "zone_id": "SZ-drift-honduras-2026-02-19-004", "scene_id": "S2B_MSIL2A_20260219T161219_R140_T16PCC_20260219T195937", "datetime": "2026-02-19T16:12:19.024000Z", "n_pixels": 1, "area_m2": 100, "prob_max": 0.8784, "prob_mean": 0.8784, "threshold": 0.63, "in_strip": true, "artifact": null}}, {"type": "Feature", "id": "D-SZ-drift-honduras-2026-02-19-004-39", "geometry": {"type": "Polygon", "coordinates": [[[-88.1305553, 15.7767876], [-88.1305548, 15.7766972], [-88.1307414, 15.7766963], [-88.1307409, 15.7766059], [-88.1305543, 15.7766069], [-88.1305548, 15.7766972], [-88.1304614, 15.7766977], [-88.1304619, 15.7767881], [-88.1305553, 15.7767876]]]}, "properties": {"kind": "detection", "det_id": "D-SZ-drift-honduras-2026-02-19-004-39", "zone_id": "SZ-drift-honduras-2026-02-19-004", "scene_id": "S2B_MSIL2A_20260219T161219_R140_T16PCC_20260219T195937", "datetime": "2026-02-19T16:12:19.024000Z", "n_pixels": 3, "area_m2": 300, "prob_max": 1.0, "prob_mean": 0.9673, "threshold": 0.63, "in_strip": true, "artifact": null}}, {"type": "Feature", "id": "D-SZ-drift-honduras-2026-02-19-004-40", "geometry": {"type": "Polygon", "coordinates": [[[-88.1320453, 15.7761472], [-88.1320442, 15.7759664], [-88.1319509, 15.7759669], [-88.1319519, 15.7761476], [-88.1320453, 15.7761472]]]}, "properties": {"kind": "detection", "det_id": "D-SZ-drift-honduras-2026-02-19-004-40", "zone_id": "SZ-drift-honduras-2026-02-19-004", "scene_id": "S2B_MSIL2A_20260219T161219_R140_T16PCC_20260219T195937", "datetime": "2026-02-19T16:12:19.024000Z", "n_pixels": 2, "area_m2": 200, "prob_max": 0.7725, "prob_mean": 0.7255, "threshold": 0.63, "in_strip": true, "artifact": null}}, {"type": "Feature", "id": "D-SZ-drift-honduras-2026-02-19-004-41", "geometry": {"type": "Polygon", "coordinates": [[[-88.1323233, 15.7757841], [-88.1323223, 15.7756034], [-88.132509, 15.7756024], [-88.132508, 15.7754216], [-88.1326013, 15.7754211], [-88.1326003, 15.7752404], [-88.132507, 15.7752408], [-88.1325075, 15.7753312], [-88.1324141, 15.7753317], [-88.1324151, 15.7755125], [-88.1323218, 15.775513], [-88.1323223, 15.7756034], [-88.1322289, 15.7756039], [-88.1322299, 15.7757846], [-88.1323233, 15.7757841]]]}, "properties": {"kind": "detection", "det_id": "D-SZ-drift-honduras-2026-02-19-004-41", "zone_id": "SZ-drift-honduras-2026-02-19-004", "scene_id": "S2B_MSIL2A_20260219T161219_R140_T16PCC_20260219T195937", "datetime": "2026-02-19T16:12:19.024000Z", "n_pixels": 8, "area_m2": 800, "prob_max": 0.9961, "prob_mean": 0.9382, "threshold": 0.63, "in_strip": true, "artifact": null}}, {"type": "Feature", "id": "D-SZ-drift-honduras-2026-02-19-004-42", "geometry": {"type": "Polygon", "coordinates": [[[-88.132787, 15.7752394], [-88.1327865, 15.775149], [-88.1328798, 15.7751485], [-88.1328788, 15.7749677], [-88.1327855, 15.7749682], [-88.132786, 15.7750586], [-88.1326926, 15.7750591], [-88.1326936, 15.7752399], [-88.132787, 15.7752394]]]}, "properties": {"kind": "detection", "det_id": "D-SZ-drift-honduras-2026-02-19-004-42", "zone_id": "SZ-drift-honduras-2026-02-19-004", "scene_id": "S2B_MSIL2A_20260219T161219_R140_T16PCC_20260219T195937", "datetime": "2026-02-19T16:12:19.024000Z", "n_pixels": 4, "area_m2": 400, "prob_max": 1.0, "prob_mean": 0.9431, "threshold": 0.63, "in_strip": true, "artifact": null}}, {"type": "Feature", "id": "D-SZ-drift-honduras-2026-02-19-004-43", "geometry": {"type": "Polygon", "coordinates": [[[-88.1330655, 15.7749668], [-88.133065, 15.7748764], [-88.1331583, 15.7748759], [-88.1331578, 15.7747855], [-88.1332512, 15.774785], [-88.1332502, 15.7746042], [-88.1331568, 15.7746047], [-88.1331573, 15.7746951], [-88.133064, 15.7746956], [-88.1330645, 15.774786], [-88.1329712, 15.7747865], [-88.1329722, 15.7749672], [-88.1330655, 15.7749668]]]}, "properties": {"kind": "detection", "det_id": "D-SZ-drift-honduras-2026-02-19-004-43", "zone_id": "SZ-drift-honduras-2026-02-19-004", "scene_id": "S2B_MSIL2A_20260219T161219_R140_T16PCC_20260219T195937", "datetime": "2026-02-19T16:12:19.024000Z", "n_pixels": 6, "area_m2": 600, "prob_max": 1.0, "prob_mean": 0.9948, "threshold": 0.63, "in_strip": true, "artifact": null}}, {"type": "Feature", "id": "D-SZ-drift-honduras-2026-02-19-004-44", "geometry": {"type": "Polygon", "coordinates": [[[-88.1338087, 15.7743302], [-88.1338082, 15.7742398], [-88.1339949, 15.7742388], [-88.1339944, 15.7741484], [-88.1340878, 15.7741479], [-88.1340873, 15.7740575], [-88.1339006, 15.7740585], [-88.1339011, 15.7741489], [-88.1337144, 15.7741499], [-88.1337154, 15.7743306], [-88.1338087, 15.7743302]]]}, "properties": {"kind": "detection", "det_id": "D-SZ-drift-honduras-2026-02-19-004-44", "zone_id": "SZ-drift-honduras-2026-02-19-004", "scene_id": "S2B_MSIL2A_20260219T161219_R140_T16PCC_20260219T195937", "datetime": "2026-02-19T16:12:19.024000Z", "n_pixels": 6, "area_m2": 600, "prob_max": 1.0, "prob_mean": 0.9614, "threshold": 0.63, "in_strip": true, "artifact": null}}, {"type": "Feature", "id": "D-SZ-drift-honduras-2026-02-19-004-45", "geometry": {"type": "Polygon", "coordinates": [[[-88.1346458, 15.7737834], [-88.1346453, 15.7736931], [-88.1347386, 15.7736926], [-88.1347381, 15.7736022], [-88.1349248, 15.7736012], [-88.1349243, 15.7735108], [-88.1347376, 15.7735118], [-88.1347381, 15.7736022], [-88.1346448, 15.7736027], [-88.1346453, 15.7736931], [-88.134552, 15.7736935], [-88.1345525, 15.7737839], [-88.1346458, 15.7737834]]]}, "properties": {"kind": "detection", "det_id": "D-SZ-drift-honduras-2026-02-19-004-45", "zone_id": "SZ-drift-honduras-2026-02-19-004", "scene_id": "S2B_MSIL2A_20260219T161219_R140_T16PCC_20260219T195937", "datetime": "2026-02-19T16:12:19.024000Z", "n_pixels": 4, "area_m2": 400, "prob_max": 1.0, "prob_mean": 0.9049, "threshold": 0.63, "in_strip": true, "artifact": null}}, {"type": "Feature", "id": "D-SZ-drift-honduras-2026-02-19-004-46", "geometry": {"type": "Polygon", "coordinates": [[[-88.135111, 15.7735099], [-88.1351105, 15.7734195], [-88.1352039, 15.773419], [-88.1352033, 15.7733286], [-88.13539, 15.7733276], [-88.135389, 15.7731468], [-88.1352957, 15.7731473], [-88.1352962, 15.7732377], [-88.1352028, 15.7732382], [-88.1352033, 15.7733286], [-88.13511, 15.7733291], [-88.1351105, 15.7734195], [-88.1350172, 15.7734199], [-88.1350177, 15.7735103], [-88.135111, 15.7735099]]]}, "properties": {"kind": "detection", "det_id": "D-SZ-drift-honduras-2026-02-19-004-46", "zone_id": "SZ-drift-honduras-2026-02-19-004", "scene_id": "S2B_MSIL2A_20260219T161219_R140_T16PCC_20260219T195937", "datetime": "2026-02-19T16:12:19.024000Z", "n_pixels": 5, "area_m2": 500, "prob_max": 1.0, "prob_mean": 0.8659, "threshold": 0.63, "in_strip": true, "artifact": null}}, {"type": "Feature", "id": "D-SZ-drift-honduras-2026-02-19-004-47", "geometry": {"type": "Polygon", "coordinates": [[[-88.137155, 15.7717818], [-88.1371545, 15.7716914], [-88.1370611, 15.7716919], [-88.1370616, 15.7717822], [-88.137155, 15.7717818]]]}, "properties": {"kind": "detection", "det_id": "D-SZ-drift-honduras-2026-02-19-004-47", "zone_id": "SZ-drift-honduras-2026-02-19-004", "scene_id": "S2B_MSIL2A_20260219T161219_R140_T16PCC_20260219T195937", "datetime": "2026-02-19T16:12:19.024000Z", "n_pixels": 1, "area_m2": 100, "prob_max": 0.6784, "prob_mean": 0.6784, "threshold": 0.63, "in_strip": true, "artifact": null}}, {"type": "Feature", "id": "D-SZ-drift-honduras-2026-02-19-004-48", "geometry": {"type": "Polygon", "coordinates": [[[-88.1387372, 15.77096], [-88.1387367, 15.7708696], [-88.1386434, 15.7708701], [-88.1386439, 15.7709605], [-88.1387372, 15.77096]]]}, "properties": {"kind": "detection", "det_id": "D-SZ-drift-honduras-2026-02-19-004-48", "zone_id": "SZ-drift-honduras-2026-02-19-004", "scene_id": "S2B_MSIL2A_20260219T161219_R140_T16PCC_20260219T195937", "datetime": "2026-02-19T16:12:19.024000Z", "n_pixels": 1, "area_m2": 100, "prob_max": 0.898, "prob_mean": 0.898, "threshold": 0.63, "in_strip": true, "artifact": null}}, {"type": "Feature", "id": "D-SZ-drift-honduras-2026-02-19-005-50", "geometry": {"type": "Polygon", "coordinates": [[[-88.2748405, 15.757732], [-88.2748399, 15.7576416], [-88.2747466, 15.7576422], [-88.2747472, 15.7577325], [-88.2748405, 15.757732]]]}, "properties": {"kind": "detection", "det_id": "D-SZ-drift-honduras-2026-02-19-005-50", "zone_id": "SZ-drift-honduras-2026-02-19-005", "scene_id": "S2B_MSIL2A_20260219T161219_R140_T16PCC_20260219T195937", "datetime": "2026-02-19T16:12:19.024000Z", "n_pixels": 1, "area_m2": 100, "prob_max": 0.7451, "prob_mean": 0.7451, "threshold": 0.63, "in_strip": true, "artifact": "ship"}}, {"type": "Feature", "id": "D-SZ-drift-honduras-2026-02-19-005-51", "geometry": {"type": "Polygon", "coordinates": [[[-88.2744672, 15.7577342], [-88.2744666, 15.7576438], [-88.2745599, 15.7576432], [-88.2745594, 15.7575529], [-88.2744661, 15.7575534], [-88.2744666, 15.7576438], [-88.2743733, 15.7576443], [-88.2743738, 15.7577347], [-88.2744672, 15.7577342]]]}, "properties": {"kind": "detection", "det_id": "D-SZ-drift-honduras-2026-02-19-005-51", "zone_id": "SZ-drift-honduras-2026-02-19-005", "scene_id": "S2B_MSIL2A_20260219T161219_R140_T16PCC_20260219T195937", "datetime": "2026-02-19T16:12:19.024000Z", "n_pixels": 2, "area_m2": 200, "prob_max": 0.6902, "prob_mean": 0.6686, "threshold": 0.63, "in_strip": true, "artifact": "seam"}}, {"type": "Feature", "id": "D-SZ-drift-honduras-2026-02-19-005-52", "geometry": {"type": "Polygon", "coordinates": [[[-88.2752133, 15.7576394], [-88.2752127, 15.757549], [-88.275306, 15.7575485], [-88.2753055, 15.7574581], [-88.2753988, 15.7574576], [-88.2753977, 15.7572768], [-88.2751177, 15.7572784], [-88.2751188, 15.7574592], [-88.2749321, 15.7574603], [-88.2749327, 15.7575507], [-88.2751194, 15.7575496], [-88.2751199, 15.75764], [-88.2752133, 15.7576394]]]}, "properties": {"kind": "detection", "det_id": "D-SZ-drift-honduras-2026-02-19-005-52", "zone_id": "SZ-drift-honduras-2026-02-19-005", "scene_id": "S2B_MSIL2A_20260219T161219_R140_T16PCC_20260219T195937", "datetime": "2026-02-19T16:12:19.024000Z", "n_pixels": 11, "area_m2": 1100, "prob_max": 1.0, "prob_mean": 0.9651, "threshold": 0.63, "in_strip": true, "artifact": "seam"}}, {"type": "Feature", "id": "D-SZ-drift-honduras-2026-02-19-005-53", "geometry": {"type": "Polygon", "coordinates": [[[-88.2739955, 15.7569235], [-88.2739949, 15.7568331], [-88.2737149, 15.7568347], [-88.2737155, 15.7569251], [-88.2739955, 15.7569235]]]}, "properties": {"kind": "detection", "det_id": "D-SZ-drift-honduras-2026-02-19-005-53", "zone_id": "SZ-drift-honduras-2026-02-19-005", "scene_id": "S2B_MSIL2A_20260219T161219_R140_T16PCC_20260219T195937", "datetime": "2026-02-19T16:12:19.024000Z", "n_pixels": 3, "area_m2": 300, "prob_max": 0.8353, "prob_mean": 0.7961, "threshold": 0.63, "in_strip": true, "artifact": "seam"}}, {"type": "Feature", "id": "D-SZ-drift-honduras-2026-02-19-005-54", "geometry": {"type": "Polygon", "coordinates": [[[-88.2738077, 15.7567438], [-88.2738071, 15.7566534], [-88.2739938, 15.7566523], [-88.2739932, 15.7565619], [-88.2740865, 15.7565614], [-88.274086, 15.756471], [-88.2741793, 15.7564704], [-88.2741782, 15.7562897], [-88.2738982, 15.7562913], [-88.2738993, 15.7564721], [-88.273806, 15.7564726], [-88.2738071, 15.7566534], [-88.2737138, 15.7566539], [-88.2737143, 15.7567443], [-88.2738077, 15.7567438]]]}, "properties": {"kind": "detection", "det_id": "D-SZ-drift-honduras-2026-02-19-005-54", "zone_id": "SZ-drift-honduras-2026-02-19-005", "scene_id": "S2B_MSIL2A_20260219T161219_R140_T16PCC_20260219T195937", "datetime": "2026-02-19T16:12:19.024000Z", "n_pixels": 12, "area_m2": 1200, "prob_max": 1.0, "prob_mean": 0.967, "threshold": 0.63, "in_strip": true, "artifact": "seam"}}, {"type": "Feature", "id": "D-SZ-drift-honduras-2026-02-19-005-55", "geometry": {"type": "Polygon", "coordinates": [[[-88.2746459, 15.7564677], [-88.2746454, 15.7563773], [-88.274552, 15.7563779], [-88.2745526, 15.7564683], [-88.2746459, 15.7564677]]]}, "properties": {"kind": "detection", "det_id": "D-SZ-drift-honduras-2026-02-19-005-55", "zone_id": "SZ-drift-honduras-2026-02-19-005", "scene_id": "S2B_MSIL2A_20260219T161219_R140_T16PCC_20260219T195937", "datetime": "2026-02-19T16:12:19.024000Z", "n_pixels": 1, "area_m2": 100, "prob_max": 0.9725, "prob_mean": 0.9725, "threshold": 0.63, "in_strip": true, "artifact": null}}, {"type": "Feature", "id": "D-SZ-drift-honduras-2026-02-19-005-56", "geometry": {"type": "Polygon", "coordinates": [[[-88.2744593, 15.7564688], [-88.2744587, 15.7563784], [-88.2743654, 15.756379], [-88.274366, 15.7564694], [-88.2744593, 15.7564688]]]}, "properties": {"kind": "detection", "det_id": "D-SZ-drift-honduras-2026-02-19-005-56", "zone_id": "SZ-drift-honduras-2026-02-19-005", "scene_id": "S2B_MSIL2A_20260219T161219_R140_T16PCC_20260219T195937", "datetime": "2026-02-19T16:12:19.024000Z", "n_pixels": 1, "area_m2": 100, "prob_max": 0.6588, "prob_mean": 0.6588, "threshold": 0.63, "in_strip": true, "artifact": null}}, {"type": "Feature", "id": "D-SZ-drift-honduras-2026-02-19-006-57", "geometry": {"type": "Polygon", "coordinates": [[[-88.2701537, 15.7545054], [-88.2701526, 15.7543247], [-88.2698726, 15.7543263], [-88.2698732, 15.7544167], [-88.2699665, 15.7544161], [-88.2699671, 15.7545065], [-88.2701537, 15.7545054]]]}, "properties": {"kind": "detection", "det_id": "D-SZ-drift-honduras-2026-02-19-006-57", "zone_id": "SZ-drift-honduras-2026-02-19-006", "scene_id": "S2B_MSIL2A_20260219T161219_R140_T16PCC_20260219T195937", "datetime": "2026-02-19T16:12:19.024000Z", "n_pixels": 5, "area_m2": 500, "prob_max": 0.9373, "prob_mean": 0.8463, "threshold": 0.63, "in_strip": true, "artifact": "ship"}}, {"type": "Feature", "id": "D-SZ-drift-honduras-2026-02-19-007-58", "geometry": {"type": "Polygon", "coordinates": [[[-88.121295, 15.7393232], [-88.121293, 15.7389616], [-88.1213863, 15.7389611], [-88.1213858, 15.7388707], [-88.1211991, 15.7388717], [-88.1212006, 15.7391429], [-88.1211073, 15.7391434], [-88.1211078, 15.7392337], [-88.1212011, 15.7392333], [-88.1212016, 15.7393237], [-88.121295, 15.7393232]]]}, "properties": {"kind": "detection", "det_id": "D-SZ-drift-honduras-2026-02-19-007-58", "zone_id": "SZ-drift-honduras-2026-02-19-007", "scene_id": "S2B_MSIL2A_20260219T161219_R140_T16PCC_20260219T195937", "datetime": "2026-02-19T16:12:19.024000Z", "n_pixels": 7, "area_m2": 700, "prob_max": 0.9961, "prob_mean": 0.8952, "threshold": 0.63, "in_strip": true, "artifact": "ship"}}, {"type": "Feature", "id": "D-SZ-drift-honduras-2026-02-19-007-59", "geometry": {"type": "Polygon", "coordinates": [[[-88.1213853, 15.7387804], [-88.1213843, 15.7385996], [-88.1214776, 15.7385991], [-88.1214762, 15.7383279], [-88.1213828, 15.7383284], [-88.1213838, 15.7385092], [-88.1212905, 15.7385097], [-88.121292, 15.7387808], [-88.1213853, 15.7387804]]]}, "properties": {"kind": "detection", "det_id": "D-SZ-drift-honduras-2026-02-19-007-59", "zone_id": "SZ-drift-honduras-2026-02-19-007", "scene_id": "S2B_MSIL2A_20260219T161219_R140_T16PCC_20260219T195937", "datetime": "2026-02-19T16:12:19.024000Z", "n_pixels": 6, "area_m2": 600, "prob_max": 0.9922, "prob_mean": 0.9105, "threshold": 0.63, "in_strip": true, "artifact": "ship"}}]}