{"type": "FeatureCollection", "features": [{"type": "Feature", "id": "D-SZ-fresh-scotland-2026-08-29-001-5", "geometry": {"type": "Polygon", "coordinates": [[[-2.3335356, 56.2749401], [-2.3335403, 56.2746706], [-2.3332173, 56.2746689], [-2.3332142, 56.2748485], [-2.3333757, 56.2748494], [-2.3333741, 56.2749393], [-2.3335356, 56.2749401]]]}, "properties": {"kind": "detection", "det_id": "D-SZ-fresh-scotland-2026-08-29-001-5", "zone_id": "SZ-fresh-scotland-2026-08-29-001", "scene_id": "S2C_MSIL2A_20260829T113321_R080_T30VWH_20260829T150118", "datetime": "2026-08-29T11:33:21.025000Z", "n_pixels": 5, "area_m2": 500, "prob_max": 0.9765, "prob_mean": 0.909, "threshold": 0.63, "in_strip": true, "artifact": "ship"}}, {"type": "Feature", "id": "D-SZ-fresh-scotland-2026-08-29-002-7", "geometry": {"type": "Polygon", "coordinates": [[[-2.2637845, 56.2658297], [-2.2637863, 56.2657399], [-2.2642706, 56.2657428], [-2.2642723, 56.2656529], [-2.2636266, 56.2656491], [-2.2636231, 56.2658288], [-2.2637845, 56.2658297]]]}, "properties": {"kind": "detection", "det_id": "D-SZ-fresh-scotland-2026-08-29-002-7", "zone_id": "SZ-fresh-scotland-2026-08-29-002", "scene_id": "S2C_MSIL2A_20260829T113321_R080_T30VWH_20260829T150118", "datetime": "2026-08-29T11:33:21.025000Z", "n_pixels": 5, "area_m2": 500, "prob_max": 0.9882, "prob_mean": 0.8988, "threshold": 0.63, "in_strip": true, "artifact": "ship"}}, {"type": "Feature", "id": "D-SZ-fresh-scotland-2026-08-29-003-8", "geometry": {"type": "Polygon", "coordinates": [[[-2.2826995, 56.2645032], [-2.2827012, 56.2644134], [-2.2825397, 56.2644124], [-2.2825381, 56.2645023], [-2.2826995, 56.2645032]]]}, "properties": {"kind": "detection", "det_id": "D-SZ-fresh-scotland-2026-08-29-003-8", "zone_id": "SZ-fresh-scotland-2026-08-29-003", "scene_id": "S2C_MSIL2A_20260829T113321_R080_T30VWH_20260829T150118", "datetime": "2026-08-29T11:33:21.025000Z", "n_pixels": 1, "area_m2": 100, "prob_max": 0.7098, "prob_mean": 0.7098, "threshold": 0.63, "in_strip": true, "artifact": "ship"}}, {"type": "Feature", "id": "D-SZ-fresh-scotland-2026-08-29-003-9", "geometry": {"type": "Polygon", "coordinates": [[[-2.2831871, 56.2643263], [-2.2831905, 56.2641466], [-2.2827062, 56.2641438], [-2.2827028, 56.2643235], [-2.2831871, 56.2643263]]]}, "properties": {"kind": "detection", "det_id": "D-SZ-fresh-scotland-2026-08-29-003-9", "zone_id": "SZ-fresh-scotland-2026-08-29-003", "scene_id": "S2C_MSIL2A_20260829T113321_R080_T30VWH_20260829T150118", "datetime": "2026-08-29T11:33:21.025000Z", "n_pixels": 6, "area_m2": 600, "prob_max": 0.9961, "prob_mean": 0.8242, "threshold": 0.63, "in_strip": true, "artifact": "ship"}}, {"type": "Feature", "id": "D-SZ-fresh-scotland-2026-08-29-004-10", "geometry": {"type": "Polygon", "coordinates": [[[-2.3246275, 56.2580903], [-2.3246291, 56.2580004], [-2.3247905, 56.2580013], [-2.3247921, 56.2579115], [-2.3244692, 56.2579097], [-2.3244661, 56.2580894], [-2.3246275, 56.2580903]]]}, "properties": {"kind": "detection", "det_id": "D-SZ-fresh-scotland-2026-08-29-004-10", "zone_id": "SZ-fresh-scotland-2026-08-29-004", "scene_id": "S2C_MSIL2A_20260829T113321_R080_T30VWH_20260829T150118", "datetime": "2026-08-29T11:33:21.025000Z", "n_pixels": 3, "area_m2": 300, "prob_max": 0.9922, "prob_mean": 0.9229, "threshold": 0.63, "in_strip": true, "artifact": "ship"}}, {"type": "Feature", "id": "D-SZ-fresh-scotland-2026-08-29-004-11", "geometry": {"type": "Polygon", "coordinates": [[[-2.3247936, 56.2578216], [-2.3247952, 56.2577318], [-2.3244724, 56.25773], [-2.3244708, 56.2578199], [-2.3247936, 56.2578216]]]}, "properties": {"kind": "detection", "det_id": "D-SZ-fresh-scotland-2026-08-29-004-11", "zone_id": "SZ-fresh-scotland-2026-08-29-004", "scene_id": "S2C_MSIL2A_20260829T113321_R080_T30VWH_20260829T150118", "datetime": "2026-08-29T11:33:21.025000Z", "n_pixels": 2, "area_m2": 200, "prob_max": 0.9804, "prob_mean": 0.9176, "threshold": 0.63, "in_strip": true, "artifact": "ship"}}, {"type": "Feature", "id": "D-SZ-fresh-scotland-2026-08-29-005-12", "geometry": {"type": "Polygon", "coordinates": [[[-2.3092265, 56.2527941], [-2.3092281, 56.2527043], [-2.3090667, 56.2527034], [-2.3090651, 56.2527932], [-2.3092265, 56.2527941]]]}, "properties": {"kind": "detection", "det_id": "D-SZ-fresh-scotland-2026-08-29-005-12", "zone_id": "SZ-fresh-scotland-2026-08-29-005", "scene_id": "S2C_MSIL2A_20260829T113321_R080_T30VWH_20260829T150118", "datetime": "2026-08-29T11:33:21.025000Z", "n_pixels": 1, "area_m2": 100, "prob_max": 0.8627, "prob_mean": 0.8627, "threshold": 0.63, "in_strip": true, "artifact": "ship"}}, {"type": "Feature", "id": "D-SZ-fresh-scotland-2026-08-29-005-13", "geometry": {"type": "Polygon", "coordinates": [[[-2.3097139, 56.2526171], [-2.3097171, 56.2524374], [-2.3093943, 56.2524356], [-2.3093927, 56.2525255], [-2.3092313, 56.2525246], [-2.3092297, 56.2526144], [-2.3093911, 56.2526153], [-2.3093927, 56.2525255], [-2.3095541, 56.2525264], [-2.3095525, 56.2526162], [-2.3097139, 56.2526171]]]}, "properties": {"kind": "detection", "det_id": "D-SZ-fresh-scotland-2026-08-29-005-13", "zone_id": "SZ-fresh-scotland-2026-08-29-005", "scene_id": "S2C_MSIL2A_20260829T113321_R080_T30VWH_20260829T150118", "datetime": "2026-08-29T11:33:21.025000Z", "n_pixels": 4, "area_m2": 400, "prob_max": 1.0, "prob_mean": 0.9049, "threshold": 0.63, "in_strip": true, "artifact": "ship"}}, {"type": "Feature", "id": "D-SZ-fresh-scotland-2026-08-29-006-15", "geometry": {"type": "Polygon", "coordinates": [[[-2.3080829, 56.2446115], [-2.3080861, 56.2444318], [-2.3079248, 56.2444309], [-2.3079215, 56.2446106], [-2.3080829, 56.2446115]]]}, "properties": {"kind": "detection", "det_id": "D-SZ-fresh-scotland-2026-08-29-006-15", "zone_id": "SZ-fresh-scotland-2026-08-29-006", "scene_id": "S2C_MSIL2A_20260829T113321_R080_T30VWH_20260829T150118", "datetime": "2026-08-29T11:33:21.025000Z", "n_pixels": 2, "area_m2": 200, "prob_max": 0.8784, "prob_mean": 0.7882, "threshold": 0.63, "in_strip": true, "artifact": "ship"}}, {"type": "Feature", "id": "D-SZ-fresh-scotland-2026-08-29-006-16", "geometry": {"type": "Polygon", "coordinates": [[[-2.3088912, 56.2445262], [-2.3088929, 56.2444363], [-2.3087315, 56.2444354], [-2.3087299, 56.2445253], [-2.3088912, 56.2445262]]]}, "properties": {"kind": "detection", "det_id": "D-SZ-fresh-scotland-2026-08-29-006-16", "zone_id": "SZ-fresh-scotland-2026-08-29-006", "scene_id": "S2C_MSIL2A_20260829T113321_R080_T30VWH_20260829T150118", "datetime": "2026-08-29T11:33:21.025000Z", "n_pixels": 1, "area_m2": 100, "prob_max": 0.7608, "prob_mean": 0.7608, "threshold": 0.63, "in_strip": true, "artifact": "ship"}}, {"type": "Feature", "id": "D-SZ-fresh-scotland-2026-08-29-006-17", "geometry": {"type": "Polygon", "coordinates": [[[-2.3076053, 56.2442495], [-2.3076069, 56.2441596], [-2.3072843, 56.2441578], [-2.3072826, 56.2442476], [-2.3076053, 56.2442495]]]}, "properties": {"kind": "detection", "det_id": "D-SZ-fresh-scotland-2026-08-29-006-17", "zone_id": "SZ-fresh-scotland-2026-08-29-006", "scene_id": "S2C_MSIL2A_20260829T113321_R080_T30VWH_20260829T150118", "datetime": "2026-08-29T11:33:21.025000Z", "n_pixels": 2, "area_m2": 200, "prob_max": 0.902, "prob_mean": 0.8745, "threshold": 0.63, "in_strip": true, "artifact": "ship"}}, {"type": "Feature", "id": "D-SZ-fresh-scotland-2026-08-29-007-21", "geometry": {"type": "Polygon", "coordinates": [[[-2.2707485, 56.2137587], [-2.2707519, 56.213579], [-2.2702683, 56.2135762], [-2.2702649, 56.2137558], [-2.2707485, 56.2137587]]]}, "properties": {"kind": "detection", "det_id": "D-SZ-fresh-scotland-2026-08-29-007-21", "zone_id": "SZ-fresh-scotland-2026-08-29-007", "scene_id": "S2C_MSIL2A_20260829T113321_R080_T30VWH_20260829T150118", "datetime": "2026-08-29T11:33:21.025000Z", "n_pixels": 6, "area_m2": 600, "prob_max": 0.9765, "prob_mean": 0.9464, "threshold": 0.63, "in_strip": true, "artifact": "ship"}}]}