{"type": "FeatureCollection", "features": [{"type": "Feature", "id": "SZ-fresh-scotland-2026-08-29-001", "geometry": {"type": "Polygon", "coordinates": [[[-2.333512, 56.276288], [-2.335459, 56.275759], [-2.335962, 56.274684], [-2.335012, 56.2736], [-2.333241, 56.273321], [-2.331294, 56.27385], [-2.330792, 56.274835], [-2.331262, 56.275647], [-2.331902, 56.276009], [-2.333512, 56.276288]]]}, "properties": {"kind": "detection_zone", "layer_kind": "scene_zone", "zone_id": "SZ-fresh-scotland-2026-08-29-001", "scene_key": "fresh-scotland-2026-08-29", "scene_kind": "fresh_s2", "scene_id": "S2C_MSIL2A_20260829T113321_R080_T30VWH_20260829T150118", "region": "scotland", "title": "Шотландия (Ферт-оф-Форт) · зона 1", "mission": "Sentinel-2", "datetime": "2026-08-29T11:33:21.025000Z", "detection_status": "insufficient_data", "status": "insufficient_data", "concentration_status": "unavailable", "quantity": {"status": "not_confirmed", "label": "концентрация по снимку не подтверждена", "detail": "перевод площади в штуки не показываем: нет калибровочных пар (см. docs/QUANTITY.md)"}, "verification": "false_alarm_signs", "training_scene": null, "flags": ["ship", "foam"], "n_cozar_filaments": 0, "crop_file": "crops/SZ-fresh-scotland-2026-08-29-001.jpg", "wind_high": false, "measured": {"zone_area_km2": 0.0774, "suspicious_area_m2": 500, "n_pixels": 5, "n_objects": 1, "water_km2": 0.0794, "lwd_m2_km2": 6297.2, "lwd_note": null, "quality": {"valid_water_fraction": 1.0, "cloud_fraction": 0.0, "glint_fraction": 0.0}, "model": {"weights": "weights/lgbm", "file": "weights/lgbm/model.txt", "sha256": "0eeebf43fcccd8c7c07f053b7ec723229d1a3c9b92d12eec1bdb269258c51470", "sha256_short": "0eeebf43fccc", "trained_at": "2026-09-25T01:36:30Z", "threshold": 0.63, "harmonize": "none", "class": "MARIDA Marine Debris (любой плавающий мусор, не только пластик)"}}, "probable": {"prob_max": 0.976, "prob_mean": 0.909, "signs": {"foam": {"flag": true, "white_ratio_b2_b8": 0.972, "wind10m_ms": 1.89, "rule": "прирост B2 над водой ≥ 0.8 прироста B8 («белый» спектр) или ветер ≥ 7.0 м/с"}, "glint": {"flag": false, "b11_water_median": 0.0095, "glint_share": 0.0, "rule": "медиана B11 воды зоны > 0.01 или ≥ 20 % пикселей зоны — блик (маска качества)"}, "ship": {"flag": true, "share": 1.0, "bright_target_px_within_500m": 11, "rule": "≥ 30 % пикселей — у яркой цели или кильватера (reports/artifacts.md) или яркая цель с откликом в SWIR (судно, лодка: B11 ≥ 0,015) ближе 500 м, или малый яркий объект (≤ 40 пикс.) с B11 ≥ 0,01 ближе 500 м (лодка с кильватером)"}, "coast": {"flag": false, "land_px_within_300m": 0, "rule": "суша (маска качества) ближе 300 м — прибой, кромка берега"}, "shallow": {"flag": false, "b3_water_zone": 0.0186, "b3_ratio_to_scene_water": 0.77, "rule": "медиана B3 воды зоны ≥ 2× медианы воды снимка и ≥ 0,03, или B4 воды зоны ≥ 0,02 и (≥ 2× воды снимка или B8 ≥ 0,013) — мелководье, яркое дно, илистая банка"}, "seam": {"flag": false, "share": 0, "rule": "≥ 30 % пикселей — прямая линия вдоль трека/границы яркости (шов)"}, "cloud": {"flag": false, "cloud_fraction": 0.0, "rule": "облака или тени облаков (маска качества) ≥ 20 % зоны"}, "diag": {"dist_land_m": null, "dist_bright_m": 10, "n_bright_px_500m": 7, "b11_bright_max_500m": 0.0746, "b4_water_zone": 0.0111, "b8_water_zone": 0.0099, "b11_det_median": 0.0518, "b8_det_median": 0.0944, "water_scene_b3": 0.0243, "water_scene_b4": 0.0164, "n_det_px": 5, "n_obj": 1}, "note": "эвристики, не классификатор; на размеченных данных не проверены"}, "n_cozar_filaments": 0}, "field_nearby": {"items": [{"source": "ADIS (4TU.ResearchData, судовая камера)", "segment_id": 338026, "ship": "R/V Akademik Mstislav Keldysh", "date": "2022-03-31", "days_from_scene": -1612, "distance_km": 445.8, "lon": -7.91336, "lat": 58.80967, "n_items": 0, "area_km2": 0.6996, "size_class": "> 5 см", "c_items_km2": 0.0, "ci95_lo": 0.0, "ci95_hi": 5.27, "ci95_method": "точный интервал Пуассона для N, делённый на A", "raw_10cm_items_km2": 0.0, "authors_cal_10cm_items_km2": 0.0, "authors_cal_10cm_lo95": null, "authors_cal_10cm_hi95": null}, {"source": "ADIS (4TU.ResearchData, судовая камера)", "segment_id": 338025, "ship": "R/V Akademik Mstislav Keldysh", "date": "2022-03-31", "days_from_scene": -1612, "distance_km": 446.3, "lon": -8.02644, "lat": 58.74178, "n_items": 0, "area_km2": 0.7, "size_class": "> 5 см", "c_items_km2": 0.0, "ci95_lo": 0.0, "ci95_hi": 5.27, "ci95_method": "точный интервал Пуассона для N, делённый на A", "raw_10cm_items_km2": 0.0, "authors_cal_10cm_items_km2": 0.0, "authors_cal_10cm_lo95": null, "authors_cal_10cm_hi95": null}, {"source": "ADIS (4TU.ResearchData, судовая камера)", "segment_id": 338475, "ship": "R/V Akademik Mstislav Keldysh", "date": "2022-03-31", "days_from_scene": -1612, "distance_km": 447.1, "lon": -8.13141, "lat": 58.679, "n_items": 0, "area_km2": 0.9498, "size_class": "> 5 см", "c_items_km2": 0.0, "ci95_lo": 0.0, "ci95_hi": 3.88, "ci95_method": "точный интервал Пуассона для N, делённый на A", "raw_10cm_items_km2": 0.0, "authors_cal_10cm_items_km2": 0.0, "authors_cal_10cm_lo95": null, "authors_cal_10cm_hi95": null}], "nearest_organizer_sample": {"sample_id": "MPL-0092", "source_id": "S3_SE_NORTH_SEA", "distance_km": 365.8}, "note": "Измерение ≠ оценка: это независимые полевые счёты C = N/A в другое время и в другом месте; со сценой они не связаны и не калибруют её. Ближайший отрезок ADIS — за 446 км: только для порядка величин."}, "acquired_at": "2026-08-29T11:33:21.025000Z", "acquisition_date": "2026-08-29", "processed_at": "2026-09-26T19:36:35Z", "human_checked": false, "auto_label": "автоматически, не проверено человеком"}}, {"type": "Feature", "id": "SZ-fresh-scotland-2026-08-29-002", "geometry": {"type": "Polygon", "coordinates": [[[-2.263759, 56.267177], [-2.265703, 56.266829], [-2.266692, 56.265757], [-2.266225, 56.264856], [-2.264298, 56.264305], [-2.262194, 56.264562], [-2.261205, 56.265635], [-2.26167, 56.266626], [-2.262792, 56.267082], [-2.263759, 56.267177]]]}, "properties": {"kind": "detection_zone", "layer_kind": "scene_zone", "zone_id": "SZ-fresh-scotland-2026-08-29-002", "scene_key": "fresh-scotland-2026-08-29", "scene_kind": "fresh_s2", "scene_id": "S2C_MSIL2A_20260829T113321_R080_T30VWH_20260829T150118", "region": "scotland", "title": "Шотландия (Ферт-оф-Форт) · зона 2", "mission": "Sentinel-2", "datetime": "2026-08-29T11:33:21.025000Z", "detection_status": "insufficient_data", "status": "insufficient_data", "concentration_status": "unavailable", "quantity": {"status": "not_confirmed", "label": "концентрация по снимку не подтверждена", "detail": "перевод площади в штуки не показываем: нет калибровочных пар (см. docs/QUANTITY.md)"}, "verification": "false_alarm_signs", "training_scene": null, "flags": ["ship"], "n_cozar_filaments": 0, "crop_file": "crops/SZ-fresh-scotland-2026-08-29-002.jpg", "wind_high": false, "measured": {"zone_area_km2": 0.08, "suspicious_area_m2": 500, "n_pixels": 5, "n_objects": 1, "water_km2": 0.082, "lwd_m2_km2": 6097.6, "lwd_note": null, "quality": {"valid_water_fraction": 1.0, "cloud_fraction": 0.0, "glint_fraction": 0.0}, "model": {"weights": "weights/lgbm", "file": "weights/lgbm/model.txt", "sha256": "0eeebf43fcccd8c7c07f053b7ec723229d1a3c9b92d12eec1bdb269258c51470", "sha256_short": "0eeebf43fccc", "trained_at": "2026-09-25T01:36:30Z", "threshold": 0.63, "harmonize": "none", "class": "MARIDA Marine Debris (любой плавающий мусор, не только пластик)"}}, "probable": {"prob_max": 0.988, "prob_mean": 0.899, "signs": {"foam": {"flag": false, "white_ratio_b2_b8": 0.744, "wind10m_ms": 1.89, "rule": "прирост B2 над водой ≥ 0.8 прироста B8 («белый» спектр) или ветер ≥ 7.0 м/с"}, "glint": {"flag": false, "b11_water_median": 0.01, "glint_share": 0.0, "rule": "медиана B11 воды зоны > 0.01 или ≥ 20 % пикселей зоны — блик (маска качества)"}, "ship": {"flag": true, "share": 1.0, "bright_target_px_within_500m": 8, "rule": "≥ 30 % пикселей — у яркой цели или кильватера (reports/artifacts.md) или яркая цель с откликом в SWIR (судно, лодка: B11 ≥ 0,015) ближе 500 м, или малый яркий объект (≤ 40 пикс.) с B11 ≥ 0,01 ближе 500 м (лодка с кильватером)"}, "coast": {"flag": false, "land_px_within_300m": 0, "rule": "суша (маска качества) ближе 300 м — прибой, кромка берега"}, "shallow": {"flag": false, "b3_water_zone": 0.0185, "b3_ratio_to_scene_water": 0.76, "rule": "медиана B3 воды зоны ≥ 2× медианы воды снимка и ≥ 0,03, или B4 воды зоны ≥ 0,02 и (≥ 2× воды снимка или B8 ≥ 0,013) — мелководье, яркое дно, илистая банка"}, "seam": {"flag": false, "share": 0, "rule": "≥ 30 % пикселей — прямая линия вдоль трека/границы яркости (шов)"}, "cloud": {"flag": false, "cloud_fraction": 0.0, "rule": "облака или тени облаков (маска качества) ≥ 20 % зоны"}, "diag": {"dist_land_m": null, "dist_bright_m": 10, "n_bright_px_500m": 5, "b11_bright_max_500m": 0.0746, "b4_water_zone": 0.0115, "b8_water_zone": 0.0118, "b11_det_median": 0.0332, "b8_det_median": 0.0833, "water_scene_b3": 0.0243, "water_scene_b4": 0.0164, "n_det_px": 5, "n_obj": 1}, "note": "эвристики, не классификатор; на размеченных данных не проверены"}, "n_cozar_filaments": 0}, "field_nearby": {"items": [{"source": "ADIS (4TU.ResearchData, судовая камера)", "segment_id": 338026, "ship": "R/V Akademik Mstislav Keldysh", "date": "2022-03-31", "days_from_scene": -1612, "distance_km": 445.8, "lon": -7.91336, "lat": 58.80967, "n_items": 0, "area_km2": 0.6996, "size_class": "> 5 см", "c_items_km2": 0.0, "ci95_lo": 0.0, "ci95_hi": 5.27, "ci95_method": "точный интервал Пуассона для N, делённый на A", "raw_10cm_items_km2": 0.0, "authors_cal_10cm_items_km2": 0.0, "authors_cal_10cm_lo95": null, "authors_cal_10cm_hi95": null}, {"source": "ADIS (4TU.ResearchData, судовая камера)", "segment_id": 338025, "ship": "R/V Akademik Mstislav Keldysh", "date": "2022-03-31", "days_from_scene": -1612, "distance_km": 446.3, "lon": -8.02644, "lat": 58.74178, "n_items": 0, "area_km2": 0.7, "size_class": "> 5 см", "c_items_km2": 0.0, "ci95_lo": 0.0, "ci95_hi": 5.27, "ci95_method": "точный интервал Пуассона для N, делённый на A", "raw_10cm_items_km2": 0.0, "authors_cal_10cm_items_km2": 0.0, "authors_cal_10cm_lo95": null, "authors_cal_10cm_hi95": null}, {"source": "ADIS (4TU.ResearchData, судовая камера)", "segment_id": 338475, "ship": "R/V Akademik Mstislav Keldysh", "date": "2022-03-31", "days_from_scene": -1612, "distance_km": 447.1, "lon": -8.13141, "lat": 58.679, "n_items": 0, "area_km2": 0.9498, "size_class": "> 5 см", "c_items_km2": 0.0, "ci95_lo": 0.0, "ci95_hi": 3.88, "ci95_method": "точный интервал Пуассона для N, делённый на A", "raw_10cm_items_km2": 0.0, "authors_cal_10cm_items_km2": 0.0, "authors_cal_10cm_lo95": null, "authors_cal_10cm_hi95": null}], "nearest_organizer_sample": {"sample_id": "MPL-0092", "source_id": "S3_SE_NORTH_SEA", "distance_km": 365.8}, "note": "Измерение ≠ оценка: это независимые полевые счёты C = N/A в другое время и в другом месте; со сценой они не связаны и не калибруют её. Ближайший отрезок ADIS — за 446 км: только для порядка величин."}, "acquired_at": "2026-08-29T11:33:21.025000Z", "acquisition_date": "2026-08-29", "processed_at": "2026-09-26T19:36:35Z", "human_checked": false, "auto_label": "автоматически, не проверено человеком"}}, {"type": "Feature", "id": "SZ-fresh-scotland-2026-08-29-003", "geometry": {"type": "Polygon", "coordinates": [[[-2.282674, 56.265851], [-2.28462, 56.265413], [-2.285609, 56.26434], [-2.285143, 56.263349], [-2.283216, 56.262799], [-2.281274, 56.263057], [-2.280455, 56.263682], [-2.280118, 56.264398], [-2.280586, 56.2653], [-2.281707, 56.265755], [-2.282674, 56.265851]]]}, "properties": {"kind": "detection_zone", "layer_kind": "scene_zone", "zone_id": "SZ-fresh-scotland-2026-08-29-003", "scene_key": "fresh-scotland-2026-08-29", "scene_kind": "fresh_s2", "scene_id": "S2C_MSIL2A_20260829T113321_R080_T30VWH_20260829T150118", "region": "scotland", "title": "Шотландия (Ферт-оф-Форт) · зона 3", "mission": "Sentinel-2", "datetime": "2026-08-29T11:33:21.025000Z", "detection_status": "insufficient_data", "status": "insufficient_data", "concentration_status": "unavailable", "quantity": {"status": "not_confirmed", "label": "концентрация по снимку не подтверждена", "detail": "перевод площади в штуки не показываем: нет калибровочных пар (см. docs/QUANTITY.md)"}, "verification": "false_alarm_signs", "training_scene": null, "flags": ["ship"], "n_cozar_filaments": 0, "crop_file": "crops/SZ-fresh-scotland-2026-08-29-003.jpg", "wind_high": false, "measured": {"zone_area_km2": 0.0851, "suspicious_area_m2": 700, "n_pixels": 7, "n_objects": 2, "water_km2": 0.0862, "lwd_m2_km2": 8120.6, "lwd_note": null, "quality": {"valid_water_fraction": 1.0, "cloud_fraction": 0.0, "glint_fraction": 0.0}, "model": {"weights": "weights/lgbm", "file": "weights/lgbm/model.txt", "sha256": "0eeebf43fcccd8c7c07f053b7ec723229d1a3c9b92d12eec1bdb269258c51470", "sha256_short": "0eeebf43fccc", "trained_at": "2026-09-25T01:36:30Z", "threshold": 0.63, "harmonize": "none", "class": "MARIDA Marine Debris (любой плавающий мусор, не только пластик)"}}, "probable": {"prob_max": 0.996, "prob_mean": 0.808, "signs": {"foam": {"flag": false, "white_ratio_b2_b8": 0.615, "wind10m_ms": 1.89, "rule": "прирост B2 над водой ≥ 0.8 прироста B8 («белый» спектр) или ветер ≥ 7.0 м/с"}, "glint": {"flag": false, "b11_water_median": 0.0096, "glint_share": 0.0, "rule": "медиана B11 воды зоны > 0.01 или ≥ 20 % пикселей зоны — блик (маска качества)"}, "ship": {"flag": true, "share": 1.0, "bright_target_px_within_500m": 8, "rule": "≥ 30 % пикселей — у яркой цели или кильватера (reports/artifacts.md) или яркая цель с откликом в SWIR (судно, лодка: B11 ≥ 0,015) ближе 500 м, или малый яркий объект (≤ 40 пикс.) с B11 ≥ 0,01 ближе 500 м (лодка с кильватером)"}, "coast": {"flag": false, "land_px_within_300m": 0, "rule": "суша (маска качества) ближе 300 м — прибой, кромка берега"}, "shallow": {"flag": false, "b3_water_zone": 0.0181, "b3_ratio_to_scene_water": 0.74, "rule": "медиана B3 воды зоны ≥ 2× медианы воды снимка и ≥ 0,03, или B4 воды зоны ≥ 0,02 и (≥ 2× воды снимка или B8 ≥ 0,013) — мелководье, яркое дно, илистая банка"}, "seam": {"flag": false, "share": 0, "rule": "≥ 30 % пикселей — прямая линия вдоль трека/границы яркости (шов)"}, "cloud": {"flag": false, "cloud_fraction": 0.0, "rule": "облака или тени облаков (маска качества) ≥ 20 % зоны"}, "diag": {"dist_land_m": null, "dist_bright_m": 10, "n_bright_px_500m": 2, "b11_bright_max_500m": 0.0596, "b4_water_zone": 0.0111, "b8_water_zone": 0.0112, "b11_det_median": 0.0423, "b8_det_median": 0.0907, "water_scene_b3": 0.0243, "water_scene_b4": 0.0164, "n_det_px": 7, "n_obj": 2}, "note": "эвристики, не классификатор; на размеченных данных не проверены"}, "n_cozar_filaments": 0}, "field_nearby": {"items": [{"source": "ADIS (4TU.ResearchData, судовая камера)", "segment_id": 338026, "ship": "R/V Akademik Mstislav Keldysh", "date": "2022-03-31", "days_from_scene": -1612, "distance_km": 445.8, "lon": -7.91336, "lat": 58.80967, "n_items": 0, "area_km2": 0.6996, "size_class": "> 5 см", "c_items_km2": 0.0, "ci95_lo": 0.0, "ci95_hi": 5.27, "ci95_method": "точный интервал Пуассона для N, делённый на A", "raw_10cm_items_km2": 0.0, "authors_cal_10cm_items_km2": 0.0, "authors_cal_10cm_lo95": null, "authors_cal_10cm_hi95": null}, {"source": "ADIS (4TU.ResearchData, судовая камера)", "segment_id": 338025, "ship": "R/V Akademik Mstislav Keldysh", "date": "2022-03-31", "days_from_scene": -1612, "distance_km": 446.3, "lon": -8.02644, "lat": 58.74178, "n_items": 0, "area_km2": 0.7, "size_class": "> 5 см", "c_items_km2": 0.0, "ci95_lo": 0.0, "ci95_hi": 5.27, "ci95_method": "точный интервал Пуассона для N, делённый на A", "raw_10cm_items_km2": 0.0, "authors_cal_10cm_items_km2": 0.0, "authors_cal_10cm_lo95": null, "authors_cal_10cm_hi95": null}, {"source": "ADIS (4TU.ResearchData, судовая камера)", "segment_id": 338475, "ship": "R/V Akademik Mstislav Keldysh", "date": "2022-03-31", "days_from_scene": -1612, "distance_km": 447.1, "lon": -8.13141, "lat": 58.679, "n_items": 0, "area_km2": 0.9498, "size_class": "> 5 см", "c_items_km2": 0.0, "ci95_lo": 0.0, "ci95_hi": 3.88, "ci95_method": "точный интервал Пуассона для N, делённый на A", "raw_10cm_items_km2": 0.0, "authors_cal_10cm_items_km2": 0.0, "authors_cal_10cm_lo95": null, "authors_cal_10cm_hi95": null}], "nearest_organizer_sample": {"sample_id": "MPL-0092", "source_id": "S3_SE_NORTH_SEA", "distance_km": 365.8}, "note": "Измерение ≠ оценка: это независимые полевые счёты C = N/A в другое время и в другом месте; со сценой они не связаны и не калибруют её. Ближайший отрезок ADIS — за 446 км: только для порядка величин."}, "acquired_at": "2026-08-29T11:33:21.025000Z", "acquisition_date": "2026-08-29", "processed_at": "2026-09-26T19:36:35Z", "human_checked": false, "auto_label": "автоматически, не проверено человеком"}}, {"type": "Feature", "id": "SZ-fresh-scotland-2026-08-29-004", "geometry": {"type": "Polygon", "coordinates": [[[-2.324604, 56.259438], [-2.326061, 56.259176], [-2.326713, 56.25882], [-2.327212, 56.258015], [-2.326746, 56.256934], [-2.324819, 56.256384], [-2.323039, 56.256644], [-2.322051, 56.257717], [-2.322515, 56.258887], [-2.323637, 56.259343], [-2.324604, 56.259438]]]}, "properties": {"kind": "detection_zone", "layer_kind": "scene_zone", "zone_id": "SZ-fresh-scotland-2026-08-29-004", "scene_key": "fresh-scotland-2026-08-29", "scene_kind": "fresh_s2", "scene_id": "S2C_MSIL2A_20260829T113321_R080_T30VWH_20260829T150118", "region": "scotland", "title": "Шотландия (Ферт-оф-Форт) · зона 4", "mission": "Sentinel-2", "datetime": "2026-08-29T11:33:21.025000Z", "detection_status": "insufficient_data", "status": "insufficient_data", "concentration_status": "unavailable", "quantity": {"status": "not_confirmed", "label": "концентрация по снимку не подтверждена", "detail": "перевод площади в штуки не показываем: нет калибровочных пар (см. docs/QUANTITY.md)"}, "verification": "false_alarm_signs", "training_scene": null, "flags": ["ship", "glint"], "n_cozar_filaments": 0, "crop_file": "crops/SZ-fresh-scotland-2026-08-29-004.jpg", "wind_high": false, "measured": {"zone_area_km2": 0.0813, "suspicious_area_m2": 500, "n_pixels": 5, "n_objects": 2, "water_km2": 0.0824, "lwd_m2_km2": 6068.0, "lwd_note": null, "quality": {"valid_water_fraction": 1.0, "cloud_fraction": 0.0, "glint_fraction": 0.0}, "model": {"weights": "weights/lgbm", "file": "weights/lgbm/model.txt", "sha256": "0eeebf43fcccd8c7c07f053b7ec723229d1a3c9b92d12eec1bdb269258c51470", "sha256_short": "0eeebf43fccc", "trained_at": "2026-09-25T01:36:30Z", "threshold": 0.63, "harmonize": "none", "class": "MARIDA Marine Debris (любой плавающий мусор, не только пластик)"}}, "probable": {"prob_max": 0.992, "prob_mean": 0.921, "signs": {"foam": {"flag": false, "white_ratio_b2_b8": 0.777, "wind10m_ms": 1.89, "rule": "прирост B2 над водой ≥ 0.8 прироста B8 («белый» спектр) или ветер ≥ 7.0 м/с"}, "glint": {"flag": true, "b11_water_median": 0.0113, "glint_share": 0.0, "rule": "медиана B11 воды зоны > 0.01 или ≥ 20 % пикселей зоны — блик (маска качества)"}, "ship": {"flag": true, "share": 1.0, "bright_target_px_within_500m": 13, "rule": "≥ 30 % пикселей — у яркой цели или кильватера (reports/artifacts.md) или яркая цель с откликом в SWIR (судно, лодка: B11 ≥ 0,015) ближе 500 м, или малый яркий объект (≤ 40 пикс.) с B11 ≥ 0,01 ближе 500 м (лодка с кильватером)"}, "coast": {"flag": false, "land_px_within_300m": 0, "rule": "суша (маска качества) ближе 300 м — прибой, кромка берега"}, "shallow": {"flag": false, "b3_water_zone": 0.0212, "b3_ratio_to_scene_water": 0.87, "rule": "медиана B3 воды зоны ≥ 2× медианы воды снимка и ≥ 0,03, или B4 воды зоны ≥ 0,02 и (≥ 2× воды снимка или B8 ≥ 0,013) — мелководье, яркое дно, илистая банка"}, "seam": {"flag": false, "share": 0, "rule": "≥ 30 % пикселей — прямая линия вдоль трека/границы яркости (шов)"}, "cloud": {"flag": false, "cloud_fraction": 0.0, "rule": "облака или тени облаков (маска качества) ≥ 20 % зоны"}, "diag": {"dist_land_m": null, "dist_bright_m": 10, "n_bright_px_500m": 10, "b11_bright_max_500m": 0.0669, "b4_water_zone": 0.0141, "b8_water_zone": 0.0142, "b11_det_median": 0.0426, "b8_det_median": 0.114, "water_scene_b3": 0.0243, "water_scene_b4": 0.0164, "n_det_px": 5, "n_obj": 2}, "note": "эвристики, не классификатор; на размеченных данных не проверены"}, "n_cozar_filaments": 0}, "field_nearby": {"items": [{"source": "ADIS (4TU.ResearchData, судовая камера)", "segment_id": 338026, "ship": "R/V Akademik Mstislav Keldysh", "date": "2022-03-31", "days_from_scene": -1612, "distance_km": 445.8, "lon": -7.91336, "lat": 58.80967, "n_items": 0, "area_km2": 0.6996, "size_class": "> 5 см", "c_items_km2": 0.0, "ci95_lo": 0.0, "ci95_hi": 5.27, "ci95_method": "точный интервал Пуассона для N, делённый на A", "raw_10cm_items_km2": 0.0, "authors_cal_10cm_items_km2": 0.0, "authors_cal_10cm_lo95": null, "authors_cal_10cm_hi95": null}, {"source": "ADIS (4TU.ResearchData, судовая камера)", "segment_id": 338025, "ship": "R/V Akademik Mstislav Keldysh", "date": "2022-03-31", "days_from_scene": -1612, "distance_km": 446.3, "lon": -8.02644, "lat": 58.74178, "n_items": 0, "area_km2": 0.7, "size_class": "> 5 см", "c_items_km2": 0.0, "ci95_lo": 0.0, "ci95_hi": 5.27, "ci95_method": "точный интервал Пуассона для N, делённый на A", "raw_10cm_items_km2": 0.0, "authors_cal_10cm_items_km2": 0.0, "authors_cal_10cm_lo95": null, "authors_cal_10cm_hi95": null}, {"source": "ADIS (4TU.ResearchData, судовая камера)", "segment_id": 338475, "ship": "R/V Akademik Mstislav Keldysh", "date": "2022-03-31", "days_from_scene": -1612, "distance_km": 447.1, "lon": -8.13141, "lat": 58.679, "n_items": 0, "area_km2": 0.9498, "size_class": "> 5 см", "c_items_km2": 0.0, "ci95_lo": 0.0, "ci95_hi": 3.88, "ci95_method": "точный интервал Пуассона для N, делённый на A", "raw_10cm_items_km2": 0.0, "authors_cal_10cm_items_km2": 0.0, "authors_cal_10cm_lo95": null, "authors_cal_10cm_hi95": null}], "nearest_organizer_sample": {"sample_id": "MPL-0092", "source_id": "S3_SE_NORTH_SEA", "distance_km": 365.8}, "note": "Измерение ≠ оценка: это независимые полевые счёты C = N/A в другое время и в другом месте; со сценой они не связаны и не калибруют её. Ближайший отрезок ADIS — за 446 км: только для порядка величин."}, "acquired_at": "2026-08-29T11:33:21.025000Z", "acquisition_date": "2026-08-29", "processed_at": "2026-09-26T19:36:35Z", "human_checked": false, "auto_label": "автоматически, не проверено человеком"}}, {"type": "Feature", "id": "SZ-fresh-scotland-2026-08-29-005", "geometry": {"type": "Polygon", "coordinates": [[[-2.309202, 56.254142], [-2.311147, 56.253703], [-2.312135, 56.252631], [-2.311668, 56.25164], [-2.309741, 56.25109], [-2.307961, 56.251349], [-2.307309, 56.251705], [-2.306646, 56.25269], [-2.307114, 56.253591], [-2.308236, 56.254046], [-2.309202, 56.254142]]]}, "properties": {"kind": "detection_zone", "layer_kind": "scene_zone", "zone_id": "SZ-fresh-scotland-2026-08-29-005", "scene_key": "fresh-scotland-2026-08-29", "scene_kind": "fresh_s2", "scene_id": "S2C_MSIL2A_20260829T113321_R080_T30VWH_20260829T150118", "region": "scotland", "title": "Шотландия (Ферт-оф-Форт) · зона 5", "mission": "Sentinel-2", "datetime": "2026-08-29T11:33:21.025000Z", "detection_status": "insufficient_data", "status": "insufficient_data", "concentration_status": "unavailable", "quantity": {"status": "not_confirmed", "label": "концентрация по снимку не подтверждена", "detail": "перевод площади в штуки не показываем: нет калибровочных пар (см. docs/QUANTITY.md)"}, "verification": "false_alarm_signs", "training_scene": null, "flags": ["ship"], "n_cozar_filaments": 0, "crop_file": "crops/SZ-fresh-scotland-2026-08-29-005.jpg", "wind_high": false, "measured": {"zone_area_km2": 0.0843, "suspicious_area_m2": 500, "n_pixels": 5, "n_objects": 2, "water_km2": 0.0853, "lwd_m2_km2": 5861.7, "lwd_note": null, "quality": {"valid_water_fraction": 1.0, "cloud_fraction": 0.0, "glint_fraction": 0.0}, "model": {"weights": "weights/lgbm", "file": "weights/lgbm/model.txt", "sha256": "0eeebf43fcccd8c7c07f053b7ec723229d1a3c9b92d12eec1bdb269258c51470", "sha256_short": "0eeebf43fccc", "trained_at": "2026-09-25T01:36:30Z", "threshold": 0.63, "harmonize": "none", "class": "MARIDA Marine Debris (любой плавающий мусор, не только пластик)"}}, "probable": {"prob_max": 1.0, "prob_mean": 0.896, "signs": {"foam": {"flag": false, "white_ratio_b2_b8": 0.698, "wind10m_ms": 1.89, "rule": "прирост B2 над водой ≥ 0.8 прироста B8 («белый» спектр) или ветер ≥ 7.0 м/с"}, "glint": {"flag": false, "b11_water_median": 0.0092, "glint_share": 0.0, "rule": "медиана B11 воды зоны > 0.01 или ≥ 20 % пикселей зоны — блик (маска качества)"}, "ship": {"flag": true, "share": 1.0, "bright_target_px_within_500m": 8, "rule": "≥ 30 % пикселей — у яркой цели или кильватера (reports/artifacts.md) или яркая цель с откликом в SWIR (судно, лодка: B11 ≥ 0,015) ближе 500 м, или малый яркий объект (≤ 40 пикс.) с B11 ≥ 0,01 ближе 500 м (лодка с кильватером)"}, "coast": {"flag": false, "land_px_within_300m": 0, "rule": "суша (маска качества) ближе 300 м — прибой, кромка берега"}, "shallow": {"flag": false, "b3_water_zone": 0.0171, "b3_ratio_to_scene_water": 0.7, "rule": "медиана B3 воды зоны ≥ 2× медианы воды снимка и ≥ 0,03, или B4 воды зоны ≥ 0,02 и (≥ 2× воды снимка или B8 ≥ 0,013) — мелководье, яркое дно, илистая банка"}, "seam": {"flag": false, "share": 0, "rule": "≥ 30 % пикселей — прямая линия вдоль трека/границы яркости (шов)"}, "cloud": {"flag": false, "cloud_fraction": 0.0, "rule": "облака или тени облаков (маска качества) ≥ 20 % зоны"}, "diag": {"dist_land_m": null, "dist_bright_m": 10, "n_bright_px_500m": 4, "b11_bright_max_500m": 0.0502, "b4_water_zone": 0.0106, "b8_water_zone": 0.0108, "b11_det_median": 0.037, "b8_det_median": 0.0971, "water_scene_b3": 0.0243, "water_scene_b4": 0.0164, "n_det_px": 5, "n_obj": 2}, "note": "эвристики, не классификатор; на размеченных данных не проверены"}, "n_cozar_filaments": 0}, "field_nearby": {"items": [{"source": "ADIS (4TU.ResearchData, судовая камера)", "segment_id": 338026, "ship": "R/V Akademik Mstislav Keldysh", "date": "2022-03-31", "days_from_scene": -1612, "distance_km": 445.8, "lon": -7.91336, "lat": 58.80967, "n_items": 0, "area_km2": 0.6996, "size_class": "> 5 см", "c_items_km2": 0.0, "ci95_lo": 0.0, "ci95_hi": 5.27, "ci95_method": "точный интервал Пуассона для N, делённый на A", "raw_10cm_items_km2": 0.0, "authors_cal_10cm_items_km2": 0.0, "authors_cal_10cm_lo95": null, "authors_cal_10cm_hi95": null}, {"source": "ADIS (4TU.ResearchData, судовая камера)", "segment_id": 338025, "ship": "R/V Akademik Mstislav Keldysh", "date": "2022-03-31", "days_from_scene": -1612, "distance_km": 446.3, "lon": -8.02644, "lat": 58.74178, "n_items": 0, "area_km2": 0.7, "size_class": "> 5 см", "c_items_km2": 0.0, "ci95_lo": 0.0, "ci95_hi": 5.27, "ci95_method": "точный интервал Пуассона для N, делённый на A", "raw_10cm_items_km2": 0.0, "authors_cal_10cm_items_km2": 0.0, "authors_cal_10cm_lo95": null, "authors_cal_10cm_hi95": null}, {"source": "ADIS (4TU.ResearchData, судовая камера)", "segment_id": 338475, "ship": "R/V Akademik Mstislav Keldysh", "date": "2022-03-31", "days_from_scene": -1612, "distance_km": 447.1, "lon": -8.13141, "lat": 58.679, "n_items": 0, "area_km2": 0.9498, "size_class": "> 5 см", "c_items_km2": 0.0, "ci95_lo": 0.0, "ci95_hi": 3.88, "ci95_method": "точный интервал Пуассона для N, делённый на A", "raw_10cm_items_km2": 0.0, "authors_cal_10cm_items_km2": 0.0, "authors_cal_10cm_lo95": null, "authors_cal_10cm_hi95": null}], "nearest_organizer_sample": {"sample_id": "MPL-0092", "source_id": "S3_SE_NORTH_SEA", "distance_km": 365.8}, "note": "Измерение ≠ оценка: это независимые полевые счёты C = N/A в другое время и в другом месте; со сценой они не связаны и не калибруют её. Ближайший отрезок ADIS — за 446 км: только для порядка величин."}, "acquired_at": "2026-08-29T11:33:21.025000Z", "acquisition_date": "2026-08-29", "processed_at": "2026-09-26T19:36:35Z", "human_checked": false, "auto_label": "автоматически, не проверено человеком"}}, {"type": "Feature", "id": "SZ-fresh-scotland-2026-08-29-006", "geometry": {"type": "Polygon", "coordinates": [[[-2.308059, 56.245959], [-2.309675, 56.245788], [-2.310813, 56.245346], [-2.311311, 56.24454], [-2.31116, 56.244], [-2.309722, 56.243183], [-2.307631, 56.242812], [-2.3065, 56.242896], [-2.305034, 56.243696], [-2.305016, 56.244684], [-2.30645, 56.245681], [-2.308059, 56.245959]]]}, "properties": {"kind": "detection_zone", "layer_kind": "scene_zone", "zone_id": "SZ-fresh-scotland-2026-08-29-006", "scene_key": "fresh-scotland-2026-08-29", "scene_kind": "fresh_s2", "scene_id": "S2C_MSIL2A_20260829T113321_R080_T30VWH_20260829T150118", "region": "scotland", "title": "Шотландия (Ферт-оф-Форт) · зона 6", "mission": "Sentinel-2", "datetime": "2026-08-29T11:33:21.025000Z", "detection_status": "insufficient_data", "status": "insufficient_data", "concentration_status": "unavailable", "quantity": {"status": "not_confirmed", "label": "концентрация по снимку не подтверждена", "detail": "перевод площади в штуки не показываем: нет калибровочных пар (см. docs/QUANTITY.md)"}, "verification": "false_alarm_signs", "training_scene": null, "flags": ["ship", "glint", "foam"], "n_cozar_filaments": 0, "crop_file": "crops/SZ-fresh-scotland-2026-08-29-006.jpg", "wind_high": false, "measured": {"zone_area_km2": 0.1027, "suspicious_area_m2": 500, "n_pixels": 5, "n_objects": 3, "water_km2": 0.1026, "lwd_m2_km2": 4873.3, "lwd_note": null, "quality": {"valid_water_fraction": 1.0, "cloud_fraction": 0.0, "glint_fraction": 0.0}, "model": {"weights": "weights/lgbm", "file": "weights/lgbm/model.txt", "sha256": "0eeebf43fcccd8c7c07f053b7ec723229d1a3c9b92d12eec1bdb269258c51470", "sha256_short": "0eeebf43fccc", "trained_at": "2026-09-25T01:36:30Z", "threshold": 0.63, "harmonize": "none", "class": "MARIDA Marine Debris (любой плавающий мусор, не только пластик)"}}, "probable": {"prob_max": 0.902, "prob_mean": 0.817, "signs": {"foam": {"flag": true, "white_ratio_b2_b8": 0.865, "wind10m_ms": 1.89, "rule": "прирост B2 над водой ≥ 0.8 прироста B8 («белый» спектр) или ветер ≥ 7.0 м/с"}, "glint": {"flag": true, "b11_water_median": 0.0117, "glint_share": 0.0, "rule": "медиана B11 воды зоны > 0.01 или ≥ 20 % пикселей зоны — блик (маска качества)"}, "ship": {"flag": true, "share": 1.0, "bright_target_px_within_500m": 15, "rule": "≥ 30 % пикселей — у яркой цели или кильватера (reports/artifacts.md) или яркая цель с откликом в SWIR (судно, лодка: B11 ≥ 0,015) ближе 500 м, или малый яркий объект (≤ 40 пикс.) с B11 ≥ 0,01 ближе 500 м (лодка с кильватером)"}, "coast": {"flag": false, "land_px_within_300m": 0, "rule": "суша (маска качества) ближе 300 м — прибой, кромка берега"}, "shallow": {"flag": false, "b3_water_zone": 0.0223, "b3_ratio_to_scene_water": 0.92, "rule": "медиана B3 воды зоны ≥ 2× медианы воды снимка и ≥ 0,03, или B4 воды зоны ≥ 0,02 и (≥ 2× воды снимка или B8 ≥ 0,013) — мелководье, яркое дно, илистая банка"}, "seam": {"flag": false, "share": 0, "rule": "≥ 30 % пикселей — прямая линия вдоль трека/границы яркости (шов)"}, "cloud": {"flag": false, "cloud_fraction": 0.0, "rule": "облака или тени облаков (маска качества) ≥ 20 % зоны"}, "diag": {"dist_land_m": null, "dist_bright_m": 10, "n_bright_px_500m": 13, "b11_bright_max_500m": 0.0571, "b4_water_zone": 0.0152, "b8_water_zone": 0.0159, "b11_det_median": 0.0245, "b8_det_median": 0.0589, "water_scene_b3": 0.0243, "water_scene_b4": 0.0164, "n_det_px": 5, "n_obj": 3}, "note": "эвристики, не классификатор; на размеченных данных не проверены"}, "n_cozar_filaments": 0}, "field_nearby": {"items": [{"source": "ADIS (4TU.ResearchData, судовая камера)", "segment_id": 338026, "ship": "R/V Akademik Mstislav Keldysh", "date": "2022-03-31", "days_from_scene": -1612, "distance_km": 445.8, "lon": -7.91336, "lat": 58.80967, "n_items": 0, "area_km2": 0.6996, "size_class": "> 5 см", "c_items_km2": 0.0, "ci95_lo": 0.0, "ci95_hi": 5.27, "ci95_method": "точный интервал Пуассона для N, делённый на A", "raw_10cm_items_km2": 0.0, "authors_cal_10cm_items_km2": 0.0, "authors_cal_10cm_lo95": null, "authors_cal_10cm_hi95": null}, {"source": "ADIS (4TU.ResearchData, судовая камера)", "segment_id": 338025, "ship": "R/V Akademik Mstislav Keldysh", "date": "2022-03-31", "days_from_scene": -1612, "distance_km": 446.3, "lon": -8.02644, "lat": 58.74178, "n_items": 0, "area_km2": 0.7, "size_class": "> 5 см", "c_items_km2": 0.0, "ci95_lo": 0.0, "ci95_hi": 5.27, "ci95_method": "точный интервал Пуассона для N, делённый на A", "raw_10cm_items_km2": 0.0, "authors_cal_10cm_items_km2": 0.0, "authors_cal_10cm_lo95": null, "authors_cal_10cm_hi95": null}, {"source": "ADIS (4TU.ResearchData, судовая камера)", "segment_id": 338475, "ship": "R/V Akademik Mstislav Keldysh", "date": "2022-03-31", "days_from_scene": -1612, "distance_km": 447.1, "lon": -8.13141, "lat": 58.679, "n_items": 0, "area_km2": 0.9498, "size_class": "> 5 см", "c_items_km2": 0.0, "ci95_lo": 0.0, "ci95_hi": 3.88, "ci95_method": "точный интервал Пуассона для N, делённый на A", "raw_10cm_items_km2": 0.0, "authors_cal_10cm_items_km2": 0.0, "authors_cal_10cm_lo95": null, "authors_cal_10cm_hi95": null}], "nearest_organizer_sample": {"sample_id": "MPL-0092", "source_id": "S3_SE_NORTH_SEA", "distance_km": 365.8}, "note": "Измерение ≠ оценка: это независимые полевые счёты C = N/A в другое время и в другом месте; со сценой они не связаны и не калибруют её. Ближайший отрезок ADIS — за 446 км: только для порядка величин."}, "acquired_at": "2026-08-29T11:33:21.025000Z", "acquisition_date": "2026-08-29", "processed_at": "2026-09-26T19:36:35Z", "human_checked": false, "auto_label": "автоматически, не проверено человеком"}}, {"type": "Feature", "id": "SZ-fresh-scotland-2026-08-29-007", "geometry": {"type": "Polygon", "coordinates": [[[-2.270723, 56.215106], [-2.272668, 56.214579], [-2.27317, 56.213593], [-2.272223, 56.212509], [-2.270294, 56.212229], [-2.268349, 56.212756], [-2.267847, 56.213742], [-2.268793, 56.214825], [-2.270723, 56.215106]]]}, "properties": {"kind": "detection_zone", "layer_kind": "scene_zone", "zone_id": "SZ-fresh-scotland-2026-08-29-007", "scene_key": "fresh-scotland-2026-08-29", "scene_kind": "fresh_s2", "scene_id": "S2C_MSIL2A_20260829T113321_R080_T30VWH_20260829T150118", "region": "scotland", "title": "Шотландия (Ферт-оф-Форт) · зона 7", "mission": "Sentinel-2", "datetime": "2026-08-29T11:33:21.025000Z", "detection_status": "insufficient_data", "status": "insufficient_data", "concentration_status": "unavailable", "quantity": {"status": "not_confirmed", "label": "концентрация по снимку не подтверждена", "detail": "перевод площади в штуки не показываем: нет калибровочных пар (см. docs/QUANTITY.md)"}, "verification": "false_alarm_signs", "training_scene": null, "flags": ["ship"], "n_cozar_filaments": 0, "crop_file": "crops/SZ-fresh-scotland-2026-08-29-007.jpg", "wind_high": false, "measured": {"zone_area_km2": 0.0772, "suspicious_area_m2": 600, "n_pixels": 6, "n_objects": 1, "water_km2": 0.0804, "lwd_m2_km2": 7462.7, "lwd_note": null, "quality": {"valid_water_fraction": 1.0, "cloud_fraction": 0.0, "glint_fraction": 0.0}, "model": {"weights": "weights/lgbm", "file": "weights/lgbm/model.txt", "sha256": "0eeebf43fcccd8c7c07f053b7ec723229d1a3c9b92d12eec1bdb269258c51470", "sha256_short": "0eeebf43fccc", "trained_at": "2026-09-25T01:36:30Z", "threshold": 0.63, "harmonize": "none", "class": "MARIDA Marine Debris (любой плавающий мусор, не только пластик)"}}, "probable": {"prob_max": 0.976, "prob_mean": 0.946, "signs": {"foam": {"flag": false, "white_ratio_b2_b8": 0.647, "wind10m_ms": 1.89, "rule": "прирост B2 над водой ≥ 0.8 прироста B8 («белый» спектр) или ветер ≥ 7.0 м/с"}, "glint": {"flag": false, "b11_water_median": 0.0084, "glint_share": 0.0, "rule": "медиана B11 воды зоны > 0.01 или ≥ 20 % пикселей зоны — блик (маска качества)"}, "ship": {"flag": true, "share": 1.0, "bright_target_px_within_500m": 17, "rule": "≥ 30 % пикселей — у яркой цели или кильватера (reports/artifacts.md) или яркая цель с откликом в SWIR (судно, лодка: B11 ≥ 0,015) ближе 500 м, или малый яркий объект (≤ 40 пикс.) с B11 ≥ 0,01 ближе 500 м (лодка с кильватером)"}, "coast": {"flag": false, "land_px_within_300m": 0, "rule": "суша (маска качества) ближе 300 м — прибой, кромка берега"}, "shallow": {"flag": false, "b3_water_zone": 0.0152, "b3_ratio_to_scene_water": 0.63, "rule": "медиана B3 воды зоны ≥ 2× медианы воды снимка и ≥ 0,03, или B4 воды зоны ≥ 0,02 и (≥ 2× воды снимка или B8 ≥ 0,013) — мелководье, яркое дно, илистая банка"}, "seam": {"flag": false, "share": 0, "rule": "≥ 30 % пикселей — прямая линия вдоль трека/границы яркости (шов)"}, "cloud": {"flag": false, "cloud_fraction": 0.0, "rule": "облака или тени облаков (маска качества) ≥ 20 % зоны"}, "diag": {"dist_land_m": null, "dist_bright_m": 10, "n_bright_px_500m": 11, "b11_bright_max_500m": 0.0659, "b4_water_zone": 0.0091, "b8_water_zone": 0.009, "b11_det_median": 0.0617, "b8_det_median": 0.1553, "water_scene_b3": 0.0243, "water_scene_b4": 0.0164, "n_det_px": 6, "n_obj": 1}, "note": "эвристики, не классификатор; на размеченных данных не проверены"}, "n_cozar_filaments": 0}, "field_nearby": {"items": [{"source": "ADIS (4TU.ResearchData, судовая камера)", "segment_id": 338026, "ship": "R/V Akademik Mstislav Keldysh", "date": "2022-03-31", "days_from_scene": -1612, "distance_km": 445.8, "lon": -7.91336, "lat": 58.80967, "n_items": 0, "area_km2": 0.6996, "size_class": "> 5 см", "c_items_km2": 0.0, "ci95_lo": 0.0, "ci95_hi": 5.27, "ci95_method": "точный интервал Пуассона для N, делённый на A", "raw_10cm_items_km2": 0.0, "authors_cal_10cm_items_km2": 0.0, "authors_cal_10cm_lo95": null, "authors_cal_10cm_hi95": null}, {"source": "ADIS (4TU.ResearchData, судовая камера)", "segment_id": 338025, "ship": "R/V Akademik Mstislav Keldysh", "date": "2022-03-31", "days_from_scene": -1612, "distance_km": 446.3, "lon": -8.02644, "lat": 58.74178, "n_items": 0, "area_km2": 0.7, "size_class": "> 5 см", "c_items_km2": 0.0, "ci95_lo": 0.0, "ci95_hi": 5.27, "ci95_method": "точный интервал Пуассона для N, делённый на A", "raw_10cm_items_km2": 0.0, "authors_cal_10cm_items_km2": 0.0, "authors_cal_10cm_lo95": null, "authors_cal_10cm_hi95": null}, {"source": "ADIS (4TU.ResearchData, судовая камера)", "segment_id": 338475, "ship": "R/V Akademik Mstislav Keldysh", "date": "2022-03-31", "days_from_scene": -1612, "distance_km": 447.1, "lon": -8.13141, "lat": 58.679, "n_items": 0, "area_km2": 0.9498, "size_class": "> 5 см", "c_items_km2": 0.0, "ci95_lo": 0.0, "ci95_hi": 3.88, "ci95_method": "точный интервал Пуассона для N, делённый на A", "raw_10cm_items_km2": 0.0, "authors_cal_10cm_items_km2": 0.0, "authors_cal_10cm_lo95": null, "authors_cal_10cm_hi95": null}], "nearest_organizer_sample": {"sample_id": "MPL-0092", "source_id": "S3_SE_NORTH_SEA", "distance_km": 365.8}, "note": "Измерение ≠ оценка: это независимые полевые счёты C = N/A в другое время и в другом месте; со сценой они не связаны и не калибруют её. Ближайший отрезок ADIS — за 446 км: только для порядка величин."}, "acquired_at": "2026-08-29T11:33:21.025000Z", "acquisition_date": "2026-08-29", "processed_at": "2026-09-26T19:36:35Z", "human_checked": false, "auto_label": "автоматически, не проверено человеком"}}]}