{"type": "FeatureCollection", "features": [{"type": "Feature", "id": "D-SZ-fresh-honduras-2026-09-02-001-1", "geometry": {"type": "Polygon", "coordinates": [[[-88.1329088, 15.864183], [-88.1329083, 15.8640926], [-88.1328149, 15.8640931], [-88.1328154, 15.8641835], [-88.1329088, 15.864183]]]}, "properties": {"kind": "detection", "det_id": "D-SZ-fresh-honduras-2026-09-02-001-1", "zone_id": "SZ-fresh-honduras-2026-09-02-001", "scene_id": "S2C_MSIL2A_20260902T160821_R140_T16PCC_20260902T211613", "datetime": "2026-09-02T16:08:21.024000Z", "n_pixels": 1, "area_m2": 100, "prob_max": 0.7333, "prob_mean": 0.7333, "threshold": 0.63, "in_strip": true, "artifact": null}}, {"type": "Feature", "id": "D-SZ-fresh-honduras-2026-09-02-001-2", "geometry": {"type": "Polygon", "coordinates": [[[-88.1329078, 15.8640022], [-88.1329073, 15.8639118], [-88.1328139, 15.8639123], [-88.1328144, 15.8640027], [-88.1329078, 15.8640022]]]}, "properties": {"kind": "detection", "det_id": "D-SZ-fresh-honduras-2026-09-02-001-2", "zone_id": "SZ-fresh-honduras-2026-09-02-001", "scene_id": "S2C_MSIL2A_20260902T160821_R140_T16PCC_20260902T211613", "datetime": "2026-09-02T16:08:21.024000Z", "n_pixels": 1, "area_m2": 100, "prob_max": 0.7294, "prob_mean": 0.7294, "threshold": 0.63, "in_strip": true, "artifact": null}}, {"type": "Feature", "id": "D-SZ-fresh-honduras-2026-09-02-001-3", "geometry": {"type": "Polygon", "coordinates": [[[-88.1308528, 15.8639226], [-88.1308518, 15.8637418], [-88.1307584, 15.8637423], [-88.1307589, 15.8638327], [-88.1306655, 15.8638332], [-88.130666, 15.8639235], [-88.1308528, 15.8639226]]]}, "properties": {"kind": "detection", "det_id": "D-SZ-fresh-honduras-2026-09-02-001-3", "zone_id": "SZ-fresh-honduras-2026-09-02-001", "scene_id": "S2C_MSIL2A_20260902T160821_R140_T16PCC_20260902T211613", "datetime": "2026-09-02T16:08:21.024000Z", "n_pixels": 3, "area_m2": 300, "prob_max": 0.9529, "prob_mean": 0.8745, "threshold": 0.63, "in_strip": true, "artifact": null}}, {"type": "Feature", "id": "D-SZ-fresh-honduras-2026-09-02-001-4", "geometry": {"type": "Polygon", "coordinates": [[[-88.1300058, 15.8627519], [-88.1300053, 15.8626615], [-88.1299119, 15.862662], [-88.1299124, 15.8627524], [-88.1300058, 15.8627519]]]}, "properties": {"kind": "detection", "det_id": "D-SZ-fresh-honduras-2026-09-02-001-4", "zone_id": "SZ-fresh-honduras-2026-09-02-001", "scene_id": "S2C_MSIL2A_20260902T160821_R140_T16PCC_20260902T211613", "datetime": "2026-09-02T16:08:21.024000Z", "n_pixels": 1, "area_m2": 100, "prob_max": 0.851, "prob_mean": 0.851, "threshold": 0.63, "in_strip": true, "artifact": null}}, {"type": "Feature", "id": "D-SZ-fresh-honduras-2026-09-02-002-7", "geometry": {"type": "Polygon", "coordinates": [[[-88.1912695, 15.7995129], [-88.191269, 15.7994226], [-88.1910823, 15.7994236], [-88.1910828, 15.799514], [-88.1912695, 15.7995129]]]}, "properties": {"kind": "detection", "det_id": "D-SZ-fresh-honduras-2026-09-02-002-7", "zone_id": "SZ-fresh-honduras-2026-09-02-002", "scene_id": "S2C_MSIL2A_20260902T160821_R140_T16PCC_20260902T211613", "datetime": "2026-09-02T16:08:21.024000Z", "n_pixels": 2, "area_m2": 200, "prob_max": 1.0, "prob_mean": 0.998, "threshold": 0.63, "in_strip": true, "artifact": null}}, {"type": "Feature", "id": "D-SZ-fresh-honduras-2026-09-02-002-8", "geometry": {"type": "Polygon", "coordinates": [[[-88.1901451, 15.798796], [-88.190144, 15.7986152], [-88.1899573, 15.7986162], [-88.1899579, 15.7987066], [-88.1900512, 15.7987061], [-88.1900517, 15.7987965], [-88.1901451, 15.798796]]]}, "properties": {"kind": "detection", "det_id": "D-SZ-fresh-honduras-2026-09-02-002-8", "zone_id": "SZ-fresh-honduras-2026-09-02-002", "scene_id": "S2C_MSIL2A_20260902T160821_R140_T16PCC_20260902T211613", "datetime": "2026-09-02T16:08:21.024000Z", "n_pixels": 3, "area_m2": 300, "prob_max": 1.0, "prob_mean": 0.9333, "threshold": 0.63, "in_strip": true, "artifact": null}}, {"type": "Feature", "id": "D-SZ-fresh-honduras-2026-09-02-002-9", "geometry": {"type": "Polygon", "coordinates": [[[-88.1885555, 15.7983527], [-88.1885549, 15.7982624], [-88.1883682, 15.7982634], [-88.1883688, 15.7983538], [-88.1885555, 15.7983527]]]}, "properties": {"kind": "detection", "det_id": "D-SZ-fresh-honduras-2026-09-02-002-9", "zone_id": "SZ-fresh-honduras-2026-09-02-002", "scene_id": "S2C_MSIL2A_20260902T160821_R140_T16PCC_20260902T211613", "datetime": "2026-09-02T16:08:21.024000Z", "n_pixels": 2, "area_m2": 200, "prob_max": 0.9333, "prob_mean": 0.9255, "threshold": 0.63, "in_strip": true, "artifact": null}}, {"type": "Feature", "id": "D-SZ-fresh-honduras-2026-09-02-002-10", "geometry": {"type": "Polygon", "coordinates": [[[-88.1882754, 15.7983543], [-88.1882749, 15.7982639], [-88.1881815, 15.7982644], [-88.1881821, 15.7983548], [-88.1882754, 15.7983543]]]}, "properties": {"kind": "detection", "det_id": "D-SZ-fresh-honduras-2026-09-02-002-10", "zone_id": "SZ-fresh-honduras-2026-09-02-002", "scene_id": "S2C_MSIL2A_20260902T160821_R140_T16PCC_20260902T211613", "datetime": "2026-09-02T16:08:21.024000Z", "n_pixels": 1, "area_m2": 100, "prob_max": 0.6863, "prob_mean": 0.6863, "threshold": 0.63, "in_strip": true, "artifact": null}}, {"type": "Feature", "id": "D-SZ-fresh-honduras-2026-09-02-002-11", "geometry": {"type": "Polygon", "coordinates": [[[-88.1880887, 15.7983553], [-88.1880882, 15.7982649], [-88.1879948, 15.7982654], [-88.1879943, 15.798175], [-88.1879009, 15.7981755], [-88.187902, 15.7983563], [-88.1880887, 15.7983553]]]}, "properties": {"kind": "detection", "det_id": "D-SZ-fresh-honduras-2026-09-02-002-11", "zone_id": "SZ-fresh-honduras-2026-09-02-002", "scene_id": "S2C_MSIL2A_20260902T160821_R140_T16PCC_20260902T211613", "datetime": "2026-09-02T16:08:21.024000Z", "n_pixels": 3, "area_m2": 300, "prob_max": 0.9843, "prob_mean": 0.8627, "threshold": 0.63, "in_strip": true, "artifact": null}}, {"type": "Feature", "id": "D-SZ-fresh-honduras-2026-09-02-002-12", "geometry": {"type": "Polygon", "coordinates": [[[-88.1874342, 15.7981781], [-88.1874337, 15.7980877], [-88.187247, 15.7980887], [-88.1872464, 15.7979983], [-88.1871531, 15.7979989], [-88.1871536, 15.7980892], [-88.187247, 15.7980887], [-88.1872475, 15.7981791], [-88.1874342, 15.7981781]]]}, "properties": {"kind": "detection", "det_id": "D-SZ-fresh-honduras-2026-09-02-002-12", "zone_id": "SZ-fresh-honduras-2026-09-02-002", "scene_id": "S2C_MSIL2A_20260902T160821_R140_T16PCC_20260902T211613", "datetime": "2026-09-02T16:08:21.024000Z", "n_pixels": 3, "area_m2": 300, "prob_max": 0.9961, "prob_mean": 0.9098, "threshold": 0.63, "in_strip": true, "artifact": null}}, {"type": "Feature", "id": "D-SZ-fresh-honduras-2026-09-02-002-13", "geometry": {"type": "Polygon", "coordinates": [[[-88.1868725, 15.79791], [-88.186872, 15.7978196], [-88.1867786, 15.7978201], [-88.1867791, 15.7979105], [-88.1868725, 15.79791]]]}, "properties": {"kind": "detection", "det_id": "D-SZ-fresh-honduras-2026-09-02-002-13", "zone_id": "SZ-fresh-honduras-2026-09-02-002", "scene_id": "S2C_MSIL2A_20260902T160821_R140_T16PCC_20260902T211613", "datetime": "2026-09-02T16:08:21.024000Z", "n_pixels": 1, "area_m2": 100, "prob_max": 0.9412, "prob_mean": 0.9412, "threshold": 0.63, "in_strip": true, "artifact": null}}, {"type": "Feature", "id": "D-SZ-fresh-honduras-2026-09-02-002-14", "geometry": {"type": "Polygon", "coordinates": [[[-88.1864047, 15.7977318], [-88.1864042, 15.7976414], [-88.1863108, 15.7976419], [-88.1863113, 15.7977323], [-88.1864047, 15.7977318]]]}, "properties": {"kind": "detection", "det_id": "D-SZ-fresh-honduras-2026-09-02-002-14", "zone_id": "SZ-fresh-honduras-2026-09-02-002", "scene_id": "S2C_MSIL2A_20260902T160821_R140_T16PCC_20260902T211613", "datetime": "2026-09-02T16:08:21.024000Z", "n_pixels": 1, "area_m2": 100, "prob_max": 0.9882, "prob_mean": 0.9882, "threshold": 0.63, "in_strip": true, "artifact": null}}, {"type": "Feature", "id": "D-SZ-fresh-honduras-2026-09-02-002-15", "geometry": {"type": "Polygon", "coordinates": [[[-88.186218, 15.7977328], [-88.1862174, 15.7976424], [-88.1861241, 15.7976429], [-88.1861236, 15.7975525], [-88.1859369, 15.7975535], [-88.1859374, 15.7976439], [-88.1860307, 15.7976434], [-88.1860313, 15.7977338], [-88.186218, 15.7977328]]]}, "properties": {"kind": "detection", "det_id": "D-SZ-fresh-honduras-2026-09-02-002-15", "zone_id": "SZ-fresh-honduras-2026-09-02-002", "scene_id": "S2C_MSIL2A_20260902T160821_R140_T16PCC_20260902T211613", "datetime": "2026-09-02T16:08:21.024000Z", "n_pixels": 4, "area_m2": 400, "prob_max": 0.9882, "prob_mean": 0.9843, "threshold": 0.63, "in_strip": true, "artifact": null}}, {"type": "Feature", "id": "D-SZ-fresh-honduras-2026-09-02-002-16", "geometry": {"type": "Polygon", "coordinates": [[[-88.1856573, 15.7976455], [-88.1856568, 15.7975551], [-88.1855635, 15.7975556], [-88.185564, 15.797646], [-88.1856573, 15.7976455]]]}, "properties": {"kind": "detection", "det_id": "D-SZ-fresh-honduras-2026-09-02-002-16", "zone_id": "SZ-fresh-honduras-2026-09-02-002", "scene_id": "S2C_MSIL2A_20260902T160821_R140_T16PCC_20260902T211613", "datetime": "2026-09-02T16:08:21.024000Z", "n_pixels": 1, "area_m2": 100, "prob_max": 0.6706, "prob_mean": 0.6706, "threshold": 0.63, "in_strip": true, "artifact": null}}, {"type": "Feature", "id": "D-SZ-fresh-honduras-2026-09-02-002-17", "geometry": {"type": "Polygon", "coordinates": [[[-88.1845355, 15.7973804], [-88.184535, 15.79729], [-88.1843483, 15.797291], [-88.1843488, 15.7973814], [-88.1845355, 15.7973804]]]}, "properties": {"kind": "detection", "det_id": "D-SZ-fresh-honduras-2026-09-02-002-17", "zone_id": "SZ-fresh-honduras-2026-09-02-002", "scene_id": "S2C_MSIL2A_20260902T160821_R140_T16PCC_20260902T211613", "datetime": "2026-09-02T16:08:21.024000Z", "n_pixels": 2, "area_m2": 200, "prob_max": 0.9922, "prob_mean": 0.9863, "threshold": 0.63, "in_strip": true, "artifact": null}}, {"type": "Feature", "id": "D-SZ-fresh-honduras-2026-09-02-003-18", "geometry": {"type": "Polygon", "coordinates": [[[-88.1808634, 15.791977], [-88.1808629, 15.7918866], [-88.1807695, 15.7918872], [-88.180768, 15.791616], [-88.1806746, 15.7916165], [-88.1806741, 15.7915261], [-88.1805807, 15.7915266], [-88.1805823, 15.7917978], [-88.1806756, 15.7917973], [-88.1806762, 15.7918877], [-88.1807695, 15.7918872], [-88.18077, 15.7919775], [-88.1808634, 15.791977]]]}, "properties": {"kind": "detection", "det_id": "D-SZ-fresh-honduras-2026-09-02-003-18", "zone_id": "SZ-fresh-honduras-2026-09-02-003", "scene_id": "S2C_MSIL2A_20260902T160821_R140_T16PCC_20260902T211613", "datetime": "2026-09-02T16:08:21.024000Z", "n_pixels": 7, "area_m2": 700, "prob_max": 1.0, "prob_mean": 0.9283, "threshold": 0.63, "in_strip": true, "artifact": null}}, {"type": "Feature", "id": "D-SZ-fresh-honduras-2026-09-02-004-20", "geometry": {"type": "Polygon", "coordinates": [[[-88.1789426, 15.7826773], [-88.1789421, 15.782587], [-88.1790354, 15.7825864], [-88.1790344, 15.7824057], [-88.1791277, 15.7824052], [-88.1791272, 15.7823148], [-88.1792205, 15.7823143], [-88.1792195, 15.7821335], [-88.1791261, 15.782134], [-88.1791267, 15.7822244], [-88.1790333, 15.7822249], [-88.1790338, 15.7823153], [-88.1789405, 15.7823158], [-88.178941, 15.7824062], [-88.1788477, 15.7824067], [-88.1788492, 15.7826778], [-88.1789426, 15.7826773]]]}, "properties": {"kind": "detection", "det_id": "D-SZ-fresh-honduras-2026-09-02-004-20", "zone_id": "SZ-fresh-honduras-2026-09-02-004", "scene_id": "S2C_MSIL2A_20260902T160821_R140_T16PCC_20260902T211613", "datetime": "2026-09-02T16:08:21.024000Z", "n_pixels": 10, "area_m2": 1000, "prob_max": 1.0, "prob_mean": 0.9467, "threshold": 0.63, "in_strip": true, "artifact": "ship"}}, {"type": "Feature", "id": "D-SZ-fresh-honduras-2026-09-02-004-21", "geometry": {"type": "Polygon", "coordinates": [[[-88.1791188, 15.7808686], [-88.1791183, 15.7807782], [-88.1790249, 15.7807787], [-88.1790255, 15.7808691], [-88.1791188, 15.7808686]]]}, "properties": {"kind": "detection", "det_id": "D-SZ-fresh-honduras-2026-09-02-004-21", "zone_id": "SZ-fresh-honduras-2026-09-02-004", "scene_id": "S2C_MSIL2A_20260902T160821_R140_T16PCC_20260902T211613", "datetime": "2026-09-02T16:08:21.024000Z", "n_pixels": 1, "area_m2": 100, "prob_max": 0.9412, "prob_mean": 0.9412, "threshold": 0.63, "in_strip": true, "artifact": null}}, {"type": "Feature", "id": "D-SZ-fresh-honduras-2026-09-02-004-22", "geometry": {"type": "Polygon", "coordinates": [[[-88.1795814, 15.780143], [-88.1795808, 15.7800526], [-88.1796742, 15.7800521], [-88.1796726, 15.7797809], [-88.1795793, 15.7797814], [-88.1795782, 15.7796006], [-88.1794849, 15.7796012], [-88.179487, 15.7799627], [-88.1793936, 15.7799632], [-88.1793941, 15.7800536], [-88.1794875, 15.7800531], [-88.179488, 15.7801435], [-88.1795814, 15.780143]]]}, "properties": {"kind": "detection", "det_id": "D-SZ-fresh-honduras-2026-09-02-004-22", "zone_id": "SZ-fresh-honduras-2026-09-02-004", "scene_id": "S2C_MSIL2A_20260902T160821_R140_T16PCC_20260902T211613", "datetime": "2026-09-02T16:08:21.024000Z", "n_pixels": 10, "area_m2": 1000, "prob_max": 1.0, "prob_mean": 0.9039, "threshold": 0.63, "in_strip": true, "artifact": "ship"}}, {"type": "Feature", "id": "D-SZ-fresh-honduras-2026-09-02-004-23", "geometry": {"type": "Polygon", "coordinates": [[[-88.1787308, 15.7783398], [-88.1787292, 15.7780686], [-88.1785426, 15.7780696], [-88.1785436, 15.7782504], [-88.1786369, 15.7782499], [-88.1786375, 15.7783403], [-88.1787308, 15.7783398]]]}, "properties": {"kind": "detection", "det_id": "D-SZ-fresh-honduras-2026-09-02-004-23", "zone_id": "SZ-fresh-honduras-2026-09-02-004", "scene_id": "S2C_MSIL2A_20260902T160821_R140_T16PCC_20260902T211613", "datetime": "2026-09-02T16:08:21.024000Z", "n_pixels": 5, "area_m2": 500, "prob_max": 1.0, "prob_mean": 0.9827, "threshold": 0.63, "in_strip": true, "artifact": null}}, {"type": "Feature", "id": "D-SZ-fresh-honduras-2026-09-02-004-24", "geometry": {"type": "Polygon", "coordinates": [[[-88.1784471, 15.7777086], [-88.1784461, 15.7775278], [-88.1783527, 15.7775283], [-88.1783538, 15.7777091], [-88.1784471, 15.7777086]]]}, "properties": {"kind": "detection", "det_id": "D-SZ-fresh-honduras-2026-09-02-004-24", "zone_id": "SZ-fresh-honduras-2026-09-02-004", "scene_id": "S2C_MSIL2A_20260902T160821_R140_T16PCC_20260902T211613", "datetime": "2026-09-02T16:08:21.024000Z", "n_pixels": 2, "area_m2": 200, "prob_max": 1.0, "prob_mean": 0.998, "threshold": 0.63, "in_strip": true, "artifact": null}}, {"type": "Feature", "id": "D-SZ-fresh-honduras-2026-09-02-004-25", "geometry": {"type": "Polygon", "coordinates": [[[-88.1781556, 15.7757216], [-88.1781546, 15.7755408], [-88.1780612, 15.7755413], [-88.1780623, 15.7757221], [-88.1781556, 15.7757216]]]}, "properties": {"kind": "detection", "det_id": "D-SZ-fresh-honduras-2026-09-02-004-25", "zone_id": "SZ-fresh-honduras-2026-09-02-004", "scene_id": "S2C_MSIL2A_20260902T160821_R140_T16PCC_20260902T211613", "datetime": "2026-09-02T16:08:21.024000Z", "n_pixels": 2, "area_m2": 200, "prob_max": 0.9804, "prob_mean": 0.8529, "threshold": 0.63, "in_strip": true, "artifact": null}}, {"type": "Feature", "id": "D-SZ-fresh-honduras-2026-09-02-004-26", "geometry": {"type": "Polygon", "coordinates": [[[-88.1779663, 15.7752707], [-88.1779653, 15.7750899], [-88.1778719, 15.7750904], [-88.177873, 15.7752712], [-88.1779663, 15.7752707]]]}, "properties": {"kind": "detection", "det_id": "D-SZ-fresh-honduras-2026-09-02-004-26", "zone_id": "SZ-fresh-honduras-2026-09-02-004", "scene_id": "S2C_MSIL2A_20260902T160821_R140_T16PCC_20260902T211613", "datetime": "2026-09-02T16:08:21.024000Z", "n_pixels": 2, "area_m2": 200, "prob_max": 1.0, "prob_mean": 1.0, "threshold": 0.63, "in_strip": true, "artifact": null}}, {"type": "Feature", "id": "D-SZ-fresh-honduras-2026-09-02-004-27", "geometry": {"type": "Polygon", "coordinates": [[[-88.1779606, 15.7742764], [-88.1779595, 15.7740957], [-88.1777729, 15.7740967], [-88.1777734, 15.7741871], [-88.1778667, 15.7741865], [-88.1778672, 15.7742769], [-88.1779606, 15.7742764]]]}, "properties": {"kind": "detection", "det_id": "D-SZ-fresh-honduras-2026-09-02-004-27", "zone_id": "SZ-fresh-honduras-2026-09-02-004", "scene_id": "S2C_MSIL2A_20260902T160821_R140_T16PCC_20260902T211613", "datetime": "2026-09-02T16:08:21.024000Z", "n_pixels": 3, "area_m2": 300, "prob_max": 1.0, "prob_mean": 0.9987, "threshold": 0.63, "in_strip": true, "artifact": null}}, {"type": "Feature", "id": "D-SZ-fresh-honduras-2026-09-02-004-28", "geometry": {"type": "Polygon", "coordinates": [[[-88.1782349, 15.7732807], [-88.1782338, 15.7730999], [-88.1783272, 15.7730994], [-88.1783261, 15.7729186], [-88.1782328, 15.7729191], [-88.1782333, 15.7730095], [-88.17814, 15.77301], [-88.1781415, 15.7732812], [-88.1782349, 15.7732807]]]}, "properties": {"kind": "detection", "det_id": "D-SZ-fresh-honduras-2026-09-02-004-28", "zone_id": "SZ-fresh-honduras-2026-09-02-004", "scene_id": "S2C_MSIL2A_20260902T160821_R140_T16PCC_20260902T211613", "datetime": "2026-09-02T16:08:21.024000Z", "n_pixels": 5, "area_m2": 500, "prob_max": 1.0, "prob_mean": 0.9216, "threshold": 0.63, "in_strip": true, "artifact": null}}, {"type": "Feature", "id": "D-SZ-fresh-honduras-2026-09-02-004-29", "geometry": {"type": "Polygon", "coordinates": [[[-88.1781374, 15.7725581], [-88.1781363, 15.7723773], [-88.178043, 15.7723778], [-88.1780419, 15.772197], [-88.1779486, 15.7721975], [-88.1779481, 15.7721071], [-88.1778547, 15.7721077], [-88.1778542, 15.7720173], [-88.1777609, 15.7720178], [-88.1777624, 15.7722889], [-88.1778558, 15.7722884], [-88.1778563, 15.7723788], [-88.1779496, 15.7723783], [-88.1779501, 15.7724687], [-88.1780435, 15.7724682], [-88.178044, 15.7725586], [-88.1781374, 15.7725581]]]}, "properties": {"kind": "detection", "det_id": "D-SZ-fresh-honduras-2026-09-02-004-29", "zone_id": "SZ-fresh-honduras-2026-09-02-004", "scene_id": "S2C_MSIL2A_20260902T160821_R140_T16PCC_20260902T211613", "datetime": "2026-09-02T16:08:21.024000Z", "n_pixels": 11, "area_m2": 1100, "prob_max": 1.0, "prob_mean": 0.9889, "threshold": 0.63, "in_strip": true, "artifact": null}}, {"type": "Feature", "id": "D-SZ-fresh-honduras-2026-09-02-004-30", "geometry": {"type": "Polygon", "coordinates": [[[-88.1776628, 15.7712048], [-88.1776618, 15.771024], [-88.1775684, 15.7710245], [-88.1775674, 15.7708438], [-88.1774741, 15.7708443], [-88.1774756, 15.7711154], [-88.177569, 15.7711149], [-88.1775695, 15.7712053], [-88.1776628, 15.7712048]]]}, "properties": {"kind": "detection", "det_id": "D-SZ-fresh-honduras-2026-09-02-004-30", "zone_id": "SZ-fresh-honduras-2026-09-02-004", "scene_id": "S2C_MSIL2A_20260902T160821_R140_T16PCC_20260902T211613", "datetime": "2026-09-02T16:08:21.024000Z", "n_pixels": 5, "area_m2": 500, "prob_max": 1.0, "prob_mean": 0.9929, "threshold": 0.63, "in_strip": true, "artifact": null}}, {"type": "Feature", "id": "D-SZ-fresh-honduras-2026-09-02-005-31", "geometry": {"type": "Polygon", "coordinates": [[[-88.177728, 15.7663234], [-88.177727, 15.7661426], [-88.1776336, 15.7661431], [-88.1776347, 15.7663239], [-88.177728, 15.7663234]]]}, "properties": {"kind": "detection", "det_id": "D-SZ-fresh-honduras-2026-09-02-005-31", "zone_id": "SZ-fresh-honduras-2026-09-02-005", "scene_id": "S2C_MSIL2A_20260902T160821_R140_T16PCC_20260902T211613", "datetime": "2026-09-02T16:08:21.024000Z", "n_pixels": 2, "area_m2": 200, "prob_max": 0.9098, "prob_mean": 0.8725, "threshold": 0.63, "in_strip": true, "artifact": null}}, {"type": "Feature", "id": "D-SZ-fresh-honduras-2026-09-02-005-32", "geometry": {"type": "Polygon", "coordinates": [[[-88.1782786, 15.7646934], [-88.1782781, 15.764603], [-88.1781848, 15.7646035], [-88.1781853, 15.7646939], [-88.1782786, 15.7646934]]]}, "properties": {"kind": "detection", "det_id": "D-SZ-fresh-honduras-2026-09-02-005-32", "zone_id": "SZ-fresh-honduras-2026-09-02-005", "scene_id": "S2C_MSIL2A_20260902T160821_R140_T16PCC_20260902T211613", "datetime": "2026-09-02T16:08:21.024000Z", "n_pixels": 1, "area_m2": 100, "prob_max": 0.9961, "prob_mean": 0.9961, "threshold": 0.63, "in_strip": true, "artifact": null}}, {"type": "Feature", "id": "D-SZ-fresh-honduras-2026-09-02-005-33", "geometry": {"type": "Polygon", "coordinates": [[[-88.1784648, 15.764602], [-88.1784643, 15.7645116], [-88.1785576, 15.7645111], [-88.1785571, 15.7644207], [-88.1783704, 15.7644217], [-88.1783715, 15.7646025], [-88.1784648, 15.764602]]]}, "properties": {"kind": "detection", "det_id": "D-SZ-fresh-honduras-2026-09-02-005-33", "zone_id": "SZ-fresh-honduras-2026-09-02-005", "scene_id": "S2C_MSIL2A_20260902T160821_R140_T16PCC_20260902T211613", "datetime": "2026-09-02T16:08:21.024000Z", "n_pixels": 3, "area_m2": 300, "prob_max": 1.0, "prob_mean": 0.9464, "threshold": 0.63, "in_strip": true, "artifact": null}}, {"type": "Feature", "id": "D-SZ-fresh-honduras-2026-09-02-005-34", "geometry": {"type": "Polygon", "coordinates": [[[-88.1795734, 15.7626074], [-88.1795718, 15.7623363], [-88.1794784, 15.7623368], [-88.1794795, 15.7625176], [-88.1793862, 15.7625181], [-88.1793867, 15.7626084], [-88.1795734, 15.7626074]]]}, "properties": {"kind": "detection", "det_id": "D-SZ-fresh-honduras-2026-09-02-005-34", "zone_id": "SZ-fresh-honduras-2026-09-02-005", "scene_id": "S2C_MSIL2A_20260902T160821_R140_T16PCC_20260902T211613", "datetime": "2026-09-02T16:08:21.024000Z", "n_pixels": 4, "area_m2": 400, "prob_max": 1.0, "prob_mean": 0.9284, "threshold": 0.63, "in_strip": true, "artifact": "ship"}}, {"type": "Feature", "id": "D-SZ-fresh-honduras-2026-09-02-005-35", "geometry": {"type": "Polygon", "coordinates": [[[-88.179383, 15.7619757], [-88.1793825, 15.7618853], [-88.1792892, 15.7618859], [-88.1792897, 15.7619762], [-88.179383, 15.7619757]]]}, "properties": {"kind": "detection", "det_id": "D-SZ-fresh-honduras-2026-09-02-005-35", "zone_id": "SZ-fresh-honduras-2026-09-02-005", "scene_id": "S2C_MSIL2A_20260902T160821_R140_T16PCC_20260902T211613", "datetime": "2026-09-02T16:08:21.024000Z", "n_pixels": 1, "area_m2": 100, "prob_max": 0.9725, "prob_mean": 0.9725, "threshold": 0.63, "in_strip": true, "artifact": null}}, {"type": "Feature", "id": "D-SZ-fresh-honduras-2026-09-02-005-36", "geometry": {"type": "Polygon", "coordinates": [[[-88.179382, 15.761795], [-88.1793815, 15.7617046], [-88.1792881, 15.7617051], [-88.1792886, 15.7617955], [-88.179382, 15.761795]]]}, "properties": {"kind": "detection", "det_id": "D-SZ-fresh-honduras-2026-09-02-005-36", "zone_id": "SZ-fresh-honduras-2026-09-02-005", "scene_id": "S2C_MSIL2A_20260902T160821_R140_T16PCC_20260902T211613", "datetime": "2026-09-02T16:08:21.024000Z", "n_pixels": 1, "area_m2": 100, "prob_max": 0.6588, "prob_mean": 0.6588, "threshold": 0.63, "in_strip": true, "artifact": null}}, {"type": "Feature", "id": "D-SZ-fresh-honduras-2026-09-02-005-37", "geometry": {"type": "Polygon", "coordinates": [[[-88.1793809, 15.7616142], [-88.1793799, 15.7614334], [-88.1792866, 15.7614339], [-88.1792876, 15.7616147], [-88.1793809, 15.7616142]]]}, "properties": {"kind": "detection", "det_id": "D-SZ-fresh-honduras-2026-09-02-005-37", "zone_id": "SZ-fresh-honduras-2026-09-02-005", "scene_id": "S2C_MSIL2A_20260902T160821_R140_T16PCC_20260902T211613", "datetime": "2026-09-02T16:08:21.024000Z", "n_pixels": 2, "area_m2": 200, "prob_max": 1.0, "prob_mean": 1.0, "threshold": 0.63, "in_strip": true, "artifact": null}}, {"type": "Feature", "id": "D-SZ-fresh-honduras-2026-09-02-005-38", "geometry": {"type": "Polygon", "coordinates": [[[-88.1793789, 15.7612526], [-88.1793778, 15.7610719], [-88.1792845, 15.7610724], [-88.1792855, 15.7612531], [-88.1793789, 15.7612526]]]}, "properties": {"kind": "detection", "det_id": "D-SZ-fresh-honduras-2026-09-02-005-38", "zone_id": "SZ-fresh-honduras-2026-09-02-005", "scene_id": "S2C_MSIL2A_20260902T160821_R140_T16PCC_20260902T211613", "datetime": "2026-09-02T16:08:21.024000Z", "n_pixels": 2, "area_m2": 200, "prob_max": 0.9765, "prob_mean": 0.8824, "threshold": 0.63, "in_strip": true, "artifact": null}}, {"type": "Feature", "id": "D-SZ-fresh-honduras-2026-09-02-005-39", "geometry": {"type": "Polygon", "coordinates": [[[-88.17993, 15.759713], [-88.1799289, 15.7595323], [-88.1798356, 15.7595328], [-88.1798367, 15.7597135], [-88.17993, 15.759713]]]}, "properties": {"kind": "detection", "det_id": "D-SZ-fresh-honduras-2026-09-02-005-39", "zone_id": "SZ-fresh-honduras-2026-09-02-005", "scene_id": "S2C_MSIL2A_20260902T160821_R140_T16PCC_20260902T211613", "datetime": "2026-09-02T16:08:21.024000Z", "n_pixels": 2, "area_m2": 200, "prob_max": 0.749, "prob_mean": 0.7255, "threshold": 0.63, "in_strip": true, "artifact": null}}, {"type": "Feature", "id": "D-SZ-fresh-honduras-2026-09-02-005-40", "geometry": {"type": "Polygon", "coordinates": [[[-88.1801099, 15.758537], [-88.1801083, 15.7582658], [-88.180015, 15.7582663], [-88.1800165, 15.7585375], [-88.1801099, 15.758537]]]}, "properties": {"kind": "detection", "det_id": "D-SZ-fresh-honduras-2026-09-02-005-40", "zone_id": "SZ-fresh-honduras-2026-09-02-005", "scene_id": "S2C_MSIL2A_20260902T160821_R140_T16PCC_20260902T211613", "datetime": "2026-09-02T16:08:21.024000Z", "n_pixels": 3, "area_m2": 300, "prob_max": 1.0, "prob_mean": 0.9974, "threshold": 0.63, "in_strip": true, "artifact": null}}, {"type": "Feature", "id": "D-SZ-fresh-honduras-2026-09-02-005-41", "geometry": {"type": "Polygon", "coordinates": [[[-88.1805697, 15.7573594], [-88.1805687, 15.7571787], [-88.1804754, 15.7571792], [-88.1804759, 15.7572696], [-88.1803826, 15.7572701], [-88.1803831, 15.7573604], [-88.1805697, 15.7573594]]]}, "properties": {"kind": "detection", "det_id": "D-SZ-fresh-honduras-2026-09-02-005-41", "zone_id": "SZ-fresh-honduras-2026-09-02-005", "scene_id": "S2C_MSIL2A_20260902T160821_R140_T16PCC_20260902T211613", "datetime": "2026-09-02T16:08:21.024000Z", "n_pixels": 3, "area_m2": 300, "prob_max": 1.0, "prob_mean": 0.9974, "threshold": 0.63, "in_strip": true, "artifact": null}}, {"type": "Feature", "id": "D-SZ-fresh-honduras-2026-09-02-005-42", "geometry": {"type": "Polygon", "coordinates": [[[-88.1810249, 15.7553684], [-88.1810244, 15.755278], [-88.1809311, 15.7552785], [-88.1809316, 15.7553689], [-88.1810249, 15.7553684]]]}, "properties": {"kind": "detection", "det_id": "D-SZ-fresh-honduras-2026-09-02-005-42", "zone_id": "SZ-fresh-honduras-2026-09-02-005", "scene_id": "S2C_MSIL2A_20260902T160821_R140_T16PCC_20260902T211613", "datetime": "2026-09-02T16:08:21.024000Z", "n_pixels": 1, "area_m2": 100, "prob_max": 0.8863, "prob_mean": 0.8863, "threshold": 0.63, "in_strip": true, "artifact": null}}, {"type": "Feature", "id": "D-SZ-fresh-honduras-2026-09-02-005-43", "geometry": {"type": "Polygon", "coordinates": [[[-88.1817643, 15.7540989], [-88.1817632, 15.7539182], [-88.1816699, 15.7539187], [-88.1816709, 15.7540994], [-88.1817643, 15.7540989]]]}, "properties": {"kind": "detection", "det_id": "D-SZ-fresh-honduras-2026-09-02-005-43", "zone_id": "SZ-fresh-honduras-2026-09-02-005", "scene_id": "S2C_MSIL2A_20260902T160821_R140_T16PCC_20260902T211613", "datetime": "2026-09-02T16:08:21.024000Z", "n_pixels": 2, "area_m2": 200, "prob_max": 0.9412, "prob_mean": 0.9255, "threshold": 0.63, "in_strip": true, "artifact": null}}, {"type": "Feature", "id": "D-SZ-fresh-honduras-2026-09-02-005-44", "geometry": {"type": "Polygon", "coordinates": [[[-88.1839927, 15.7520983], [-88.1839922, 15.7520079], [-88.1838055, 15.7520089], [-88.183805, 15.7519185], [-88.1836183, 15.7519195], [-88.1836194, 15.7521003], [-88.1839927, 15.7520983]]]}, "properties": {"kind": "detection", "det_id": "D-SZ-fresh-honduras-2026-09-02-005-44", "zone_id": "SZ-fresh-honduras-2026-09-02-005", "scene_id": "S2C_MSIL2A_20260902T160821_R140_T16PCC_20260902T211613", "datetime": "2026-09-02T16:08:21.024000Z", "n_pixels": 6, "area_m2": 600, "prob_max": 1.0, "prob_mean": 0.9922, "threshold": 0.63, "in_strip": true, "artifact": null}}, {"type": "Feature", "id": "D-SZ-fresh-honduras-2026-09-02-005-45", "geometry": {"type": "Polygon", "coordinates": [[[-88.1844562, 15.7515534], [-88.1844557, 15.751463], [-88.1846424, 15.751462], [-88.1846413, 15.7512812], [-88.1844546, 15.7512822], [-88.1844552, 15.7513726], [-88.1843618, 15.7513731], [-88.1843629, 15.7515539], [-88.1844562, 15.7515534]]]}, "properties": {"kind": "detection", "det_id": "D-SZ-fresh-honduras-2026-09-02-005-45", "zone_id": "SZ-fresh-honduras-2026-09-02-005", "scene_id": "S2C_MSIL2A_20260902T160821_R140_T16PCC_20260902T211613", "datetime": "2026-09-02T16:08:21.024000Z", "n_pixels": 6, "area_m2": 600, "prob_max": 1.0, "prob_mean": 0.9353, "threshold": 0.63, "in_strip": true, "artifact": null}}, {"type": "Feature", "id": "D-SZ-fresh-honduras-2026-09-02-005-46", "geometry": {"type": "Polygon", "coordinates": [[[-88.1849197, 15.7510085], [-88.1849187, 15.7508278], [-88.1848254, 15.7508283], [-88.1848264, 15.7510091], [-88.1849197, 15.7510085]]]}, "properties": {"kind": "detection", "det_id": "D-SZ-fresh-honduras-2026-09-02-005-46", "zone_id": "SZ-fresh-honduras-2026-09-02-005", "scene_id": "S2C_MSIL2A_20260902T160821_R140_T16PCC_20260902T211613", "datetime": "2026-09-02T16:08:21.024000Z", "n_pixels": 2, "area_m2": 200, "prob_max": 1.0, "prob_mean": 0.9922, "threshold": 0.63, "in_strip": true, "artifact": null}}, {"type": "Feature", "id": "D-SZ-fresh-honduras-2026-09-02-005-47", "geometry": {"type": "Polygon", "coordinates": [[[-88.1863134, 15.7499163], [-88.1863129, 15.7498259], [-88.1861262, 15.7498269], [-88.1861267, 15.7499173], [-88.1863134, 15.7499163]]]}, "properties": {"kind": "detection", "det_id": "D-SZ-fresh-honduras-2026-09-02-005-47", "zone_id": "SZ-fresh-honduras-2026-09-02-005", "scene_id": "S2C_MSIL2A_20260902T160821_R140_T16PCC_20260902T211613", "datetime": "2026-09-02T16:08:21.024000Z", "n_pixels": 2, "area_m2": 200, "prob_max": 1.0, "prob_mean": 0.9961, "threshold": 0.63, "in_strip": true, "artifact": null}}, {"type": "Feature", "id": "D-SZ-fresh-honduras-2026-09-02-006-48", "geometry": {"type": "Polygon", "coordinates": [[[-88.1902227, 15.7480872], [-88.1902217, 15.7479064], [-88.1901283, 15.7479069], [-88.1901289, 15.7479973], [-88.1898489, 15.7479988], [-88.1898494, 15.7480892], [-88.1902227, 15.7480872]]]}, "properties": {"kind": "detection", "det_id": "D-SZ-fresh-honduras-2026-09-02-006-48", "zone_id": "SZ-fresh-honduras-2026-09-02-006", "scene_id": "S2C_MSIL2A_20260902T160821_R140_T16PCC_20260902T211613", "datetime": "2026-09-02T16:08:21.024000Z", "n_pixels": 5, "area_m2": 500, "prob_max": 1.0, "prob_mean": 0.9592, "threshold": 0.63, "in_strip": true, "artifact": "seam"}}, {"type": "Feature", "id": "D-SZ-fresh-honduras-2026-09-02-006-49", "geometry": {"type": "Polygon", "coordinates": [[[-88.1897561, 15.7480897], [-88.1897555, 15.7479993], [-88.1894756, 15.7480009], [-88.1894761, 15.7480913], [-88.1897561, 15.7480897]]]}, "properties": {"kind": "detection", "det_id": "D-SZ-fresh-honduras-2026-09-02-006-49", "zone_id": "SZ-fresh-honduras-2026-09-02-006", "scene_id": "S2C_MSIL2A_20260902T160821_R140_T16PCC_20260902T211613", "datetime": "2026-09-02T16:08:21.024000Z", "n_pixels": 3, "area_m2": 300, "prob_max": 0.8588, "prob_mean": 0.7556, "threshold": 0.63, "in_strip": true, "artifact": "seam"}}, {"type": "Feature", "id": "D-SZ-fresh-honduras-2026-09-02-006-50", "geometry": {"type": "Polygon", "coordinates": [[[-88.1907801, 15.7476322], [-88.1907795, 15.7475418], [-88.1906862, 15.7475423], [-88.1906867, 15.7476327], [-88.1907801, 15.7476322]]]}, "properties": {"kind": "detection", "det_id": "D-SZ-fresh-honduras-2026-09-02-006-50", "zone_id": "SZ-fresh-honduras-2026-09-02-006", "scene_id": "S2C_MSIL2A_20260902T160821_R140_T16PCC_20260902T211613", "datetime": "2026-09-02T16:08:21.024000Z", "n_pixels": 1, "area_m2": 100, "prob_max": 0.9765, "prob_mean": 0.9765, "threshold": 0.63, "in_strip": true, "artifact": null}}, {"type": "Feature", "id": "D-SZ-fresh-honduras-2026-09-02-006-51", "geometry": {"type": "Polygon", "coordinates": [[[-88.1917993, 15.7463612], [-88.1917982, 15.7461804], [-88.1917049, 15.7461809], [-88.1917054, 15.7462713], [-88.1916121, 15.7462718], [-88.1916126, 15.7463622], [-88.1917993, 15.7463612]]]}, "properties": {"kind": "detection", "det_id": "D-SZ-fresh-honduras-2026-09-02-006-51", "zone_id": "SZ-fresh-honduras-2026-09-02-006", "scene_id": "S2C_MSIL2A_20260902T160821_R140_T16PCC_20260902T211613", "datetime": "2026-09-02T16:08:21.024000Z", "n_pixels": 3, "area_m2": 300, "prob_max": 0.9961, "prob_mean": 0.9163, "threshold": 0.63, "in_strip": true, "artifact": null}}, {"type": "Feature", "id": "D-SZ-fresh-honduras-2026-09-02-006-52", "geometry": {"type": "Polygon", "coordinates": [[[-88.1921721, 15.7462687], [-88.1921716, 15.7461784], [-88.1919849, 15.7461794], [-88.1919854, 15.7462698], [-88.1921721, 15.7462687]]]}, "properties": {"kind": "detection", "det_id": "D-SZ-fresh-honduras-2026-09-02-006-52", "zone_id": "SZ-fresh-honduras-2026-09-02-006", "scene_id": "S2C_MSIL2A_20260902T160821_R140_T16PCC_20260902T211613", "datetime": "2026-09-02T16:08:21.024000Z", "n_pixels": 2, "area_m2": 200, "prob_max": 1.0, "prob_mean": 0.9961, "threshold": 0.63, "in_strip": true, "artifact": null}}, {"type": "Feature", "id": "D-SZ-fresh-honduras-2026-09-02-006-53", "geometry": {"type": "Polygon", "coordinates": [[[-88.1928238, 15.745994], [-88.1928233, 15.7459036], [-88.1929166, 15.7459031], [-88.1929161, 15.7458127], [-88.1927294, 15.7458137], [-88.1927299, 15.7459041], [-88.1926366, 15.7459046], [-88.1926371, 15.745995], [-88.1928238, 15.745994]]]}, "properties": {"kind": "detection", "det_id": "D-SZ-fresh-honduras-2026-09-02-006-53", "zone_id": "SZ-fresh-honduras-2026-09-02-006", "scene_id": "S2C_MSIL2A_20260902T160821_R140_T16PCC_20260902T211613", "datetime": "2026-09-02T16:08:21.024000Z", "n_pixels": 4, "area_m2": 400, "prob_max": 0.9882, "prob_mean": 0.8971, "threshold": 0.63, "in_strip": true, "artifact": null}}, {"type": "Feature", "id": "D-SZ-fresh-honduras-2026-09-02-006-54", "geometry": {"type": "Polygon", "coordinates": [[[-88.1930083, 15.7456314], [-88.1930073, 15.7454507], [-88.192914, 15.7454512], [-88.192915, 15.7456319], [-88.1930083, 15.7456314]]]}, "properties": {"kind": "detection", "det_id": "D-SZ-fresh-honduras-2026-09-02-006-54", "zone_id": "SZ-fresh-honduras-2026-09-02-006", "scene_id": "S2C_MSIL2A_20260902T160821_R140_T16PCC_20260902T211613", "datetime": "2026-09-02T16:08:21.024000Z", "n_pixels": 2, "area_m2": 200, "prob_max": 0.9216, "prob_mean": 0.9157, "threshold": 0.63, "in_strip": true, "artifact": null}}]}