{"type": "FeatureCollection", "features": [{"type": "Feature", "id": "D-SZ-fresh-bali-2026-08-16-001-4", "geometry": {"type": "Polygon", "coordinates": [[[115.2453852, -8.7233037], [115.2453848, -8.7233941], [115.2455665, -8.7233949], [115.2455669, -8.7233045], [115.2453852, -8.7233037]]]}, "properties": {"kind": "detection", "det_id": "D-SZ-fresh-bali-2026-08-16-001-4", "zone_id": "SZ-fresh-bali-2026-08-16-001", "scene_id": "S2A_MSIL2A_20260816T022131_R003_T50LLR_20260816T070912", "datetime": "2026-08-16T02:21:31.024000Z", "n_pixels": 2, "area_m2": 200, "prob_max": 0.9725, "prob_mean": 0.8961, "threshold": 0.63, "in_strip": true, "artifact": null}}, {"type": "Feature", "id": "D-SZ-fresh-bali-2026-08-16-001-5", "geometry": {"type": "Polygon", "coordinates": [[[115.24493, -8.7234824], [115.2449296, -8.7235728], [115.2450205, -8.7235732], [115.2450209, -8.7234828], [115.24493, -8.7234824]]]}, "properties": {"kind": "detection", "det_id": "D-SZ-fresh-bali-2026-08-16-001-5", "zone_id": "SZ-fresh-bali-2026-08-16-001", "scene_id": "S2A_MSIL2A_20260816T022131_R003_T50LLR_20260816T070912", "datetime": "2026-08-16T02:21:31.024000Z", "n_pixels": 1, "area_m2": 100, "prob_max": 0.8, "prob_mean": 0.8, "threshold": 0.63, "in_strip": true, "artifact": null}}, {"type": "Feature", "id": "D-SZ-fresh-bali-2026-08-16-001-6", "geometry": {"type": "Polygon", "coordinates": [[[115.2458349, -8.7243003], [115.2458345, -8.7243907], [115.2460162, -8.7243915], [115.2460166, -8.7243011], [115.2458349, -8.7243003]]]}, "properties": {"kind": "detection", "det_id": "D-SZ-fresh-bali-2026-08-16-001-6", "zone_id": "SZ-fresh-bali-2026-08-16-001", "scene_id": "S2A_MSIL2A_20260816T022131_R003_T50LLR_20260816T070912", "datetime": "2026-08-16T02:21:31.024000Z", "n_pixels": 2, "area_m2": 200, "prob_max": 0.8745, "prob_mean": 0.8216, "threshold": 0.63, "in_strip": true, "artifact": null}}, {"type": "Feature", "id": "D-SZ-fresh-bali-2026-08-16-001-7", "geometry": {"type": "Polygon", "coordinates": [[[115.2466527, -8.7243041], [115.2466523, -8.7243945], [115.2468341, -8.7243953], [115.2468345, -8.7243049], [115.2466527, -8.7243041]]]}, "properties": {"kind": "detection", "det_id": "D-SZ-fresh-bali-2026-08-16-001-7", "zone_id": "SZ-fresh-bali-2026-08-16-001", "scene_id": "S2A_MSIL2A_20260816T022131_R003_T50LLR_20260816T070912", "datetime": "2026-08-16T02:21:31.024000Z", "n_pixels": 2, "area_m2": 200, "prob_max": 0.9961, "prob_mean": 0.9392, "threshold": 0.63, "in_strip": true, "artifact": null}}, {"type": "Feature", "id": "D-SZ-fresh-bali-2026-08-16-001-8", "geometry": {"type": "Polygon", "coordinates": [[[115.2471925, -8.7254819], [115.247192, -8.7255723], [115.2472829, -8.7255727], [115.2472833, -8.7254823], [115.2471925, -8.7254819]]]}, "properties": {"kind": "detection", "det_id": "D-SZ-fresh-bali-2026-08-16-001-8", "zone_id": "SZ-fresh-bali-2026-08-16-001", "scene_id": "S2A_MSIL2A_20260816T022131_R003_T50LLR_20260816T070912", "datetime": "2026-08-16T02:21:31.024000Z", "n_pixels": 1, "area_m2": 100, "prob_max": 0.7765, "prob_mean": 0.7765, "threshold": 0.63, "in_strip": true, "artifact": null}}]}