{"type": "FeatureCollection", "features": [{"type": "Feature", "id": "SZ-fresh-bali-2026-08-16-001", "geometry": {"type": "Polygon", "coordinates": [[[115.245392, -8.721948], [115.244482, -8.722215], [115.243843, -8.722664], [115.243567, -8.723476], [115.243835, -8.724381], [115.244651, -8.724837], [115.245012, -8.725472], [115.245829, -8.725656], [115.246369, -8.726653], [115.247186, -8.726928], [115.248096, -8.726661], [115.248553, -8.726031], [115.248646, -8.725489], [115.248378, -8.724674], [115.248106, -8.724492], [115.247929, -8.723496], [115.247295, -8.723041], [115.24684, -8.723039], [115.24639, -8.722223], [115.245392, -8.721948]]]}, "properties": {"kind": "detection_zone", "layer_kind": "scene_zone", "zone_id": "SZ-fresh-bali-2026-08-16-001", "scene_key": "fresh-bali-2026-08-16", "scene_kind": "fresh_s2", "scene_id": "S2A_MSIL2A_20260816T022131_R003_T50LLR_20260816T070912", "region": "bali", "title": "Бали (пролив Бадунг) · зона 1", "mission": "Sentinel-2", "datetime": "2026-08-16T02:21:31.024000Z", "detection_status": "insufficient_data", "status": "insufficient_data", "concentration_status": "unavailable", "quantity": {"status": "not_confirmed", "label": "концентрация по снимку не подтверждена", "detail": "перевод площади в штуки не показываем: нет калибровочных пар (см. docs/QUANTITY.md)"}, "verification": "false_alarm_signs", "training_scene": null, "flags": ["ship", "coast"], "n_cozar_filaments": 0, "crop_file": "crops/SZ-fresh-bali-2026-08-16-001.jpg", "wind_high": false, "measured": {"zone_area_km2": 0.1871, "suspicious_area_m2": 800, "n_pixels": 8, "n_objects": 5, "water_km2": 0.1885, "lwd_m2_km2": 4244.0, "lwd_note": null, "quality": {"valid_water_fraction": 0.998, "cloud_fraction": 0.0, "glint_fraction": 0.0}, "model": {"weights": "weights/lgbm", "file": "weights/lgbm/model.txt", "sha256": "0eeebf43fcccd8c7c07f053b7ec723229d1a3c9b92d12eec1bdb269258c51470", "sha256_short": "0eeebf43fccc", "trained_at": "2026-09-25T01:36:30Z", "threshold": 0.63, "harmonize": "none", "class": "MARIDA Marine Debris (любой плавающий мусор, не только пластик)"}}, "probable": {"prob_max": 0.996, "prob_mean": 0.861, "signs": {"foam": {"flag": false, "white_ratio_b2_b8": 0.729, "wind10m_ms": 2.98, "rule": "прирост B2 над водой ≥ 0.8 прироста B8 («белый» спектр) или ветер ≥ 7.0 м/с"}, "glint": {"flag": false, "b11_water_median": 0.0069, "glint_share": 0.0, "rule": "медиана B11 воды зоны > 0.01 или ≥ 20 % пикселей зоны — блик (маска качества)"}, "ship": {"flag": true, "share": 0, "bright_target_px_within_500m": 167, "rule": "≥ 30 % пикселей — у яркой цели или кильватера (reports/artifacts.md) или яркая цель с откликом в SWIR (судно, лодка: B11 ≥ 0,015) ближе 500 м, или малый яркий объект (≤ 40 пикс.) с B11 ≥ 0,01 ближе 500 м (лодка с кильватером)"}, "coast": {"flag": true, "land_px_within_300m": 415, "rule": "суша (маска качества) ближе 300 м — прибой, кромка берега"}, "shallow": {"flag": false, "b3_water_zone": 0.0381, "b3_ratio_to_scene_water": 1.92, "rule": "медиана B3 воды зоны ≥ 2× медианы воды снимка и ≥ 0,03, или B4 воды зоны ≥ 0,02 и (≥ 2× воды снимка или B8 ≥ 0,013) — мелководье, яркое дно, илистая банка"}, "seam": {"flag": false, "share": 0, "rule": "≥ 30 % пикселей — прямая линия вдоль трека/границы яркости (шов)"}, "cloud": {"flag": false, "cloud_fraction": 0.0, "rule": "облака или тени облаков (маска качества) ≥ 20 % зоны"}, "diag": {"dist_land_m": 170, "dist_bright_m": 10, "n_bright_px_500m": 116, "b11_bright_max_500m": 0.107, "b4_water_zone": 0.017, "b8_water_zone": 0.0095, "b11_det_median": 0.0141, "b8_det_median": 0.0382, "water_scene_b3": 0.0198, "water_scene_b4": 0.0125, "n_det_px": 8, "n_obj": 5}, "note": "эвристики, не классификатор; на размеченных данных не проверены"}, "n_cozar_filaments": 0}, "field_nearby": {"items": [{"source": "ADIS (4TU.ResearchData, судовая камера)", "segment_id": 437124, "ship": "Bark Europa", "date": "2024-08-17", "days_from_scene": -729, "distance_km": 5751.3, "lon": 167.19954, "lat": -15.52294, "n_items": 0, "area_km2": 0.1994, "size_class": "> 5 см", "c_items_km2": 0.0, "ci95_lo": 0.0, "ci95_hi": 18.5, "ci95_method": "точный интервал Пуассона для N, делённый на A", "raw_10cm_items_km2": 0.0, "authors_cal_10cm_items_km2": 0.0, "authors_cal_10cm_lo95": null, "authors_cal_10cm_hi95": null}, {"source": "ADIS (4TU.ResearchData, судовая камера)", "segment_id": 417394, "ship": "Bark Europa", "date": "2024-08-17", "days_from_scene": -729, "distance_km": 5751.7, "lon": 167.20278, "lat": -15.52361, "n_items": 3, "area_km2": 0.2326, "size_class": "> 5 см", "c_items_km2": 12.9, "ci95_lo": 2.66, "ci95_hi": 37.69, "ci95_method": "точный интервал Пуассона для N, делённый на A", "raw_10cm_items_km2": 12.9, "authors_cal_10cm_items_km2": 65.61, "authors_cal_10cm_lo95": 7.34, "authors_cal_10cm_hi95": 586.02}, {"source": "ADIS (4TU.ResearchData, судовая камера)", "segment_id": 437123, "ship": "Bark Europa", "date": "2024-08-17", "days_from_scene": -729, "distance_km": 5758.6, "lon": 167.26541, "lat": -15.53092, "n_items": 0, "area_km2": 0.4595, "size_class": "> 5 см", "c_items_km2": 0.0, "ci95_lo": 0.0, "ci95_hi": 8.03, "ci95_method": "точный интервал Пуассона для N, делённый на A", "raw_10cm_items_km2": 0.0, "authors_cal_10cm_items_km2": 0.0, "authors_cal_10cm_lo95": null, "authors_cal_10cm_hi95": null}], "nearest_organizer_sample": {"sample_id": "MPL-0922", "source_id": "S4_BLACK_SEA_DOORS3", "distance_km": 9848.4}, "note": "Измерение ≠ оценка: это независимые полевые счёты C = N/A в другое время и в другом месте; со сценой они не связаны и не калибруют её. Ближайший отрезок ADIS — за 5751 км: только для порядка величин."}, "acquired_at": "2026-08-16T02:21:31.024000Z", "acquisition_date": "2026-08-16", "processed_at": "2026-09-26T19:37:59Z", "human_checked": false, "auto_label": "автоматически, не проверено человеком"}}]}