{"type": "FeatureCollection", "features": [{"type": "Feature", "id": "D-SZ-fresh-scotland-2026-08-31-001-7", "geometry": {"type": "Polygon", "coordinates": [[[-2.505515, 56.2380107], [-2.5055173, 56.237831], [-2.5051947, 56.2378297], [-2.5051935, 56.2379195], [-2.5048709, 56.2379182], [-2.5048697, 56.2380081], [-2.505515, 56.2380107]]]}, "properties": {"kind": "detection", "det_id": "D-SZ-fresh-scotland-2026-08-31-001-7", "zone_id": "SZ-fresh-scotland-2026-08-31-001", "scene_id": "S2B_MSIL2A_20260831T112109_R037_T30VWH_20260831T135904", "datetime": "2026-08-31T11:21:09.024000Z", "n_pixels": 6, "area_m2": 600, "prob_max": 0.9961, "prob_mean": 0.9882, "threshold": 0.63, "in_strip": true, "artifact": null}}, {"type": "Feature", "id": "D-SZ-fresh-scotland-2026-08-31-002-25", "geometry": {"type": "Polygon", "coordinates": [[[-2.6305355, 56.105203], [-2.6305372, 56.1050233], [-2.6303764, 56.1050228], [-2.6303773, 56.104933], [-2.6302165, 56.1049325], [-2.6302157, 56.1050224], [-2.6300549, 56.1050219], [-2.630054, 56.1051117], [-2.6302148, 56.1051122], [-2.6302139, 56.1052021], [-2.6305355, 56.105203]], [[-2.6303756, 56.1051127], [-2.6302148, 56.1051122], [-2.6302157, 56.1050224], [-2.6303764, 56.1050228], [-2.6303756, 56.1051127]]]}, "properties": {"kind": "detection", "det_id": "D-SZ-fresh-scotland-2026-08-31-002-25", "zone_id": "SZ-fresh-scotland-2026-08-31-002", "scene_id": "S2B_MSIL2A_20260831T112109_R037_T30VWH_20260831T135904", "datetime": "2026-08-31T11:21:09.024000Z", "n_pixels": 5, "area_m2": 500, "prob_max": 0.9294, "prob_mean": 0.8416, "threshold": 0.63, "in_strip": true, "artifact": null}}]}