{"type": "FeatureCollection", "features": [{"type": "Feature", "id": "SZ-fresh-scotland-2026-08-31-001", "geometry": {"type": "Polygon", "coordinates": [[[-2.505498, 56.239358], [-2.507441, 56.238827], [-2.507937, 56.237841], [-2.506983, 56.236759], [-2.505212, 56.236482], [-2.503433, 56.236834], [-2.502618, 56.23746], [-2.50245, 56.237998], [-2.503404, 56.23908], [-2.505498, 56.239358]]]}, "properties": {"kind": "detection_zone", "layer_kind": "scene_zone", "zone_id": "SZ-fresh-scotland-2026-08-31-001", "scene_key": "fresh-scotland-2026-08-31", "scene_kind": "fresh_s2", "scene_id": "S2B_MSIL2A_20260831T112109_R037_T30VWH_20260831T135904", "region": "scotland", "title": "Шотландия (Ферт-оф-Форт) · зона 1", "mission": "Sentinel-2", "datetime": "2026-08-31T11:21:09.024000Z", "detection_status": "insufficient_data", "status": "insufficient_data", "concentration_status": "unavailable", "quantity": {"status": "not_confirmed", "label": "концентрация по снимку не подтверждена", "detail": "перевод площади в штуки не показываем: нет калибровочных пар (см. docs/QUANTITY.md)"}, "verification": "false_alarm_signs", "training_scene": null, "flags": ["foam"], "n_cozar_filaments": 0, "crop_file": "crops/SZ-fresh-scotland-2026-08-31-001.jpg", "wind_high": false, "measured": {"zone_area_km2": 0.0801, "suspicious_area_m2": 600, "n_pixels": 6, "n_objects": 1, "water_km2": 0.0822, "lwd_m2_km2": 7299.3, "lwd_note": null, "quality": {"valid_water_fraction": 1.0, "cloud_fraction": 0.0, "glint_fraction": 0.0}, "model": {"weights": "weights/lgbm", "file": "weights/lgbm/model.txt", "sha256": "0eeebf43fcccd8c7c07f053b7ec723229d1a3c9b92d12eec1bdb269258c51470", "sha256_short": "0eeebf43fccc", "trained_at": "2026-09-25T01:36:30Z", "threshold": 0.63, "harmonize": "none", "class": "MARIDA Marine Debris (любой плавающий мусор, не только пластик)"}}, "probable": {"prob_max": 0.996, "prob_mean": 0.988, "signs": {"foam": {"flag": true, "white_ratio_b2_b8": 1.078, "wind10m_ms": 3.81, "rule": "прирост B2 над водой ≥ 0.8 прироста B8 («белый» спектр) или ветер ≥ 7.0 м/с"}, "glint": {"flag": false, "b11_water_median": 0.0021, "glint_share": 0.0, "rule": "медиана B11 воды зоны > 0.01 или ≥ 20 % пикселей зоны — блик (маска качества)"}, "ship": {"flag": false, "share": 0, "bright_target_px_within_500m": 0, "rule": "≥ 30 % пикселей — у яркой цели или кильватера (reports/artifacts.md) или яркая цель с откликом в SWIR (судно, лодка: B11 ≥ 0,015) ближе 500 м, или малый яркий объект (≤ 40 пикс.) с B11 ≥ 0,01 ближе 500 м (лодка с кильватером)"}, "coast": {"flag": false, "land_px_within_300m": 0, "rule": "суша (маска качества) ближе 300 м — прибой, кромка берега"}, "shallow": {"flag": false, "b3_water_zone": 0.0278, "b3_ratio_to_scene_water": 1.57, "rule": "медиана B3 воды зоны ≥ 2× медианы воды снимка и ≥ 0,03, или B4 воды зоны ≥ 0,02 и (≥ 2× воды снимка или B8 ≥ 0,013) — мелководье, яркое дно, илистая банка"}, "seam": {"flag": false, "share": 0, "rule": "≥ 30 % пикселей — прямая линия вдоль трека/границы яркости (шов)"}, "cloud": {"flag": false, "cloud_fraction": 0.0, "rule": "облака или тени облаков (маска качества) ≥ 20 % зоны"}, "diag": {"dist_land_m": null, "dist_bright_m": null, "n_bright_px_500m": 0, "b11_bright_max_500m": null, "b4_water_zone": 0.011, "b8_water_zone": 0.0056, "b11_det_median": 0.0033, "b8_det_median": 0.017, "water_scene_b3": 0.0177, "water_scene_b4": 0.0085, "n_det_px": 6, "n_obj": 1}, "note": "эвристики, не классификатор; на размеченных данных не проверены"}, "n_cozar_filaments": 0}, "field_nearby": {"items": [{"source": "ADIS (4TU.ResearchData, судовая камера)", "segment_id": 338026, "ship": "R/V Akademik Mstislav Keldysh", "date": "2022-03-31", "days_from_scene": -1614, "distance_km": 445.8, "lon": -7.91336, "lat": 58.80967, "n_items": 0, "area_km2": 0.6996, "size_class": "> 5 см", "c_items_km2": 0.0, "ci95_lo": 0.0, "ci95_hi": 5.27, "ci95_method": "точный интервал Пуассона для N, делённый на A", "raw_10cm_items_km2": 0.0, "authors_cal_10cm_items_km2": 0.0, "authors_cal_10cm_lo95": null, "authors_cal_10cm_hi95": null}, {"source": "ADIS (4TU.ResearchData, судовая камера)", "segment_id": 338025, "ship": "R/V Akademik Mstislav Keldysh", "date": "2022-03-31", "days_from_scene": -1614, "distance_km": 446.3, "lon": -8.02644, "lat": 58.74178, "n_items": 0, "area_km2": 0.7, "size_class": "> 5 см", "c_items_km2": 0.0, "ci95_lo": 0.0, "ci95_hi": 5.27, "ci95_method": "точный интервал Пуассона для N, делённый на A", "raw_10cm_items_km2": 0.0, "authors_cal_10cm_items_km2": 0.0, "authors_cal_10cm_lo95": null, "authors_cal_10cm_hi95": null}, {"source": "ADIS (4TU.ResearchData, судовая камера)", "segment_id": 338475, "ship": "R/V Akademik Mstislav Keldysh", "date": "2022-03-31", "days_from_scene": -1614, "distance_km": 447.1, "lon": -8.13141, "lat": 58.679, "n_items": 0, "area_km2": 0.9498, "size_class": "> 5 см", "c_items_km2": 0.0, "ci95_lo": 0.0, "ci95_hi": 3.88, "ci95_method": "точный интервал Пуассона для N, делённый на A", "raw_10cm_items_km2": 0.0, "authors_cal_10cm_items_km2": 0.0, "authors_cal_10cm_lo95": null, "authors_cal_10cm_hi95": null}], "nearest_organizer_sample": {"sample_id": "MPL-0092", "source_id": "S3_SE_NORTH_SEA", "distance_km": 365.8}, "note": "Измерение ≠ оценка: это независимые полевые счёты C = N/A в другое время и в другом месте; со сценой они не связаны и не калибруют её. Ближайший отрезок ADIS — за 446 км: только для порядка величин."}, "acquired_at": "2026-08-31T11:21:09.024000Z", "acquisition_date": "2026-08-31", "processed_at": "2026-09-26T19:34:10Z", "human_checked": false, "auto_label": "автоматически, не проверено человеком"}}, {"type": "Feature", "id": "SZ-fresh-scotland-2026-08-31-002", "geometry": {"type": "Polygon", "coordinates": [[[-2.630523, 56.106551], [-2.632457, 56.106017], [-2.632949, 56.105031], [-2.632474, 56.10422], [-2.631835, 56.103859], [-2.630229, 56.103585], [-2.62878, 56.10385], [-2.628133, 56.104207], [-2.627642, 56.105104], [-2.628117, 56.105915], [-2.628757, 56.106276], [-2.630523, 56.106551]]]}, "properties": {"kind": "detection_zone", "layer_kind": "scene_zone", "zone_id": "SZ-fresh-scotland-2026-08-31-002", "scene_key": "fresh-scotland-2026-08-31", "scene_kind": "fresh_s2", "scene_id": "S2B_MSIL2A_20260831T112109_R037_T30VWH_20260831T135904", "region": "scotland", "title": "Шотландия (Ферт-оф-Форт) · зона 2", "mission": "Sentinel-2", "datetime": "2026-08-31T11:21:09.024000Z", "detection_status": "insufficient_data", "status": "insufficient_data", "concentration_status": "unavailable", "quantity": {"status": "not_confirmed", "label": "концентрация по снимку не подтверждена", "detail": "перевод площади в штуки не показываем: нет калибровочных пар (см. docs/QUANTITY.md)"}, "verification": "false_alarm_signs", "training_scene": null, "flags": ["ship"], "n_cozar_filaments": 0, "crop_file": "crops/SZ-fresh-scotland-2026-08-31-002.jpg", "wind_high": false, "measured": {"zone_area_km2": 0.0809, "suspicious_area_m2": 500, "n_pixels": 5, "n_objects": 1, "water_km2": 0.0807, "lwd_m2_km2": 6195.8, "lwd_note": null, "quality": {"valid_water_fraction": 1.0, "cloud_fraction": 0.0, "glint_fraction": 0.0}, "model": {"weights": "weights/lgbm", "file": "weights/lgbm/model.txt", "sha256": "0eeebf43fcccd8c7c07f053b7ec723229d1a3c9b92d12eec1bdb269258c51470", "sha256_short": "0eeebf43fccc", "trained_at": "2026-09-25T01:36:30Z", "threshold": 0.63, "harmonize": "none", "class": "MARIDA Marine Debris (любой плавающий мусор, не только пластик)"}}, "probable": {"prob_max": 0.929, "prob_mean": 0.842, "signs": {"foam": {"flag": false, "white_ratio_b2_b8": 0.661, "wind10m_ms": 3.81, "rule": "прирост B2 над водой ≥ 0.8 прироста B8 («белый» спектр) или ветер ≥ 7.0 м/с"}, "glint": {"flag": false, "b11_water_median": 0.0023, "glint_share": 0.0, "rule": "медиана B11 воды зоны > 0.01 или ≥ 20 % пикселей зоны — блик (маска качества)"}, "ship": {"flag": true, "share": 0, "bright_target_px_within_500m": 0, "rule": "≥ 30 % пикселей — у яркой цели или кильватера (reports/artifacts.md) или яркая цель с откликом в SWIR (судно, лодка: B11 ≥ 0,015) ближе 500 м, или малый яркий объект (≤ 40 пикс.) с B11 ≥ 0,01 ближе 500 м (лодка с кильватером)"}, "coast": {"flag": false, "land_px_within_300m": 0, "rule": "суша (маска качества) ближе 300 м — прибой, кромка берега"}, "shallow": {"flag": false, "b3_water_zone": 0.0219, "b3_ratio_to_scene_water": 1.24, "rule": "медиана B3 воды зоны ≥ 2× медианы воды снимка и ≥ 0,03, или B4 воды зоны ≥ 0,02 и (≥ 2× воды снимка или B8 ≥ 0,013) — мелководье, яркое дно, илистая банка"}, "seam": {"flag": false, "share": 0, "rule": "≥ 30 % пикселей — прямая линия вдоль трека/границы яркости (шов)"}, "cloud": {"flag": false, "cloud_fraction": 0.0, "rule": "облака или тени облаков (маска качества) ≥ 20 % зоны"}, "diag": {"dist_land_m": null, "dist_bright_m": 150, "n_bright_px_500m": 51, "b11_bright_max_500m": 0.049, "b4_water_zone": 0.0098, "b8_water_zone": 0.0064, "b11_det_median": 0.0021, "b8_det_median": 0.0176, "water_scene_b3": 0.0177, "water_scene_b4": 0.0085, "n_det_px": 5, "n_obj": 1}, "note": "эвристики, не классификатор; на размеченных данных не проверены"}, "n_cozar_filaments": 0}, "field_nearby": {"items": [{"source": "ADIS (4TU.ResearchData, судовая камера)", "segment_id": 338026, "ship": "R/V Akademik Mstislav Keldysh", "date": "2022-03-31", "days_from_scene": -1614, "distance_km": 445.8, "lon": -7.91336, "lat": 58.80967, "n_items": 0, "area_km2": 0.6996, "size_class": "> 5 см", "c_items_km2": 0.0, "ci95_lo": 0.0, "ci95_hi": 5.27, "ci95_method": "точный интервал Пуассона для N, делённый на A", "raw_10cm_items_km2": 0.0, "authors_cal_10cm_items_km2": 0.0, "authors_cal_10cm_lo95": null, "authors_cal_10cm_hi95": null}, {"source": "ADIS (4TU.ResearchData, судовая камера)", "segment_id": 338025, "ship": "R/V Akademik Mstislav Keldysh", "date": "2022-03-31", "days_from_scene": -1614, "distance_km": 446.3, "lon": -8.02644, "lat": 58.74178, "n_items": 0, "area_km2": 0.7, "size_class": "> 5 см", "c_items_km2": 0.0, "ci95_lo": 0.0, "ci95_hi": 5.27, "ci95_method": "точный интервал Пуассона для N, делённый на A", "raw_10cm_items_km2": 0.0, "authors_cal_10cm_items_km2": 0.0, "authors_cal_10cm_lo95": null, "authors_cal_10cm_hi95": null}, {"source": "ADIS (4TU.ResearchData, судовая камера)", "segment_id": 338475, "ship": "R/V Akademik Mstislav Keldysh", "date": "2022-03-31", "days_from_scene": -1614, "distance_km": 447.1, "lon": -8.13141, "lat": 58.679, "n_items": 0, "area_km2": 0.9498, "size_class": "> 5 см", "c_items_km2": 0.0, "ci95_lo": 0.0, "ci95_hi": 3.88, "ci95_method": "точный интервал Пуассона для N, делённый на A", "raw_10cm_items_km2": 0.0, "authors_cal_10cm_items_km2": 0.0, "authors_cal_10cm_lo95": null, "authors_cal_10cm_hi95": null}], "nearest_organizer_sample": {"sample_id": "MPL-0092", "source_id": "S3_SE_NORTH_SEA", "distance_km": 365.8}, "note": "Измерение ≠ оценка: это независимые полевые счёты C = N/A в другое время и в другом месте; со сценой они не связаны и не калибруют её. Ближайший отрезок ADIS — за 446 км: только для порядка величин."}, "acquired_at": "2026-08-31T11:21:09.024000Z", "acquisition_date": "2026-08-31", "processed_at": "2026-09-26T19:34:10Z", "human_checked": false, "auto_label": "автоматически, не проверено человеком"}}]}