{"type":"FeatureCollection","features":[{"type":"Feature","geometry":{"type":"Polygon","coordinates":[[[-43.145885,-22.709663],[-43.145884,-22.709753],[-43.145981,-22.709754],[-43.14598,-22.709845],[-43.145882,-22.709844],[-43.145884,-22.709753],[-43.145786,-22.709752],[-43.145787,-22.709662],[-43.145885,-22.709663]]]},"properties":{"id":"guanabara_2026-07-16_lgbm_0","region":"guanabara","date":"2026-07-16","area_m2":200.0,"mean_prob":0.9216,"max_prob":0.9882,"model":"lgbm","n_px":2,"px_area_m2":100.0,"confirmed":false,"confirmed_by":null,"lon":-43.145884,"lat":-22.709753}},{"type":"Feature","geometry":{"type":"Polygon","coordinates":[[[-43.138631,-22.713462],[-43.138629,-22.713552],[-43.138532,-22.713551],[-43.138531,-22.713641],[-43.138434,-22.71364],[-43.138435,-22.71355],[-43.138532,-22.713551],[-43.138533,-22.713461],[-43.138631,-22.713462]]]},"properties":{"id":"guanabara_2026-07-16_lgbm_1","region":"guanabara","date":"2026-07-16","area_m2":200.0,"mean_prob":0.702,"max_prob":0.7569,"model":"lgbm","n_px":2,"px_area_m2":100.0,"confirmed":false,"confirmed_by":null,"lon":-43.138532,"lat":-22.713551}},{"type":"Feature","geometry":{"type":"Polygon","coordinates":[[[-43.139206,-22.714101],[-43.139204,-22.714281],[-43.139009,-22.714279],[-43.139011,-22.714098],[-43.139206,-22.714101]]]},"properties":{"id":"guanabara_2026-07-16_lgbm_2","region":"guanabara","date":"2026-07-16","area_m2":400.0,"mean_prob":0.8245,"max_prob":0.9176,"model":"lgbm","n_px":4,"px_area_m2":100.0,"confirmed":false,"confirmed_by":null,"lon":-43.139107,"lat":-22.71419}},{"type":"Feature","geometry":{"type":"Polygon","coordinates":[[[-43.169361,-22.715623],[-43.16936,-22.715713],[-43.169262,-22.715712],[-43.169261,-22.715802],[-43.169164,-22.715801],[-43.169165,-22.715711],[-43.169262,-22.715712],[-43.169264,-22.715622],[-43.169361,-22.715623]]]},"properties":{"id":"guanabara_2026-07-16_lgbm_3","region":"guanabara","date":"2026-07-16","area_m2":200.0,"mean_prob":0.7902,"max_prob":0.8157,"model":"lgbm","n_px":2,"px_area_m2":100.0,"artifact":"ship","confirmed":false,"confirmed_by":null,"lon":-43.169262,"lat":-22.715712}},{"type":"Feature","geometry":{"type":"Polygon","coordinates":[[[-43.17159,-22.716371],[-43.171589,-22.716461],[-43.171491,-22.71646],[-43.17149,-22.71655],[-43.171393,-22.716549],[-43.171391,-22.716639],[-43.171294,-22.716638],[-43.171293,-22.716728],[-43.171196,-22.716727],[-43.171193,-22.716908],[-43.171096,-22.716907],[-43.171095,-22.716997],[-43.170997,-22.716996],[-43.170996,-22.717086],[-43.170899,-22.717085],[-43.170898,-22.717175],[-43.1708,-22.717174],[-43.170799,-22.717265],[-43.170702,-22.717263],[-43.170705,-22.716993],[-43.1709,-22.716995],[-43.170901,-22.716905],[-43.170999,-22.716906],[-43.171,-22.716815],[-43.171097,-22.716816],[-43.171098,-22.716726],[-43.171196,-22.716727],[-43.171197,-22.716637],[-43.171294,-22.716638],[-43.171297,-22.716458],[-43.171394,-22.716459],[-43.171395,-22.716368],[-43.17159,-22.716371]]]},"properties":{"id":"guanabara_2026-07-16_lgbm_4","region":"guanabara","date":"2026-07-16","area_m2":1700.0,"mean_prob":0.9017,"max_prob":0.9922,"model":"lgbm","n_px":17,"px_area_m2":100.0,"confirmed":false,"confirmed_by":null,"lon":-43.171094,"lat":-22.71683}},{"type":"Feature","geometry":{"type":"Polygon","coordinates":[[[-43.169731,-22.717072],[-43.169729,-22.717252],[-43.169631,-22.717251],[-43.169634,-22.717071],[-43.169731,-22.717072]]]},"properties":{"id":"guanabara_2026-07-16_lgbm_5","region":"guanabara","date":"2026-07-16","area_m2":200.0,"mean_prob":0.998,"max_prob":1.0,"model":"lgbm","n_px":2,"px_area_m2":100.0,"confirmed":false,"confirmed_by":null,"lon":-43.169681,"lat":-22.717161}},{"type":"Feature","geometry":{"type":"Polygon","coordinates":[[[-43.173504,-22.718831],[-43.173502,-22.719011],[-43.173404,-22.71901],[-43.173407,-22.71883],[-43.173504,-22.718831]]]},"properties":{"id":"guanabara_2026-07-16_lgbm_6","region":"guanabara","date":"2026-07-16","area_m2":200.0,"mean_prob":0.9745,"max_prob":0.9961,"model":"lgbm","n_px":2,"px_area_m2":100.0,"confirmed":false,"confirmed_by":null,"lon":-43.173454,"lat":-22.71892}},{"type":"Feature","geometry":{"type":"Polygon","coordinates":[[[-43.173594,-22.719374],[-43.173593,-22.719464],[-43.173398,-22.719462],[-43.173399,-22.719371],[-43.173594,-22.719374]]]},"properties":{"id":"guanabara_2026-07-16_lgbm_7","region":"guanabara","date":"2026-07-16","area_m2":200.0,"mean_prob":0.9784,"max_prob":0.9961,"model":"lgbm","n_px":2,"px_area_m2":100.0,"confirmed":false,"confirmed_by":null,"lon":-43.173496,"lat":-22.719418}},{"type":"Feature","geometry":{"type":"Polygon","coordinates":[[[-43.173008,-22.719547],[-43.173005,-22.719728],[-43.172811,-22.719726],[-43.172812,-22.719636],[-43.172909,-22.719637],[-43.17291,-22.719546],[-43.173008,-22.719547]]]},"properties":{"id":"guanabara_2026-07-16_lgbm_8","region":"guanabara","date":"2026-07-16","area_m2":300.0,"mean_prob":0.9922,"max_prob":0.9961,"model":"lgbm","n_px":3,"px_area_m2":100.0,"confirmed":false,"confirmed_by":null,"lon":-43.172925,"lat":-22.719652}},{"type":"Feature","geometry":{"type":"Polygon","coordinates":[[[-43.173298,-22.719641],[-43.173296,-22.719822],[-43.173199,-22.719821],[-43.173201,-22.71964],[-43.173298,-22.719641]]]},"properties":{"id":"guanabara_2026-07-16_lgbm_9","region":"guanabara","date":"2026-07-16","area_m2":200.0,"mean_prob":0.9863,"max_prob":0.9922,"model":"lgbm","n_px":2,"px_area_m2":100.0,"confirmed":false,"confirmed_by":null,"lon":-43.173249,"lat":-22.719731}},{"type":"Feature","geometry":{"type":"Polygon","coordinates":[[[-43.090904,-22.722742],[-43.090903,-22.722832],[-43.090708,-22.72283],[-43.090709,-22.72274],[-43.090904,-22.722742]]]},"properties":{"id":"guanabara_2026-07-16_lgbm_10","region":"guanabara","date":"2026-07-16","area_m2":200.0,"mean_prob":0.9961,"max_prob":1.0,"model":"lgbm","n_px":2,"px_area_m2":100.0,"confirmed":false,"confirmed_by":null,"lon":-43.090806,"lat":-22.722786}},{"type":"Feature","geometry":{"type":"Polygon","coordinates":[[[-43.178192,-22.725025],[-43.178189,-22.725206],[-43.178092,-22.725204],[-43.178094,-22.725024],[-43.178192,-22.725025]]]},"properties":{"id":"guanabara_2026-07-16_lgbm_11","region":"guanabara","date":"2026-07-16","area_m2":200.0,"mean_prob":0.9412,"max_prob":1.0,"model":"lgbm","n_px":2,"px_area_m2":100.0,"confirmed":false,"confirmed_by":null,"lon":-43.178142,"lat":-22.725115}},{"type":"Feature","geometry":{"type":"Polygon","coordinates":[[[-43.179062,-22.725486],[-43.179059,-22.725667],[-43.178865,-22.725665],[-43.178867,-22.725484],[-43.179062,-22.725486]]]},"properties":{"id":"guanabara_2026-07-16_lgbm_12","region":"guanabara","date":"2026-07-16","area_m2":400.0,"mean_prob":0.9922,"max_prob":1.0,"model":"lgbm","n_px":4,"px_area_m2":100.0,"confirmed":false,"confirmed_by":null,"lon":-43.178963,"lat":-22.725576}},{"type":"Feature","geometry":{"type":"Polygon","coordinates":[[[-43.096791,-22.726424],[-43.09679,-22.726515],[-43.096692,-22.726513],[-43.09669,-22.726694],[-43.096593,-22.726693],[-43.096595,-22.726512],[-43.096692,-22.726513],[-43.096694,-22.726423],[-43.096791,-22.726424]]]},"properties":{"id":"guanabara_2026-07-16_lgbm_13","region":"guanabara","date":"2026-07-16","area_m2":300.0,"mean_prob":0.9268,"max_prob":1.0,"model":"lgbm","n_px":3,"px_area_m2":100.0,"confirmed":false,"confirmed_by":null,"lon":-43.096676,"lat":-22.726558}},{"type":"Feature","geometry":{"type":"Polygon","coordinates":[[[-43.200627,-22.728982],[-43.200626,-22.729072],[-43.200723,-22.729073],[-43.200721,-22.729254],[-43.200526,-22.729251],[-43.200529,-22.729071],[-43.200431,-22.72907],[-43.200433,-22.728979],[-43.200627,-22.728982]]]},"properties":{"id":"guanabara_2026-07-16_lgbm_14","region":"guanabara","date":"2026-07-16","area_m2":600.0,"mean_prob":0.7935,"max_prob":0.9765,"model":"lgbm","n_px":6,"px_area_m2":100.0,"confirmed":false,"confirmed_by":null,"lon":-43.200593,"lat":-22.729117}},{"type":"Feature","geometry":{"type":"Polygon","coordinates":[[[-43.210251,-22.730083],[-43.21025,-22.730173],[-43.210055,-22.730171],[-43.210056,-22.730081],[-43.210251,-22.730083]]]},"properties":{"id":"guanabara_2026-07-16_lgbm_15","region":"guanabara","date":"2026-07-16","area_m2":200.0,"mean_prob":0.9196,"max_prob":0.9333,"model":"lgbm","n_px":2,"px_area_m2":100.0,"confirmed":false,"confirmed_by":null,"lon":-43.210153,"lat":-22.730127}},{"type":"Feature","geometry":{"type":"Polygon","coordinates":[[[-43.133884,-22.733273],[-43.133883,-22.733364],[-43.133786,-22.733362],[-43.133785,-22.733453],[-43.133687,-22.733452],[-43.13369,-22.733271],[-43.133884,-22.733273]]]},"properties":{"id":"guanabara_2026-07-16_lgbm_16","region":"guanabara","date":"2026-07-16","area_m2":300.0,"mean_prob":0.9608,"max_prob":0.9961,"model":"lgbm","n_px":3,"px_area_m2":100.0,"confirmed":false,"confirmed_by":null,"lon":-43.13377,"lat":-22.733347}},{"type":"Feature","geometry":{"type":"Polygon","coordinates":[[[-43.066322,-22.733373],[-43.06632,-22.733463],[-43.066126,-22.733461],[-43.066127,-22.733371],[-43.066322,-22.733373]]]},"properties":{"id":"guanabara_2026-07-16_lgbm_17","region":"guanabara","date":"2026-07-16","area_m2":200.0,"mean_prob":0.8235,"max_prob":0.9765,"model":"lgbm","n_px":2,"px_area_m2":100.0,"confirmed":false,"confirmed_by":null,"lon":-43.066224,"lat":-22.733417}},{"type":"Feature","geometry":{"type":"Polygon","coordinates":[[[-43.181429,-22.7452],[-43.181426,-22.745471],[-43.181231,-22.745469],[-43.181232,-22.745378],[-43.18133,-22.745379],[-43.181332,-22.745199],[-43.181429,-22.7452]]]},"properties":{"id":"guanabara_2026-07-16_lgbm_18","region":"guanabara","date":"2026-07-16","area_m2":400.0,"mean_prob":0.8363,"max_prob":0.8941,"model":"lgbm","n_px":4,"px_area_m2":100.0,"confirmed":false,"confirmed_by":null,"lon":-43.181354,"lat":-22.745357}},{"type":"Feature","geometry":{"type":"Polygon","coordinates":[[[-43.182386,-22.746475],[-43.182384,-22.746656],[-43.182092,-22.746652],[-43.18209,-22.746743],[-43.181896,-22.74674],[-43.181897,-22.74665],[-43.1818,-22.746649],[-43.181801,-22.746559],[-43.182288,-22.746564],[-43.182289,-22.746474],[-43.182386,-22.746475]]]},"properties":{"id":"guanabara_2026-07-16_lgbm_19","region":"guanabara","date":"2026-07-16","area_m2":900.0,"mean_prob":0.9033,"max_prob":1.0,"model":"lgbm","n_px":9,"px_area_m2":100.0,"confirmed":false,"confirmed_by":null,"lon":-43.182098,"lat":-22.746617}},{"type":"Feature","geometry":{"type":"Polygon","coordinates":[[[-43.241372,-22.747768],[-43.24137,-22.747948],[-43.241273,-22.747947],[-43.241275,-22.747767],[-43.241372,-22.747768]]]},"properties":{"id":"guanabara_2026-07-16_lgbm_20","region":"guanabara","date":"2026-07-16","area_m2":200.0,"mean_prob":0.7118,"max_prob":0.7333,"model":"lgbm","n_px":2,"px_area_m2":100.0,"confirmed":false,"confirmed_by":null,"lon":-43.241322,"lat":-22.747857}},{"type":"Feature","geometry":{"type":"Polygon","coordinates":[[[-43.176896,-22.749302],[-43.176894,-22.749483],[-43.176797,-22.749482],[-43.176799,-22.749301],[-43.176896,-22.749302]]]},"properties":{"id":"guanabara_2026-07-16_lgbm_21","region":"guanabara","date":"2026-07-16","area_m2":200.0,"mean_prob":0.8529,"max_prob":0.8902,"model":"lgbm","n_px":2,"px_area_m2":100.0,"confirmed":false,"confirmed_by":null,"lon":-43.176846,"lat":-22.749392}},{"type":"Feature","geometry":{"type":"Polygon","coordinates":[[[-43.051101,-22.749532],[-43.0511,-22.749623],[-43.050808,-22.749619],[-43.050809,-22.749529],[-43.051101,-22.749532]]]},"properties":{"id":"guanabara_2026-07-16_lgbm_22","region":"guanabara","date":"2026-07-16","area_m2":300.0,"mean_prob":0.681,"max_prob":0.7137,"model":"lgbm","n_px":3,"px_area_m2":100.0,"artifact":"ship","confirmed":true,"confirmed_by":"mdd","lon":-43.050954,"lat":-22.749576}},{"type":"Feature","geometry":{"type":"Polygon","coordinates":[[[-43.051586,-22.749629],[-43.051584,-22.749809],[-43.051681,-22.74981],[-43.051682,-22.74972],[-43.051877,-22.749722],[-43.051874,-22.749903],[-43.051388,-22.749897],[-43.05139,-22.749716],[-43.051488,-22.749718],[-43.051489,-22.749627],[-43.051586,-22.749629]]]},"properties":{"id":"guanabara_2026-07-16_lgbm_23","region":"guanabara","date":"2026-07-16","area_m2":1000.0,"mean_prob":0.7886,"max_prob":0.8902,"model":"lgbm","n_px":10,"px_area_m2":100.0,"confirmed":true,"confirmed_by":"mdd","lon":-43.051623,"lat":-22.749801}},{"type":"Feature","geometry":{"type":"Polygon","coordinates":[[[-43.050904,-22.749711],[-43.050902,-22.749801],[-43.051292,-22.749806],[-43.05129,-22.749896],[-43.050804,-22.74989],[-43.050806,-22.749709],[-43.050904,-22.749711]]]},"properties":{"id":"guanabara_2026-07-16_lgbm_24","region":"guanabara","date":"2026-07-16","area_m2":600.0,"mean_prob":0.7497,"max_prob":0.8784,"model":"lgbm","n_px":6,"px_area_m2":100.0,"artifact":"ship","confirmed":true,"confirmed_by":"mdd","lon":-43.051015,"lat":-22.749832}},{"type":"Feature","geometry":{"type":"Polygon","coordinates":[[[-43.093912,-22.751494],[-43.09391,-22.751675],[-43.093813,-22.751673],[-43.093815,-22.751493],[-43.093912,-22.751494]]]},"properties":{"id":"guanabara_2026-07-16_lgbm_25","region":"guanabara","date":"2026-07-16","area_m2":200.0,"mean_prob":0.9373,"max_prob":0.9725,"model":"lgbm","n_px":2,"px_area_m2":100.0,"confirmed":false,"confirmed_by":null,"lon":-43.093862,"lat":-22.751584}},{"type":"Feature","geometry":{"type":"Polygon","coordinates":[[[-43.04649,-22.752004],[-43.046487,-22.752185],[-43.046585,-22.752186],[-43.046583,-22.752276],[-43.046681,-22.752278],[-43.046679,-22.752368],[-43.046582,-22.752367],[-43.046583,-22.752276],[-43.046486,-22.752275],[-43.046485,-22.752366],[-43.04629,-22.752363],[-43.046295,-22.752002],[-43.04649,-22.752004]]]},"properties":{"id":"guanabara_2026-07-16_lgbm_26","region":"guanabara","date":"2026-07-16","area_m2":1000.0,"mean_prob":0.8788,"max_prob":0.9961,"model":"lgbm","n_px":10,"px_area_m2":100.0,"artifact":"seam","confirmed":false,"confirmed_by":null,"lon":-43.046429,"lat":-22.752202}},{"type":"Feature","geometry":{"type":"Polygon","coordinates":[[[-43.103374,-22.757296],[-43.10337,-22.757567],[-43.103273,-22.757565],[-43.103277,-22.757294],[-43.103374,-22.757296]]]},"properties":{"id":"guanabara_2026-07-16_lgbm_27","region":"guanabara","date":"2026-07-16","area_m2":300.0,"mean_prob":0.9359,"max_prob":1.0,"model":"lgbm","n_px":3,"px_area_m2":100.0,"confirmed":false,"confirmed_by":null,"lon":-43.103323,"lat":-22.75743}},{"type":"Feature","geometry":{"type":"Polygon","coordinates":[[[-43.152782,-22.761397],[-43.152781,-22.761487],[-43.152586,-22.761485],[-43.152587,-22.761395],[-43.152782,-22.761397]]]},"properties":{"id":"guanabara_2026-07-16_lgbm_28","region":"guanabara","date":"2026-07-16","area_m2":200.0,"mean_prob":0.9275,"max_prob":0.9294,"model":"lgbm","n_px":2,"px_area_m2":100.0,"confirmed":false,"confirmed_by":null,"lon":-43.152684,"lat":-22.761441}},{"type":"Feature","geometry":{"type":"Polygon","coordinates":[[[-43.059413,-22.760741],[-43.059412,-22.760831],[-43.059314,-22.76083],[-43.059313,-22.76092],[-43.059216,-22.760919],[-43.059217,-22.760828],[-43.059119,-22.760827],[-43.059121,-22.760737],[-43.059413,-22.760741]]]},"properties":{"id":"guanabara_2026-07-16_lgbm_29","region":"guanabara","date":"2026-07-16","area_m2":400.0,"mean_prob":0.9461,"max_prob":0.9882,"model":"lgbm","n_px":4,"px_area_m2":100.0,"confirmed":false,"confirmed_by":null,"lon":-43.059266,"lat":-22.760806}},{"type":"Feature","geometry":{"type":"Polygon","coordinates":[[[-43.114022,-22.761847],[-43.114019,-22.762027],[-43.113922,-22.762026],[-43.113924,-22.761845],[-43.114022,-22.761847]]]},"properties":{"id":"guanabara_2026-07-16_lgbm_30","region":"guanabara","date":"2026-07-16","area_m2":200.0,"mean_prob":0.9686,"max_prob":0.9882,"model":"lgbm","n_px":2,"px_area_m2":100.0,"confirmed":false,"confirmed_by":null,"lon":-43.113972,"lat":-22.761936}},{"type":"Feature","geometry":{"type":"Polygon","coordinates":[[[-43.069623,-22.761677],[-43.069622,-22.761767],[-43.069427,-22.761765],[-43.069429,-22.761675],[-43.069623,-22.761677]]]},"properties":{"id":"guanabara_2026-07-16_lgbm_31","region":"guanabara","date":"2026-07-16","area_m2":200.0,"mean_prob":0.8216,"max_prob":0.9647,"model":"lgbm","n_px":2,"px_area_m2":100.0,"artifact":"ship","confirmed":false,"confirmed_by":null,"lon":-43.069525,"lat":-22.761721}},{"type":"Feature","geometry":{"type":"Polygon","coordinates":[[[-43.184164,-22.766633],[-43.184163,-22.766724],[-43.183968,-22.766721],[-43.183969,-22.766631],[-43.184164,-22.766633]]]},"properties":{"id":"guanabara_2026-07-16_lgbm_32","region":"guanabara","date":"2026-07-16","area_m2":200.0,"mean_prob":0.9725,"max_prob":0.9922,"model":"lgbm","n_px":2,"px_area_m2":100.0,"confirmed":false,"confirmed_by":null,"lon":-43.184066,"lat":-22.766677}},{"type":"Feature","geometry":{"type":"Polygon","coordinates":[[[-43.21356,-22.767597],[-43.213559,-22.767688],[-43.213364,-22.767685],[-43.213365,-22.767595],[-43.21356,-22.767597]]]},"properties":{"id":"guanabara_2026-07-16_lgbm_33","region":"guanabara","date":"2026-07-16","area_m2":200.0,"mean_prob":0.8941,"max_prob":0.9294,"model":"lgbm","n_px":2,"px_area_m2":100.0,"confirmed":false,"confirmed_by":null,"lon":-43.213462,"lat":-22.767641}},{"type":"Feature","geometry":{"type":"Polygon","coordinates":[[[-43.071856,-22.769109],[-43.071853,-22.769289],[-43.071756,-22.769288],[-43.071758,-22.769108],[-43.071856,-22.769109]]]},"properties":{"id":"guanabara_2026-07-16_lgbm_34","region":"guanabara","date":"2026-07-16","area_m2":200.0,"mean_prob":0.9922,"max_prob":1.0,"model":"lgbm","n_px":2,"px_area_m2":100.0,"confirmed":false,"confirmed_by":null,"lon":-43.071806,"lat":-22.769198}},{"type":"Feature","geometry":{"type":"Polygon","coordinates":[[[-43.14458,-22.770242],[-43.144578,-22.770422],[-43.144481,-22.770421],[-43.144483,-22.770241],[-43.14458,-22.770242]]]},"properties":{"id":"guanabara_2026-07-16_lgbm_35","region":"guanabara","date":"2026-07-16","area_m2":200.0,"mean_prob":0.9549,"max_prob":0.9922,"model":"lgbm","n_px":2,"px_area_m2":100.0,"confirmed":false,"confirmed_by":null,"lon":-43.144531,"lat":-22.770332}},{"type":"Feature","geometry":{"type":"Polygon","coordinates":[[[-43.071851,-22.76947],[-43.071848,-22.76965],[-43.071751,-22.769649],[-43.071752,-22.769559],[-43.071655,-22.769558],[-43.071656,-22.769468],[-43.071851,-22.76947]]]},"properties":{"id":"guanabara_2026-07-16_lgbm_36","region":"guanabara","date":"2026-07-16","area_m2":300.0,"mean_prob":0.8941,"max_prob":0.9922,"model":"lgbm","n_px":3,"px_area_m2":100.0,"confirmed":false,"confirmed_by":null,"lon":-43.071769,"lat":-22.769544}},{"type":"Feature","geometry":{"type":"Polygon","coordinates":[[[-43.169583,-22.772066],[-43.169581,-22.772156],[-43.169387,-22.772154],[-43.169388,-22.772063],[-43.169583,-22.772066]]]},"properties":{"id":"guanabara_2026-07-16_lgbm_37","region":"guanabara","date":"2026-07-16","area_m2":200.0,"mean_prob":0.7804,"max_prob":0.8863,"model":"lgbm","n_px":2,"px_area_m2":100.0,"confirmed":false,"confirmed_by":null,"lon":-43.169485,"lat":-22.77211}},{"type":"Feature","geometry":{"type":"Polygon","coordinates":[[[-43.14753,-22.775333],[-43.147528,-22.775514],[-43.147431,-22.775513],[-43.147433,-22.775332],[-43.14753,-22.775333]]]},"properties":{"id":"guanabara_2026-07-16_lgbm_38","region":"guanabara","date":"2026-07-16","area_m2":200.0,"mean_prob":0.8922,"max_prob":0.9451,"model":"lgbm","n_px":2,"px_area_m2":100.0,"confirmed":false,"confirmed_by":null,"lon":-43.147481,"lat":-22.775423}},{"type":"Feature","geometry":{"type":"Polygon","coordinates":[[[-43.143632,-22.775559],[-43.143631,-22.775649],[-43.143534,-22.775648],[-43.143532,-22.775738],[-43.143435,-22.775737],[-43.143437,-22.775556],[-43.143632,-22.775559]]]},"properties":{"id":"guanabara_2026-07-16_lgbm_39","region":"guanabara","date":"2026-07-16","area_m2":300.0,"mean_prob":0.9229,"max_prob":0.9961,"model":"lgbm","n_px":3,"px_area_m2":100.0,"confirmed":false,"confirmed_by":null,"lon":-43.143518,"lat":-22.775633}},{"type":"Feature","geometry":{"type":"Polygon","coordinates":[[[-43.143531,-22.775828],[-43.143527,-22.776099],[-43.14382,-22.776103],[-43.143818,-22.776193],[-43.143721,-22.776192],[-43.14372,-22.776282],[-43.143622,-22.776281],[-43.143624,-22.776191],[-43.143526,-22.77619],[-43.143527,-22.776099],[-43.14343,-22.776098],[-43.143431,-22.776008],[-43.143334,-22.776007],[-43.143335,-22.775916],[-43.143433,-22.775918],[-43.143434,-22.775827],[-43.143531,-22.775828]]]},"properties":{"id":"guanabara_2026-07-16_lgbm_40","region":"guanabara","date":"2026-07-16","area_m2":800.0,"mean_prob":0.9588,"max_prob":1.0,"model":"lgbm","n_px":8,"px_area_m2":100.0,"artifact":"ship","confirmed":false,"confirmed_by":null,"lon":-43.143564,"lat":-22.776066}},{"type":"Feature","geometry":{"type":"Polygon","coordinates":[[[-43.143701,-22.777636],[-43.143699,-22.777817],[-43.143504,-22.777815],[-43.143507,-22.777634],[-43.143701,-22.777636]]]},"properties":{"id":"guanabara_2026-07-16_lgbm_41","region":"guanabara","date":"2026-07-16","area_m2":400.0,"mean_prob":0.9804,"max_prob":1.0,"model":"lgbm","n_px":4,"px_area_m2":100.0,"confirmed":false,"confirmed_by":null,"lon":-43.143603,"lat":-22.777726}},{"type":"Feature","geometry":{"type":"Polygon","coordinates":[[[-43.143408,-22.777723],[-43.143407,-22.777814],[-43.14331,-22.777813],[-43.143308,-22.777903],[-43.143211,-22.777902],[-43.143213,-22.777721],[-43.143408,-22.777723]]]},"properties":{"id":"guanabara_2026-07-16_lgbm_42","region":"guanabara","date":"2026-07-16","area_m2":300.0,"mean_prob":0.9739,"max_prob":0.9882,"model":"lgbm","n_px":3,"px_area_m2":100.0,"confirmed":false,"confirmed_by":null,"lon":-43.143293,"lat":-22.777797}},{"type":"Feature","geometry":{"type":"Polygon","coordinates":[[[-43.19061,-22.779981],[-43.190609,-22.780072],[-43.190706,-22.780073],[-43.190705,-22.780163],[-43.190607,-22.780162],[-43.190609,-22.780072],[-43.190511,-22.780071],[-43.190512,-22.77998],[-43.19061,-22.779981]]]},"properties":{"id":"guanabara_2026-07-16_lgbm_43","region":"guanabara","date":"2026-07-16","area_m2":200.0,"mean_prob":0.8098,"max_prob":0.8431,"model":"lgbm","n_px":2,"px_area_m2":100.0,"confirmed":false,"confirmed_by":null,"lon":-43.190609,"lat":-22.780072}},{"type":"Feature","geometry":{"type":"Polygon","coordinates":[[[-43.251133,-22.784088],[-43.251131,-22.784269],[-43.251033,-22.784268],[-43.251036,-22.784087],[-43.251133,-22.784088]]]},"properties":{"id":"guanabara_2026-07-16_lgbm_44","region":"guanabara","date":"2026-07-16","area_m2":200.0,"mean_prob":0.9922,"max_prob":0.9961,"model":"lgbm","n_px":2,"px_area_m2":100.0,"confirmed":false,"confirmed_by":null,"lon":-43.251083,"lat":-22.784178}},{"type":"Feature","geometry":{"type":"Polygon","coordinates":[[[-43.08853,-22.788453],[-43.088526,-22.788724],[-43.088428,-22.788723],[-43.088432,-22.788452],[-43.08853,-22.788453]]]},"properties":{"id":"guanabara_2026-07-16_lgbm_45","region":"guanabara","date":"2026-07-16","area_m2":300.0,"mean_prob":0.9908,"max_prob":1.0,"model":"lgbm","n_px":3,"px_area_m2":100.0,"confirmed":false,"confirmed_by":null,"lon":-43.088479,"lat":-22.788588}},{"type":"Feature","geometry":{"type":"Polygon","coordinates":[[[-43.132931,-22.78907],[-43.13293,-22.78916],[-43.132735,-22.789158],[-43.132736,-22.789067],[-43.132931,-22.78907]]]},"properties":{"id":"guanabara_2026-07-16_lgbm_46","region":"guanabara","date":"2026-07-16","area_m2":200.0,"mean_prob":0.9961,"max_prob":0.9961,"model":"lgbm","n_px":2,"px_area_m2":100.0,"confirmed":false,"confirmed_by":null,"lon":-43.132833,"lat":-22.789114}},{"type":"Feature","geometry":{"type":"Polygon","coordinates":[[[-43.137896,-22.789218],[-43.137895,-22.789308],[-43.137797,-22.789307],[-43.137795,-22.789488],[-43.137698,-22.789487],[-43.137701,-22.789216],[-43.137896,-22.789218]]]},"properties":{"id":"guanabara_2026-07-16_lgbm_47","region":"guanabara","date":"2026-07-16","area_m2":400.0,"mean_prob":0.8951,"max_prob":0.9961,"model":"lgbm","n_px":4,"px_area_m2":100.0,"confirmed":false,"confirmed_by":null,"lon":-43.137773,"lat":-22.789329}},{"type":"Feature","geometry":{"type":"Polygon","coordinates":[[[-43.145186,-22.790296],[-43.145185,-22.790387],[-43.145087,-22.790385],[-43.145085,-22.790566],[-43.144987,-22.790565],[-43.14499,-22.790384],[-43.145087,-22.790385],[-43.145088,-22.790295],[-43.145186,-22.790296]]]},"properties":{"id":"guanabara_2026-07-16_lgbm_48","region":"guanabara","date":"2026-07-16","area_m2":300.0,"mean_prob":0.7948,"max_prob":0.9412,"model":"lgbm","n_px":3,"px_area_m2":100.0,"confirmed":false,"confirmed_by":null,"lon":-43.14507,"lat":-22.79043}},{"type":"Feature","geometry":{"type":"Polygon","coordinates":[[[-43.089465,-22.791174],[-43.089463,-22.791354],[-43.089366,-22.791353],[-43.089364,-22.791443],[-43.089267,-22.791442],[-43.089269,-22.791261],[-43.089367,-22.791263],[-43.089368,-22.791172],[-43.089465,-22.791174]]]},"properties":{"id":"guanabara_2026-07-16_lgbm_49","region":"guanabara","date":"2026-07-16","area_m2":400.0,"mean_prob":0.9549,"max_prob":1.0,"model":"lgbm","n_px":4,"px_area_m2":100.0,"confirmed":false,"confirmed_by":null,"lon":-43.089366,"lat":-22.791308}},{"type":"Feature","geometry":{"type":"Polygon","coordinates":[[[-43.176579,-22.802488],[-43.176577,-22.802669],[-43.176479,-22.802668],[-43.176482,-22.802487],[-43.176579,-22.802488]]]},"properties":{"id":"guanabara_2026-07-16_lgbm_50","region":"guanabara","date":"2026-07-16","area_m2":200.0,"mean_prob":0.9098,"max_prob":0.9216,"model":"lgbm","n_px":2,"px_area_m2":100.0,"confirmed":false,"confirmed_by":null,"lon":-43.176529,"lat":-22.802578}},{"type":"Feature","geometry":{"type":"Polygon","coordinates":[[[-43.162554,-22.802417],[-43.162553,-22.802508],[-43.16265,-22.802509],[-43.162649,-22.802599],[-43.162454,-22.802597],[-43.162457,-22.802416],[-43.162554,-22.802417]]]},"properties":{"id":"guanabara_2026-07-16_lgbm_51","region":"guanabara","date":"2026-07-16","area_m2":300.0,"mean_prob":0.9124,"max_prob":0.9922,"model":"lgbm","n_px":3,"px_area_m2":100.0,"confirmed":false,"confirmed_by":null,"lon":-43.162536,"lat":-22.802523}},{"type":"Feature","geometry":{"type":"Polygon","coordinates":[[[-43.133605,-22.803977],[-43.133603,-22.804068],[-43.133506,-22.804067],[-43.133505,-22.804157],[-43.133407,-22.804156],[-43.13341,-22.803975],[-43.133605,-22.803977]]]},"properties":{"id":"guanabara_2026-07-16_lgbm_52","region":"guanabara","date":"2026-07-16","area_m2":300.0,"mean_prob":0.8993,"max_prob":0.9961,"model":"lgbm","n_px":3,"px_area_m2":100.0,"confirmed":false,"confirmed_by":null,"lon":-43.13349,"lat":-22.804051}},{"type":"Feature","geometry":{"type":"Polygon","coordinates":[[[-43.069231,-22.803391],[-43.06923,-22.803482],[-43.069327,-22.803483],[-43.069326,-22.803573],[-43.069034,-22.803569],[-43.069035,-22.803479],[-43.069132,-22.80348],[-43.069133,-22.80339],[-43.069231,-22.803391]]]},"properties":{"id":"guanabara_2026-07-16_lgbm_53","region":"guanabara","date":"2026-07-16","area_m2":400.0,"mean_prob":0.9549,"max_prob":0.9961,"model":"lgbm","n_px":4,"px_area_m2":100.0,"confirmed":false,"confirmed_by":null,"lon":-43.069181,"lat":-22.803504}},{"type":"Feature","geometry":{"type":"Polygon","coordinates":[[[-43.06883,-22.804199],[-43.068829,-22.804289],[-43.068926,-22.804291],[-43.068923,-22.804471],[-43.068729,-22.804469],[-43.06873,-22.804379],[-43.068633,-22.804377],[-43.068635,-22.804197],[-43.06883,-22.804199]]]},"properties":{"id":"guanabara_2026-07-16_lgbm_54","region":"guanabara","date":"2026-07-16","area_m2":700.0,"mean_prob":0.9406,"max_prob":0.9961,"model":"lgbm","n_px":7,"px_area_m2":100.0,"confirmed":false,"confirmed_by":null,"lon":-43.068779,"lat":-22.804334}},{"type":"Feature","geometry":{"type":"Polygon","coordinates":[[[-43.070192,-22.804306],[-43.070189,-22.804487],[-43.070092,-22.804485],[-43.070095,-22.804305],[-43.070192,-22.804306]]]},"properties":{"id":"guanabara_2026-07-16_lgbm_55","region":"guanabara","date":"2026-07-16","area_m2":200.0,"mean_prob":0.8569,"max_prob":0.902,"model":"lgbm","n_px":2,"px_area_m2":100.0,"confirmed":false,"confirmed_by":null,"lon":-43.070142,"lat":-22.804396}},{"type":"Feature","geometry":{"type":"Polygon","coordinates":[[[-43.069316,-22.804295],[-43.069314,-22.804386],[-43.069119,-22.804383],[-43.069121,-22.804293],[-43.069316,-22.804295]]]},"properties":{"id":"guanabara_2026-07-16_lgbm_56","region":"guanabara","date":"2026-07-16","area_m2":200.0,"mean_prob":0.749,"max_prob":0.8078,"model":"lgbm","n_px":2,"px_area_m2":100.0,"confirmed":false,"confirmed_by":null,"lon":-43.069218,"lat":-22.804339}},{"type":"Feature","geometry":{"type":"Polygon","coordinates":[[[-43.069704,-22.80439],[-43.069701,-22.804571],[-43.069604,-22.80457],[-43.069606,-22.804389],[-43.069704,-22.80439]]]},"properties":{"id":"guanabara_2026-07-16_lgbm_57","region":"guanabara","date":"2026-07-16","area_m2":200.0,"mean_prob":0.8745,"max_prob":0.949,"model":"lgbm","n_px":2,"px_area_m2":100.0,"confirmed":false,"confirmed_by":null,"lon":-43.069654,"lat":-22.80448}},{"type":"Feature","geometry":{"type":"Polygon","coordinates":[[[-43.176512,-22.807544],[-43.176509,-22.807725],[-43.176412,-22.807724],[-43.176414,-22.807543],[-43.176512,-22.807544]]]},"properties":{"id":"guanabara_2026-07-16_lgbm_58","region":"guanabara","date":"2026-07-16","area_m2":200.0,"mean_prob":0.802,"max_prob":0.9176,"model":"lgbm","n_px":2,"px_area_m2":100.0,"confirmed":false,"confirmed_by":null,"lon":-43.176462,"lat":-22.807634}},{"type":"Feature","geometry":{"type":"Polygon","coordinates":[[[-43.14495,-22.807722],[-43.144947,-22.807903],[-43.144753,-22.8079],[-43.144754,-22.80781],[-43.144851,-22.807811],[-43.144852,-22.807721],[-43.14495,-22.807722]]]},"properties":{"id":"guanabara_2026-07-16_lgbm_59","region":"guanabara","date":"2026-07-16","area_m2":300.0,"mean_prob":0.9895,"max_prob":1.0,"model":"lgbm","n_px":3,"px_area_m2":100.0,"confirmed":false,"confirmed_by":null,"lon":-43.144867,"lat":-22.807826}},{"type":"Feature","geometry":{"type":"Polygon","coordinates":[[[-43.1753,-22.810782],[-43.175298,-22.810872],[-43.175104,-22.81087],[-43.175105,-22.810779],[-43.1753,-22.810782]]]},"properties":{"id":"guanabara_2026-07-16_lgbm_60","region":"guanabara","date":"2026-07-16","area_m2":200.0,"mean_prob":0.8529,"max_prob":1.0,"model":"lgbm","n_px":2,"px_area_m2":100.0,"confirmed":false,"confirmed_by":null,"lon":-43.175202,"lat":-22.810826}},{"type":"Feature","geometry":{"type":"Polygon","coordinates":[[[-43.164583,-22.810929],[-43.164582,-22.81102],[-43.164679,-22.811021],[-43.164678,-22.811111],[-43.164483,-22.811109],[-43.164485,-22.810928],[-43.164583,-22.810929]]]},"properties":{"id":"guanabara_2026-07-16_lgbm_61","region":"guanabara","date":"2026-07-16","area_m2":300.0,"mean_prob":0.8248,"max_prob":0.9529,"model":"lgbm","n_px":3,"px_area_m2":100.0,"artifact":"ship","confirmed":false,"confirmed_by":null,"lon":-43.164565,"lat":-22.811035}},{"type":"Feature","geometry":{"type":"Polygon","coordinates":[[[-43.166038,-22.811398],[-43.166035,-22.811578],[-43.165938,-22.811577],[-43.16594,-22.811397],[-43.166038,-22.811398]]]},"properties":{"id":"guanabara_2026-07-16_lgbm_62","region":"guanabara","date":"2026-07-16","area_m2":200.0,"mean_prob":0.8824,"max_prob":0.9608,"model":"lgbm","n_px":2,"px_area_m2":100.0,"artifact":"ship","confirmed":false,"confirmed_by":null,"lon":-43.165988,"lat":-22.811487}},{"type":"Feature","geometry":{"type":"Polygon","coordinates":[[[-43.168826,-22.814139],[-43.168823,-22.814319],[-43.168726,-22.814318],[-43.168727,-22.814228],[-43.16863,-22.814227],[-43.168631,-22.814137],[-43.168826,-22.814139]]]},"properties":{"id":"guanabara_2026-07-16_lgbm_63","region":"guanabara","date":"2026-07-16","area_m2":300.0,"mean_prob":0.766,"max_prob":0.9451,"model":"lgbm","n_px":3,"px_area_m2":100.0,"confirmed":false,"confirmed_by":null,"lon":-43.168744,"lat":-22.814213}},{"type":"Feature","geometry":{"type":"Polygon","coordinates":[[[-43.175345,-22.814665],[-43.175344,-22.814755],[-43.175149,-22.814753],[-43.175151,-22.814663],[-43.175345,-22.814665]]]},"properties":{"id":"guanabara_2026-07-16_lgbm_64","region":"guanabara","date":"2026-07-16","area_m2":200.0,"mean_prob":0.6647,"max_prob":0.6745,"model":"lgbm","n_px":2,"px_area_m2":100.0,"confirmed":false,"confirmed_by":null,"lon":-43.175247,"lat":-22.814709}},{"type":"Feature","geometry":{"type":"Polygon","coordinates":[[[-43.161874,-22.816768],[-43.161873,-22.816858],[-43.161776,-22.816857],[-43.161773,-22.817038],[-43.161676,-22.817037],[-43.16168,-22.816766],[-43.161874,-22.816768]]]},"properties":{"id":"guanabara_2026-07-16_lgbm_65","region":"guanabara","date":"2026-07-16","area_m2":400.0,"mean_prob":0.898,"max_prob":0.9882,"model":"lgbm","n_px":4,"px_area_m2":100.0,"artifact":"seam","confirmed":false,"confirmed_by":null,"lon":-43.161751,"lat":-22.816879}},{"type":"Feature","geometry":{"type":"Polygon","coordinates":[[[-43.173655,-22.817265],[-43.173652,-22.817445],[-43.173555,-22.817444],[-43.173557,-22.817263],[-43.173655,-22.817265]]]},"properties":{"id":"guanabara_2026-07-16_lgbm_66","region":"guanabara","date":"2026-07-16","area_m2":200.0,"mean_prob":0.9647,"max_prob":0.9961,"model":"lgbm","n_px":2,"px_area_m2":100.0,"confirmed":false,"confirmed_by":null,"lon":-43.173605,"lat":-22.817354}},{"type":"Feature","geometry":{"type":"Polygon","coordinates":[[[-43.087837,-22.817161],[-43.087834,-22.817341],[-43.087737,-22.81734],[-43.087739,-22.81716],[-43.087837,-22.817161]]]},"properties":{"id":"guanabara_2026-07-16_lgbm_67","region":"guanabara","date":"2026-07-16","area_m2":200.0,"mean_prob":0.7333,"max_prob":0.7961,"model":"lgbm","n_px":2,"px_area_m2":100.0,"confirmed":false,"confirmed_by":null,"lon":-43.087787,"lat":-22.81725}},{"type":"Feature","geometry":{"type":"Polygon","coordinates":[[[-43.086951,-22.817782],[-43.08695,-22.817873],[-43.086755,-22.81787],[-43.086757,-22.81778],[-43.086951,-22.817782]]]},"properties":{"id":"guanabara_2026-07-16_lgbm_68","region":"guanabara","date":"2026-07-16","area_m2":200.0,"mean_prob":0.949,"max_prob":0.949,"model":"lgbm","n_px":2,"px_area_m2":100.0,"confirmed":false,"confirmed_by":null,"lon":-43.086853,"lat":-22.817826}},{"type":"Feature","geometry":{"type":"Polygon","coordinates":[[[-43.170404,-22.819936],[-43.170402,-22.820117],[-43.170305,-22.820116],[-43.170307,-22.819935],[-43.170404,-22.819936]]]},"properties":{"id":"guanabara_2026-07-16_lgbm_69","region":"guanabara","date":"2026-07-16","area_m2":200.0,"mean_prob":0.6941,"max_prob":0.7216,"model":"lgbm","n_px":2,"px_area_m2":100.0,"artifact":"ship","confirmed":false,"confirmed_by":null,"lon":-43.170354,"lat":-22.820026}},{"type":"Feature","geometry":{"type":"Polygon","coordinates":[[[-43.087713,-22.819056],[-43.08771,-22.819236],[-43.087613,-22.819235],[-43.087615,-22.819054],[-43.087713,-22.819056]]]},"properties":{"id":"guanabara_2026-07-16_lgbm_70","region":"guanabara","date":"2026-07-16","area_m2":200.0,"mean_prob":0.8922,"max_prob":1.0,"model":"lgbm","n_px":2,"px_area_m2":100.0,"confirmed":false,"confirmed_by":null,"lon":-43.087663,"lat":-22.819145}},{"type":"Feature","geometry":{"type":"Polygon","coordinates":[[[-43.08644,-22.819492],[-43.086439,-22.819582],[-43.086244,-22.81958],[-43.086246,-22.819489],[-43.08644,-22.819492]]]},"properties":{"id":"guanabara_2026-07-16_lgbm_71","region":"guanabara","date":"2026-07-16","area_m2":200.0,"mean_prob":0.8255,"max_prob":0.9725,"model":"lgbm","n_px":2,"px_area_m2":100.0,"confirmed":false,"confirmed_by":null,"lon":-43.086342,"lat":-22.819536}},{"type":"Feature","geometry":{"type":"Polygon","coordinates":[[[-43.085661,-22.819482],[-43.08566,-22.819573],[-43.085563,-22.819572],[-43.08556,-22.819752],[-43.085463,-22.819751],[-43.085464,-22.819661],[-43.085367,-22.81966],[-43.085368,-22.819569],[-43.085465,-22.81957],[-43.085466,-22.81948],[-43.085661,-22.819482]]]},"properties":{"id":"guanabara_2026-07-16_lgbm_72","region":"guanabara","date":"2026-07-16","area_m2":500.0,"mean_prob":0.8722,"max_prob":0.9882,"model":"lgbm","n_px":5,"px_area_m2":100.0,"artifact":"seam","confirmed":false,"confirmed_by":null,"lon":-43.085514,"lat":-22.819598}},{"type":"Feature","geometry":{"type":"Polygon","coordinates":[[[-43.147016,-22.820569],[-43.147014,-22.82075],[-43.146819,-22.820747],[-43.146822,-22.820567],[-43.147016,-22.820569]]]},"properties":{"id":"guanabara_2026-07-16_lgbm_73","region":"guanabara","date":"2026-07-16","area_m2":400.0,"mean_prob":0.952,"max_prob":0.9961,"model":"lgbm","n_px":4,"px_area_m2":100.0,"confirmed":false,"confirmed_by":null,"lon":-43.146918,"lat":-22.820658}},{"type":"Feature","geometry":{"type":"Polygon","coordinates":[[[-43.113791,-22.821082],[-43.113789,-22.821263],[-43.113691,-22.821262],[-43.113694,-22.821081],[-43.113791,-22.821082]]]},"properties":{"id":"guanabara_2026-07-16_lgbm_74","region":"guanabara","date":"2026-07-16","area_m2":200.0,"mean_prob":1.0,"max_prob":1.0,"model":"lgbm","n_px":2,"px_area_m2":100.0,"confirmed":false,"confirmed_by":null,"lon":-43.113741,"lat":-22.821172}},{"type":"Feature","geometry":{"type":"Polygon","coordinates":[[[-43.166829,-22.825043],[-43.166827,-22.825223],[-43.166729,-22.825222],[-43.16673,-22.825132],[-43.166633,-22.825131],[-43.166634,-22.82504],[-43.166829,-22.825043]]]},"properties":{"id":"guanabara_2026-07-16_lgbm_75","region":"guanabara","date":"2026-07-16","area_m2":300.0,"mean_prob":0.8484,"max_prob":0.9098,"model":"lgbm","n_px":3,"px_area_m2":100.0,"artifact":"ship","confirmed":false,"confirmed_by":null,"lon":-43.166747,"lat":-22.825117}},{"type":"Feature","geometry":{"type":"Polygon","coordinates":[[[-43.127477,-22.824675],[-43.127476,-22.824765],[-43.127281,-22.824763],[-43.127283,-22.824673],[-43.127477,-22.824675]]]},"properties":{"id":"guanabara_2026-07-16_lgbm_76","region":"guanabara","date":"2026-07-16","area_m2":200.0,"mean_prob":0.9863,"max_prob":0.9882,"model":"lgbm","n_px":2,"px_area_m2":100.0,"confirmed":false,"confirmed_by":null,"lon":-43.127379,"lat":-22.824719}},{"type":"Feature","geometry":{"type":"Polygon","coordinates":[[[-43.144085,-22.828391],[-43.144083,-22.828572],[-43.143985,-22.828571],[-43.143988,-22.82839],[-43.144085,-22.828391]]]},"properties":{"id":"guanabara_2026-07-16_lgbm_77","region":"guanabara","date":"2026-07-16","area_m2":200.0,"mean_prob":0.9961,"max_prob":1.0,"model":"lgbm","n_px":2,"px_area_m2":100.0,"confirmed":false,"confirmed_by":null,"lon":-43.144035,"lat":-22.828481}},{"type":"Feature","geometry":{"type":"Polygon","coordinates":[[[-43.111541,-22.828822],[-43.11154,-22.828912],[-43.111637,-22.828913],[-43.111636,-22.829003],[-43.111441,-22.829001],[-43.111443,-22.828911],[-43.111345,-22.82891],[-43.111347,-22.828819],[-43.111541,-22.828822]]]},"properties":{"id":"guanabara_2026-07-16_lgbm_78","region":"guanabara","date":"2026-07-16","area_m2":400.0,"mean_prob":0.9363,"max_prob":1.0,"model":"lgbm","n_px":4,"px_area_m2":100.0,"confirmed":false,"confirmed_by":null,"lon":-43.111491,"lat":-22.828911}},{"type":"Feature","geometry":{"type":"Polygon","coordinates":[[[-43.098924,-22.832464],[-43.098922,-22.832554],[-43.09902,-22.832556],[-43.099019,-22.832646],[-43.098921,-22.832645],[-43.09892,-22.832735],[-43.098823,-22.832734],[-43.098824,-22.832643],[-43.098726,-22.832642],[-43.098728,-22.832552],[-43.098825,-22.832553],[-43.098826,-22.832463],[-43.098924,-22.832464]]]},"properties":{"id":"guanabara_2026-07-16_lgbm_79","region":"guanabara","date":"2026-07-16","area_m2":500.0,"mean_prob":0.8502,"max_prob":0.9804,"model":"lgbm","n_px":5,"px_area_m2":100.0,"artifact":"ship","confirmed":false,"confirmed_by":null,"lon":-43.098873,"lat":-22.832599}},{"type":"Feature","geometry":{"type":"Polygon","coordinates":[[[-43.251263,-22.834932],[-43.251261,-22.835113],[-43.251066,-22.835111],[-43.251067,-22.835021],[-43.251165,-22.835022],[-43.251166,-22.834931],[-43.251263,-22.834932]]]},"properties":{"id":"guanabara_2026-07-16_lgbm_80","region":"guanabara","date":"2026-07-16","area_m2":300.0,"mean_prob":0.949,"max_prob":0.9804,"model":"lgbm","n_px":3,"px_area_m2":100.0,"artifact":"ship","confirmed":false,"confirmed_by":null,"lon":-43.251181,"lat":-22.835037}},{"type":"Feature","geometry":{"type":"Polygon","coordinates":[[[-43.252414,-22.83639],[-43.252413,-22.83648],[-43.252218,-22.836478],[-43.252219,-22.836388],[-43.252414,-22.83639]]]},"properties":{"id":"guanabara_2026-07-16_lgbm_81","region":"guanabara","date":"2026-07-16","area_m2":200.0,"mean_prob":0.7471,"max_prob":0.851,"model":"lgbm","n_px":2,"px_area_m2":100.0,"confirmed":false,"confirmed_by":null,"lon":-43.252316,"lat":-22.836434}},{"type":"Feature","geometry":{"type":"Polygon","coordinates":[[[-43.113103,-22.835703],[-43.113101,-22.835793],[-43.112906,-22.835791],[-43.112908,-22.835701],[-43.113103,-22.835703]]]},"properties":{"id":"guanabara_2026-07-16_lgbm_82","region":"guanabara","date":"2026-07-16","area_m2":200.0,"mean_prob":0.7667,"max_prob":0.8314,"model":"lgbm","n_px":2,"px_area_m2":100.0,"confirmed":false,"confirmed_by":null,"lon":-43.113005,"lat":-22.835747}},{"type":"Feature","geometry":{"type":"Polygon","coordinates":[[[-43.155177,-22.836648],[-43.155175,-22.836828],[-43.15498,-22.836826],[-43.154981,-22.836736],[-43.155079,-22.836737],[-43.15508,-22.836646],[-43.155177,-22.836648]]]},"properties":{"id":"guanabara_2026-07-16_lgbm_83","region":"guanabara","date":"2026-07-16","area_m2":300.0,"mean_prob":0.9725,"max_prob":0.9765,"model":"lgbm","n_px":3,"px_area_m2":100.0,"confirmed":false,"confirmed_by":null,"lon":-43.155095,"lat":-22.836752}},{"type":"Feature","geometry":{"type":"Polygon","coordinates":[[[-43.137737,-22.836715],[-43.137735,-22.836896],[-43.137637,-22.836895],[-43.13764,-22.836714],[-43.137737,-22.836715]]]},"properties":{"id":"guanabara_2026-07-16_lgbm_84","region":"guanabara","date":"2026-07-16","area_m2":200.0,"mean_prob":0.9627,"max_prob":0.9725,"model":"lgbm","n_px":2,"px_area_m2":100.0,"confirmed":false,"confirmed_by":null,"lon":-43.137687,"lat":-22.836805}},{"type":"Feature","geometry":{"type":"Polygon","coordinates":[[[-43.221578,-22.840112],[-43.221577,-22.840203],[-43.221479,-22.840201],[-43.221478,-22.840292],[-43.221381,-22.840291],[-43.221383,-22.84011],[-43.221578,-22.840112]]]},"properties":{"id":"guanabara_2026-07-16_lgbm_85","region":"guanabara","date":"2026-07-16","area_m2":300.0,"mean_prob":0.8588,"max_prob":0.9882,"model":"lgbm","n_px":3,"px_area_m2":100.0,"confirmed":false,"confirmed_by":null,"lon":-43.221463,"lat":-22.840186}},{"type":"Feature","geometry":{"type":"Polygon","coordinates":[[[-43.127466,-22.839756],[-43.127463,-22.839936],[-43.127269,-22.839934],[-43.127271,-22.839753],[-43.127466,-22.839756]]]},"properties":{"id":"guanabara_2026-07-16_lgbm_86","region":"guanabara","date":"2026-07-16","area_m2":400.0,"mean_prob":0.7814,"max_prob":0.8275,"model":"lgbm","n_px":4,"px_area_m2":100.0,"artifact":"ship","confirmed":false,"confirmed_by":null,"lon":-43.127367,"lat":-22.839845}},{"type":"Feature","geometry":{"type":"Polygon","coordinates":[[[-43.130948,-22.841603],[-43.130946,-22.841783],[-43.130751,-22.841781],[-43.130753,-22.8416],[-43.130948,-22.841603]]]},"properties":{"id":"guanabara_2026-07-16_lgbm_87","region":"guanabara","date":"2026-07-16","area_m2":400.0,"mean_prob":1.0,"max_prob":1.0,"model":"lgbm","n_px":4,"px_area_m2":100.0,"confirmed":false,"confirmed_by":null,"lon":-43.130849,"lat":-22.841692}},{"type":"Feature","geometry":{"type":"Polygon","coordinates":[[[-43.140838,-22.84515],[-43.140835,-22.84533],[-43.140738,-22.845329],[-43.14074,-22.845149],[-43.140838,-22.84515]]]},"properties":{"id":"guanabara_2026-07-16_lgbm_88","region":"guanabara","date":"2026-07-16","area_m2":200.0,"mean_prob":0.951,"max_prob":0.9922,"model":"lgbm","n_px":2,"px_area_m2":100.0,"confirmed":false,"confirmed_by":null,"lon":-43.140788,"lat":-22.84524}},{"type":"Feature","geometry":{"type":"Polygon","coordinates":[[[-43.154068,-22.846658],[-43.154067,-22.846749],[-43.154164,-22.84675],[-43.154163,-22.84684],[-43.153968,-22.846838],[-43.15397,-22.846657],[-43.154068,-22.846658]]]},"properties":{"id":"guanabara_2026-07-16_lgbm_89","region":"guanabara","date":"2026-07-16","area_m2":300.0,"mean_prob":0.9856,"max_prob":1.0,"model":"lgbm","n_px":3,"px_area_m2":100.0,"confirmed":false,"confirmed_by":null,"lon":-43.15405,"lat":-22.846764}},{"type":"Feature","geometry":{"type":"Polygon","coordinates":[[[-43.131054,-22.848106],[-43.131051,-22.848286],[-43.130954,-22.848285],[-43.130957,-22.848104],[-43.131054,-22.848106]]]},"properties":{"id":"guanabara_2026-07-16_lgbm_90","region":"guanabara","date":"2026-07-16","area_m2":200.0,"mean_prob":0.998,"max_prob":1.0,"model":"lgbm","n_px":2,"px_area_m2":100.0,"confirmed":false,"confirmed_by":null,"lon":-43.131004,"lat":-22.848195}},{"type":"Feature","geometry":{"type":"Polygon","coordinates":[[[-43.13932,-22.849286],[-43.139317,-22.849467],[-43.139122,-22.849464],[-43.139125,-22.849284],[-43.13932,-22.849286]]]},"properties":{"id":"guanabara_2026-07-16_lgbm_91","region":"guanabara","date":"2026-07-16","area_m2":400.0,"mean_prob":0.9794,"max_prob":1.0,"model":"lgbm","n_px":4,"px_area_m2":100.0,"confirmed":false,"confirmed_by":null,"lon":-43.139221,"lat":-22.849375}},{"type":"Feature","geometry":{"type":"Polygon","coordinates":[[[-43.124707,-22.849115],[-43.124704,-22.849295],[-43.124607,-22.849294],[-43.124608,-22.849204],[-43.124511,-22.849203],[-43.124512,-22.849112],[-43.124707,-22.849115]]]},"properties":{"id":"guanabara_2026-07-16_lgbm_92","region":"guanabara","date":"2026-07-16","area_m2":300.0,"mean_prob":0.8144,"max_prob":0.9412,"model":"lgbm","n_px":3,"px_area_m2":100.0,"confirmed":false,"confirmed_by":null,"lon":-43.124625,"lat":-22.849189}},{"type":"Feature","geometry":{"type":"Polygon","coordinates":[[[-43.123325,-22.850453],[-43.123322,-22.850633],[-43.123225,-22.850632],[-43.123227,-22.850452],[-43.123325,-22.850453]]]},"properties":{"id":"guanabara_2026-07-16_lgbm_93","region":"guanabara","date":"2026-07-16","area_m2":200.0,"mean_prob":0.9412,"max_prob":0.949,"model":"lgbm","n_px":2,"px_area_m2":100.0,"confirmed":false,"confirmed_by":null,"lon":-43.123275,"lat":-22.850542}},{"type":"Feature","geometry":{"type":"Polygon","coordinates":[[[-43.133923,-22.852022],[-43.133922,-22.852113],[-43.133727,-22.85211],[-43.133729,-22.85202],[-43.133923,-22.852022]]]},"properties":{"id":"guanabara_2026-07-16_lgbm_94","region":"guanabara","date":"2026-07-16","area_m2":200.0,"mean_prob":0.9529,"max_prob":0.9804,"model":"lgbm","n_px":2,"px_area_m2":100.0,"artifact":"ship","confirmed":false,"confirmed_by":null,"lon":-43.133825,"lat":-22.852066}},{"type":"Feature","geometry":{"type":"Polygon","coordinates":[[[-43.145105,-22.853778],[-43.145102,-22.853959],[-43.145005,-22.853958],[-43.145007,-22.853777],[-43.145105,-22.853778]]]},"properties":{"id":"guanabara_2026-07-16_lgbm_95","region":"guanabara","date":"2026-07-16","area_m2":200.0,"mean_prob":0.9412,"max_prob":0.9922,"model":"lgbm","n_px":2,"px_area_m2":100.0,"confirmed":false,"confirmed_by":null,"lon":-43.145055,"lat":-22.853868}},{"type":"Feature","geometry":{"type":"Polygon","coordinates":[[[-43.131065,-22.854427],[-43.131062,-22.854607],[-43.130965,-22.854606],[-43.130968,-22.854426],[-43.131065,-22.854427]]]},"properties":{"id":"guanabara_2026-07-16_lgbm_96","region":"guanabara","date":"2026-07-16","area_m2":200.0,"mean_prob":0.9765,"max_prob":0.9843,"model":"lgbm","n_px":2,"px_area_m2":100.0,"confirmed":false,"confirmed_by":null,"lon":-43.131015,"lat":-22.854517}},{"type":"Feature","geometry":{"type":"Polygon","coordinates":[[[-43.120138,-22.855472],[-43.120136,-22.855562],[-43.119941,-22.85556],[-43.119943,-22.85547],[-43.120138,-22.855472]]]},"properties":{"id":"guanabara_2026-07-16_lgbm_97","region":"guanabara","date":"2026-07-16","area_m2":200.0,"mean_prob":0.7863,"max_prob":0.8196,"model":"lgbm","n_px":2,"px_area_m2":100.0,"confirmed":false,"confirmed_by":null,"lon":-43.12004,"lat":-22.855516}},{"type":"Feature","geometry":{"type":"Polygon","coordinates":[[[-43.131519,-22.85687],[-43.131518,-22.856961],[-43.131323,-22.856958],[-43.131324,-22.856868],[-43.131519,-22.85687]]]},"properties":{"id":"guanabara_2026-07-16_lgbm_98","region":"guanabara","date":"2026-07-16","area_m2":200.0,"mean_prob":0.9922,"max_prob":0.9961,"model":"lgbm","n_px":2,"px_area_m2":100.0,"confirmed":false,"confirmed_by":null,"lon":-43.131421,"lat":-22.856914}},{"type":"Feature","geometry":{"type":"Polygon","coordinates":[[[-43.141044,-22.858607],[-43.141043,-22.858698],[-43.140946,-22.858697],[-43.140944,-22.858787],[-43.141042,-22.858788],[-43.141041,-22.858878],[-43.140846,-22.858876],[-43.140848,-22.858695],[-43.140946,-22.858697],[-43.140947,-22.858606],[-43.141044,-22.858607]]]},"properties":{"id":"guanabara_2026-07-16_lgbm_99","region":"guanabara","date":"2026-07-16","area_m2":400.0,"mean_prob":0.9598,"max_prob":0.9961,"model":"lgbm","n_px":4,"px_area_m2":100.0,"confirmed":false,"confirmed_by":null,"lon":-43.140945,"lat":-22.858764}},{"type":"Feature","geometry":{"type":"Polygon","coordinates":[[[-43.1765,-22.85956],[-43.176498,-22.85974],[-43.176401,-22.859739],[-43.176402,-22.859649],[-43.176304,-22.859648],[-43.176306,-22.859557],[-43.1765,-22.85956]]]},"properties":{"id":"guanabara_2026-07-16_lgbm_100","region":"guanabara","date":"2026-07-16","area_m2":300.0,"mean_prob":0.9163,"max_prob":0.9804,"model":"lgbm","n_px":3,"px_area_m2":100.0,"confirmed":false,"confirmed_by":null,"lon":-43.176418,"lat":-22.859634}},{"type":"Feature","geometry":{"type":"Polygon","coordinates":[[[-43.143849,-22.860175],[-43.143847,-22.860266],[-43.143653,-22.860263],[-43.143654,-22.860173],[-43.143849,-22.860175]]]},"properties":{"id":"guanabara_2026-07-16_lgbm_101","region":"guanabara","date":"2026-07-16","area_m2":200.0,"mean_prob":0.9373,"max_prob":0.949,"model":"lgbm","n_px":2,"px_area_m2":100.0,"artifact":"ship","confirmed":false,"confirmed_by":null,"lon":-43.143751,"lat":-22.860219}},{"type":"Feature","geometry":{"type":"Polygon","coordinates":[[[-43.144432,-22.860272],[-43.144431,-22.860363],[-43.144333,-22.860362],[-43.144332,-22.860452],[-43.144527,-22.860454],[-43.144526,-22.860544],[-43.144331,-22.860542],[-43.144332,-22.860452],[-43.144235,-22.860451],[-43.144234,-22.860541],[-43.144136,-22.86054],[-43.144139,-22.860359],[-43.144041,-22.860358],[-43.14404,-22.860448],[-43.143942,-22.860447],[-43.143944,-22.860357],[-43.144041,-22.860358],[-43.144042,-22.860268],[-43.14414,-22.860269],[-43.144139,-22.860359],[-43.144333,-22.860362],[-43.144335,-22.860271],[-43.144432,-22.860272]]]},"properties":{"id":"guanabara_2026-07-16_lgbm_102","region":"guanabara","date":"2026-07-16","area_m2":800.0,"mean_prob":0.9412,"max_prob":1.0,"model":"lgbm","n_px":8,"px_area_m2":100.0,"artifact":"ship","confirmed":false,"confirmed_by":null,"lon":-43.144247,"lat":-22.860417}},{"type":"Feature","geometry":{"type":"Polygon","coordinates":[[[-43.108959,-22.860577],[-43.108958,-22.860667],[-43.109055,-22.860669],[-43.109054,-22.860759],[-43.108859,-22.860756],[-43.108862,-22.860576],[-43.108959,-22.860577]]]},"properties":{"id":"guanabara_2026-07-16_lgbm_103","region":"guanabara","date":"2026-07-16","area_m2":300.0,"mean_prob":0.966,"max_prob":0.9961,"model":"lgbm","n_px":3,"px_area_m2":100.0,"confirmed":false,"confirmed_by":null,"lon":-43.108941,"lat":-22.860682}},{"type":"Feature","geometry":{"type":"Polygon","coordinates":[[[-43.154836,-22.861929],[-43.154834,-22.862109],[-43.154736,-22.862108],[-43.154739,-22.861927],[-43.154836,-22.861929]]]},"properties":{"id":"guanabara_2026-07-16_lgbm_104","region":"guanabara","date":"2026-07-16","area_m2":200.0,"mean_prob":0.9922,"max_prob":0.9961,"model":"lgbm","n_px":2,"px_area_m2":100.0,"confirmed":false,"confirmed_by":null,"lon":-43.154786,"lat":-22.862018}},{"type":"Feature","geometry":{"type":"Polygon","coordinates":[[[-43.117872,-22.864295],[-43.11787,-22.864475],[-43.117772,-22.864474],[-43.117774,-22.864384],[-43.117676,-22.864383],[-43.117678,-22.864293],[-43.117872,-22.864295]]]},"properties":{"id":"guanabara_2026-07-16_lgbm_105","region":"guanabara","date":"2026-07-16","area_m2":300.0,"mean_prob":0.898,"max_prob":0.9961,"model":"lgbm","n_px":3,"px_area_m2":100.0,"confirmed":false,"confirmed_by":null,"lon":-43.11779,"lat":-22.864369}},{"type":"Feature","geometry":{"type":"Polygon","coordinates":[[[-43.12087,-22.865956],[-43.120868,-22.866136],[-43.12077,-22.866135],[-43.120773,-22.865955],[-43.12087,-22.865956]]]},"properties":{"id":"guanabara_2026-07-16_lgbm_106","region":"guanabara","date":"2026-07-16","area_m2":200.0,"mean_prob":0.751,"max_prob":0.7882,"model":"lgbm","n_px":2,"px_area_m2":100.0,"artifact":"ship","confirmed":false,"confirmed_by":null,"lon":-43.12082,"lat":-22.866045}},{"type":"Feature","geometry":{"type":"Polygon","coordinates":[[[-43.186926,-22.866993],[-43.186923,-22.867174],[-43.186826,-22.867173],[-43.186828,-22.866992],[-43.186926,-22.866993]]]},"properties":{"id":"guanabara_2026-07-16_lgbm_107","region":"guanabara","date":"2026-07-16","area_m2":200.0,"mean_prob":0.9922,"max_prob":0.9961,"model":"lgbm","n_px":2,"px_area_m2":100.0,"confirmed":false,"confirmed_by":null,"lon":-43.186876,"lat":-22.867083}},{"type":"Feature","geometry":{"type":"Polygon","coordinates":[[[-43.125286,-22.870794],[-43.125284,-22.870974],[-43.125089,-22.870972],[-43.125092,-22.870792],[-43.125286,-22.870794]]]},"properties":{"id":"guanabara_2026-07-16_lgbm_108","region":"guanabara","date":"2026-07-16","area_m2":400.0,"mean_prob":0.9794,"max_prob":1.0,"model":"lgbm","n_px":4,"px_area_m2":100.0,"confirmed":false,"confirmed_by":null,"lon":-43.125188,"lat":-22.870883}},{"type":"Feature","geometry":{"type":"Polygon","coordinates":[[[-43.130922,-22.872034],[-43.130919,-22.872215],[-43.130822,-22.872214],[-43.130824,-22.872033],[-43.130922,-22.872034]]]},"properties":{"id":"guanabara_2026-07-16_lgbm_109","region":"guanabara","date":"2026-07-16","area_m2":200.0,"mean_prob":0.8765,"max_prob":0.9843,"model":"lgbm","n_px":2,"px_area_m2":100.0,"confirmed":false,"confirmed_by":null,"lon":-43.130872,"lat":-22.872124}},{"type":"Feature","geometry":{"type":"Polygon","coordinates":[[[-43.163872,-22.878378],[-43.16387,-22.878559],[-43.163772,-22.878557],[-43.163775,-22.878377],[-43.163872,-22.878378]]]},"properties":{"id":"guanabara_2026-07-16_lgbm_110","region":"guanabara","date":"2026-07-16","area_m2":200.0,"mean_prob":0.7392,"max_prob":0.7843,"model":"lgbm","n_px":2,"px_area_m2":100.0,"confirmed":false,"confirmed_by":null,"lon":-43.163822,"lat":-22.878468}},{"type":"Feature","geometry":{"type":"Polygon","coordinates":[[[-43.162871,-22.880353],[-43.162869,-22.880534],[-43.162771,-22.880533],[-43.162772,-22.880442],[-43.162675,-22.880441],[-43.162676,-22.880351],[-43.162871,-22.880353]]]},"properties":{"id":"guanabara_2026-07-16_lgbm_111","region":"guanabara","date":"2026-07-16","area_m2":300.0,"mean_prob":0.9752,"max_prob":0.9961,"model":"lgbm","n_px":3,"px_area_m2":100.0,"confirmed":false,"confirmed_by":null,"lon":-43.162789,"lat":-22.880427}},{"type":"Feature","geometry":{"type":"Polygon","coordinates":[[[-43.178168,-22.880619],[-43.178166,-22.8808],[-43.178068,-22.880799],[-43.17807,-22.880709],[-43.177972,-22.880707],[-43.177973,-22.880617],[-43.178168,-22.880619]]]},"properties":{"id":"guanabara_2026-07-16_lgbm_112","region":"guanabara","date":"2026-07-16","area_m2":300.0,"mean_prob":0.9608,"max_prob":0.9922,"model":"lgbm","n_px":3,"px_area_m2":100.0,"confirmed":false,"confirmed_by":null,"lon":-43.178086,"lat":-22.880694}},{"type":"Feature","geometry":{"type":"Polygon","coordinates":[[[-43.167532,-22.881581],[-43.167531,-22.881671],[-43.167629,-22.881672],[-43.167627,-22.881763],[-43.16753,-22.881761],[-43.167529,-22.881852],[-43.167431,-22.881851],[-43.167435,-22.88158],[-43.167532,-22.881581]]]},"properties":{"id":"guanabara_2026-07-16_lgbm_113","region":"guanabara","date":"2026-07-16","area_m2":400.0,"mean_prob":0.9431,"max_prob":0.9961,"model":"lgbm","n_px":4,"px_area_m2":100.0,"artifact":"ship","confirmed":false,"confirmed_by":null,"lon":-43.167506,"lat":-22.881716}},{"type":"Feature","geometry":{"type":"Polygon","coordinates":[[[-43.16869,-22.882497],[-43.168687,-22.882678],[-43.16859,-22.882677],[-43.168592,-22.882496],[-43.16869,-22.882497]]]},"properties":{"id":"guanabara_2026-07-16_lgbm_114","region":"guanabara","date":"2026-07-16","area_m2":200.0,"mean_prob":0.9745,"max_prob":0.9843,"model":"lgbm","n_px":2,"px_area_m2":100.0,"confirmed":false,"confirmed_by":null,"lon":-43.16864,"lat":-22.882587}},{"type":"Feature","geometry":{"type":"Polygon","coordinates":[[[-43.208022,-22.885655],[-43.208019,-22.885925],[-43.208116,-22.885927],[-43.208117,-22.885836],[-43.208215,-22.885837],[-43.208212,-22.886018],[-43.20831,-22.886019],[-43.208306,-22.88629],[-43.208209,-22.886289],[-43.20821,-22.886199],[-43.208112,-22.886197],[-43.208114,-22.886107],[-43.207919,-22.886105],[-43.20792,-22.886015],[-43.207822,-22.886014],[-43.207827,-22.885652],[-43.208022,-22.885655]]]},"properties":{"id":"guanabara_2026-07-16_lgbm_115","region":"guanabara","date":"2026-07-16","area_m2":1800.0,"mean_prob":0.92,"max_prob":1.0,"model":"lgbm","n_px":18,"px_area_m2":100.0,"confirmed":false,"confirmed_by":null,"lon":-43.208051,"lat":-22.885961}},{"type":"Feature","geometry":{"type":"Polygon","coordinates":[[[-43.202854,-22.885867],[-43.202853,-22.885957],[-43.20295,-22.885959],[-43.202948,-22.886139],[-43.20285,-22.886138],[-43.202853,-22.885957],[-43.202755,-22.885956],[-43.202756,-22.885866],[-43.202854,-22.885867]]]},"properties":{"id":"guanabara_2026-07-16_lgbm_116","region":"guanabara","date":"2026-07-16","area_m2":300.0,"mean_prob":0.932,"max_prob":0.9647,"model":"lgbm","n_px":3,"px_area_m2":100.0,"artifact":"seam","confirmed":true,"confirmed_by":"mdd","lon":-43.202868,"lat":-22.886003}},{"type":"Feature","geometry":{"type":"Polygon","coordinates":[[[-43.161923,-22.88558],[-43.161922,-22.88567],[-43.16163,-22.885667],[-43.161631,-22.885576],[-43.161923,-22.88558]]]},"properties":{"id":"guanabara_2026-07-16_lgbm_117","region":"guanabara","date":"2026-07-16","area_m2":300.0,"mean_prob":0.9229,"max_prob":0.9765,"model":"lgbm","n_px":3,"px_area_m2":100.0,"confirmed":false,"confirmed_by":null,"lon":-43.161777,"lat":-22.885623}},{"type":"Feature","geometry":{"type":"Polygon","coordinates":[[[-43.161121,-22.887286],[-43.16112,-22.887376],[-43.161022,-22.887375],[-43.16102,-22.887556],[-43.160825,-22.887554],[-43.160826,-22.887463],[-43.160923,-22.887465],[-43.160925,-22.887374],[-43.161022,-22.887375],[-43.161023,-22.887285],[-43.161121,-22.887286]]]},"properties":{"id":"guanabara_2026-07-16_lgbm_118","region":"guanabara","date":"2026-07-16","area_m2":400.0,"mean_prob":0.9049,"max_prob":0.9765,"model":"lgbm","n_px":4,"px_area_m2":100.0,"confirmed":false,"confirmed_by":null,"lon":-43.160972,"lat":-22.887443}},{"type":"Feature","geometry":{"type":"Polygon","coordinates":[[[-43.166438,-22.890508],[-43.166436,-22.890689],[-43.16663,-22.890691],[-43.166629,-22.890781],[-43.166434,-22.890779],[-43.166433,-22.890869],[-43.166238,-22.890867],[-43.166241,-22.890687],[-43.166338,-22.890688],[-43.16634,-22.890507],[-43.166438,-22.890508]]]},"properties":{"id":"guanabara_2026-07-16_lgbm_119","region":"guanabara","date":"2026-07-16","area_m2":800.0,"mean_prob":0.902,"max_prob":0.9765,"model":"lgbm","n_px":8,"px_area_m2":100.0,"confirmed":false,"confirmed_by":null,"lon":-43.166399,"lat":-22.890722}},{"type":"Feature","geometry":{"type":"Polygon","coordinates":[[[-43.164171,-22.892378],[-43.16417,-22.892469],[-43.163975,-22.892466],[-43.163976,-22.892376],[-43.164171,-22.892378]]]},"properties":{"id":"guanabara_2026-07-16_lgbm_120","region":"guanabara","date":"2026-07-16","area_m2":200.0,"mean_prob":0.9843,"max_prob":0.9922,"model":"lgbm","n_px":2,"px_area_m2":100.0,"confirmed":false,"confirmed_by":null,"lon":-43.164073,"lat":-22.892422}},{"type":"Feature","geometry":{"type":"Polygon","coordinates":[[[-43.157831,-22.892757],[-43.157829,-22.892847],[-43.157927,-22.892848],[-43.157926,-22.892938],[-43.157731,-22.892936],[-43.157733,-22.892755],[-43.157831,-22.892757]]]},"properties":{"id":"guanabara_2026-07-16_lgbm_121","region":"guanabara","date":"2026-07-16","area_m2":300.0,"mean_prob":0.9608,"max_prob":1.0,"model":"lgbm","n_px":3,"px_area_m2":100.0,"confirmed":false,"confirmed_by":null,"lon":-43.157813,"lat":-22.892862}},{"type":"Feature","geometry":{"type":"Polygon","coordinates":[[[-43.144337,-22.903075],[-43.144336,-22.903165],[-43.144239,-22.903164],[-43.144238,-22.903254],[-43.14414,-22.903253],[-43.144143,-22.903072],[-43.144337,-22.903075]]]},"properties":{"id":"guanabara_2026-07-16_lgbm_122","region":"guanabara","date":"2026-07-16","area_m2":300.0,"mean_prob":0.885,"max_prob":0.9686,"model":"lgbm","n_px":3,"px_area_m2":100.0,"confirmed":false,"confirmed_by":null,"lon":-43.144223,"lat":-22.903149}},{"type":"Feature","geometry":{"type":"Polygon","coordinates":[[[-43.146467,-22.904183],[-43.146464,-22.904364],[-43.146367,-22.904363],[-43.146364,-22.904543],[-43.146267,-22.904542],[-43.146269,-22.904361],[-43.146367,-22.904363],[-43.146369,-22.904182],[-43.146467,-22.904183]]]},"properties":{"id":"guanabara_2026-07-16_lgbm_123","region":"guanabara","date":"2026-07-16","area_m2":400.0,"mean_prob":0.7686,"max_prob":0.9216,"model":"lgbm","n_px":4,"px_area_m2":100.0,"artifact":"ship","confirmed":false,"confirmed_by":null,"lon":-43.146367,"lat":-22.904363}},{"type":"Feature","geometry":{"type":"Polygon","coordinates":[[[-43.144593,-22.905787],[-43.14459,-22.905967],[-43.144396,-22.905965],[-43.144398,-22.905784],[-43.144593,-22.905787]]]},"properties":{"id":"guanabara_2026-07-16_lgbm_124","region":"guanabara","date":"2026-07-16","area_m2":400.0,"mean_prob":0.9167,"max_prob":0.9961,"model":"lgbm","n_px":4,"px_area_m2":100.0,"confirmed":false,"confirmed_by":null,"lon":-43.144494,"lat":-22.905876}},{"type":"Feature","geometry":{"type":"Polygon","coordinates":[[[-43.140194,-22.906729],[-43.14019,-22.906999],[-43.139995,-22.906997],[-43.139999,-22.906726],[-43.140194,-22.906729]]]},"properties":{"id":"guanabara_2026-07-16_lgbm_125","region":"guanabara","date":"2026-07-16","area_m2":600.0,"mean_prob":0.9176,"max_prob":0.9961,"model":"lgbm","n_px":6,"px_area_m2":100.0,"confirmed":false,"confirmed_by":null,"lon":-43.140094,"lat":-22.906863}},{"type":"Feature","geometry":{"type":"Polygon","coordinates":[[[-43.165671,-22.925808],[-43.165668,-22.925988],[-43.165571,-22.925987],[-43.165572,-22.925897],[-43.165474,-22.925896],[-43.165476,-22.925806],[-43.165671,-22.925808]]]},"properties":{"id":"guanabara_2026-07-16_lgbm_126","region":"guanabara","date":"2026-07-16","area_m2":300.0,"mean_prob":0.8183,"max_prob":0.902,"model":"lgbm","n_px":3,"px_area_m2":100.0,"confirmed":false,"confirmed_by":null,"lon":-43.165588,"lat":-22.925882}},{"type":"Feature","geometry":{"type":"Polygon","coordinates":[[[-43.118197,-22.925523],[-43.118195,-22.925704],[-43.118097,-22.925703],[-43.1181,-22.925522],[-43.118197,-22.925523]]]},"properties":{"id":"guanabara_2026-07-16_lgbm_127","region":"guanabara","date":"2026-07-16","area_m2":200.0,"mean_prob":0.8569,"max_prob":0.9686,"model":"lgbm","n_px":2,"px_area_m2":100.0,"confirmed":false,"confirmed_by":null,"lon":-43.118147,"lat":-22.925613}},{"type":"Feature","geometry":{"type":"Polygon","coordinates":[[[-43.143959,-22.930883],[-43.143956,-22.931064],[-43.143859,-22.931063],[-43.14386,-22.930972],[-43.143762,-22.930971],[-43.143764,-22.930881],[-43.143959,-22.930883]]]},"properties":{"id":"guanabara_2026-07-16_lgbm_128","region":"guanabara","date":"2026-07-16","area_m2":300.0,"mean_prob":0.8248,"max_prob":0.9216,"model":"lgbm","n_px":3,"px_area_m2":100.0,"artifact":"ship","confirmed":false,"confirmed_by":null,"lon":-43.143876,"lat":-22.930958}},{"type":"Feature","geometry":{"type":"Polygon","coordinates":[[[-43.11187,-22.931859],[-43.111869,-22.93195],[-43.111674,-22.931947],[-43.111675,-22.931857],[-43.11187,-22.931859]]]},"properties":{"id":"guanabara_2026-07-16_lgbm_129","region":"guanabara","date":"2026-07-16","area_m2":200.0,"mean_prob":0.9529,"max_prob":0.9647,"model":"lgbm","n_px":2,"px_area_m2":100.0,"confirmed":false,"confirmed_by":null,"lon":-43.111772,"lat":-22.931903}}]}