{"type": "FeatureCollection", "features": [{"type": "Feature", "id": "D-SZ-fresh-scotland-2026-08-24-001-6", "geometry": {"type": "Polygon", "coordinates": [[[-2.3247889, 56.2580912], [-2.3247952, 56.2577318], [-2.3246338, 56.2577309], [-2.3246322, 56.2578208], [-2.3244708, 56.2578199], [-2.3244677, 56.2579996], [-2.3246291, 56.2580004], [-2.3246275, 56.2580903], [-2.3247889, 56.2580912]]]}, "properties": {"kind": "detection", "det_id": "D-SZ-fresh-scotland-2026-08-24-001-6", "zone_id": "SZ-fresh-scotland-2026-08-24-001", "scene_id": "S2B_MSIL2A_20260824T113319_R080_T30VWH_20260824T141245", "datetime": "2026-08-24T11:33:19.024000Z", "n_pixels": 6, "area_m2": 600, "prob_max": 0.9961, "prob_mean": 0.9013, "threshold": 0.63, "in_strip": true, "artifact": "ship"}}, {"type": "Feature", "id": "D-SZ-fresh-scotland-2026-08-24-002-7", "geometry": {"type": "Polygon", "coordinates": [[[-2.3098752, 56.252618], [-2.3098785, 56.2524383], [-2.3093943, 56.2524356], [-2.3093911, 56.2526153], [-2.3098752, 56.252618]]]}, "properties": {"kind": "detection", "det_id": "D-SZ-fresh-scotland-2026-08-24-002-7", "zone_id": "SZ-fresh-scotland-2026-08-24-002", "scene_id": "S2B_MSIL2A_20260824T113319_R080_T30VWH_20260824T141245", "datetime": "2026-08-24T11:33:19.024000Z", "n_pixels": 6, "area_m2": 600, "prob_max": 0.9961, "prob_mean": 0.917, "threshold": 0.63, "in_strip": true, "artifact": "ship"}}, {"type": "Feature", "id": "D-SZ-fresh-scotland-2026-08-24-003-8", "geometry": {"type": "Polygon", "coordinates": [[[-2.2891037, 56.2499847], [-2.2891054, 56.2498949], [-2.2892667, 56.2498958], [-2.2892701, 56.2497161], [-2.288786, 56.2497133], [-2.2887826, 56.249893], [-2.288944, 56.2498939], [-2.2889423, 56.2499838], [-2.2891037, 56.2499847]]]}, "properties": {"kind": "detection", "det_id": "D-SZ-fresh-scotland-2026-08-24-003-8", "zone_id": "SZ-fresh-scotland-2026-08-24-003", "scene_id": "S2B_MSIL2A_20260824T113319_R080_T30VWH_20260824T141245", "datetime": "2026-08-24T11:33:19.024000Z", "n_pixels": 7, "area_m2": 700, "prob_max": 0.9882, "prob_mean": 0.8151, "threshold": 0.63, "in_strip": true, "artifact": "ship"}}]}