{"type": "FeatureCollection", "features": [{"type": "Feature", "id": "SZ-fresh-scotland-2026-08-24-001", "geometry": {"type": "Polygon", "coordinates": [[[-2.324765, 56.259439], [-2.326712, 56.25891], [-2.327216, 56.257745], [-2.326267, 56.256662], [-2.324658, 56.256383], [-2.3232, 56.256645], [-2.322548, 56.257001], [-2.322047, 56.257986], [-2.322517, 56.258798], [-2.323156, 56.25916], [-2.324765, 56.259439]]]}, "properties": {"kind": "detection_zone", "layer_kind": "scene_zone", "zone_id": "SZ-fresh-scotland-2026-08-24-001", "scene_key": "fresh-scotland-2026-08-24", "scene_kind": "fresh_s2", "scene_id": "S2B_MSIL2A_20260824T113319_R080_T30VWH_20260824T141245", "region": "scotland", "title": "Шотландия (Ферт-оф-Форт) · зона 1", "mission": "Sentinel-2", "datetime": "2026-08-24T11:33:19.024000Z", "detection_status": "insufficient_data", "status": "insufficient_data", "concentration_status": "unavailable", "quantity": {"status": "not_confirmed", "label": "концентрация по снимку не подтверждена", "detail": "перевод площади в штуки не показываем: нет калибровочных пар (см. docs/QUANTITY.md)"}, "verification": "false_alarm_signs", "training_scene": null, "flags": ["ship", "foam"], "n_cozar_filaments": 0, "crop_file": "crops/SZ-fresh-scotland-2026-08-24-001.jpg", "wind_high": true, "measured": {"zone_area_km2": 0.0806, "suspicious_area_m2": 600, "n_pixels": 6, "n_objects": 1, "water_km2": 0.0816, "lwd_m2_km2": null, "lwd_note": "ветер > 5 м/с: по правилу Cózar 2024 эта вода не входит в знаменатель «обследовано» — LWD не считается", "quality": {"valid_water_fraction": 1.0, "cloud_fraction": 0.0, "glint_fraction": 0.0}, "model": {"weights": "weights/lgbm", "file": "weights/lgbm/model.txt", "sha256": "0eeebf43fcccd8c7c07f053b7ec723229d1a3c9b92d12eec1bdb269258c51470", "sha256_short": "0eeebf43fccc", "trained_at": "2026-09-25T01:36:30Z", "threshold": 0.63, "harmonize": "none", "class": "MARIDA Marine Debris (любой плавающий мусор, не только пластик)"}}, "probable": {"prob_max": 0.996, "prob_mean": 0.901, "signs": {"foam": {"flag": true, "white_ratio_b2_b8": 0.739, "wind10m_ms": 7.61, "rule": "прирост B2 над водой ≥ 0.8 прироста B8 («белый» спектр) или ветер ≥ 7.0 м/с"}, "glint": {"flag": false, "b11_water_median": 0.0062, "glint_share": 0.0, "rule": "медиана B11 воды зоны > 0.01 или ≥ 20 % пикселей зоны — блик (маска качества)"}, "ship": {"flag": true, "share": 1.0, "bright_target_px_within_500m": 11, "rule": "≥ 30 % пикселей — у яркой цели или кильватера (reports/artifacts.md) или яркая цель с откликом в SWIR (судно, лодка: B11 ≥ 0,015) ближе 500 м, или малый яркий объект (≤ 40 пикс.) с B11 ≥ 0,01 ближе 500 м (лодка с кильватером)"}, "coast": {"flag": false, "land_px_within_300m": 0, "rule": "суша (маска качества) ближе 300 м — прибой, кромка берега"}, "shallow": {"flag": false, "b3_water_zone": 0.0218, "b3_ratio_to_scene_water": 1.05, "rule": "медиана B3 воды зоны ≥ 2× медианы воды снимка и ≥ 0,03, или B4 воды зоны ≥ 0,02 и (≥ 2× воды снимка или B8 ≥ 0,013) — мелководье, яркое дно, илистая банка"}, "seam": {"flag": false, "share": 0, "rule": "≥ 30 % пикселей — прямая линия вдоль трека/границы яркости (шов)"}, "cloud": {"flag": false, "cloud_fraction": 0.0, "rule": "облака или тени облаков (маска качества) ≥ 20 % зоны"}, "diag": {"dist_land_m": null, "dist_bright_m": 10, "n_bright_px_500m": 9, "b11_bright_max_500m": 0.0619, "b4_water_zone": 0.0135, "b8_water_zone": 0.01, "b11_det_median": 0.0546, "b8_det_median": 0.1403, "water_scene_b3": 0.0208, "water_scene_b4": 0.0122, "n_det_px": 6, "n_obj": 1}, "note": "эвристики, не классификатор; на размеченных данных не проверены"}, "n_cozar_filaments": 0}, "field_nearby": {"items": [{"source": "ADIS (4TU.ResearchData, судовая камера)", "segment_id": 338026, "ship": "R/V Akademik Mstislav Keldysh", "date": "2022-03-31", "days_from_scene": -1607, "distance_km": 445.8, "lon": -7.91336, "lat": 58.80967, "n_items": 0, "area_km2": 0.6996, "size_class": "> 5 см", "c_items_km2": 0.0, "ci95_lo": 0.0, "ci95_hi": 5.27, "ci95_method": "точный интервал Пуассона для N, делённый на A", "raw_10cm_items_km2": 0.0, "authors_cal_10cm_items_km2": 0.0, "authors_cal_10cm_lo95": null, "authors_cal_10cm_hi95": null}, {"source": "ADIS (4TU.ResearchData, судовая камера)", "segment_id": 338025, "ship": "R/V Akademik Mstislav Keldysh", "date": "2022-03-31", "days_from_scene": -1607, "distance_km": 446.3, "lon": -8.02644, "lat": 58.74178, "n_items": 0, "area_km2": 0.7, "size_class": "> 5 см", "c_items_km2": 0.0, "ci95_lo": 0.0, "ci95_hi": 5.27, "ci95_method": "точный интервал Пуассона для N, делённый на A", "raw_10cm_items_km2": 0.0, "authors_cal_10cm_items_km2": 0.0, "authors_cal_10cm_lo95": null, "authors_cal_10cm_hi95": null}, {"source": "ADIS (4TU.ResearchData, судовая камера)", "segment_id": 338475, "ship": "R/V Akademik Mstislav Keldysh", "date": "2022-03-31", "days_from_scene": -1607, "distance_km": 447.1, "lon": -8.13141, "lat": 58.679, "n_items": 0, "area_km2": 0.9498, "size_class": "> 5 см", "c_items_km2": 0.0, "ci95_lo": 0.0, "ci95_hi": 3.88, "ci95_method": "точный интервал Пуассона для N, делённый на A", "raw_10cm_items_km2": 0.0, "authors_cal_10cm_items_km2": 0.0, "authors_cal_10cm_lo95": null, "authors_cal_10cm_hi95": null}], "nearest_organizer_sample": {"sample_id": "MPL-0092", "source_id": "S3_SE_NORTH_SEA", "distance_km": 365.8}, "note": "Измерение ≠ оценка: это независимые полевые счёты C = N/A в другое время и в другом месте; со сценой они не связаны и не калибруют её. Ближайший отрезок ADIS — за 446 км: только для порядка величин."}, "acquired_at": "2026-08-24T11:33:19.024000Z", "acquisition_date": "2026-08-24", "processed_at": "2026-09-26T19:27:53Z", "human_checked": false, "auto_label": "автоматически, не проверено человеком"}}, {"type": "Feature", "id": "SZ-fresh-scotland-2026-08-24-002", "geometry": {"type": "Polygon", "coordinates": [[[-2.309851, 56.253966], [-2.311797, 56.253437], [-2.312299, 56.252452], [-2.31135, 56.251368], [-2.309419, 56.251088], [-2.307472, 56.251616], [-2.30697, 56.252602], [-2.307919, 56.253685], [-2.309851, 56.253966]]]}, "properties": {"kind": "detection_zone", "layer_kind": "scene_zone", "zone_id": "SZ-fresh-scotland-2026-08-24-002", "scene_key": "fresh-scotland-2026-08-24", "scene_kind": "fresh_s2", "scene_id": "S2B_MSIL2A_20260824T113319_R080_T30VWH_20260824T141245", "region": "scotland", "title": "Шотландия (Ферт-оф-Форт) · зона 2", "mission": "Sentinel-2", "datetime": "2026-08-24T11:33:19.024000Z", "detection_status": "insufficient_data", "status": "insufficient_data", "concentration_status": "unavailable", "quantity": {"status": "not_confirmed", "label": "концентрация по снимку не подтверждена", "detail": "перевод площади в штуки не показываем: нет калибровочных пар (см. docs/QUANTITY.md)"}, "verification": "false_alarm_signs", "training_scene": null, "flags": ["ship", "foam"], "n_cozar_filaments": 0, "crop_file": "crops/SZ-fresh-scotland-2026-08-24-002.jpg", "wind_high": true, "measured": {"zone_area_km2": 0.0772, "suspicious_area_m2": 600, "n_pixels": 6, "n_objects": 1, "water_km2": 0.0804, "lwd_m2_km2": null, "lwd_note": "ветер > 5 м/с: по правилу Cózar 2024 эта вода не входит в знаменатель «обследовано» — LWD не считается", "quality": {"valid_water_fraction": 1.0, "cloud_fraction": 0.0, "glint_fraction": 0.0}, "model": {"weights": "weights/lgbm", "file": "weights/lgbm/model.txt", "sha256": "0eeebf43fcccd8c7c07f053b7ec723229d1a3c9b92d12eec1bdb269258c51470", "sha256_short": "0eeebf43fccc", "trained_at": "2026-09-25T01:36:30Z", "threshold": 0.63, "harmonize": "none", "class": "MARIDA Marine Debris (любой плавающий мусор, не только пластик)"}}, "probable": {"prob_max": 0.996, "prob_mean": 0.917, "signs": {"foam": {"flag": true, "white_ratio_b2_b8": 0.706, "wind10m_ms": 7.61, "rule": "прирост B2 над водой ≥ 0.8 прироста B8 («белый» спектр) или ветер ≥ 7.0 м/с"}, "glint": {"flag": false, "b11_water_median": 0.0065, "glint_share": 0.0, "rule": "медиана B11 воды зоны > 0.01 или ≥ 20 % пикселей зоны — блик (маска качества)"}, "ship": {"flag": true, "share": 1.0, "bright_target_px_within_500m": 12, "rule": "≥ 30 % пикселей — у яркой цели или кильватера (reports/artifacts.md) или яркая цель с откликом в SWIR (судно, лодка: B11 ≥ 0,015) ближе 500 м, или малый яркий объект (≤ 40 пикс.) с B11 ≥ 0,01 ближе 500 м (лодка с кильватером)"}, "coast": {"flag": false, "land_px_within_300m": 0, "rule": "суша (маска качества) ближе 300 м — прибой, кромка берега"}, "shallow": {"flag": false, "b3_water_zone": 0.0216, "b3_ratio_to_scene_water": 1.04, "rule": "медиана B3 воды зоны ≥ 2× медианы воды снимка и ≥ 0,03, или B4 воды зоны ≥ 0,02 и (≥ 2× воды снимка или B8 ≥ 0,013) — мелководье, яркое дно, илистая банка"}, "seam": {"flag": false, "share": 0, "rule": "≥ 30 % пикселей — прямая линия вдоль трека/границы яркости (шов)"}, "cloud": {"flag": false, "cloud_fraction": 0.0, "rule": "облака или тени облаков (маска качества) ≥ 20 % зоны"}, "diag": {"dist_land_m": null, "dist_bright_m": 10, "n_bright_px_500m": 10, "b11_bright_max_500m": 0.053, "b4_water_zone": 0.0135, "b8_water_zone": 0.0101, "b11_det_median": 0.049, "b8_det_median": 0.1475, "water_scene_b3": 0.0208, "water_scene_b4": 0.0122, "n_det_px": 6, "n_obj": 1}, "note": "эвристики, не классификатор; на размеченных данных не проверены"}, "n_cozar_filaments": 0}, "field_nearby": {"items": [{"source": "ADIS (4TU.ResearchData, судовая камера)", "segment_id": 338026, "ship": "R/V Akademik Mstislav Keldysh", "date": "2022-03-31", "days_from_scene": -1607, "distance_km": 445.8, "lon": -7.91336, "lat": 58.80967, "n_items": 0, "area_km2": 0.6996, "size_class": "> 5 см", "c_items_km2": 0.0, "ci95_lo": 0.0, "ci95_hi": 5.27, "ci95_method": "точный интервал Пуассона для N, делённый на A", "raw_10cm_items_km2": 0.0, "authors_cal_10cm_items_km2": 0.0, "authors_cal_10cm_lo95": null, "authors_cal_10cm_hi95": null}, {"source": "ADIS (4TU.ResearchData, судовая камера)", "segment_id": 338025, "ship": "R/V Akademik Mstislav Keldysh", "date": "2022-03-31", "days_from_scene": -1607, "distance_km": 446.3, "lon": -8.02644, "lat": 58.74178, "n_items": 0, "area_km2": 0.7, "size_class": "> 5 см", "c_items_km2": 0.0, "ci95_lo": 0.0, "ci95_hi": 5.27, "ci95_method": "точный интервал Пуассона для N, делённый на A", "raw_10cm_items_km2": 0.0, "authors_cal_10cm_items_km2": 0.0, "authors_cal_10cm_lo95": null, "authors_cal_10cm_hi95": null}, {"source": "ADIS (4TU.ResearchData, судовая камера)", "segment_id": 338475, "ship": "R/V Akademik Mstislav Keldysh", "date": "2022-03-31", "days_from_scene": -1607, "distance_km": 447.1, "lon": -8.13141, "lat": 58.679, "n_items": 0, "area_km2": 0.9498, "size_class": "> 5 см", "c_items_km2": 0.0, "ci95_lo": 0.0, "ci95_hi": 3.88, "ci95_method": "точный интервал Пуассона для N, делённый на A", "raw_10cm_items_km2": 0.0, "authors_cal_10cm_items_km2": 0.0, "authors_cal_10cm_lo95": null, "authors_cal_10cm_hi95": null}], "nearest_organizer_sample": {"sample_id": "MPL-0092", "source_id": "S3_SE_NORTH_SEA", "distance_km": 365.8}, "note": "Измерение ≠ оценка: это независимые полевые счёты C = N/A в другое время и в другом месте; со сценой они не связаны и не калибруют её. Ближайший отрезок ADIS — за 446 км: только для порядка величин."}, "acquired_at": "2026-08-24T11:33:19.024000Z", "acquisition_date": "2026-08-24", "processed_at": "2026-09-26T19:27:53Z", "human_checked": false, "auto_label": "автоматически, не проверено человеком"}}, {"type": "Feature", "id": "SZ-fresh-scotland-2026-08-24-003", "geometry": {"type": "Polygon", "coordinates": [[[-2.289079, 56.251332], [-2.290536, 56.251071], [-2.291188, 56.250715], [-2.291691, 56.24973], [-2.290742, 56.248646], [-2.288811, 56.248366], [-2.286865, 56.248894], [-2.286362, 56.249879], [-2.286831, 56.25069], [-2.28747, 56.251053], [-2.289079, 56.251332]]]}, "properties": {"kind": "detection_zone", "layer_kind": "scene_zone", "zone_id": "SZ-fresh-scotland-2026-08-24-003", "scene_key": "fresh-scotland-2026-08-24", "scene_kind": "fresh_s2", "scene_id": "S2B_MSIL2A_20260824T113319_R080_T30VWH_20260824T141245", "region": "scotland", "title": "Шотландия (Ферт-оф-Форт) · зона 3", "mission": "Sentinel-2", "datetime": "2026-08-24T11:33:19.024000Z", "detection_status": "insufficient_data", "status": "insufficient_data", "concentration_status": "unavailable", "quantity": {"status": "not_confirmed", "label": "концентрация по снимку не подтверждена", "detail": "перевод площади в штуки не показываем: нет калибровочных пар (см. docs/QUANTITY.md)"}, "verification": "false_alarm_signs", "training_scene": null, "flags": ["ship", "foam"], "n_cozar_filaments": 0, "crop_file": "crops/SZ-fresh-scotland-2026-08-24-003.jpg", "wind_high": true, "measured": {"zone_area_km2": 0.0807, "suspicious_area_m2": 700, "n_pixels": 7, "n_objects": 1, "water_km2": 0.0817, "lwd_m2_km2": null, "lwd_note": "ветер > 5 м/с: по правилу Cózar 2024 эта вода не входит в знаменатель «обследовано» — LWD не считается", "quality": {"valid_water_fraction": 1.0, "cloud_fraction": 0.0, "glint_fraction": 0.0}, "model": {"weights": "weights/lgbm", "file": "weights/lgbm/model.txt", "sha256": "0eeebf43fcccd8c7c07f053b7ec723229d1a3c9b92d12eec1bdb269258c51470", "sha256_short": "0eeebf43fccc", "trained_at": "2026-09-25T01:36:30Z", "threshold": 0.63, "harmonize": "none", "class": "MARIDA Marine Debris (любой плавающий мусор, не только пластик)"}}, "probable": {"prob_max": 0.988, "prob_mean": 0.815, "signs": {"foam": {"flag": true, "white_ratio_b2_b8": 0.716, "wind10m_ms": 7.61, "rule": "прирост B2 над водой ≥ 0.8 прироста B8 («белый» спектр) или ветер ≥ 7.0 м/с"}, "glint": {"flag": false, "b11_water_median": 0.0062, "glint_share": 0.0, "rule": "медиана B11 воды зоны > 0.01 или ≥ 20 % пикселей зоны — блик (маска качества)"}, "ship": {"flag": true, "share": 1.0, "bright_target_px_within_500m": 11, "rule": "≥ 30 % пикселей — у яркой цели или кильватера (reports/artifacts.md) или яркая цель с откликом в SWIR (судно, лодка: B11 ≥ 0,015) ближе 500 м, или малый яркий объект (≤ 40 пикс.) с B11 ≥ 0,01 ближе 500 м (лодка с кильватером)"}, "coast": {"flag": false, "land_px_within_300m": 0, "rule": "суша (маска качества) ближе 300 м — прибой, кромка берега"}, "shallow": {"flag": false, "b3_water_zone": 0.021, "b3_ratio_to_scene_water": 1.01, "rule": "медиана B3 воды зоны ≥ 2× медианы воды снимка и ≥ 0,03, или B4 воды зоны ≥ 0,02 и (≥ 2× воды снимка или B8 ≥ 0,013) — мелководье, яркое дно, илистая банка"}, "seam": {"flag": false, "share": 0, "rule": "≥ 30 % пикселей — прямая линия вдоль трека/границы яркости (шов)"}, "cloud": {"flag": false, "cloud_fraction": 0.0, "rule": "облака или тени облаков (маска качества) ≥ 20 % зоны"}, "diag": {"dist_land_m": null, "dist_bright_m": 10, "n_bright_px_500m": 9, "b11_bright_max_500m": 0.0544, "b4_water_zone": 0.0131, "b8_water_zone": 0.0096, "b11_det_median": 0.0522, "b8_det_median": 0.1127, "water_scene_b3": 0.0208, "water_scene_b4": 0.0122, "n_det_px": 7, "n_obj": 1}, "note": "эвристики, не классификатор; на размеченных данных не проверены"}, "n_cozar_filaments": 0}, "field_nearby": {"items": [{"source": "ADIS (4TU.ResearchData, судовая камера)", "segment_id": 338026, "ship": "R/V Akademik Mstislav Keldysh", "date": "2022-03-31", "days_from_scene": -1607, "distance_km": 445.8, "lon": -7.91336, "lat": 58.80967, "n_items": 0, "area_km2": 0.6996, "size_class": "> 5 см", "c_items_km2": 0.0, "ci95_lo": 0.0, "ci95_hi": 5.27, "ci95_method": "точный интервал Пуассона для N, делённый на A", "raw_10cm_items_km2": 0.0, "authors_cal_10cm_items_km2": 0.0, "authors_cal_10cm_lo95": null, "authors_cal_10cm_hi95": null}, {"source": "ADIS (4TU.ResearchData, судовая камера)", "segment_id": 338025, "ship": "R/V Akademik Mstislav Keldysh", "date": "2022-03-31", "days_from_scene": -1607, "distance_km": 446.3, "lon": -8.02644, "lat": 58.74178, "n_items": 0, "area_km2": 0.7, "size_class": "> 5 см", "c_items_km2": 0.0, "ci95_lo": 0.0, "ci95_hi": 5.27, "ci95_method": "точный интервал Пуассона для N, делённый на A", "raw_10cm_items_km2": 0.0, "authors_cal_10cm_items_km2": 0.0, "authors_cal_10cm_lo95": null, "authors_cal_10cm_hi95": null}, {"source": "ADIS (4TU.ResearchData, судовая камера)", "segment_id": 338475, "ship": "R/V Akademik Mstislav Keldysh", "date": "2022-03-31", "days_from_scene": -1607, "distance_km": 447.1, "lon": -8.13141, "lat": 58.679, "n_items": 0, "area_km2": 0.9498, "size_class": "> 5 см", "c_items_km2": 0.0, "ci95_lo": 0.0, "ci95_hi": 3.88, "ci95_method": "точный интервал Пуассона для N, делённый на A", "raw_10cm_items_km2": 0.0, "authors_cal_10cm_items_km2": 0.0, "authors_cal_10cm_lo95": null, "authors_cal_10cm_hi95": null}], "nearest_organizer_sample": {"sample_id": "MPL-0092", "source_id": "S3_SE_NORTH_SEA", "distance_km": 365.8}, "note": "Измерение ≠ оценка: это независимые полевые счёты C = N/A в другое время и в другом месте; со сценой они не связаны и не калибруют её. Ближайший отрезок ADIS — за 446 км: только для порядка величин."}, "acquired_at": "2026-08-24T11:33:19.024000Z", "acquisition_date": "2026-08-24", "processed_at": "2026-09-26T19:27:53Z", "human_checked": false, "auto_label": "автоматически, не проверено человеком"}}]}