{"type":"FeatureCollection","features":[{"type":"Feature","geometry":{"type":"Polygon","coordinates":[[[-88.156677,15.872554],[-88.156676,15.872464],[-88.156396,15.872465],[-88.156397,15.872555],[-88.156677,15.872554]]]},"properties":{"id":"honduras_2025-02-19_lgbm_0","region":"honduras","date":"2025-02-19","area_m2":300.0,"mean_prob":0.9752,"max_prob":0.9922,"model":"lgbm","n_px":3,"px_area_m2":100.0,"lon":-88.156536,"lat":15.872509}},{"type":"Feature","geometry":{"type":"Polygon","coordinates":[[[-88.162089,15.871802],[-88.162088,15.871711],[-88.161808,15.871713],[-88.161809,15.871803],[-88.162089,15.871802]]]},"properties":{"id":"honduras_2025-02-19_lgbm_1","region":"honduras","date":"2025-02-19","area_m2":300.0,"mean_prob":0.9974,"max_prob":1.0,"model":"lgbm","n_px":3,"px_area_m2":100.0,"lon":-88.161949,"lat":15.871757}},{"type":"Feature","geometry":{"type":"Polygon","coordinates":[[[-88.164142,15.87152],[-88.164141,15.871429],[-88.164048,15.87143],[-88.164047,15.871249],[-88.163954,15.871249],[-88.163953,15.871159],[-88.16386,15.87116],[-88.163861,15.871431],[-88.164048,15.87143],[-88.164049,15.87152],[-88.164142,15.87152]]]},"properties":{"id":"honduras_2025-02-19_lgbm_2","region":"honduras","date":"2025-02-19","area_m2":600.0,"mean_prob":0.9255,"max_prob":1.0,"model":"lgbm","n_px":6,"px_area_m2":100.0,"lon":-88.16397,"lat":15.87134}},{"type":"Feature","geometry":{"type":"Polygon","coordinates":[[[-88.136183,15.86516],[-88.136182,15.86507],[-88.135996,15.865071],[-88.135995,15.86498],[-88.135902,15.864981],[-88.135902,15.865071],[-88.135996,15.865071],[-88.135996,15.865161],[-88.136183,15.86516]]]},"properties":{"id":"honduras_2025-02-19_lgbm_3","region":"honduras","date":"2025-02-19","area_m2":300.0,"mean_prob":0.9935,"max_prob":0.9961,"model":"lgbm","n_px":3,"px_area_m2":100.0,"lon":-88.136042,"lat":15.865086}},{"type":"Feature","geometry":{"type":"Polygon","coordinates":[[[-88.127768,15.863306],[-88.127767,15.863125],[-88.12758,15.863126],[-88.127581,15.863307],[-88.127768,15.863306]]]},"properties":{"id":"honduras_2025-02-19_lgbm_4","region":"honduras","date":"2025-02-19","area_m2":400.0,"mean_prob":0.9627,"max_prob":0.9882,"model":"lgbm","n_px":4,"px_area_m2":100.0,"lon":-88.127674,"lat":15.863216}},{"type":"Feature","geometry":{"type":"Polygon","coordinates":[[[-88.130567,15.86293],[-88.130566,15.862749],[-88.130099,15.862751],[-88.1301,15.862842],[-88.13038,15.86284],[-88.13038,15.862931],[-88.130567,15.86293]]]},"properties":{"id":"honduras_2025-02-19_lgbm_5","region":"honduras","date":"2025-02-19","area_m2":700.0,"mean_prob":0.9507,"max_prob":1.0,"model":"lgbm","n_px":7,"px_area_m2":100.0,"lon":-88.130373,"lat":15.862821}},{"type":"Feature","geometry":{"type":"Polygon","coordinates":[[[-88.122788,15.857818],[-88.122787,15.857637],[-88.122693,15.857638],[-88.122693,15.857547],[-88.122599,15.857548],[-88.1226,15.857638],[-88.122693,15.857638],[-88.122694,15.857818],[-88.122788,15.857818]]]},"properties":{"id":"honduras_2025-02-19_lgbm_6","region":"honduras","date":"2025-02-19","area_m2":300.0,"mean_prob":0.9046,"max_prob":1.0,"model":"lgbm","n_px":3,"px_area_m2":100.0,"lon":-88.122709,"lat":15.857683}},{"type":"Feature","geometry":{"type":"Polygon","coordinates":[[[-88.121756,15.856919],[-88.121755,15.856739],[-88.121474,15.85674],[-88.121475,15.85683],[-88.121568,15.85683],[-88.121569,15.85692],[-88.121756,15.856919]]]},"properties":{"id":"honduras_2025-02-19_lgbm_7","region":"honduras","date":"2025-02-19","area_m2":500.0,"mean_prob":0.9984,"max_prob":1.0,"model":"lgbm","n_px":5,"px_area_m2":100.0,"lon":-88.121634,"lat":15.856821}},{"type":"Feature","geometry":{"type":"Polygon","coordinates":[[[-88.116951,15.849261],[-88.11695,15.84908],[-88.116856,15.849081],[-88.116857,15.849262],[-88.116951,15.849261]]]},"properties":{"id":"honduras_2025-02-19_lgbm_8","region":"honduras","date":"2025-02-19","area_m2":200.0,"mean_prob":0.9373,"max_prob":0.9608,"model":"lgbm","n_px":2,"px_area_m2":100.0,"lon":-88.116904,"lat":15.849171}},{"type":"Feature","geometry":{"type":"Polygon","coordinates":[[[-88.109274,15.845685],[-88.109274,15.845594],[-88.108993,15.845596],[-88.108994,15.845686],[-88.109274,15.845685]]]},"properties":{"id":"honduras_2025-02-19_lgbm_9","region":"honduras","date":"2025-02-19","area_m2":300.0,"mean_prob":0.8641,"max_prob":0.9725,"model":"lgbm","n_px":3,"px_area_m2":100.0,"lon":-88.109134,"lat":15.84564}},{"type":"Feature","geometry":{"type":"Polygon","coordinates":[[[-88.108151,15.845148],[-88.10815,15.845058],[-88.108057,15.845058],[-88.108056,15.844968],[-88.107963,15.844968],[-88.107964,15.845149],[-88.108151,15.845148]]]},"properties":{"id":"honduras_2025-02-19_lgbm_10","region":"honduras","date":"2025-02-19","area_m2":300.0,"mean_prob":0.7621,"max_prob":0.8275,"model":"lgbm","n_px":3,"px_area_m2":100.0,"lon":-88.108041,"lat":15.845073}},{"type":"Feature","geometry":{"type":"Polygon","coordinates":[[[-88.114312,15.844936],[-88.114311,15.844755],[-88.114125,15.844756],[-88.114125,15.844846],[-88.114219,15.844846],[-88.114219,15.844936],[-88.114312,15.844936]]]},"properties":{"id":"honduras_2025-02-19_lgbm_11","region":"honduras","date":"2025-02-19","area_m2":300.0,"mean_prob":0.949,"max_prob":0.9647,"model":"lgbm","n_px":3,"px_area_m2":100.0,"lon":-88.114234,"lat":15.844831}},{"type":"Feature","geometry":{"type":"Polygon","coordinates":[[[-88.113658,15.844758],[-88.113657,15.844668],[-88.113471,15.844669],[-88.11347,15.844579],[-88.113377,15.844579],[-88.113375,15.844308],[-88.113188,15.844309],[-88.113188,15.844219],[-88.113095,15.844219],[-88.113096,15.8444],[-88.113189,15.844399],[-88.113189,15.84449],[-88.113283,15.844489],[-88.113283,15.84458],[-88.113377,15.844579],[-88.113377,15.84467],[-88.113471,15.844669],[-88.113471,15.844759],[-88.113658,15.844758]]]},"properties":{"id":"honduras_2025-02-19_lgbm_12","region":"honduras","date":"2025-02-19","area_m2":1000.0,"mean_prob":0.9129,"max_prob":0.9961,"model":"lgbm","n_px":10,"px_area_m2":100.0,"lon":-88.113329,"lat":15.84448}}]}