{"type": "FeatureCollection", "features": [{"type": "Feature", "id": "SZ-fresh-org_german_bight-2026-09-25-000", "geometry": {"type": "Polygon", "coordinates": [[[7.854504, 53.965287], [7.854504, 54.194368], [7.464017, 54.194368], [7.464017, 53.965287], [7.854504, 53.965287]]]}, "properties": {"kind": "detection_zone", "layer_kind": "scene_zone", "zone_id": "SZ-fresh-org_german_bight-2026-09-25-000", "scene_key": "fresh-org_german_bight-2026-09-25", "scene_kind": "fresh_s2", "scene_id": "S2A_MSIL2A_20260925T104041_R008_T32UME_20260925T171206", "region": "org_german_bight", "title": "Германская бухта (акватория CSV организаторов, Gutow 2018) · вся вырезка", "mission": "Sentinel-2", "datetime": "2026-09-25T10:40:41.024000Z", "detection_status": "insufficient_data", "status": "insufficient_data", "concentration_status": "unavailable", "wind_high": true, "quantity": {"status": "not_confirmed", "label": "концентрация по снимку не подтверждена", "detail": "перевод площади в штуки не показываем: нет калибровочных пар (см. docs/QUANTITY.md)"}, "flags": ["wind"], "n_cozar_filaments": 0, "verification": "wind", "measured": {"zone_area_km2": 651.667, "suspicious_area_m2": 0, "n_pixels": 0, "n_objects": 0, "water_km2": 478.507, "lwd_m2_km2": null, "lwd_note": "ветер > 5 м/с: по правилу Cózar 2024 эта вода не входит в знаменатель «обследовано» — LWD не считается", "quality": {"valid_water_fraction": 0.763, "cloud_fraction": 0.0, "glint_fraction": 0.0}, "model": {"weights": "weights/lgbm", "file": "weights/lgbm/model.txt", "sha256": "0eeebf43fcccd8c7c07f053b7ec723229d1a3c9b92d12eec1bdb269258c51470", "sha256_short": "0eeebf43fccc", "trained_at": "2026-09-25T01:36:30Z", "threshold": 0.63, "harmonize": "none", "class": "MARIDA Marine Debris (любой плавающий мусор, не только пластик)"}}, "probable": {"prob_max": 0.447, "prob_mean": null, "signs": null, "n_cozar_filaments": 0}, "field_nearby": {"items": [{"source": "ADIS (4TU.ResearchData, судовая камера)", "segment_id": 356255, "ship": "R/V Akademik Mstislav Keldysh", "date": "2021-12-11", "days_from_scene": -1749, "distance_km": 182.9, "lon": 4.86908, "lat": 53.93371, "n_items": 0, "area_km2": 0.5642, "size_class": "> 5 см", "c_items_km2": 0.0, "ci95_lo": 0.0, "ci95_hi": 6.54, "ci95_method": "точный интервал Пуассона для N, делённый на A", "raw_10cm_items_km2": 0.0, "authors_cal_10cm_items_km2": 0.0, "authors_cal_10cm_lo95": null, "authors_cal_10cm_hi95": null}, {"source": "ADIS (4TU.ResearchData, судовая камера)", "segment_id": 355767, "ship": "R/V Akademik Mstislav Keldysh", "date": "2021-12-11", "days_from_scene": -1749, "distance_km": 183.6, "lon": 4.86117, "lat": 53.91995, "n_items": 0, "area_km2": 0.5642, "size_class": "> 5 см", "c_items_km2": 0.0, "ci95_lo": 0.0, "ci95_hi": 6.54, "ci95_method": "точный интервал Пуассона для N, делённый на A", "raw_10cm_items_km2": 0.0, "authors_cal_10cm_items_km2": 0.0, "authors_cal_10cm_lo95": null, "authors_cal_10cm_hi95": null}, {"source": "ADIS (4TU.ResearchData, судовая камера)", "segment_id": 356256, "ship": "R/V Akademik Mstislav Keldysh", "date": "2021-12-11", "days_from_scene": -1749, "distance_km": 187.4, "lon": 4.81696, "lat": 53.84925, "n_items": 1, "area_km2": 0.5643, "size_class": "> 5 см", "c_items_km2": 1.77, "ci95_lo": 0.04, "ci95_hi": 9.87, "ci95_method": "точный интервал Пуассона для N, делённый на A", "raw_10cm_items_km2": 1.77, "authors_cal_10cm_items_km2": 9.97, "authors_cal_10cm_lo95": 0.74, "authors_cal_10cm_hi95": 134.24}], "nearest_organizer_sample": {"sample_id": "MPL-0001", "source_id": "S3_SE_NORTH_SEA", "distance_km": 0.5}, "note": "Измерение ≠ оценка: это независимые полевые счёты C = N/A в другое время и в другом месте; со сценой они не связаны и не калибруют её. Ближайший отрезок ADIS — за 183 км: только для порядка величин."}, "acquired_at": "2026-09-25T10:40:41.024000Z", "acquisition_date": "2026-09-25", "processed_at": "2026-09-26T19:11:51Z", "human_checked": false, "auto_label": "автоматически, не проверено человеком"}}]}