{"type":"FeatureCollection","features":[{"type":"Feature","geometry":{"type":"Polygon","coordinates":[[[-2.574932,56.292356],[-2.574933,56.292266],[-2.57461,56.292265],[-2.574609,56.292355],[-2.574932,56.292356]]]},"properties":{"id":"scotland_2026-07-19_lgbm_0","region":"scotland","date":"2026-07-19","area_m2":200.0,"mean_prob":0.7647,"max_prob":0.8314,"model":"lgbm","n_px":2,"px_area_m2":100.0,"confirmed":false,"confirmed_by":null,"lon":-2.574771,"lat":56.292311}},{"type":"Feature","geometry":{"type":"Polygon","coordinates":[[[-2.592238,56.290617],[-2.592239,56.290528],[-2.591915,56.290527],[-2.591914,56.290616],[-2.592238,56.290617]]]},"properties":{"id":"scotland_2026-07-19_lgbm_1","region":"scotland","date":"2026-07-19","area_m2":200.0,"mean_prob":0.8353,"max_prob":0.8392,"model":"lgbm","n_px":2,"px_area_m2":100.0,"confirmed":false,"confirmed_by":null,"lon":-2.592077,"lat":56.290572}},{"type":"Feature","geometry":{"type":"Polygon","coordinates":[[[-2.615783,56.230316],[-2.615784,56.230226],[-2.615461,56.230225],[-2.61546,56.230315],[-2.615783,56.230316]]]},"properties":{"id":"scotland_2026-07-19_lgbm_2","region":"scotland","date":"2026-07-19","area_m2":200.0,"mean_prob":0.902,"max_prob":0.9569,"model":"lgbm","n_px":2,"px_area_m2":100.0,"confirmed":false,"confirmed_by":null,"lon":-2.615622,"lat":56.230271}},{"type":"Feature","geometry":{"type":"Polygon","coordinates":[[[-2.587748,56.212346],[-2.58775,56.212166],[-2.587589,56.212166],[-2.587587,56.212346],[-2.587748,56.212346]]]},"properties":{"id":"scotland_2026-07-19_lgbm_3","region":"scotland","date":"2026-07-19","area_m2":200.0,"mean_prob":0.8941,"max_prob":0.949,"model":"lgbm","n_px":2,"px_area_m2":100.0,"confirmed":false,"confirmed_by":null,"lon":-2.587669,"lat":56.212256}},{"type":"Feature","geometry":{"type":"Polygon","coordinates":[[[-2.568597,56.209226],[-2.568598,56.209136],[-2.568437,56.209136],[-2.568438,56.209046],[-2.568277,56.209045],[-2.568275,56.209225],[-2.568597,56.209226]]]},"properties":{"id":"scotland_2026-07-19_lgbm_4","region":"scotland","date":"2026-07-19","area_m2":300.0,"mean_prob":0.8967,"max_prob":0.9961,"model":"lgbm","n_px":3,"px_area_m2":100.0,"confirmed":false,"confirmed_by":null,"lon":-2.56841,"lat":56.20915}},{"type":"Feature","geometry":{"type":"Polygon","coordinates":[[[-2.620368,56.20706],[-2.62037,56.20688],[-2.620209,56.20688],[-2.620207,56.207059],[-2.620368,56.20706]]]},"properties":{"id":"scotland_2026-07-19_lgbm_5","region":"scotland","date":"2026-07-19","area_m2":200.0,"mean_prob":0.8804,"max_prob":0.9725,"model":"lgbm","n_px":2,"px_area_m2":100.0,"confirmed":false,"confirmed_by":null,"lon":-2.620288,"lat":56.20697}},{"type":"Feature","geometry":{"type":"Polygon","coordinates":[[[-2.541207,56.194392],[-2.541208,56.194303],[-2.541047,56.194302],[-2.541048,56.194212],[-2.540887,56.194212],[-2.540886,56.194301],[-2.540725,56.194301],[-2.540724,56.194391],[-2.540885,56.194391],[-2.540886,56.194301],[-2.541047,56.194302],[-2.541046,56.194392],[-2.541207,56.194392]]]},"properties":{"id":"scotland_2026-07-19_lgbm_6","region":"scotland","date":"2026-07-19","area_m2":300.0,"mean_prob":0.8889,"max_prob":0.9961,"model":"lgbm","n_px":3,"px_area_m2":100.0,"confirmed":true,"confirmed_by":"mdd","lon":-2.540966,"lat":56.194317}},{"type":"Feature","geometry":{"type":"Polygon","coordinates":[[[-2.551216,56.192902],[-2.551217,56.192812],[-2.551378,56.192813],[-2.551379,56.192723],[-2.551218,56.192722],[-2.551217,56.192812],[-2.551056,56.192811],[-2.551055,56.192901],[-2.551216,56.192902]]]},"properties":{"id":"scotland_2026-07-19_lgbm_7","region":"scotland","date":"2026-07-19","area_m2":200.0,"mean_prob":0.7529,"max_prob":0.8471,"model":"lgbm","n_px":2,"px_area_m2":100.0,"confirmed":false,"confirmed_by":null,"lon":-2.551217,"lat":56.192812}},{"type":"Feature","geometry":{"type":"Polygon","coordinates":[[[-2.542643,56.182089],[-2.542645,56.181909],[-2.542484,56.181908],[-2.542482,56.182088],[-2.542643,56.182089]]]},"properties":{"id":"scotland_2026-07-19_lgbm_8","region":"scotland","date":"2026-07-19","area_m2":200.0,"mean_prob":0.8686,"max_prob":0.8784,"model":"lgbm","n_px":2,"px_area_m2":100.0,"confirmed":false,"confirmed_by":null,"lon":-2.542563,"lat":56.181998}}]}