{"type": "FeatureCollection", "features": [{"type": "Feature", "id": "D-SZ-fresh-mekong-2026-09-03-001-1", "geometry": {"type": "Polygon", "coordinates": [[[106.8222966, 10.2383516], [106.8222961, 10.2382612], [106.8224786, 10.2382602], [106.8224776, 10.2380794], [106.8226601, 10.2380784], [106.8226606, 10.2381688], [106.8225694, 10.2381693], [106.8225699, 10.2382597], [106.8224786, 10.2382602], [106.8224791, 10.2383506], [106.8222966, 10.2383516]]]}, "properties": {"kind": "detection", "det_id": "D-SZ-fresh-mekong-2026-09-03-001-1", "zone_id": "SZ-fresh-mekong-2026-09-03-001", "scene_id": "S2B_MSIL2A_20260903T030519_R075_T48PXS_20260903T083007", "datetime": "2026-09-03T03:05:19.024000Z", "n_pixels": 5, "area_m2": 500, "prob_max": 0.8588, "prob_mean": 0.771, "threshold": 0.63, "in_strip": true, "artifact": null}}]}