{"type": "FeatureCollection", "features": [{"type": "Feature", "id": "D-SZ-live-honduras-2026-04-10-001-10", "geometry": {"type": "Polygon", "coordinates": [[[-88.1390541, 15.8276331], [-88.1390536, 15.8275428], [-88.1389602, 15.8275432], [-88.1389607, 15.8276336], [-88.1390541, 15.8276331]]]}, "properties": {"kind": "detection", "det_id": "D-SZ-live-honduras-2026-04-10-001-10", "zone_id": "SZ-live-honduras-2026-04-10-001", "scene_id": "S2B_MSIL2A_20260410T160819_R140_T16PCC_20260410T200402", "datetime": "2026-04-10T16:08:19.024000Z", "n_pixels": 1, "area_m2": 100, "prob_max": 0.8549, "prob_mean": 0.8549, "threshold": 0.63, "in_strip": true, "artifact": null}}, {"type": "Feature", "id": "D-SZ-live-honduras-2026-04-10-001-11", "geometry": {"type": "Polygon", "coordinates": [[[-88.1388633, 15.826911], [-88.1388618, 15.8266399], [-88.1387684, 15.8266403], [-88.1387689, 15.8267307], [-88.1386755, 15.8267312], [-88.138676, 15.8268216], [-88.1387694, 15.8268211], [-88.1387699, 15.8269115], [-88.1388633, 15.826911]]]}, "properties": {"kind": "detection", "det_id": "D-SZ-live-honduras-2026-04-10-001-11", "zone_id": "SZ-live-honduras-2026-04-10-001", "scene_id": "S2B_MSIL2A_20260410T160819_R140_T16PCC_20260410T200402", "datetime": "2026-04-10T16:08:19.024000Z", "n_pixels": 4, "area_m2": 400, "prob_max": 0.9961, "prob_mean": 0.9873, "threshold": 0.63, "in_strip": true, "artifact": null}}, {"type": "Feature", "id": "D-SZ-live-honduras-2026-04-10-002-12", "geometry": {"type": "Polygon", "coordinates": [[[-88.1456236, 15.8170229], [-88.1456231, 15.8169325], [-88.1457164, 15.816932], [-88.1457159, 15.8168416], [-88.1458093, 15.8168411], [-88.1458083, 15.8166604], [-88.1457149, 15.8166609], [-88.1457154, 15.8167513], [-88.145622, 15.8167517], [-88.1456225, 15.8168421], [-88.1455292, 15.8168426], [-88.1455302, 15.8170234], [-88.1456236, 15.8170229]]]}, "properties": {"kind": "detection", "det_id": "D-SZ-live-honduras-2026-04-10-002-12", "zone_id": "SZ-live-honduras-2026-04-10-002", "scene_id": "S2B_MSIL2A_20260410T160819_R140_T16PCC_20260410T200402", "datetime": "2026-04-10T16:08:19.024000Z", "n_pixels": 6, "area_m2": 600, "prob_max": 1.0, "prob_mean": 0.9784, "threshold": 0.63, "in_strip": true, "artifact": null}}, {"type": "Feature", "id": "D-SZ-live-honduras-2026-04-10-002-13", "geometry": {"type": "Polygon", "coordinates": [[[-88.1458057, 15.8162084], [-88.1458042, 15.8159373], [-88.1457108, 15.8159378], [-88.1457123, 15.8162089], [-88.1458057, 15.8162084]]]}, "properties": {"kind": "detection", "det_id": "D-SZ-live-honduras-2026-04-10-002-13", "zone_id": "SZ-live-honduras-2026-04-10-002", "scene_id": "S2B_MSIL2A_20260410T160819_R140_T16PCC_20260410T200402", "datetime": "2026-04-10T16:08:19.024000Z", "n_pixels": 3, "area_m2": 300, "prob_max": 1.0, "prob_mean": 0.9974, "threshold": 0.63, "in_strip": true, "artifact": null}}, {"type": "Feature", "id": "D-SZ-live-honduras-2026-04-10-002-14", "geometry": {"type": "Polygon", "coordinates": [[[-88.1457083, 15.8154858], [-88.1457073, 15.8153051], [-88.1456139, 15.8153055], [-88.1456149, 15.8154863], [-88.1457083, 15.8154858]]]}, "properties": {"kind": "detection", "det_id": "D-SZ-live-honduras-2026-04-10-002-14", "zone_id": "SZ-live-honduras-2026-04-10-002", "scene_id": "S2B_MSIL2A_20260410T160819_R140_T16PCC_20260410T200402", "datetime": "2026-04-10T16:08:19.024000Z", "n_pixels": 2, "area_m2": 200, "prob_max": 0.8471, "prob_mean": 0.7412, "threshold": 0.63, "in_strip": true, "artifact": null}}, {"type": "Feature", "id": "D-SZ-live-honduras-2026-04-10-002-15", "geometry": {"type": "Polygon", "coordinates": [[[-88.1468189, 15.8137626], [-88.1468184, 15.8136722], [-88.1469118, 15.8136717], [-88.1469103, 15.8134005], [-88.1468169, 15.813401], [-88.1468174, 15.8134914], [-88.146724, 15.8134919], [-88.1467251, 15.8136727], [-88.1466317, 15.8136732], [-88.1466322, 15.8137635], [-88.1468189, 15.8137626]]]}, "properties": {"kind": "detection", "det_id": "D-SZ-live-honduras-2026-04-10-002-15", "zone_id": "SZ-live-honduras-2026-04-10-002", "scene_id": "S2B_MSIL2A_20260410T160819_R140_T16PCC_20260410T200402", "datetime": "2026-04-10T16:08:19.024000Z", "n_pixels": 7, "area_m2": 700, "prob_max": 1.0, "prob_mean": 0.9854, "threshold": 0.63, "in_strip": true, "artifact": null}}, {"type": "Feature", "id": "D-SZ-live-honduras-2026-04-10-002-16", "geometry": {"type": "Polygon", "coordinates": [[[-88.1469082, 15.813039], [-88.1469077, 15.8129486], [-88.1470011, 15.8129481], [-88.1470006, 15.8128577], [-88.1469072, 15.8128582], [-88.1469067, 15.8127678], [-88.1468133, 15.8127683], [-88.1468149, 15.8130395], [-88.1469082, 15.813039]]]}, "properties": {"kind": "detection", "det_id": "D-SZ-live-honduras-2026-04-10-002-16", "zone_id": "SZ-live-honduras-2026-04-10-002", "scene_id": "S2B_MSIL2A_20260410T160819_R140_T16PCC_20260410T200402", "datetime": "2026-04-10T16:08:19.024000Z", "n_pixels": 4, "area_m2": 400, "prob_max": 1.0, "prob_mean": 0.8971, "threshold": 0.63, "in_strip": true, "artifact": null}}, {"type": "Feature", "id": "D-SZ-live-honduras-2026-04-10-003-18", "geometry": {"type": "Polygon", "coordinates": [[[-88.147597, 15.8027308], [-88.1475965, 15.8026405], [-88.1475032, 15.8026409], [-88.1475026, 15.8025506], [-88.1474093, 15.8025511], [-88.1474103, 15.8027318], [-88.147597, 15.8027308]]]}, "properties": {"kind": "detection", "det_id": "D-SZ-live-honduras-2026-04-10-003-18", "zone_id": "SZ-live-honduras-2026-04-10-003", "scene_id": "S2B_MSIL2A_20260410T160819_R140_T16PCC_20260410T200402", "datetime": "2026-04-10T16:08:19.024000Z", "n_pixels": 3, "area_m2": 300, "prob_max": 0.9922, "prob_mean": 0.9529, "threshold": 0.63, "in_strip": true, "artifact": null}}, {"type": "Feature", "id": "D-SZ-live-honduras-2026-04-10-003-19", "geometry": {"type": "Polygon", "coordinates": [[[-88.1475914, 15.8017366], [-88.1475909, 15.8016462], [-88.1474976, 15.8016467], [-88.1474981, 15.8017371], [-88.1475914, 15.8017366]]]}, "properties": {"kind": "detection", "det_id": "D-SZ-live-honduras-2026-04-10-003-19", "zone_id": "SZ-live-honduras-2026-04-10-003", "scene_id": "S2B_MSIL2A_20260410T160819_R140_T16PCC_20260410T200402", "datetime": "2026-04-10T16:08:19.024000Z", "n_pixels": 1, "area_m2": 100, "prob_max": 0.7725, "prob_mean": 0.7725, "threshold": 0.63, "in_strip": true, "artifact": null}}, {"type": "Feature", "id": "D-SZ-live-honduras-2026-04-10-003-20", "geometry": {"type": "Polygon", "coordinates": [[[-88.1484168, 15.7991109], [-88.1484163, 15.7990205], [-88.1482296, 15.7990215], [-88.1482301, 15.7991119], [-88.1484168, 15.7991109]]]}, "properties": {"kind": "detection", "det_id": "D-SZ-live-honduras-2026-04-10-003-20", "zone_id": "SZ-live-honduras-2026-04-10-003", "scene_id": "S2B_MSIL2A_20260410T160819_R140_T16PCC_20260410T200402", "datetime": "2026-04-10T16:08:19.024000Z", "n_pixels": 2, "area_m2": 200, "prob_max": 0.9647, "prob_mean": 0.9137, "threshold": 0.63, "in_strip": true, "artifact": null}}, {"type": "Feature", "id": "D-SZ-live-honduras-2026-04-10-003-21", "geometry": {"type": "Polygon", "coordinates": [[[-88.1499926, 15.797114], [-88.1499916, 15.7969332], [-88.1498982, 15.7969337], [-88.1498993, 15.7971145], [-88.1499926, 15.797114]]]}, "properties": {"kind": "detection", "det_id": "D-SZ-live-honduras-2026-04-10-003-21", "zone_id": "SZ-live-honduras-2026-04-10-003", "scene_id": "S2B_MSIL2A_20260410T160819_R140_T16PCC_20260410T200402", "datetime": "2026-04-10T16:08:19.024000Z", "n_pixels": 2, "area_m2": 200, "prob_max": 0.9804, "prob_mean": 0.9412, "threshold": 0.63, "in_strip": true, "artifact": null}}, {"type": "Feature", "id": "D-SZ-live-honduras-2026-04-10-003-22", "geometry": {"type": "Polygon", "coordinates": [[[-88.1504558, 15.7964788], [-88.1504543, 15.7962076], [-88.1503609, 15.7962081], [-88.1503614, 15.7962985], [-88.1502681, 15.796299], [-88.1502691, 15.7964798], [-88.1504558, 15.7964788]]]}, "properties": {"kind": "detection", "det_id": "D-SZ-live-honduras-2026-04-10-003-22", "zone_id": "SZ-live-honduras-2026-04-10-003", "scene_id": "S2B_MSIL2A_20260410T160819_R140_T16PCC_20260410T200402", "datetime": "2026-04-10T16:08:19.024000Z", "n_pixels": 5, "area_m2": 500, "prob_max": 0.9961, "prob_mean": 0.9498, "threshold": 0.63, "in_strip": true, "artifact": null}}, {"type": "Feature", "id": "D-SZ-live-honduras-2026-04-10-003-23", "geometry": {"type": "Polygon", "coordinates": [[[-88.1504517, 15.7957557], [-88.1504502, 15.7954845], [-88.1503568, 15.795485], [-88.1503584, 15.7957562], [-88.1504517, 15.7957557]]]}, "properties": {"kind": "detection", "det_id": "D-SZ-live-honduras-2026-04-10-003-23", "zone_id": "SZ-live-honduras-2026-04-10-003", "scene_id": "S2B_MSIL2A_20260410T160819_R140_T16PCC_20260410T200402", "datetime": "2026-04-10T16:08:19.024000Z", "n_pixels": 3, "area_m2": 300, "prob_max": 0.9765, "prob_mean": 0.9582, "threshold": 0.63, "in_strip": true, "artifact": null}}, {"type": "Feature", "id": "D-SZ-live-honduras-2026-04-10-003-24", "geometry": {"type": "Polygon", "coordinates": [[[-88.1512802, 15.7936723], [-88.1512791, 15.7934916], [-88.1511858, 15.7934921], [-88.1511868, 15.7936728], [-88.1512802, 15.7936723]]]}, "properties": {"kind": "detection", "det_id": "D-SZ-live-honduras-2026-04-10-003-24", "zone_id": "SZ-live-honduras-2026-04-10-003", "scene_id": "S2B_MSIL2A_20260410T160819_R140_T16PCC_20260410T200402", "datetime": "2026-04-10T16:08:19.024000Z", "n_pixels": 2, "area_m2": 200, "prob_max": 0.9647, "prob_mean": 0.9196, "threshold": 0.63, "in_strip": true, "artifact": null}}, {"type": "Feature", "id": "D-SZ-live-honduras-2026-04-10-003-25", "geometry": {"type": "Polygon", "coordinates": [[[-88.152207, 15.7924924], [-88.1522065, 15.792402], [-88.1522999, 15.7924015], [-88.1522994, 15.7923111], [-88.152206, 15.7923116], [-88.1522055, 15.7922212], [-88.1521121, 15.7922217], [-88.1521137, 15.7924929], [-88.152207, 15.7924924]]]}, "properties": {"kind": "detection", "det_id": "D-SZ-live-honduras-2026-04-10-003-25", "zone_id": "SZ-live-honduras-2026-04-10-003", "scene_id": "S2B_MSIL2A_20260410T160819_R140_T16PCC_20260410T200402", "datetime": "2026-04-10T16:08:19.024000Z", "n_pixels": 4, "area_m2": 400, "prob_max": 0.9961, "prob_mean": 0.9382, "threshold": 0.63, "in_strip": true, "artifact": "ship"}}, {"type": "Feature", "id": "D-SZ-live-honduras-2026-04-10-003-26", "geometry": {"type": "Polygon", "coordinates": [[[-88.1522983, 15.7921303], [-88.1522968, 15.7918591], [-88.1522034, 15.7918596], [-88.152205, 15.7921308], [-88.1522983, 15.7921303]]]}, "properties": {"kind": "detection", "det_id": "D-SZ-live-honduras-2026-04-10-003-26", "zone_id": "SZ-live-honduras-2026-04-10-003", "scene_id": "S2B_MSIL2A_20260410T160819_R140_T16PCC_20260410T200402", "datetime": "2026-04-10T16:08:19.024000Z", "n_pixels": 3, "area_m2": 300, "prob_max": 0.9922, "prob_mean": 0.9621, "threshold": 0.63, "in_strip": true, "artifact": null}}, {"type": "Feature", "id": "D-SZ-live-honduras-2026-04-10-003-27", "geometry": {"type": "Polygon", "coordinates": [[[-88.1523866, 15.7912259], [-88.1523861, 15.7911356], [-88.1522927, 15.791136], [-88.1522932, 15.7912264], [-88.1523866, 15.7912259]]]}, "properties": {"kind": "detection", "det_id": "D-SZ-live-honduras-2026-04-10-003-27", "zone_id": "SZ-live-honduras-2026-04-10-003", "scene_id": "S2B_MSIL2A_20260410T160819_R140_T16PCC_20260410T200402", "datetime": "2026-04-10T16:08:19.024000Z", "n_pixels": 1, "area_m2": 100, "prob_max": 0.702, "prob_mean": 0.702, "threshold": 0.63, "in_strip": true, "artifact": null}}, {"type": "Feature", "id": "D-SZ-live-honduras-2026-04-10-004-28", "geometry": {"type": "Polygon", "coordinates": [[[-88.1553461, 15.7863292], [-88.1553456, 15.7862388], [-88.1554389, 15.7862383], [-88.1554384, 15.7861479], [-88.1555318, 15.7861474], [-88.1555308, 15.7859666], [-88.1554374, 15.7859671], [-88.1554379, 15.7860575], [-88.1553446, 15.786058], [-88.1553451, 15.7861484], [-88.1552517, 15.7861489], [-88.1552528, 15.7863297], [-88.1553461, 15.7863292]]]}, "properties": {"kind": "detection", "det_id": "D-SZ-live-honduras-2026-04-10-004-28", "zone_id": "SZ-live-honduras-2026-04-10-004", "scene_id": "S2B_MSIL2A_20260410T160819_R140_T16PCC_20260410T200402", "datetime": "2026-04-10T16:08:19.024000Z", "n_pixels": 6, "area_m2": 600, "prob_max": 1.0, "prob_mean": 0.9556, "threshold": 0.63, "in_strip": true, "artifact": null}}, {"type": "Feature", "id": "D-SZ-live-honduras-2026-04-10-005-29", "geometry": {"type": "Polygon", "coordinates": [[[-88.1601781, 15.7824167], [-88.160177, 15.7822359], [-88.1600837, 15.7822364], [-88.1600847, 15.7824172], [-88.1601781, 15.7824167]]]}, "properties": {"kind": "detection", "det_id": "D-SZ-live-honduras-2026-04-10-005-29", "zone_id": "SZ-live-honduras-2026-04-10-005", "scene_id": "S2B_MSIL2A_20260410T160819_R140_T16PCC_20260410T200402", "datetime": "2026-04-10T16:08:19.024000Z", "n_pixels": 2, "area_m2": 200, "prob_max": 0.9882, "prob_mean": 0.951, "threshold": 0.63, "in_strip": true, "artifact": null}}, {"type": "Feature", "id": "D-SZ-live-honduras-2026-04-10-005-30", "geometry": {"type": "Polygon", "coordinates": [[[-88.1605484, 15.7818724], [-88.1605478, 15.781782], [-88.1604545, 15.7817825], [-88.160455, 15.7818729], [-88.1605484, 15.7818724]]]}, "properties": {"kind": "detection", "det_id": "D-SZ-live-honduras-2026-04-10-005-30", "zone_id": "SZ-live-honduras-2026-04-10-005", "scene_id": "S2B_MSIL2A_20260410T160819_R140_T16PCC_20260410T200402", "datetime": "2026-04-10T16:08:19.024000Z", "n_pixels": 1, "area_m2": 100, "prob_max": 0.6431, "prob_mean": 0.6431, "threshold": 0.63, "in_strip": true, "artifact": null}}, {"type": "Feature", "id": "D-SZ-live-honduras-2026-04-10-005-31", "geometry": {"type": "Polygon", "coordinates": [[[-88.1620357, 15.7807797], [-88.1620347, 15.780599], [-88.162128, 15.7805985], [-88.1621275, 15.7805081], [-88.1620342, 15.7805086], [-88.1620347, 15.780599], [-88.1619413, 15.7805995], [-88.1619419, 15.7806898], [-88.1617552, 15.7806908], [-88.1617557, 15.7807812], [-88.1620357, 15.7807797]]]}, "properties": {"kind": "detection", "det_id": "D-SZ-live-honduras-2026-04-10-005-31", "zone_id": "SZ-live-honduras-2026-04-10-005", "scene_id": "S2B_MSIL2A_20260410T160819_R140_T16PCC_20260410T200402", "datetime": "2026-04-10T16:08:19.024000Z", "n_pixels": 5, "area_m2": 500, "prob_max": 0.9922, "prob_mean": 0.949, "threshold": 0.63, "in_strip": true, "artifact": null}}, {"type": "Feature", "id": "D-SZ-live-honduras-2026-04-10-005-32", "geometry": {"type": "Polygon", "coordinates": [[[-88.1625906, 15.7798729], [-88.1625901, 15.7797825], [-88.1626835, 15.779782], [-88.1626829, 15.7796916], [-88.1627763, 15.7796911], [-88.1627747, 15.7794199], [-88.1626814, 15.7794204], [-88.1626819, 15.7795108], [-88.1625886, 15.7795113], [-88.1625896, 15.7796921], [-88.1624963, 15.7796926], [-88.1624973, 15.7798734], [-88.1625906, 15.7798729]]]}, "properties": {"kind": "detection", "det_id": "D-SZ-live-honduras-2026-04-10-005-32", "zone_id": "SZ-live-honduras-2026-04-10-005", "scene_id": "S2B_MSIL2A_20260410T160819_R140_T16PCC_20260410T200402", "datetime": "2026-04-10T16:08:19.024000Z", "n_pixels": 8, "area_m2": 800, "prob_max": 1.0, "prob_mean": 0.9701, "threshold": 0.63, "in_strip": true, "artifact": null}}, {"type": "Feature", "id": "D-SZ-live-honduras-2026-04-10-006-33", "geometry": {"type": "Polygon", "coordinates": [[[-88.1667663, 15.7755118], [-88.1667658, 15.7754214], [-88.1666725, 15.7754219], [-88.166673, 15.7755123], [-88.1667663, 15.7755118]]]}, "properties": {"kind": "detection", "det_id": "D-SZ-live-honduras-2026-04-10-006-33", "zone_id": "SZ-live-honduras-2026-04-10-006", "scene_id": "S2B_MSIL2A_20260410T160819_R140_T16PCC_20260410T200402", "datetime": "2026-04-10T16:08:19.024000Z", "n_pixels": 1, "area_m2": 100, "prob_max": 0.8863, "prob_mean": 0.8863, "threshold": 0.63, "in_strip": true, "artifact": null}}, {"type": "Feature", "id": "D-SZ-live-honduras-2026-04-10-006-34", "geometry": {"type": "Polygon", "coordinates": [[[-88.1672289, 15.7747862], [-88.1672279, 15.7746054], [-88.1671345, 15.7746059], [-88.167135, 15.7746963], [-88.1670417, 15.7746968], [-88.1670422, 15.7747872], [-88.1672289, 15.7747862]]]}, "properties": {"kind": "detection", "det_id": "D-SZ-live-honduras-2026-04-10-006-34", "zone_id": "SZ-live-honduras-2026-04-10-006", "scene_id": "S2B_MSIL2A_20260410T160819_R140_T16PCC_20260410T200402", "datetime": "2026-04-10T16:08:19.024000Z", "n_pixels": 3, "area_m2": 300, "prob_max": 0.9765, "prob_mean": 0.7778, "threshold": 0.63, "in_strip": true, "artifact": null}}, {"type": "Feature", "id": "D-SZ-live-honduras-2026-04-10-006-35", "geometry": {"type": "Polygon", "coordinates": [[[-88.1683376, 15.7727917], [-88.1683371, 15.7727013], [-88.1684304, 15.7727008], [-88.1684294, 15.77252], [-88.1685227, 15.7725195], [-88.1685222, 15.7724291], [-88.1684289, 15.7724296], [-88.1684294, 15.77252], [-88.1683361, 15.7725205], [-88.1683366, 15.7726109], [-88.1682432, 15.7726114], [-88.1682443, 15.7727922], [-88.1683376, 15.7727917]]]}, "properties": {"kind": "detection", "det_id": "D-SZ-live-honduras-2026-04-10-006-35", "zone_id": "SZ-live-honduras-2026-04-10-006", "scene_id": "S2B_MSIL2A_20260410T160819_R140_T16PCC_20260410T200402", "datetime": "2026-04-10T16:08:19.024000Z", "n_pixels": 5, "area_m2": 500, "prob_max": 1.0, "prob_mean": 0.9694, "threshold": 0.63, "in_strip": true, "artifact": null}}]}