{"type": "FeatureCollection", "features": [{"type": "Feature", "id": "SZ-live-honduras-2026-04-10-001", "geometry": {"type": "Polygon", "coordinates": [[[-88.139062, 15.828989], [-88.140179, 15.828441], [-88.140454, 15.827535], [-88.139978, 15.82582], [-88.139322, 15.825372], [-88.138761, 15.825285], [-88.137922, 15.82556], [-88.137551, 15.825924], [-88.137276, 15.826829], [-88.137845, 15.828453], [-88.138501, 15.828902], [-88.139062, 15.828989]]]}, "properties": {"kind": "detection_zone", "layer_kind": "scene_zone", "zone_id": "SZ-live-honduras-2026-04-10-001", "scene_key": "live-honduras-2026-04-10", "scene_kind": "live", "scene_id": "S2B_MSIL2A_20260410T160819_R140_T16PCC_20260410T200402", "region": "honduras", "title": "Гондурасский залив (Омоа – Пуэрто-Кортес – устье Мотагуа) · зона 1", "mission": "Sentinel-2", "datetime": "2026-04-10T16:08:19.024000Z", "detection_status": "detected", "status": "detected", "concentration_status": "unavailable", "quantity": {"status": "not_confirmed", "label": "концентрация по снимку не подтверждена", "detail": "перевод площади в штуки не показываем: нет калибровочных пар (см. docs/QUANTITY.md)"}, "verification": "unverified", "training_scene": null, "flags": [], "n_cozar_filaments": 0, "crop_file": "crops/SZ-live-honduras-2026-04-10-001.jpg", "wind_high": false, "measured": {"zone_area_km2": 0.1033, "suspicious_area_m2": 500, "n_pixels": 5, "n_objects": 2, "water_km2": 0.1027, "lwd_m2_km2": 4868.5, "lwd_note": null, "quality": {"valid_water_fraction": 1.0, "cloud_fraction": 0.0, "glint_fraction": 0.0}, "model": {"weights": "weights/lgbm", "file": "weights/lgbm/model.txt", "sha256": "0eeebf43fcccd8c7c07f053b7ec723229d1a3c9b92d12eec1bdb269258c51470", "sha256_short": "0eeebf43fccc", "trained_at": "2026-09-25T01:35:55Z", "threshold": 0.63, "harmonize": "none", "class": "MARIDA Marine Debris (любой плавающий мусор, не только пластик)"}}, "probable": {"prob_max": 0.996, "prob_mean": 0.961, "signs": {"foam": {"flag": false, "white_ratio_b2_b8": 0.685, "wind10m_ms": 2.17, "rule": "прирост B2 над водой ≥ 0.8 прироста B8 («белый» спектр) или ветер ≥ 7.0 м/с"}, "glint": {"flag": false, "b11_water_median": 0.0084, "glint_share": 0.0, "rule": "медиана B11 воды зоны > 0.01 или ≥ 20 % пикселей зоны — блик (маска качества)"}, "ship": {"flag": false, "share": 0, "bright_target_px_within_500m": 0, "rule": "≥ 30 % пикселей — у яркой цели или кильватера (reports/artifacts.md) или яркая цель с откликом в SWIR (судно, лодка: B11 ≥ 0,015) ближе 500 м, или малый яркий объект (≤ 40 пикс.) с B11 ≥ 0,01 ближе 500 м (лодка с кильватером)"}, "coast": {"flag": false, "land_px_within_300m": 0, "rule": "суша (маска качества) ближе 300 м — прибой, кромка берега"}, "shallow": {"flag": false, "b3_water_zone": 0.0182, "b3_ratio_to_scene_water": 1.22, "rule": "медиана B3 воды зоны ≥ 2× медианы воды снимка и ≥ 0,03, или B4 воды зоны ≥ 0,02 и (≥ 2× воды снимка или B8 ≥ 0,013) — мелководье, яркое дно, илистая банка"}, "seam": {"flag": false, "share": 0, "rule": "≥ 30 % пикселей — прямая линия вдоль трека/границы яркости (шов)"}, "cloud": {"flag": false, "cloud_fraction": 0.0, "rule": "облака или тени облаков (маска качества) ≥ 20 % зоны"}, "diag": {"dist_land_m": null, "dist_bright_m": null, "n_bright_px_500m": 0, "b11_bright_max_500m": null, "b4_water_zone": 0.0108, "b8_water_zone": 0.0096, "b11_det_median": 0.0107, "b8_det_median": 0.0216, "water_scene_b3": 0.0149, "water_scene_b4": 0.0067, "n_det_px": 5, "n_obj": 2}, "note": "эвристики, не классификатор; на размеченных данных не проверены"}, "n_cozar_filaments": 0}, "field_nearby": {"items": [{"source": "ADIS (4TU.ResearchData, судовая камера)", "segment_id": 416634, "ship": "RV Pelagia", "date": "2023-12-19", "days_from_scene": -843, "distance_km": 1740.6, "lon": -75.79339, "lat": 25.94314, "n_items": 0, "area_km2": 0.9676, "size_class": "> 5 см", "c_items_km2": 0.0, "ci95_lo": 0.0, "ci95_hi": 3.81, "ci95_method": "точный интервал Пуассона для N, делённый на A", "raw_10cm_items_km2": 0.0, "authors_cal_10cm_items_km2": 0.0, "authors_cal_10cm_lo95": null, "authors_cal_10cm_hi95": null}, {"source": "ADIS (4TU.ResearchData, судовая камера)", "segment_id": 405468, "ship": "RV Pelagia", "date": "2023-12-19", "days_from_scene": -843, "distance_km": 1740.7, "lon": -75.79193, "lat": 25.94347, "n_items": 0, "area_km2": 0.72, "size_class": "> 5 см", "c_items_km2": 0.0, "ci95_lo": 0.0, "ci95_hi": 5.12, "ci95_method": "точный интервал Пуассона для N, делённый на A", "raw_10cm_items_km2": 0.0, "authors_cal_10cm_items_km2": 0.0, "authors_cal_10cm_lo95": null, "authors_cal_10cm_hi95": null}, {"source": "ADIS (4TU.ResearchData, судовая камера)", "segment_id": 416633, "ship": "RV Pelagia", "date": "2023-12-19", "days_from_scene": -843, "distance_km": 1750.1, "lon": -75.70128, "lat": 25.97146, "n_items": 0, "area_km2": 1.015, "size_class": "> 5 см", "c_items_km2": 0.0, "ci95_lo": 0.0, "ci95_hi": 3.63, "ci95_method": "точный интервал Пуассона для N, делённый на A", "raw_10cm_items_km2": 0.0, "authors_cal_10cm_items_km2": 0.0, "authors_cal_10cm_lo95": null, "authors_cal_10cm_hi95": null}], "nearest_organizer_sample": {"sample_id": "MPL-0239", "source_id": "S2_SARGASSO_MSM41", "distance_km": 2169.8}, "note": "Измерение ≠ оценка: это независимые полевые счёты C = N/A в другое время и в другом месте; со сценой они не связаны и не калибруют её. Ближайший отрезок ADIS — за 1741 км: только для порядка величин."}}}, {"type": "Feature", "id": "SZ-live-honduras-2026-04-10-002", "geometry": {"type": "Polygon", "coordinates": [[[-88.145631, 15.818379], [-88.14647, 15.818103], [-88.146934, 15.817649], [-88.14721, 15.816834], [-88.147013, 15.815027], [-88.147665, 15.814843], [-88.148221, 15.814117], [-88.148305, 15.812399], [-88.147366, 15.8115], [-88.146339, 15.811505], [-88.145688, 15.811961], [-88.145231, 15.813681], [-88.145327, 15.814042], [-88.144768, 15.814225], [-88.144304, 15.814861], [-88.144226, 15.817482], [-88.144696, 15.818112], [-88.145631, 15.818379]]]}, "properties": {"kind": "detection_zone", "layer_kind": "scene_zone", "zone_id": "SZ-live-honduras-2026-04-10-002", "scene_key": "live-honduras-2026-04-10", "scene_kind": "live", "scene_id": "S2B_MSIL2A_20260410T160819_R140_T16PCC_20260410T200402", "region": "honduras", "title": "Гондурасский залив (Омоа – Пуэрто-Кортес – устье Мотагуа) · зона 2", "mission": "Sentinel-2", "datetime": "2026-04-10T16:08:19.024000Z", "detection_status": "detected", "status": "detected", "concentration_status": "unavailable", "quantity": {"status": "not_confirmed", "label": "концентрация по снимку не подтверждена", "detail": "перевод площади в штуки не показываем: нет калибровочных пар (см. docs/QUANTITY.md)"}, "verification": "unverified", "training_scene": null, "flags": [], "n_cozar_filaments": 0, "crop_file": "crops/SZ-live-honduras-2026-04-10-002.jpg", "wind_high": false, "measured": {"zone_area_km2": 0.2185, "suspicious_area_m2": 2200, "n_pixels": 22, "n_objects": 5, "water_km2": 0.2195, "lwd_m2_km2": 10022.8, "lwd_note": null, "quality": {"valid_water_fraction": 1.0, "cloud_fraction": 0.0, "glint_fraction": 0.0}, "model": {"weights": "weights/lgbm", "file": "weights/lgbm/model.txt", "sha256": "0eeebf43fcccd8c7c07f053b7ec723229d1a3c9b92d12eec1bdb269258c51470", "sha256_short": "0eeebf43fccc", "trained_at": "2026-09-25T01:35:55Z", "threshold": 0.63, "harmonize": "none", "class": "MARIDA Marine Debris (любой плавающий мусор, не только пластик)"}}, "probable": {"prob_max": 1.0, "prob_mean": 0.947, "signs": {"foam": {"flag": false, "white_ratio_b2_b8": 0.631, "wind10m_ms": 2.17, "rule": "прирост B2 над водой ≥ 0.8 прироста B8 («белый» спектр) или ветер ≥ 7.0 м/с"}, "glint": {"flag": false, "b11_water_median": 0.0086, "glint_share": 0.0, "rule": "медиана B11 воды зоны > 0.01 или ≥ 20 % пикселей зоны — блик (маска качества)"}, "ship": {"flag": false, "share": 0, "bright_target_px_within_500m": 0, "rule": "≥ 30 % пикселей — у яркой цели или кильватера (reports/artifacts.md) или яркая цель с откликом в SWIR (судно, лодка: B11 ≥ 0,015) ближе 500 м, или малый яркий объект (≤ 40 пикс.) с B11 ≥ 0,01 ближе 500 м (лодка с кильватером)"}, "coast": {"flag": false, "land_px_within_300m": 0, "rule": "суша (маска качества) ближе 300 м — прибой, кромка берега"}, "shallow": {"flag": false, "b3_water_zone": 0.0187, "b3_ratio_to_scene_water": 1.26, "rule": "медиана B3 воды зоны ≥ 2× медианы воды снимка и ≥ 0,03, или B4 воды зоны ≥ 0,02 и (≥ 2× воды снимка или B8 ≥ 0,013) — мелководье, яркое дно, илистая банка"}, "seam": {"flag": false, "share": 0, "rule": "≥ 30 % пикселей — прямая линия вдоль трека/границы яркости (шов)"}, "cloud": {"flag": false, "cloud_fraction": 0.0, "rule": "облака или тени облаков (маска качества) ≥ 20 % зоны"}, "diag": {"dist_land_m": null, "dist_bright_m": null, "n_bright_px_500m": 0, "b11_bright_max_500m": null, "b4_water_zone": 0.0113, "b8_water_zone": 0.01, "b11_det_median": 0.0112, "b8_det_median": 0.0253, "water_scene_b3": 0.0149, "water_scene_b4": 0.0067, "n_det_px": 22, "n_obj": 5}, "note": "эвристики, не классификатор; на размеченных данных не проверены"}, "n_cozar_filaments": 0}, "field_nearby": {"items": [{"source": "ADIS (4TU.ResearchData, судовая камера)", "segment_id": 416634, "ship": "RV Pelagia", "date": "2023-12-19", "days_from_scene": -843, "distance_km": 1740.6, "lon": -75.79339, "lat": 25.94314, "n_items": 0, "area_km2": 0.9676, "size_class": "> 5 см", "c_items_km2": 0.0, "ci95_lo": 0.0, "ci95_hi": 3.81, "ci95_method": "точный интервал Пуассона для N, делённый на A", "raw_10cm_items_km2": 0.0, "authors_cal_10cm_items_km2": 0.0, "authors_cal_10cm_lo95": null, "authors_cal_10cm_hi95": null}, {"source": "ADIS (4TU.ResearchData, судовая камера)", "segment_id": 405468, "ship": "RV Pelagia", "date": "2023-12-19", "days_from_scene": -843, "distance_km": 1740.7, "lon": -75.79193, "lat": 25.94347, "n_items": 0, "area_km2": 0.72, "size_class": "> 5 см", "c_items_km2": 0.0, "ci95_lo": 0.0, "ci95_hi": 5.12, "ci95_method": "точный интервал Пуассона для N, делённый на A", "raw_10cm_items_km2": 0.0, "authors_cal_10cm_items_km2": 0.0, "authors_cal_10cm_lo95": null, "authors_cal_10cm_hi95": null}, {"source": "ADIS (4TU.ResearchData, судовая камера)", "segment_id": 416633, "ship": "RV Pelagia", "date": "2023-12-19", "days_from_scene": -843, "distance_km": 1750.1, "lon": -75.70128, "lat": 25.97146, "n_items": 0, "area_km2": 1.015, "size_class": "> 5 см", "c_items_km2": 0.0, "ci95_lo": 0.0, "ci95_hi": 3.63, "ci95_method": "точный интервал Пуассона для N, делённый на A", "raw_10cm_items_km2": 0.0, "authors_cal_10cm_items_km2": 0.0, "authors_cal_10cm_lo95": null, "authors_cal_10cm_hi95": null}], "nearest_organizer_sample": {"sample_id": "MPL-0239", "source_id": "S2_SARGASSO_MSM41", "distance_km": 2169.8}, "note": "Измерение ≠ оценка: это независимые полевые счёты C = N/A в другое время и в другом месте; со сценой они не связаны и не калибруют её. Ближайший отрезок ADIS — за 1741 км: только для порядка величин."}}}, {"type": "Feature", "id": "SZ-live-honduras-2026-04-10-003", "geometry": {"type": "Polygon", "coordinates": [[[-88.147605, 15.804087], [-88.148443, 15.803811], [-88.148997, 15.802723], [-88.148895, 15.801187], [-88.148238, 15.800468], [-88.148891, 15.800374], [-88.149542, 15.799918], [-88.149817, 15.799103], [-88.149626, 15.798381], [-88.15, 15.79847], [-88.150839, 15.798194], [-88.151581, 15.797286], [-88.151856, 15.796471], [-88.151661, 15.794936], [-88.152405, 15.79448], [-88.152588, 15.793756], [-88.153053, 15.793573], [-88.153609, 15.792846], [-88.15369, 15.790677], [-88.152846, 15.789868], [-88.151819, 15.789873], [-88.151168, 15.790328], [-88.150805, 15.792229], [-88.15034, 15.792412], [-88.149876, 15.793047], [-88.149787, 15.79368], [-88.149976, 15.794222], [-88.149511, 15.794405], [-88.149047, 15.79504], [-88.149052, 15.795853], [-88.148498, 15.796941], [-88.148689, 15.797754], [-88.147756, 15.797759], [-88.14692, 15.798576], [-88.146926, 15.799571], [-88.147583, 15.80029], [-88.147024, 15.800384], [-88.146373, 15.800839], [-88.14601, 15.802739], [-88.146576, 15.803821], [-88.147605, 15.804087]], [[-88.148237, 15.800377], [-88.148051, 15.800469], [-88.148051, 15.800378], [-88.148237, 15.800377]], [[-88.14777, 15.800289], [-88.147584, 15.800381], [-88.147583, 15.80029], [-88.14777, 15.800289]]]}, "properties": {"kind": "detection_zone", "layer_kind": "scene_zone", "zone_id": "SZ-live-honduras-2026-04-10-003", "scene_key": "live-honduras-2026-04-10", "scene_kind": "live", "scene_id": "S2B_MSIL2A_20260410T160819_R140_T16PCC_20260410T200402", "region": "honduras", "title": "Гондурасский залив (Омоа – Пуэрто-Кортес – устье Мотагуа) · зона 3", "mission": "Sentinel-2", "datetime": "2026-04-10T16:08:19.024000Z", "detection_status": "insufficient_data", "status": "insufficient_data", "concentration_status": "unavailable", "quantity": {"status": "not_confirmed", "label": "концентрация по снимку не подтверждена", "detail": "перевод площади в штуки не показываем: нет калибровочных пар (см. docs/QUANTITY.md)"}, "verification": "false_alarm_signs", "training_scene": null, "flags": ["ship"], "n_cozar_filaments": 0, "crop_file": "crops/SZ-live-honduras-2026-04-10-003.jpg", "wind_high": false, "measured": {"zone_area_km2": 0.4527, "suspicious_area_m2": 2600, "n_pixels": 26, "n_objects": 10, "water_km2": 0.4565, "lwd_m2_km2": 5695.5, "lwd_note": null, "quality": {"valid_water_fraction": 1.0, "cloud_fraction": 0.0, "glint_fraction": 0.0}, "model": {"weights": "weights/lgbm", "file": "weights/lgbm/model.txt", "sha256": "0eeebf43fcccd8c7c07f053b7ec723229d1a3c9b92d12eec1bdb269258c51470", "sha256_short": "0eeebf43fccc", "trained_at": "2026-09-25T01:35:55Z", "threshold": 0.63, "harmonize": "none", "class": "MARIDA Marine Debris (любой плавающий мусор, не только пластик)"}}, "probable": {"prob_max": 0.996, "prob_mean": 0.929, "signs": {"foam": {"flag": false, "white_ratio_b2_b8": 0.524, "wind10m_ms": 2.17, "rule": "прирост B2 над водой ≥ 0.8 прироста B8 («белый» спектр) или ветер ≥ 7.0 м/с"}, "glint": {"flag": false, "b11_water_median": 0.0088, "glint_share": 0.0, "rule": "медиана B11 воды зоны > 0.01 или ≥ 20 % пикселей зоны — блик (маска качества)"}, "ship": {"flag": true, "share": 0.154, "bright_target_px_within_500m": 1, "rule": "≥ 30 % пикселей — у яркой цели или кильватера (reports/artifacts.md) или яркая цель с откликом в SWIR (судно, лодка: B11 ≥ 0,015) ближе 500 м, или малый яркий объект (≤ 40 пикс.) с B11 ≥ 0,01 ближе 500 м (лодка с кильватером)"}, "coast": {"flag": false, "land_px_within_300m": 0, "rule": "суша (маска качества) ближе 300 м — прибой, кромка берега"}, "shallow": {"flag": false, "b3_water_zone": 0.0195, "b3_ratio_to_scene_water": 1.31, "rule": "медиана B3 воды зоны ≥ 2× медианы воды снимка и ≥ 0,03, или B4 воды зоны ≥ 0,02 и (≥ 2× воды снимка или B8 ≥ 0,013) — мелководье, яркое дно, илистая банка"}, "seam": {"flag": false, "share": 0, "rule": "≥ 30 % пикселей — прямая линия вдоль трека/границы яркости (шов)"}, "cloud": {"flag": false, "cloud_fraction": 0.0, "rule": "облака или тени облаков (маска качества) ≥ 20 % зоны"}, "diag": {"dist_land_m": null, "dist_bright_m": 10, "n_bright_px_500m": 1, "b11_bright_max_500m": 0.0152, "b4_water_zone": 0.0119, "b8_water_zone": 0.01, "b11_det_median": 0.0143, "b8_det_median": 0.0338, "water_scene_b3": 0.0149, "water_scene_b4": 0.0067, "n_det_px": 26, "n_obj": 10}, "note": "эвристики, не классификатор; на размеченных данных не проверены"}, "n_cozar_filaments": 0}, "field_nearby": {"items": [{"source": "ADIS (4TU.ResearchData, судовая камера)", "segment_id": 416634, "ship": "RV Pelagia", "date": "2023-12-19", "days_from_scene": -843, "distance_km": 1740.6, "lon": -75.79339, "lat": 25.94314, "n_items": 0, "area_km2": 0.9676, "size_class": "> 5 см", "c_items_km2": 0.0, "ci95_lo": 0.0, "ci95_hi": 3.81, "ci95_method": "точный интервал Пуассона для N, делённый на A", "raw_10cm_items_km2": 0.0, "authors_cal_10cm_items_km2": 0.0, "authors_cal_10cm_lo95": null, "authors_cal_10cm_hi95": null}, {"source": "ADIS (4TU.ResearchData, судовая камера)", "segment_id": 405468, "ship": "RV Pelagia", "date": "2023-12-19", "days_from_scene": -843, "distance_km": 1740.7, "lon": -75.79193, "lat": 25.94347, "n_items": 0, "area_km2": 0.72, "size_class": "> 5 см", "c_items_km2": 0.0, "ci95_lo": 0.0, "ci95_hi": 5.12, "ci95_method": "точный интервал Пуассона для N, делённый на A", "raw_10cm_items_km2": 0.0, "authors_cal_10cm_items_km2": 0.0, "authors_cal_10cm_lo95": null, "authors_cal_10cm_hi95": null}, {"source": "ADIS (4TU.ResearchData, судовая камера)", "segment_id": 416633, "ship": "RV Pelagia", "date": "2023-12-19", "days_from_scene": -843, "distance_km": 1750.1, "lon": -75.70128, "lat": 25.97146, "n_items": 0, "area_km2": 1.015, "size_class": "> 5 см", "c_items_km2": 0.0, "ci95_lo": 0.0, "ci95_hi": 3.63, "ci95_method": "точный интервал Пуассона для N, делённый на A", "raw_10cm_items_km2": 0.0, "authors_cal_10cm_items_km2": 0.0, "authors_cal_10cm_lo95": null, "authors_cal_10cm_hi95": null}], "nearest_organizer_sample": {"sample_id": "MPL-0239", "source_id": "S2_SARGASSO_MSM41", "distance_km": 2169.8}, "note": "Измерение ≠ оценка: это независимые полевые счёты C = N/A в другое время и в другом месте; со сценой они не связаны и не калибруют её. Ближайший отрезок ADIS — за 1741 км: только для порядка величин."}}}, {"type": "Feature", "id": "SZ-live-honduras-2026-04-10-004", "geometry": {"type": "Polygon", "coordinates": [[[-88.155354, 15.787685], [-88.156192, 15.787409], [-88.156657, 15.786955], [-88.156932, 15.78614], [-88.156646, 15.785147], [-88.155523, 15.784611], [-88.154591, 15.784887], [-88.154127, 15.785341], [-88.153852, 15.786156], [-88.154137, 15.787149], [-88.154793, 15.787598], [-88.155354, 15.787685]]]}, "properties": {"kind": "detection_zone", "layer_kind": "scene_zone", "zone_id": "SZ-live-honduras-2026-04-10-004", "scene_key": "live-honduras-2026-04-10", "scene_kind": "live", "scene_id": "S2B_MSIL2A_20260410T160819_R140_T16PCC_20260410T200402", "region": "honduras", "title": "Гондурасский залив (Омоа – Пуэрто-Кортес – устье Мотагуа) · зона 4", "mission": "Sentinel-2", "datetime": "2026-04-10T16:08:19.024000Z", "detection_status": "detected", "status": "detected", "concentration_status": "unavailable", "quantity": {"status": "not_confirmed", "label": "концентрация по снимку не подтверждена", "detail": "перевод площади в штуки не показываем: нет калибровочных пар (см. docs/QUANTITY.md)"}, "verification": "unverified", "training_scene": null, "flags": [], "n_cozar_filaments": 0, "crop_file": "crops/SZ-live-honduras-2026-04-10-004.jpg", "wind_high": false, "measured": {"zone_area_km2": 0.0831, "suspicious_area_m2": 600, "n_pixels": 6, "n_objects": 1, "water_km2": 0.0828, "lwd_m2_km2": 7246.4, "lwd_note": null, "quality": {"valid_water_fraction": 1.0, "cloud_fraction": 0.0, "glint_fraction": 0.0}, "model": {"weights": "weights/lgbm", "file": "weights/lgbm/model.txt", "sha256": "0eeebf43fcccd8c7c07f053b7ec723229d1a3c9b92d12eec1bdb269258c51470", "sha256_short": "0eeebf43fccc", "trained_at": "2026-09-25T01:35:55Z", "threshold": 0.63, "harmonize": "none", "class": "MARIDA Marine Debris (любой плавающий мусор, не только пластик)"}}, "probable": {"prob_max": 1.0, "prob_mean": 0.956, "signs": {"foam": {"flag": false, "white_ratio_b2_b8": 0.501, "wind10m_ms": 2.17, "rule": "прирост B2 над водой ≥ 0.8 прироста B8 («белый» спектр) или ветер ≥ 7.0 м/с"}, "glint": {"flag": false, "b11_water_median": 0.0074, "glint_share": 0.0, "rule": "медиана B11 воды зоны > 0.01 или ≥ 20 % пикселей зоны — блик (маска качества)"}, "ship": {"flag": false, "share": 0, "bright_target_px_within_500m": 0, "rule": "≥ 30 % пикселей — у яркой цели или кильватера (reports/artifacts.md) или яркая цель с откликом в SWIR (судно, лодка: B11 ≥ 0,015) ближе 500 м, или малый яркий объект (≤ 40 пикс.) с B11 ≥ 0,01 ближе 500 м (лодка с кильватером)"}, "coast": {"flag": false, "land_px_within_300m": 0, "rule": "суша (маска качества) ближе 300 м — прибой, кромка берега"}, "shallow": {"flag": false, "b3_water_zone": 0.0174, "b3_ratio_to_scene_water": 1.17, "rule": "медиана B3 воды зоны ≥ 2× медианы воды снимка и ≥ 0,03, или B4 воды зоны ≥ 0,02 и (≥ 2× воды снимка или B8 ≥ 0,013) — мелководье, яркое дно, илистая банка"}, "seam": {"flag": false, "share": 0, "rule": "≥ 30 % пикселей — прямая линия вдоль трека/границы яркости (шов)"}, "cloud": {"flag": false, "cloud_fraction": 0.0, "rule": "облака или тени облаков (маска качества) ≥ 20 % зоны"}, "diag": {"dist_land_m": null, "dist_bright_m": 908, "n_bright_px_500m": 0, "b11_bright_max_500m": null, "b4_water_zone": 0.0098, "b8_water_zone": 0.0086, "b11_det_median": 0.0114, "b8_det_median": 0.0228, "water_scene_b3": 0.0149, "water_scene_b4": 0.0067, "n_det_px": 6, "n_obj": 1}, "note": "эвристики, не классификатор; на размеченных данных не проверены"}, "n_cozar_filaments": 0}, "field_nearby": {"items": [{"source": "ADIS (4TU.ResearchData, судовая камера)", "segment_id": 416634, "ship": "RV Pelagia", "date": "2023-12-19", "days_from_scene": -843, "distance_km": 1740.6, "lon": -75.79339, "lat": 25.94314, "n_items": 0, "area_km2": 0.9676, "size_class": "> 5 см", "c_items_km2": 0.0, "ci95_lo": 0.0, "ci95_hi": 3.81, "ci95_method": "точный интервал Пуассона для N, делённый на A", "raw_10cm_items_km2": 0.0, "authors_cal_10cm_items_km2": 0.0, "authors_cal_10cm_lo95": null, "authors_cal_10cm_hi95": null}, {"source": "ADIS (4TU.ResearchData, судовая камера)", "segment_id": 405468, "ship": "RV Pelagia", "date": "2023-12-19", "days_from_scene": -843, "distance_km": 1740.7, "lon": -75.79193, "lat": 25.94347, "n_items": 0, "area_km2": 0.72, "size_class": "> 5 см", "c_items_km2": 0.0, "ci95_lo": 0.0, "ci95_hi": 5.12, "ci95_method": "точный интервал Пуассона для N, делённый на A", "raw_10cm_items_km2": 0.0, "authors_cal_10cm_items_km2": 0.0, "authors_cal_10cm_lo95": null, "authors_cal_10cm_hi95": null}, {"source": "ADIS (4TU.ResearchData, судовая камера)", "segment_id": 416633, "ship": "RV Pelagia", "date": "2023-12-19", "days_from_scene": -843, "distance_km": 1750.1, "lon": -75.70128, "lat": 25.97146, "n_items": 0, "area_km2": 1.015, "size_class": "> 5 см", "c_items_km2": 0.0, "ci95_lo": 0.0, "ci95_hi": 3.63, "ci95_method": "точный интервал Пуассона для N, делённый на A", "raw_10cm_items_km2": 0.0, "authors_cal_10cm_items_km2": 0.0, "authors_cal_10cm_lo95": null, "authors_cal_10cm_hi95": null}], "nearest_organizer_sample": {"sample_id": "MPL-0239", "source_id": "S2_SARGASSO_MSM41", "distance_km": 2169.8}, "note": "Измерение ≠ оценка: это независимые полевые счёты C = N/A в другое время и в другом месте; со сценой они не связаны и не калибруют её. Ближайший отрезок ADIS — за 1741 км: только для порядка величин."}}}, {"type": "Feature", "id": "SZ-live-honduras-2026-04-10-005", "geometry": {"type": "Polygon", "coordinates": [[[-88.160186, 15.783772], [-88.161024, 15.783497], [-88.161857, 15.782137], [-88.162882, 15.78186], [-88.163436, 15.780863], [-88.163901, 15.780499], [-88.164175, 15.779412], [-88.163609, 15.778331], [-88.162767, 15.778064], [-88.161835, 15.77834], [-88.161464, 15.778704], [-88.161188, 15.779519], [-88.16063, 15.779883], [-88.160447, 15.780517], [-88.159608, 15.780702], [-88.158959, 15.781429], [-88.158684, 15.782244], [-88.15878, 15.782876], [-88.159251, 15.783506], [-88.160186, 15.783772]]]}, "properties": {"kind": "detection_zone", "layer_kind": "scene_zone", "zone_id": "SZ-live-honduras-2026-04-10-005", "scene_key": "live-honduras-2026-04-10", "scene_kind": "live", "scene_id": "S2B_MSIL2A_20260410T160819_R140_T16PCC_20260410T200402", "region": "honduras", "title": "Гондурасский залив (Омоа – Пуэрто-Кортес – устье Мотагуа) · зона 5", "mission": "Sentinel-2", "datetime": "2026-04-10T16:08:19.024000Z", "detection_status": "detected", "status": "detected", "concentration_status": "unavailable", "quantity": {"status": "not_confirmed", "label": "концентрация по снимку не подтверждена", "detail": "перевод площади в штуки не показываем: нет калибровочных пар (см. docs/QUANTITY.md)"}, "verification": "unverified", "training_scene": null, "flags": [], "n_cozar_filaments": 0, "crop_file": "crops/SZ-live-honduras-2026-04-10-005.jpg", "wind_high": false, "measured": {"zone_area_km2": 0.198, "suspicious_area_m2": 1600, "n_pixels": 16, "n_objects": 4, "water_km2": 0.1998, "lwd_m2_km2": 8008.0, "lwd_note": null, "quality": {"valid_water_fraction": 1.0, "cloud_fraction": 0.0, "glint_fraction": 0.0}, "model": {"weights": "weights/lgbm", "file": "weights/lgbm/model.txt", "sha256": "0eeebf43fcccd8c7c07f053b7ec723229d1a3c9b92d12eec1bdb269258c51470", "sha256_short": "0eeebf43fccc", "trained_at": "2026-09-25T01:35:55Z", "threshold": 0.63, "harmonize": "none", "class": "MARIDA Marine Debris (любой плавающий мусор, не только пластик)"}}, "probable": {"prob_max": 1.0, "prob_mean": 0.941, "signs": {"foam": {"flag": false, "white_ratio_b2_b8": 0.595, "wind10m_ms": 2.17, "rule": "прирост B2 над водой ≥ 0.8 прироста B8 («белый» спектр) или ветер ≥ 7.0 м/с"}, "glint": {"flag": false, "b11_water_median": 0.0082, "glint_share": 0.0, "rule": "медиана B11 воды зоны > 0.01 или ≥ 20 % пикселей зоны — блик (маска качества)"}, "ship": {"flag": false, "share": 0, "bright_target_px_within_500m": 0, "rule": "≥ 30 % пикселей — у яркой цели или кильватера (reports/artifacts.md) или яркая цель с откликом в SWIR (судно, лодка: B11 ≥ 0,015) ближе 500 м, или малый яркий объект (≤ 40 пикс.) с B11 ≥ 0,01 ближе 500 м (лодка с кильватером)"}, "coast": {"flag": false, "land_px_within_300m": 0, "rule": "суша (маска качества) ближе 300 м — прибой, кромка берега"}, "shallow": {"flag": false, "b3_water_zone": 0.0196, "b3_ratio_to_scene_water": 1.32, "rule": "медиана B3 воды зоны ≥ 2× медианы воды снимка и ≥ 0,03, или B4 воды зоны ≥ 0,02 и (≥ 2× воды снимка или B8 ≥ 0,013) — мелководье, яркое дно, илистая банка"}, "seam": {"flag": false, "share": 0, "rule": "≥ 30 % пикселей — прямая линия вдоль трека/границы яркости (шов)"}, "cloud": {"flag": false, "cloud_fraction": 0.0, "rule": "облака или тени облаков (маска качества) ≥ 20 % зоны"}, "diag": {"dist_land_m": null, "dist_bright_m": 708, "n_bright_px_500m": 0, "b11_bright_max_500m": null, "b4_water_zone": 0.0118, "b8_water_zone": 0.0098, "b11_det_median": 0.0122, "b8_det_median": 0.0233, "water_scene_b3": 0.0149, "water_scene_b4": 0.0067, "n_det_px": 16, "n_obj": 4}, "note": "эвристики, не классификатор; на размеченных данных не проверены"}, "n_cozar_filaments": 0}, "field_nearby": {"items": [{"source": "ADIS (4TU.ResearchData, судовая камера)", "segment_id": 416634, "ship": "RV Pelagia", "date": "2023-12-19", "days_from_scene": -843, "distance_km": 1740.6, "lon": -75.79339, "lat": 25.94314, "n_items": 0, "area_km2": 0.9676, "size_class": "> 5 см", "c_items_km2": 0.0, "ci95_lo": 0.0, "ci95_hi": 3.81, "ci95_method": "точный интервал Пуассона для N, делённый на A", "raw_10cm_items_km2": 0.0, "authors_cal_10cm_items_km2": 0.0, "authors_cal_10cm_lo95": null, "authors_cal_10cm_hi95": null}, {"source": "ADIS (4TU.ResearchData, судовая камера)", "segment_id": 405468, "ship": "RV Pelagia", "date": "2023-12-19", "days_from_scene": -843, "distance_km": 1740.7, "lon": -75.79193, "lat": 25.94347, "n_items": 0, "area_km2": 0.72, "size_class": "> 5 см", "c_items_km2": 0.0, "ci95_lo": 0.0, "ci95_hi": 5.12, "ci95_method": "точный интервал Пуассона для N, делённый на A", "raw_10cm_items_km2": 0.0, "authors_cal_10cm_items_km2": 0.0, "authors_cal_10cm_lo95": null, "authors_cal_10cm_hi95": null}, {"source": "ADIS (4TU.ResearchData, судовая камера)", "segment_id": 416633, "ship": "RV Pelagia", "date": "2023-12-19", "days_from_scene": -843, "distance_km": 1750.1, "lon": -75.70128, "lat": 25.97146, "n_items": 0, "area_km2": 1.015, "size_class": "> 5 см", "c_items_km2": 0.0, "ci95_lo": 0.0, "ci95_hi": 3.63, "ci95_method": "точный интервал Пуассона для N, делённый на A", "raw_10cm_items_km2": 0.0, "authors_cal_10cm_items_km2": 0.0, "authors_cal_10cm_lo95": null, "authors_cal_10cm_hi95": null}], "nearest_organizer_sample": {"sample_id": "MPL-0239", "source_id": "S2_SARGASSO_MSM41", "distance_km": 2169.8}, "note": "Измерение ≠ оценка: это независимые полевые счёты C = N/A в другое время и в другом месте; со сценой они не связаны и не калибруют её. Ближайший отрезок ADIS — за 1741 км: только для порядка величин."}}}, {"type": "Feature", "id": "SZ-live-honduras-2026-04-10-006", "geometry": {"type": "Polygon", "coordinates": [[[-88.166774, 15.776868], [-88.167891, 15.776319], [-88.168538, 15.775231], [-88.168628, 15.774598], [-88.168438, 15.774057], [-88.169184, 15.773872], [-88.169832, 15.772964], [-88.169826, 15.77197], [-88.168982, 15.771161], [-88.167955, 15.771167], [-88.167118, 15.771804], [-88.166843, 15.772619], [-88.167034, 15.773341], [-88.166288, 15.773526], [-88.165363, 15.774977], [-88.165273, 15.77552], [-88.165558, 15.776332], [-88.166213, 15.77678], [-88.166774, 15.776868]]]}, "properties": {"kind": "detection_zone", "layer_kind": "scene_zone", "zone_id": "SZ-live-honduras-2026-04-10-006", "scene_key": "live-honduras-2026-04-10", "scene_kind": "live", "scene_id": "S2B_MSIL2A_20260410T160819_R140_T16PCC_20260410T200402", "region": "honduras", "title": "Гондурасский залив (Омоа – Пуэрто-Кортес – устье Мотагуа) · зона 6", "mission": "Sentinel-2", "datetime": "2026-04-10T16:08:19.024000Z", "detection_status": "insufficient_data", "status": "insufficient_data", "concentration_status": "unavailable", "quantity": {"status": "not_confirmed", "label": "концентрация по снимку не подтверждена", "detail": "перевод площади в штуки не показываем: нет калибровочных пар (см. docs/QUANTITY.md)"}, "verification": "false_alarm_signs", "training_scene": null, "flags": ["ship"], "n_cozar_filaments": 0, "crop_file": "crops/SZ-live-honduras-2026-04-10-006.jpg", "wind_high": false, "measured": {"zone_area_km2": 0.177, "suspicious_area_m2": 900, "n_pixels": 9, "n_objects": 3, "water_km2": 0.1776, "lwd_m2_km2": 5067.6, "lwd_note": null, "quality": {"valid_water_fraction": 1.0, "cloud_fraction": 0.0, "glint_fraction": 0.0}, "model": {"weights": "weights/lgbm", "file": "weights/lgbm/model.txt", "sha256": "0eeebf43fcccd8c7c07f053b7ec723229d1a3c9b92d12eec1bdb269258c51470", "sha256_short": "0eeebf43fccc", "trained_at": "2026-09-25T01:35:55Z", "threshold": 0.63, "harmonize": "none", "class": "MARIDA Marine Debris (любой плавающий мусор, не только пластик)"}}, "probable": {"prob_max": 1.0, "prob_mean": 0.896, "signs": {"foam": {"flag": false, "white_ratio_b2_b8": 0.459, "wind10m_ms": 2.17, "rule": "прирост B2 над водой ≥ 0.8 прироста B8 («белый» спектр) или ветер ≥ 7.0 м/с"}, "glint": {"flag": false, "b11_water_median": 0.0078, "glint_share": 0.0, "rule": "медиана B11 воды зоны > 0.01 или ≥ 20 % пикселей зоны — блик (маска качества)"}, "ship": {"flag": true, "share": 0, "bright_target_px_within_500m": 0, "rule": "≥ 30 % пикселей — у яркой цели или кильватера (reports/artifacts.md) или яркая цель с откликом в SWIR (судно, лодка: B11 ≥ 0,015) ближе 500 м, или малый яркий объект (≤ 40 пикс.) с B11 ≥ 0,01 ближе 500 м (лодка с кильватером)"}, "coast": {"flag": false, "land_px_within_300m": 0, "rule": "суша (маска качества) ближе 300 м — прибой, кромка берега"}, "shallow": {"flag": false, "b3_water_zone": 0.0193, "b3_ratio_to_scene_water": 1.3, "rule": "медиана B3 воды зоны ≥ 2× медианы воды снимка и ≥ 0,03, или B4 воды зоны ≥ 0,02 и (≥ 2× воды снимка или B8 ≥ 0,013) — мелководье, яркое дно, илистая банка"}, "seam": {"flag": false, "share": 0, "rule": "≥ 30 % пикселей — прямая линия вдоль трека/границы яркости (шов)"}, "cloud": {"flag": false, "cloud_fraction": 0.0, "rule": "облака или тени облаков (маска качества) ≥ 20 % зоны"}, "diag": {"dist_land_m": null, "dist_bright_m": 10, "n_bright_px_500m": 1, "b11_bright_max_500m": 0.012, "b4_water_zone": 0.0114, "b8_water_zone": 0.0096, "b11_det_median": 0.0118, "b8_det_median": 0.0263, "water_scene_b3": 0.0149, "water_scene_b4": 0.0067, "n_det_px": 9, "n_obj": 3}, "note": "эвристики, не классификатор; на размеченных данных не проверены"}, "n_cozar_filaments": 0}, "field_nearby": {"items": [{"source": "ADIS (4TU.ResearchData, судовая камера)", "segment_id": 416634, "ship": "RV Pelagia", "date": "2023-12-19", "days_from_scene": -843, "distance_km": 1740.6, "lon": -75.79339, "lat": 25.94314, "n_items": 0, "area_km2": 0.9676, "size_class": "> 5 см", "c_items_km2": 0.0, "ci95_lo": 0.0, "ci95_hi": 3.81, "ci95_method": "точный интервал Пуассона для N, делённый на A", "raw_10cm_items_km2": 0.0, "authors_cal_10cm_items_km2": 0.0, "authors_cal_10cm_lo95": null, "authors_cal_10cm_hi95": null}, {"source": "ADIS (4TU.ResearchData, судовая камера)", "segment_id": 405468, "ship": "RV Pelagia", "date": "2023-12-19", "days_from_scene": -843, "distance_km": 1740.7, "lon": -75.79193, "lat": 25.94347, "n_items": 0, "area_km2": 0.72, "size_class": "> 5 см", "c_items_km2": 0.0, "ci95_lo": 0.0, "ci95_hi": 5.12, "ci95_method": "точный интервал Пуассона для N, делённый на A", "raw_10cm_items_km2": 0.0, "authors_cal_10cm_items_km2": 0.0, "authors_cal_10cm_lo95": null, "authors_cal_10cm_hi95": null}, {"source": "ADIS (4TU.ResearchData, судовая камера)", "segment_id": 416633, "ship": "RV Pelagia", "date": "2023-12-19", "days_from_scene": -843, "distance_km": 1750.1, "lon": -75.70128, "lat": 25.97146, "n_items": 0, "area_km2": 1.015, "size_class": "> 5 см", "c_items_km2": 0.0, "ci95_lo": 0.0, "ci95_hi": 3.63, "ci95_method": "точный интервал Пуассона для N, делённый на A", "raw_10cm_items_km2": 0.0, "authors_cal_10cm_items_km2": 0.0, "authors_cal_10cm_lo95": null, "authors_cal_10cm_hi95": null}], "nearest_organizer_sample": {"sample_id": "MPL-0239", "source_id": "S2_SARGASSO_MSM41", "distance_km": 2169.8}, "note": "Измерение ≠ оценка: это независимые полевые счёты C = N/A в другое время и в другом месте; со сценой они не связаны и не калибруют её. Ближайший отрезок ADIS — за 1741 км: только для порядка величин."}}}]}