{"type": "FeatureCollection", "features": [{"type": "Feature", "id": "D-SZ-live-ganges-2026-02-12-001-1", "geometry": {"type": "Polygon", "coordinates": [[[88.0404027, 21.6865118], [88.0404014, 21.6863311], [88.040498, 21.6863305], [88.0404974, 21.6862402], [88.040594, 21.6862396], [88.0405953, 21.6864203], [88.0404987, 21.6864209], [88.0404993, 21.6865112], [88.0404027, 21.6865118]]]}, "properties": {"kind": "detection", "det_id": "D-SZ-live-ganges-2026-02-12-001-1", "zone_id": "SZ-live-ganges-2026-02-12-001", "scene_id": "S2B_MSIL2A_20260212T043809_R033_T45QXD_20260212T081425", "datetime": "2026-02-12T04:38:09.024000Z", "n_pixels": 4, "area_m2": 400, "prob_max": 0.902, "prob_mean": 0.8725, "threshold": 0.63, "in_strip": true, "artifact": "seam"}}, {"type": "Feature", "id": "D-SZ-live-ganges-2026-02-12-001-2", "geometry": {"type": "Polygon", "coordinates": [[[88.0403028, 21.6860608], [88.0403021, 21.6859704], [88.0403988, 21.6859698], [88.0403994, 21.6860601], [88.0403028, 21.6860608]]]}, "properties": {"kind": "detection", "det_id": "D-SZ-live-ganges-2026-02-12-001-2", "zone_id": "SZ-live-ganges-2026-02-12-001", "scene_id": "S2B_MSIL2A_20260212T043809_R033_T45QXD_20260212T081425", "datetime": "2026-02-12T04:38:09.024000Z", "n_pixels": 1, "area_m2": 100, "prob_max": 0.6627, "prob_mean": 0.6627, "threshold": 0.63, "in_strip": true, "artifact": null}}]}