{"type": "FeatureCollection", "features": [{"type": "Feature", "id": "D-SZ-drift-karachi-2026-02-16-001-27", "geometry": {"type": "Polygon", "coordinates": [[[67.0375198, 24.7610198], [67.0375212, 24.7609296], [67.0374224, 24.7609283], [67.0374238, 24.760838], [67.0376215, 24.7608406], [67.0376186, 24.7610211], [67.0375198, 24.7610198]]]}, "properties": {"kind": "detection", "det_id": "D-SZ-drift-karachi-2026-02-16-001-27", "zone_id": "SZ-drift-karachi-2026-02-16-001", "scene_id": "S2B_MSIL2A_20260216T055819_R091_T42RTN_20260216T080408", "datetime": "2026-02-16T05:58:19.024000Z", "n_pixels": 3, "area_m2": 300, "prob_max": 0.9922, "prob_mean": 0.9359, "threshold": 0.63, "in_strip": true, "artifact": null}}, {"type": "Feature", "id": "D-SZ-drift-karachi-2026-02-16-001-28", "geometry": {"type": "Polygon", "coordinates": [[[67.0387102, 24.7607646], [67.0387117, 24.7606743], [67.0388105, 24.7606756], [67.0388091, 24.7607659], [67.0387102, 24.7607646]]]}, "properties": {"kind": "detection", "det_id": "D-SZ-drift-karachi-2026-02-16-001-28", "zone_id": "SZ-drift-karachi-2026-02-16-001", "scene_id": "S2B_MSIL2A_20260216T055819_R091_T42RTN_20260216T080408", "datetime": "2026-02-16T05:58:19.024000Z", "n_pixels": 1, "area_m2": 100, "prob_max": 0.6588, "prob_mean": 0.6588, "threshold": 0.63, "in_strip": true, "artifact": "ship"}}, {"type": "Feature", "id": "D-SZ-drift-karachi-2026-02-16-001-30", "geometry": {"type": "Polygon", "coordinates": [[[67.0387131, 24.7605841], [67.0387145, 24.7604938], [67.0388134, 24.7604951], [67.0388119, 24.7605853], [67.0387131, 24.7605841]]]}, "properties": {"kind": "detection", "det_id": "D-SZ-drift-karachi-2026-02-16-001-30", "zone_id": "SZ-drift-karachi-2026-02-16-001", "scene_id": "S2B_MSIL2A_20260216T055819_R091_T42RTN_20260216T080408", "datetime": "2026-02-16T05:58:19.024000Z", "n_pixels": 1, "area_m2": 100, "prob_max": 0.7804, "prob_mean": 0.7804, "threshold": 0.63, "in_strip": true, "artifact": "ship"}}, {"type": "Feature", "id": "D-SZ-drift-karachi-2026-02-16-001-33", "geometry": {"type": "Polygon", "coordinates": [[[67.0382259, 24.7601263], [67.0382288, 24.7599458], [67.0383276, 24.759947], [67.0383248, 24.7601276], [67.0382259, 24.7601263]]]}, "properties": {"kind": "detection", "det_id": "D-SZ-drift-karachi-2026-02-16-001-33", "zone_id": "SZ-drift-karachi-2026-02-16-001", "scene_id": "S2B_MSIL2A_20260216T055819_R091_T42RTN_20260216T080408", "datetime": "2026-02-16T05:58:19.024000Z", "n_pixels": 2, "area_m2": 200, "prob_max": 0.9843, "prob_mean": 0.9471, "threshold": 0.63, "in_strip": true, "artifact": null}}, {"type": "Feature", "id": "D-SZ-drift-karachi-2026-02-16-002-38", "geometry": {"type": "Polygon", "coordinates": [[[66.9658831, 24.7523001], [66.9658846, 24.7522099], [66.9661811, 24.7522139], [66.9661826, 24.7521236], [66.9662814, 24.752125], [66.9662785, 24.7523055], [66.9658831, 24.7523001]]]}, "properties": {"kind": "detection", "det_id": "D-SZ-drift-karachi-2026-02-16-002-38", "zone_id": "SZ-drift-karachi-2026-02-16-002", "scene_id": "S2B_MSIL2A_20260216T055819_R091_T42RTN_20260216T080408", "datetime": "2026-02-16T05:58:19.024000Z", "n_pixels": 5, "area_m2": 500, "prob_max": 0.9647, "prob_mean": 0.869, "threshold": 0.63, "in_strip": true, "artifact": null}}]}