{"type": "FeatureCollection", "features": [{"type": "Feature", "id": "SZ-drift-karachi-2026-02-16-001", "geometry": {"type": "Polygon", "coordinates": [[[67.037499, 24.762374], [67.036613, 24.762091], [67.036223, 24.761725], [67.03594, 24.760909], [67.036047, 24.760369], [67.037356, 24.758851], [67.03825, 24.758592], [67.038842, 24.75869], [67.040012, 24.759698], [67.040296, 24.760514], [67.040186, 24.761235], [67.039284, 24.762036], [67.038493, 24.762026], [67.037499, 24.762374]]]}, "properties": {"kind": "detection_zone", "layer_kind": "scene_zone", "zone_id": "SZ-drift-karachi-2026-02-16-001", "scene_key": "drift-karachi-2026-02-16", "scene_kind": "drift", "scene_id": "S2B_MSIL2A_20260216T055819_R091_T42RTN_20260216T080408", "region": "karachi", "title": "Карачи (порт, устье Лиари) · зона 1", "mission": "Sentinel-2", "datetime": "2026-02-16T05:58:19.024000Z", "detection_status": "insufficient_data", "status": "insufficient_data", "concentration_status": "unavailable", "verification": "false_alarm_signs", "training_scene": null, "flags": ["ship"], "n_cozar_filaments": 0, "crop_file": "crops/SZ-drift-karachi-2026-02-16-001.jpg", "measured": {"zone_area_km2": 0.1318, "suspicious_area_m2": 700, "n_pixels": 7, "n_objects": 4, "water_km2": 0.1315, "lwd_m2_km2": 5323.2, "quality": {"valid_water_fraction": 1.0, "cloud_fraction": 0.0, "glint_fraction": 0.0}, "model": {"weights": "weights/lgbm", "file": "weights/lgbm/model.txt", "sha256": "0eeebf43fcccd8c7c07f053b7ec723229d1a3c9b92d12eec1bdb269258c51470", "sha256_short": "0eeebf43fccc", "trained_at": "2026-09-25T01:35:55Z", "threshold": 0.63, "harmonize": "none", "class": "MARIDA Marine Debris (любой плавающий мусор, не только пластик)"}}, "probable": {"prob_max": 0.992, "prob_mean": 0.877, "signs": {"foam": {"flag": false, "white_ratio_b2_b8": 0.444, "wind10m_ms": 3.06, "rule": "прирост B2 над водой ≥ 0.8 прироста B8 («белый» спектр) или ветер ≥ 7.0 м/с"}, "glint": {"flag": false, "b11_water_median": 0.0049, "glint_share": 0.0, "rule": "медиана B11 воды зоны > 0.01 или ≥ 20 % пикселей зоны — блик (маска качества)"}, "ship": {"flag": true, "share": 0.286, "bright_target_px_within_500m": 1, "rule": "≥ 30 % пикселей — у яркой цели или кильватера (reports/artifacts.md) или яркая цель с откликом в SWIR (судно, лодка: B11 ≥ 0,015) ближе 500 м"}, "coast": {"flag": false, "land_px_within_300m": 0, "rule": "суша (маска качества) ближе 300 м — прибой, кромка берега"}, "shallow": {"flag": false, "b3_water_zone": 0.0178, "b3_ratio_to_scene_water": 0.93, "rule": "медиана B3 воды зоны ≥ 2× медианы воды снимка и ≥ 0,03 — мелководье или мутная вода"}, "seam": {"flag": false, "share": 0, "rule": "≥ 30 % пикселей — прямая линия вдоль трека/границы яркости (шов)"}, "note": "эвристики, не классификатор; на размеченных данных не проверены"}, "n_cozar_filaments": 0}, "field_nearby": {"items": [{"source": "ADIS (4TU.ResearchData, судовая камера)", "segment_id": 335769, "ship": "Dallaporta", "date": "2023-04-09", "days_from_scene": -1044, "distance_km": 5172.1, "lon": 18.55051, "lat": 40.01099, "n_items": 1, "area_km2": 0.1613, "size_class": "> 5 см", "c_items_km2": 6.2, "ci95_lo": 0.16, "ci95_hi": 34.53, "ci95_method": "точный интервал Пуассона для N, делённый на A"}, {"source": "ADIS (4TU.ResearchData, судовая камера)", "segment_id": 335770, "ship": "Dallaporta", "date": "2023-04-09", "days_from_scene": -1044, "distance_km": 5172.6, "lon": 18.56195, "lat": 40.05698, "n_items": 0, "area_km2": 0.2555, "size_class": "> 5 см", "c_items_km2": 0.0, "ci95_lo": 0.0, "ci95_hi": 14.44, "ci95_method": "точный интервал Пуассона для N, делённый на A"}, {"source": "ADIS (4TU.ResearchData, судовая камера)", "segment_id": 335768, "ship": "Dallaporta", "date": "2023-04-09", "days_from_scene": -1044, "distance_km": 5172.7, "lon": 18.52174, "lat": 39.95216, "n_items": 4, "area_km2": 0.3999, "size_class": "> 5 см", "c_items_km2": 10.0, "ci95_lo": 2.73, "ci95_hi": 25.61, "ci95_method": "точный интервал Пуассона для N, делённый на A"}], "nearest_organizer_sample": {"sample_id": "MPL-0922", "source_id": "S4_BLACK_SEA_DOORS3", "distance_km": 3168.2}, "note": "Измерение ≠ оценка: это независимые полевые счёты C = N/A в другое время и в другом месте; со сценой они не связаны и не калибруют её. Ближайший отрезок ADIS — за 5172 км: только для порядка величин."}}}, {"type": "Feature", "id": "SZ-drift-karachi-2026-02-16-002", "geometry": {"type": "Polygon", "coordinates": [[[66.965861, 24.753654], [66.964684, 24.753096], [66.964401, 24.75228], [66.964508, 24.75174], [66.965411, 24.75094], [66.966796, 24.750868], [66.967673, 24.751692], [66.967655, 24.752776], [66.96715, 24.753401], [66.965861, 24.753654]]]}, "properties": {"kind": "detection_zone", "layer_kind": "scene_zone", "zone_id": "SZ-drift-karachi-2026-02-16-002", "scene_key": "drift-karachi-2026-02-16", "scene_kind": "drift", "scene_id": "S2B_MSIL2A_20260216T055819_R091_T42RTN_20260216T080408", "region": "karachi", "title": "Карачи (порт, устье Лиари) · зона 2", "mission": "Sentinel-2", "datetime": "2026-02-16T05:58:19.024000Z", "detection_status": "insufficient_data", "status": "insufficient_data", "concentration_status": "unavailable", "verification": "false_alarm_signs", "training_scene": null, "flags": ["foam"], "n_cozar_filaments": 0, "crop_file": "crops/SZ-drift-karachi-2026-02-16-002.jpg", "measured": {"zone_area_km2": 0.0793, "suspicious_area_m2": 500, "n_pixels": 5, "n_objects": 1, "water_km2": 0.082, "lwd_m2_km2": 6097.6, "quality": {"valid_water_fraction": 1.0, "cloud_fraction": 0.0, "glint_fraction": 0.0}, "model": {"weights": "weights/lgbm", "file": "weights/lgbm/model.txt", "sha256": "0eeebf43fcccd8c7c07f053b7ec723229d1a3c9b92d12eec1bdb269258c51470", "sha256_short": "0eeebf43fccc", "trained_at": "2026-09-25T01:35:55Z", "threshold": 0.63, "harmonize": "none", "class": "MARIDA Marine Debris (любой плавающий мусор, не только пластик)"}}, "probable": {"prob_max": 0.965, "prob_mean": 0.869, "signs": {"foam": {"flag": true, "white_ratio_b2_b8": 0.859, "wind10m_ms": 3.06, "rule": "прирост B2 над водой ≥ 0.8 прироста B8 («белый» спектр) или ветер ≥ 7.0 м/с"}, "glint": {"flag": false, "b11_water_median": 0.0055, "glint_share": 0.0, "rule": "медиана B11 воды зоны > 0.01 или ≥ 20 % пикселей зоны — блик (маска качества)"}, "ship": {"flag": false, "share": 0, "bright_target_px_within_500m": 0, "rule": "≥ 30 % пикселей — у яркой цели или кильватера (reports/artifacts.md) или яркая цель с откликом в SWIR (судно, лодка: B11 ≥ 0,015) ближе 500 м"}, "coast": {"flag": false, "land_px_within_300m": 0, "rule": "суша (маска качества) ближе 300 м — прибой, кромка берега"}, "shallow": {"flag": false, "b3_water_zone": 0.0193, "b3_ratio_to_scene_water": 1.01, "rule": "медиана B3 воды зоны ≥ 2× медианы воды снимка и ≥ 0,03 — мелководье или мутная вода"}, "seam": {"flag": false, "share": 0, "rule": "≥ 30 % пикселей — прямая линия вдоль трека/границы яркости (шов)"}, "note": "эвристики, не классификатор; на размеченных данных не проверены"}, "n_cozar_filaments": 0}, "field_nearby": {"items": [{"source": "ADIS (4TU.ResearchData, судовая камера)", "segment_id": 335769, "ship": "Dallaporta", "date": "2023-04-09", "days_from_scene": -1044, "distance_km": 5172.1, "lon": 18.55051, "lat": 40.01099, "n_items": 1, "area_km2": 0.1613, "size_class": "> 5 см", "c_items_km2": 6.2, "ci95_lo": 0.16, "ci95_hi": 34.53, "ci95_method": "точный интервал Пуассона для N, делённый на A"}, {"source": "ADIS (4TU.ResearchData, судовая камера)", "segment_id": 335770, "ship": "Dallaporta", "date": "2023-04-09", "days_from_scene": -1044, "distance_km": 5172.6, "lon": 18.56195, "lat": 40.05698, "n_items": 0, "area_km2": 0.2555, "size_class": "> 5 см", "c_items_km2": 0.0, "ci95_lo": 0.0, "ci95_hi": 14.44, "ci95_method": "точный интервал Пуассона для N, делённый на A"}, {"source": "ADIS (4TU.ResearchData, судовая камера)", "segment_id": 335768, "ship": "Dallaporta", "date": "2023-04-09", "days_from_scene": -1044, "distance_km": 5172.7, "lon": 18.52174, "lat": 39.95216, "n_items": 4, "area_km2": 0.3999, "size_class": "> 5 см", "c_items_km2": 10.0, "ci95_lo": 2.73, "ci95_hi": 25.61, "ci95_method": "точный интервал Пуассона для N, делённый на A"}], "nearest_organizer_sample": {"sample_id": "MPL-0922", "source_id": "S4_BLACK_SEA_DOORS3", "distance_km": 3168.2}, "note": "Измерение ≠ оценка: это независимые полевые счёты C = N/A в другое время и в другом месте; со сценой они не связаны и не калибруют её. Ближайший отрезок ADIS — за 5172 км: только для порядка величин."}}}]}