{"type": "FeatureCollection", "features": [{"type": "Feature", "id": "D-SZ-live-bali-2018-02-27-001-4", "geometry": {"type": "Polygon", "coordinates": [[[115.350152, -8.8489996], [115.3501516, -8.84909], [115.3502425, -8.8490904], [115.3502429, -8.849], [115.350152, -8.8489996]]]}, "properties": {"kind": "detection", "det_id": "D-SZ-live-bali-2018-02-27-001-4", "zone_id": "SZ-live-bali-2018-02-27-001", "scene_id": "S2A_50LLR_20180227_0_L2A", "datetime": "2018-02-27T02:39:32.626000Z", "n_pixels": 1, "area_m2": 100, "prob_max": 0.6549, "prob_mean": 0.6549, "threshold": 0.63, "in_strip": true, "artifact": null}}, {"type": "Feature", "id": "D-SZ-live-bali-2018-02-27-001-5", "geometry": {"type": "Polygon", "coordinates": [[[115.3482377, -8.8501666], [115.3482373, -8.850257], [115.3484191, -8.8502578], [115.3484195, -8.8501674], [115.3482377, -8.8501666]]]}, "properties": {"kind": "detection", "det_id": "D-SZ-live-bali-2018-02-27-001-5", "zone_id": "SZ-live-bali-2018-02-27-001", "scene_id": "S2A_50LLR_20180227_0_L2A", "datetime": "2018-02-27T02:39:32.626000Z", "n_pixels": 2, "area_m2": 200, "prob_max": 0.851, "prob_mean": 0.7451, "threshold": 0.63, "in_strip": true, "artifact": null}}, {"type": "Feature", "id": "D-SZ-live-bali-2018-02-27-001-6", "geometry": {"type": "Polygon", "coordinates": [[[115.3490551, -8.850351], [115.3490547, -8.8504414], [115.3494183, -8.850443], [115.3494187, -8.8503526], [115.3490551, -8.850351]]]}, "properties": {"kind": "detection", "det_id": "D-SZ-live-bali-2018-02-27-001-6", "zone_id": "SZ-live-bali-2018-02-27-001", "scene_id": "S2A_50LLR_20180227_0_L2A", "datetime": "2018-02-27T02:39:32.626000Z", "n_pixels": 4, "area_m2": 400, "prob_max": 0.898, "prob_mean": 0.8912, "threshold": 0.63, "in_strip": true, "artifact": null}}, {"type": "Feature", "id": "D-SZ-live-bali-2018-02-27-001-7", "geometry": {"type": "Polygon", "coordinates": [[[115.3495997, -8.8505342], [115.3495993, -8.8506247], [115.3496902, -8.8506251], [115.3496906, -8.8505346], [115.3495997, -8.8505342]]]}, "properties": {"kind": "detection", "det_id": "D-SZ-live-bali-2018-02-27-001-7", "zone_id": "SZ-live-bali-2018-02-27-001", "scene_id": "S2A_50LLR_20180227_0_L2A", "datetime": "2018-02-27T02:39:32.626000Z", "n_pixels": 1, "area_m2": 100, "prob_max": 0.6471, "prob_mean": 0.6471, "threshold": 0.63, "in_strip": true, "artifact": null}}, {"type": "Feature", "id": "D-SZ-live-bali-2018-02-27-001-8", "geometry": {"type": "Polygon", "coordinates": [[[115.3501451, -8.8505366], [115.3501447, -8.8506271], [115.3502356, -8.8506275], [115.350236, -8.850537], [115.3501451, -8.8505366]]]}, "properties": {"kind": "detection", "det_id": "D-SZ-live-bali-2018-02-27-001-8", "zone_id": "SZ-live-bali-2018-02-27-001", "scene_id": "S2A_50LLR_20180227_0_L2A", "datetime": "2018-02-27T02:39:32.626000Z", "n_pixels": 1, "area_m2": 100, "prob_max": 0.6588, "prob_mean": 0.6588, "threshold": 0.63, "in_strip": true, "artifact": null}}, {"type": "Feature", "id": "D-SZ-live-bali-2018-02-27-001-9", "geometry": {"type": "Polygon", "coordinates": [[[115.3503269, -8.8505374], [115.3503265, -8.8506279], [115.3504174, -8.8506283], [115.3504178, -8.8505378], [115.3503269, -8.8505374]]]}, "properties": {"kind": "detection", "det_id": "D-SZ-live-bali-2018-02-27-001-9", "zone_id": "SZ-live-bali-2018-02-27-001", "scene_id": "S2A_50LLR_20180227_0_L2A", "datetime": "2018-02-27T02:39:32.626000Z", "n_pixels": 1, "area_m2": 100, "prob_max": 0.702, "prob_mean": 0.702, "threshold": 0.63, "in_strip": true, "artifact": null}}, {"type": "Feature", "id": "D-SZ-live-bali-2018-02-27-001-10", "geometry": {"type": "Polygon", "coordinates": [[[115.3505087, -8.8505382], [115.3505083, -8.8506287], [115.3505992, -8.8506291], [115.3505988, -8.8507195], [115.3506897, -8.8507199], [115.3506901, -8.8506295], [115.3505992, -8.8506291], [115.3505996, -8.8505387], [115.3505087, -8.8505382]]]}, "properties": {"kind": "detection", "det_id": "D-SZ-live-bali-2018-02-27-001-10", "zone_id": "SZ-live-bali-2018-02-27-001", "scene_id": "S2A_50LLR_20180227_0_L2A", "datetime": "2018-02-27T02:39:32.626000Z", "n_pixels": 2, "area_m2": 200, "prob_max": 0.702, "prob_mean": 0.6706, "threshold": 0.63, "in_strip": true, "artifact": null}}, {"type": "Feature", "id": "D-SZ-live-bali-2018-02-27-002-14", "geometry": {"type": "Polygon", "coordinates": [[[115.287112, -8.8582098], [115.2871111, -8.8583907], [115.287293, -8.8583915], [115.2872934, -8.8583011], [115.2872025, -8.8583007], [115.2872029, -8.8582103], [115.287112, -8.8582098]]]}, "properties": {"kind": "detection", "det_id": "D-SZ-live-bali-2018-02-27-002-14", "zone_id": "SZ-live-bali-2018-02-27-002", "scene_id": "S2A_50LLR_20180227_0_L2A", "datetime": "2018-02-27T02:39:32.626000Z", "n_pixels": 3, "area_m2": 300, "prob_max": 0.9765, "prob_mean": 0.9085, "threshold": 0.63, "in_strip": true, "artifact": null}}, {"type": "Feature", "id": "D-SZ-live-bali-2018-02-27-002-15", "geometry": {"type": "Polygon", "coordinates": [[[115.2868296, -8.860288], [115.2868292, -8.8603785], [115.2869201, -8.8603789], [115.2869205, -8.8602885], [115.2868296, -8.860288]]]}, "properties": {"kind": "detection", "det_id": "D-SZ-live-bali-2018-02-27-002-15", "zone_id": "SZ-live-bali-2018-02-27-002", "scene_id": "S2A_50LLR_20180227_0_L2A", "datetime": "2018-02-27T02:39:32.626000Z", "n_pixels": 1, "area_m2": 100, "prob_max": 0.6588, "prob_mean": 0.6588, "threshold": 0.63, "in_strip": true, "artifact": null}}, {"type": "Feature", "id": "D-SZ-live-bali-2018-02-27-002-16", "geometry": {"type": "Polygon", "coordinates": [[[115.286828, -8.8606497], [115.2868275, -8.8607401], [115.2869185, -8.8607405], [115.2869189, -8.8606501], [115.286828, -8.8606497]]]}, "properties": {"kind": "detection", "det_id": "D-SZ-live-bali-2018-02-27-002-16", "zone_id": "SZ-live-bali-2018-02-27-002", "scene_id": "S2A_50LLR_20180227_0_L2A", "datetime": "2018-02-27T02:39:32.626000Z", "n_pixels": 1, "area_m2": 100, "prob_max": 0.702, "prob_mean": 0.702, "threshold": 0.63, "in_strip": true, "artifact": null}}, {"type": "Feature", "id": "D-SZ-live-bali-2018-02-27-002-17", "geometry": {"type": "Polygon", "coordinates": [[[115.2864564, -8.8623658], [115.2864555, -8.8625466], [115.2865465, -8.8625471], [115.2865469, -8.8624567], [115.2866378, -8.8624571], [115.2866382, -8.8623667], [115.2864564, -8.8623658]]]}, "properties": {"kind": "detection", "det_id": "D-SZ-live-bali-2018-02-27-002-17", "zone_id": "SZ-live-bali-2018-02-27-002", "scene_id": "S2A_50LLR_20180227_0_L2A", "datetime": "2018-02-27T02:39:32.626000Z", "n_pixels": 3, "area_m2": 300, "prob_max": 0.9725, "prob_mean": 0.8118, "threshold": 0.63, "in_strip": true, "artifact": null}}, {"type": "Feature", "id": "D-SZ-live-bali-2018-02-27-002-18", "geometry": {"type": "Polygon", "coordinates": [[[115.2857233, -8.8636282], [115.2857229, -8.8637187], [115.2858138, -8.8637191], [115.2858133, -8.8638095], [115.2859042, -8.8638099], [115.2859051, -8.8636291], [115.2857233, -8.8636282]]]}, "properties": {"kind": "detection", "det_id": "D-SZ-live-bali-2018-02-27-002-18", "zone_id": "SZ-live-bali-2018-02-27-002", "scene_id": "S2A_50LLR_20180227_0_L2A", "datetime": "2018-02-27T02:39:32.626000Z", "n_pixels": 3, "area_m2": 300, "prob_max": 0.8863, "prob_mean": 0.8183, "threshold": 0.63, "in_strip": true, "artifact": null}}, {"type": "Feature", "id": "D-SZ-live-bali-2018-02-27-002-19", "geometry": {"type": "Polygon", "coordinates": [[[115.2859034, -8.8639907], [115.2859026, -8.8641715], [115.2861753, -8.8641728], [115.2861761, -8.863992], [115.2860852, -8.8639916], [115.2860848, -8.864082], [115.2859939, -8.8640815], [115.2859943, -8.8639911], [115.2859034, -8.8639907]]]}, "properties": {"kind": "detection", "det_id": "D-SZ-live-bali-2018-02-27-002-19", "zone_id": "SZ-live-bali-2018-02-27-002", "scene_id": "S2A_50LLR_20180227_0_L2A", "datetime": "2018-02-27T02:39:32.626000Z", "n_pixels": 5, "area_m2": 500, "prob_max": 0.9804, "prob_mean": 0.8024, "threshold": 0.63, "in_strip": true, "artifact": null}}, {"type": "Feature", "id": "D-SZ-live-bali-2018-02-27-002-21", "geometry": {"type": "Polygon", "coordinates": [[[115.2845281, -8.866516], [115.2845277, -8.8666064], [115.2846186, -8.8666068], [115.284619, -8.8665164], [115.2845281, -8.866516]]]}, "properties": {"kind": "detection", "det_id": "D-SZ-live-bali-2018-02-27-002-21", "zone_id": "SZ-live-bali-2018-02-27-002", "scene_id": "S2A_50LLR_20180227_0_L2A", "datetime": "2018-02-27T02:39:32.626000Z", "n_pixels": 1, "area_m2": 100, "prob_max": 0.8588, "prob_mean": 0.8588, "threshold": 0.63, "in_strip": true, "artifact": null}}, {"type": "Feature", "id": "D-SZ-live-bali-2018-02-27-003-27", "geometry": {"type": "Polygon", "coordinates": [[[115.278649, -8.8795987], [115.2786482, -8.8797795], [115.2789209, -8.8797808], [115.2789217, -8.8796], [115.278649, -8.8795987]]]}, "properties": {"kind": "detection", "det_id": "D-SZ-live-bali-2018-02-27-003-27", "zone_id": "SZ-live-bali-2018-02-27-003", "scene_id": "S2A_50LLR_20180227_0_L2A", "datetime": "2018-02-27T02:39:32.626000Z", "n_pixels": 6, "area_m2": 600, "prob_max": 0.9804, "prob_mean": 0.9033, "threshold": 0.63, "in_strip": true, "artifact": null}}, {"type": "Feature", "id": "D-SZ-live-bali-2018-02-27-003-28", "geometry": {"type": "Polygon", "coordinates": [[[115.2786477, -8.87987], [115.2786469, -8.8800508], [115.2788287, -8.8800516], [115.2788291, -8.8799612], [115.2787382, -8.8799608], [115.2787386, -8.8798704], [115.2786477, -8.87987]]]}, "properties": {"kind": "detection", "det_id": "D-SZ-live-bali-2018-02-27-003-28", "zone_id": "SZ-live-bali-2018-02-27-003", "scene_id": "S2A_50LLR_20180227_0_L2A", "datetime": "2018-02-27T02:39:32.626000Z", "n_pixels": 3, "area_m2": 300, "prob_max": 0.898, "prob_mean": 0.8052, "threshold": 0.63, "in_strip": true, "artifact": null}}, {"type": "Feature", "id": "D-SZ-live-bali-2018-02-27-004-29", "geometry": {"type": "Polygon", "coordinates": [[[115.3289212, -8.8800985], [115.3289207, -8.8801889], [115.3290117, -8.8801893], [115.3290112, -8.8802797], [115.3291022, -8.8802801], [115.3291017, -8.8803706], [115.3292836, -8.8803714], [115.329284, -8.880281], [115.3291931, -8.8802806], [115.3291935, -8.8801901], [115.3290117, -8.8801893], [115.3290121, -8.8800989], [115.3289212, -8.8800985]]]}, "properties": {"kind": "detection", "det_id": "D-SZ-live-bali-2018-02-27-004-29", "zone_id": "SZ-live-bali-2018-02-27-004", "scene_id": "S2A_50LLR_20180227_0_L2A", "datetime": "2018-02-27T02:39:32.626000Z", "n_pixels": 5, "area_m2": 500, "prob_max": 0.9098, "prob_mean": 0.778, "threshold": 0.63, "in_strip": true, "artifact": null}}, {"type": "Feature", "id": "D-SZ-live-bali-2018-02-27-004-30", "geometry": {"type": "Polygon", "coordinates": [[[115.3299163, -8.8811879], [115.3299159, -8.8812784], [115.3300068, -8.8812788], [115.3300072, -8.8811883], [115.3299163, -8.8811879]]]}, "properties": {"kind": "detection", "det_id": "D-SZ-live-bali-2018-02-27-004-30", "zone_id": "SZ-live-bali-2018-02-27-004", "scene_id": "S2A_50LLR_20180227_0_L2A", "datetime": "2018-02-27T02:39:32.626000Z", "n_pixels": 1, "area_m2": 100, "prob_max": 0.6941, "prob_mean": 0.6941, "threshold": 0.63, "in_strip": true, "artifact": null}}, {"type": "Feature", "id": "D-SZ-live-bali-2018-02-27-004-31", "geometry": {"type": "Polygon", "coordinates": [[[115.330189, -8.8811892], [115.3301886, -8.8812796], [115.3302795, -8.88128], [115.3302799, -8.8811896], [115.330189, -8.8811892]]]}, "properties": {"kind": "detection", "det_id": "D-SZ-live-bali-2018-02-27-004-31", "zone_id": "SZ-live-bali-2018-02-27-004", "scene_id": "S2A_50LLR_20180227_0_L2A", "datetime": "2018-02-27T02:39:32.626000Z", "n_pixels": 1, "area_m2": 100, "prob_max": 0.8667, "prob_mean": 0.8667, "threshold": 0.63, "in_strip": true, "artifact": null}}]}