{"type": "FeatureCollection", "features": [{"type": "Feature", "id": "SZ-live-bali-2018-02-27-001", "geometry": {"type": "Polygon", "coordinates": [[[115.350158, -8.847643], [115.349339, -8.847911], [115.348881, -8.848542], [115.34888, -8.848904], [115.347789, -8.848899], [115.34715, -8.849348], [115.346874, -8.850251], [115.347414, -8.851338], [115.349139, -8.851888], [115.350593, -8.852076], [115.351139, -8.851988], [115.351777, -8.851538], [115.352054, -8.850635], [115.351785, -8.849821], [115.351513, -8.849639], [115.351518, -8.848554], [115.351066, -8.847919], [115.350158, -8.847643]]]}, "properties": {"kind": "detection_zone", "layer_kind": "scene_zone", "zone_id": "SZ-live-bali-2018-02-27-001", "scene_key": "live-bali-2018-02-27", "scene_kind": "live", "scene_id": "S2A_50LLR_20180227_0_L2A", "region": "bali", "title": "Бали (пролив Бадунг) · зона 1", "mission": "Sentinel-2", "datetime": "2018-02-27T02:39:32.626000Z", "detection_status": "insufficient_data", "status": "insufficient_data", "concentration_status": "unavailable", "quantity": {"status": "not_confirmed", "label": "концентрация по снимку не подтверждена", "detail": "перевод площади в штуки не показываем: нет калибровочных пар (см. docs/QUANTITY.md)"}, "verification": "false_alarm_signs", "training_scene": null, "flags": ["ship"], "n_cozar_filaments": 0, "crop_file": "crops/SZ-live-bali-2018-02-27-001.jpg", "wind_high": false, "measured": {"zone_area_km2": 0.1934, "suspicious_area_m2": 1200, "n_pixels": 12, "n_objects": 7, "water_km2": 0.1919, "lwd_m2_km2": 6253.3, "lwd_note": null, "quality": {"valid_water_fraction": 1.0, "cloud_fraction": 0.0, "glint_fraction": 0.0}, "model": {"weights": "weights/lgbm", "file": "weights/lgbm/model.txt", "sha256": "0eeebf43fcccd8c7c07f053b7ec723229d1a3c9b92d12eec1bdb269258c51470", "sha256_short": "0eeebf43fccc", "trained_at": "2026-09-25T01:35:55Z", "threshold": 0.63, "harmonize": "none", "class": "MARIDA Marine Debris (любой плавающий мусор, не только пластик)"}}, "probable": {"prob_max": 0.898, "prob_mean": 0.755, "signs": {"foam": {"flag": false, "white_ratio_b2_b8": 0.495, "wind10m_ms": 1.49, "rule": "прирост B2 над водой ≥ 0.8 прироста B8 («белый» спектр) или ветер ≥ 7.0 м/с"}, "glint": {"flag": false, "b11_water_median": 0.0086, "glint_share": 0.0, "rule": "медиана B11 воды зоны > 0.01 или ≥ 20 % пикселей зоны — блик (маска качества)"}, "ship": {"flag": true, "share": 0, "bright_target_px_within_500m": 25, "rule": "≥ 30 % пикселей — у яркой цели или кильватера (reports/artifacts.md) или яркая цель с откликом в SWIR (судно, лодка: B11 ≥ 0,015) ближе 500 м, или малый яркий объект (≤ 40 пикс.) с B11 ≥ 0,01 ближе 500 м (лодка с кильватером)"}, "coast": {"flag": false, "land_px_within_300m": 0, "rule": "суша (маска качества) ближе 300 м — прибой, кромка берега"}, "shallow": {"flag": false, "b3_water_zone": 0.0144, "b3_ratio_to_scene_water": 1.26, "rule": "медиана B3 воды зоны ≥ 2× медианы воды снимка и ≥ 0,03, или B4 воды зоны ≥ 0,02 и (≥ 2× воды снимка или B8 ≥ 0,013) — мелководье, яркое дно, илистая банка"}, "seam": {"flag": false, "share": 0, "rule": "≥ 30 % пикселей — прямая линия вдоль трека/границы яркости (шов)"}, "cloud": {"flag": false, "cloud_fraction": 0.0, "rule": "облака или тени облаков (маска качества) ≥ 20 % зоны"}, "diag": {"dist_land_m": null, "dist_bright_m": 89, "n_bright_px_500m": 12, "b11_bright_max_500m": 0.0125, "b4_water_zone": 0.0091, "b8_water_zone": 0.0093, "b11_det_median": 0.0094, "b8_det_median": 0.03, "water_scene_b3": 0.0114, "water_scene_b4": 0.0054, "n_det_px": 12, "n_obj": 7}, "note": "эвристики, не классификатор; на размеченных данных не проверены"}, "n_cozar_filaments": 0}, "field_nearby": {"items": [{"source": "ADIS (4TU.ResearchData, судовая камера)", "segment_id": 437124, "ship": "Bark Europa", "date": "2024-08-17", "days_from_scene": 2363, "distance_km": 5751.3, "lon": 167.19954, "lat": -15.52294, "n_items": 0, "area_km2": 0.1994, "size_class": "> 5 см", "c_items_km2": 0.0, "ci95_lo": 0.0, "ci95_hi": 18.5, "ci95_method": "точный интервал Пуассона для N, делённый на A", "raw_10cm_items_km2": 0.0, "authors_cal_10cm_items_km2": 0.0, "authors_cal_10cm_lo95": null, "authors_cal_10cm_hi95": null}, {"source": "ADIS (4TU.ResearchData, судовая камера)", "segment_id": 417394, "ship": "Bark Europa", "date": "2024-08-17", "days_from_scene": 2363, "distance_km": 5751.7, "lon": 167.20278, "lat": -15.52361, "n_items": 3, "area_km2": 0.2326, "size_class": "> 5 см", "c_items_km2": 12.9, "ci95_lo": 2.66, "ci95_hi": 37.69, "ci95_method": "точный интервал Пуассона для N, делённый на A", "raw_10cm_items_km2": 12.9, "authors_cal_10cm_items_km2": 65.61, "authors_cal_10cm_lo95": 7.34, "authors_cal_10cm_hi95": 586.02}, {"source": "ADIS (4TU.ResearchData, судовая камера)", "segment_id": 437123, "ship": "Bark Europa", "date": "2024-08-17", "days_from_scene": 2363, "distance_km": 5758.6, "lon": 167.26541, "lat": -15.53092, "n_items": 0, "area_km2": 0.4595, "size_class": "> 5 см", "c_items_km2": 0.0, "ci95_lo": 0.0, "ci95_hi": 8.03, "ci95_method": "точный интервал Пуассона для N, делённый на A", "raw_10cm_items_km2": 0.0, "authors_cal_10cm_items_km2": 0.0, "authors_cal_10cm_lo95": null, "authors_cal_10cm_hi95": null}], "nearest_organizer_sample": {"sample_id": "MPL-0922", "source_id": "S4_BLACK_SEA_DOORS3", "distance_km": 9848.4}, "note": "Измерение ≠ оценка: это независимые полевые счёты C = N/A в другое время и в другом месте; со сценой они не связаны и не калибруют её. Ближайший отрезок ADIS — за 5751 км: только для порядка величин."}}}, {"type": "Feature", "id": "SZ-live-bali-2018-02-27-002", "geometry": {"type": "Polygon", "coordinates": [[[115.287118, -8.856854], [115.286299, -8.857121], [115.285841, -8.857752], [115.285748, -8.858384], [115.286016, -8.85929], [115.285743, -8.859469], [115.285466, -8.860282], [115.285643, -8.861368], [115.285186, -8.861908], [115.285092, -8.86254], [115.284453, -8.86317], [115.284448, -8.864165], [115.285079, -8.865253], [115.284079, -8.865248], [115.283257, -8.866058], [115.283253, -8.867053], [115.284067, -8.86787], [115.284612, -8.867963], [115.285432, -8.867695], [115.285982, -8.866613], [115.285894, -8.86607], [115.285442, -8.865435], [115.286624, -8.865441], [115.287446, -8.864631], [115.287451, -8.863455], [115.287725, -8.863276], [115.288001, -8.862463], [115.287823, -8.861649], [115.288282, -8.860747], [115.288015, -8.85948], [115.28838, -8.85921], [115.288657, -8.858307], [115.288388, -8.857492], [115.288026, -8.857129], [115.287118, -8.856854]], [[115.285079, -8.865343], [115.285261, -8.865254], [115.285261, -8.865344], [115.285079, -8.865343]], [[115.28526, -8.865434], [115.285443, -8.865345], [115.285442, -8.865435], [115.28526, -8.865434]]]}, "properties": {"kind": "detection_zone", "layer_kind": "scene_zone", "zone_id": "SZ-live-bali-2018-02-27-002", "scene_key": "live-bali-2018-02-27", "scene_kind": "live", "scene_id": "S2A_50LLR_20180227_0_L2A", "region": "bali", "title": "Бали (пролив Бадунг) · зона 2", "mission": "Sentinel-2", "datetime": "2018-02-27T02:39:32.626000Z", "detection_status": "detected", "status": "detected", "concentration_status": "unavailable", "quantity": {"status": "not_confirmed", "label": "концентрация по снимку не подтверждена", "detail": "перевод площади в штуки не показываем: нет калибровочных пар (см. docs/QUANTITY.md)"}, "verification": "unverified", "training_scene": null, "flags": [], "n_cozar_filaments": 0, "crop_file": "crops/SZ-live-bali-2018-02-27-002.jpg", "wind_high": false, "measured": {"zone_area_km2": 0.3384, "suspicious_area_m2": 1700, "n_pixels": 17, "n_objects": 7, "water_km2": 0.3413, "lwd_m2_km2": 4981.0, "lwd_note": null, "quality": {"valid_water_fraction": 1.0, "cloud_fraction": 0.0, "glint_fraction": 0.0}, "model": {"weights": "weights/lgbm", "file": "weights/lgbm/model.txt", "sha256": "0eeebf43fcccd8c7c07f053b7ec723229d1a3c9b92d12eec1bdb269258c51470", "sha256_short": "0eeebf43fccc", "trained_at": "2026-09-25T01:35:55Z", "threshold": 0.63, "harmonize": "none", "class": "MARIDA Marine Debris (любой плавающий мусор, не только пластик)"}}, "probable": {"prob_max": 0.98, "prob_mean": 0.815, "signs": {"foam": {"flag": false, "white_ratio_b2_b8": 0.738, "wind10m_ms": 1.49, "rule": "прирост B2 над водой ≥ 0.8 прироста B8 («белый» спектр) или ветер ≥ 7.0 м/с"}, "glint": {"flag": false, "b11_water_median": 0.0062, "glint_share": 0.0, "rule": "медиана B11 воды зоны > 0.01 или ≥ 20 % пикселей зоны — блик (маска качества)"}, "ship": {"flag": false, "share": 0, "bright_target_px_within_500m": 0, "rule": "≥ 30 % пикселей — у яркой цели или кильватера (reports/artifacts.md) или яркая цель с откликом в SWIR (судно, лодка: B11 ≥ 0,015) ближе 500 м, или малый яркий объект (≤ 40 пикс.) с B11 ≥ 0,01 ближе 500 м (лодка с кильватером)"}, "coast": {"flag": false, "land_px_within_300m": 0, "rule": "суша (маска качества) ближе 300 м — прибой, кромка берега"}, "shallow": {"flag": false, "b3_water_zone": 0.011, "b3_ratio_to_scene_water": 0.96, "rule": "медиана B3 воды зоны ≥ 2× медианы воды снимка и ≥ 0,03, или B4 воды зоны ≥ 0,02 и (≥ 2× воды снимка или B8 ≥ 0,013) — мелководье, яркое дно, илистая банка"}, "seam": {"flag": false, "share": 0, "rule": "≥ 30 % пикселей — прямая линия вдоль трека/границы яркости (шов)"}, "cloud": {"flag": false, "cloud_fraction": 0.0, "rule": "облака или тени облаков (маска качества) ≥ 20 % зоны"}, "diag": {"dist_land_m": null, "dist_bright_m": null, "n_bright_px_500m": 0, "b11_bright_max_500m": null, "b4_water_zone": 0.0051, "b8_water_zone": 0.0051, "b11_det_median": 0.0077, "b8_det_median": 0.0224, "water_scene_b3": 0.0114, "water_scene_b4": 0.0054, "n_det_px": 17, "n_obj": 7}, "note": "эвристики, не классификатор; на размеченных данных не проверены"}, "n_cozar_filaments": 0}, "field_nearby": {"items": [{"source": "ADIS (4TU.ResearchData, судовая камера)", "segment_id": 437124, "ship": "Bark Europa", "date": "2024-08-17", "days_from_scene": 2363, "distance_km": 5751.3, "lon": 167.19954, "lat": -15.52294, "n_items": 0, "area_km2": 0.1994, "size_class": "> 5 см", "c_items_km2": 0.0, "ci95_lo": 0.0, "ci95_hi": 18.5, "ci95_method": "точный интервал Пуассона для N, делённый на A", "raw_10cm_items_km2": 0.0, "authors_cal_10cm_items_km2": 0.0, "authors_cal_10cm_lo95": null, "authors_cal_10cm_hi95": null}, {"source": "ADIS (4TU.ResearchData, судовая камера)", "segment_id": 417394, "ship": "Bark Europa", "date": "2024-08-17", "days_from_scene": 2363, "distance_km": 5751.7, "lon": 167.20278, "lat": -15.52361, "n_items": 3, "area_km2": 0.2326, "size_class": "> 5 см", "c_items_km2": 12.9, "ci95_lo": 2.66, "ci95_hi": 37.69, "ci95_method": "точный интервал Пуассона для N, делённый на A", "raw_10cm_items_km2": 12.9, "authors_cal_10cm_items_km2": 65.61, "authors_cal_10cm_lo95": 7.34, "authors_cal_10cm_hi95": 586.02}, {"source": "ADIS (4TU.ResearchData, судовая камера)", "segment_id": 437123, "ship": "Bark Europa", "date": "2024-08-17", "days_from_scene": 2363, "distance_km": 5758.6, "lon": 167.26541, "lat": -15.53092, "n_items": 0, "area_km2": 0.4595, "size_class": "> 5 см", "c_items_km2": 0.0, "ci95_lo": 0.0, "ci95_hi": 8.03, "ci95_method": "точный интервал Пуассона для N, делённый на A", "raw_10cm_items_km2": 0.0, "authors_cal_10cm_items_km2": 0.0, "authors_cal_10cm_lo95": null, "authors_cal_10cm_hi95": null}], "nearest_organizer_sample": {"sample_id": "MPL-0922", "source_id": "S4_BLACK_SEA_DOORS3", "distance_km": 9848.4}, "note": "Измерение ≠ оценка: это независимые полевые счёты C = N/A в другое время и в другом месте; со сценой они не связаны и не калибруют её. Ближайший отрезок ADIS — за 5751 км: только для порядка величин."}}}, {"type": "Feature", "id": "SZ-live-bali-2018-02-27-003", "geometry": {"type": "Polygon", "coordinates": [[[115.278655, -8.878243], [115.277562, -8.87878], [115.277283, -8.880044], [115.277824, -8.881132], [115.278822, -8.881408], [115.279916, -8.88087], [115.280285, -8.879606], [115.279745, -8.878519], [115.278655, -8.878243]]]}, "properties": {"kind": "detection_zone", "layer_kind": "scene_zone", "zone_id": "SZ-live-bali-2018-02-27-003", "scene_key": "live-bali-2018-02-27", "scene_kind": "live", "scene_id": "S2A_50LLR_20180227_0_L2A", "region": "bali", "title": "Бали (пролив Бадунг) · зона 3", "mission": "Sentinel-2", "datetime": "2018-02-27T02:39:32.626000Z", "detection_status": "insufficient_data", "status": "insufficient_data", "concentration_status": "unavailable", "quantity": {"status": "not_confirmed", "label": "концентрация по снимку не подтверждена", "detail": "перевод площади в штуки не показываем: нет калибровочных пар (см. docs/QUANTITY.md)"}, "verification": "false_alarm_signs", "training_scene": null, "flags": ["foam"], "n_cozar_filaments": 0, "crop_file": "crops/SZ-live-bali-2018-02-27-003.jpg", "wind_high": false, "measured": {"zone_area_km2": 0.0849, "suspicious_area_m2": 900, "n_pixels": 9, "n_objects": 2, "water_km2": 0.0886, "lwd_m2_km2": 10158.0, "lwd_note": null, "quality": {"valid_water_fraction": 1.0, "cloud_fraction": 0.0, "glint_fraction": 0.0}, "model": {"weights": "weights/lgbm", "file": "weights/lgbm/model.txt", "sha256": "0eeebf43fcccd8c7c07f053b7ec723229d1a3c9b92d12eec1bdb269258c51470", "sha256_short": "0eeebf43fccc", "trained_at": "2026-09-25T01:35:55Z", "threshold": 0.63, "harmonize": "none", "class": "MARIDA Marine Debris (любой плавающий мусор, не только пластик)"}}, "probable": {"prob_max": 0.98, "prob_mean": 0.871, "signs": {"foam": {"flag": true, "white_ratio_b2_b8": 1.346, "wind10m_ms": 1.49, "rule": "прирост B2 над водой ≥ 0.8 прироста B8 («белый» спектр) или ветер ≥ 7.0 м/с"}, "glint": {"flag": false, "b11_water_median": 0.0065, "glint_share": 0.0, "rule": "медиана B11 воды зоны > 0.01 или ≥ 20 % пикселей зоны — блик (маска качества)"}, "ship": {"flag": false, "share": 0, "bright_target_px_within_500m": 0, "rule": "≥ 30 % пикселей — у яркой цели или кильватера (reports/artifacts.md) или яркая цель с откликом в SWIR (судно, лодка: B11 ≥ 0,015) ближе 500 м, или малый яркий объект (≤ 40 пикс.) с B11 ≥ 0,01 ближе 500 м (лодка с кильватером)"}, "coast": {"flag": false, "land_px_within_300m": 0, "rule": "суша (маска качества) ближе 300 м — прибой, кромка берега"}, "shallow": {"flag": false, "b3_water_zone": 0.012, "b3_ratio_to_scene_water": 1.05, "rule": "медиана B3 воды зоны ≥ 2× медианы воды снимка и ≥ 0,03, или B4 воды зоны ≥ 0,02 и (≥ 2× воды снимка или B8 ≥ 0,013) — мелководье, яркое дно, илистая банка"}, "seam": {"flag": false, "share": 0, "rule": "≥ 30 % пикселей — прямая линия вдоль трека/границы яркости (шов)"}, "cloud": {"flag": false, "cloud_fraction": 0.0, "rule": "облака или тени облаков (маска качества) ≥ 20 % зоны"}, "diag": {"dist_land_m": null, "dist_bright_m": null, "n_bright_px_500m": 0, "b11_bright_max_500m": null, "b4_water_zone": 0.0059, "b8_water_zone": 0.0058, "b11_det_median": 0.0065, "b8_det_median": 0.0205, "water_scene_b3": 0.0114, "water_scene_b4": 0.0054, "n_det_px": 9, "n_obj": 2}, "note": "эвристики, не классификатор; на размеченных данных не проверены"}, "n_cozar_filaments": 0}, "field_nearby": {"items": [{"source": "ADIS (4TU.ResearchData, судовая камера)", "segment_id": 437124, "ship": "Bark Europa", "date": "2024-08-17", "days_from_scene": 2363, "distance_km": 5751.3, "lon": 167.19954, "lat": -15.52294, "n_items": 0, "area_km2": 0.1994, "size_class": "> 5 см", "c_items_km2": 0.0, "ci95_lo": 0.0, "ci95_hi": 18.5, "ci95_method": "точный интервал Пуассона для N, делённый на A", "raw_10cm_items_km2": 0.0, "authors_cal_10cm_items_km2": 0.0, "authors_cal_10cm_lo95": null, "authors_cal_10cm_hi95": null}, {"source": "ADIS (4TU.ResearchData, судовая камера)", "segment_id": 417394, "ship": "Bark Europa", "date": "2024-08-17", "days_from_scene": 2363, "distance_km": 5751.7, "lon": 167.20278, "lat": -15.52361, "n_items": 3, "area_km2": 0.2326, "size_class": "> 5 см", "c_items_km2": 12.9, "ci95_lo": 2.66, "ci95_hi": 37.69, "ci95_method": "точный интервал Пуассона для N, делённый на A", "raw_10cm_items_km2": 12.9, "authors_cal_10cm_items_km2": 65.61, "authors_cal_10cm_lo95": 7.34, "authors_cal_10cm_hi95": 586.02}, {"source": "ADIS (4TU.ResearchData, судовая камера)", "segment_id": 437123, "ship": "Bark Europa", "date": "2024-08-17", "days_from_scene": 2363, "distance_km": 5758.6, "lon": 167.26541, "lat": -15.53092, "n_items": 0, "area_km2": 0.4595, "size_class": "> 5 см", "c_items_km2": 0.0, "ci95_lo": 0.0, "ci95_hi": 8.03, "ci95_method": "точный интервал Пуассона для N, делённый на A", "raw_10cm_items_km2": 0.0, "authors_cal_10cm_items_km2": 0.0, "authors_cal_10cm_lo95": null, "authors_cal_10cm_hi95": null}], "nearest_organizer_sample": {"sample_id": "MPL-0922", "source_id": "S4_BLACK_SEA_DOORS3", "distance_km": 9848.4}, "note": "Измерение ≠ оценка: это независимые полевые счёты C = N/A в другое время и в другом месте; со сценой они не связаны и не калибруют её. Ближайший отрезок ADIS — за 5751 км: только для порядка величин."}}}, {"type": "Feature", "id": "SZ-live-bali-2018-02-27-004", "geometry": {"type": "Polygon", "coordinates": [[[115.328927, -8.878742], [115.328108, -8.87901], [115.32765, -8.879641], [115.327557, -8.880183], [115.327826, -8.880998], [115.328642, -8.881544], [115.328821, -8.882087], [115.329456, -8.882542], [115.330273, -8.882636], [115.331093, -8.882369], [115.331643, -8.881286], [115.331375, -8.880381], [115.330558, -8.879925], [115.330017, -8.879109], [115.328927, -8.878742]]]}, "properties": {"kind": "detection_zone", "layer_kind": "scene_zone", "zone_id": "SZ-live-bali-2018-02-27-004", "scene_key": "live-bali-2018-02-27", "scene_kind": "live", "scene_id": "S2A_50LLR_20180227_0_L2A", "region": "bali", "title": "Бали (пролив Бадунг) · зона 4", "mission": "Sentinel-2", "datetime": "2018-02-27T02:39:32.626000Z", "detection_status": "detected", "status": "detected", "concentration_status": "unavailable", "quantity": {"status": "not_confirmed", "label": "концентрация по снимку не подтверждена", "detail": "перевод площади в штуки не показываем: нет калибровочных пар (см. docs/QUANTITY.md)"}, "verification": "unverified", "training_scene": null, "flags": [], "n_cozar_filaments": 0, "crop_file": "crops/SZ-live-bali-2018-02-27-004.jpg", "wind_high": false, "measured": {"zone_area_km2": 0.1275, "suspicious_area_m2": 700, "n_pixels": 7, "n_objects": 3, "water_km2": 0.1285, "lwd_m2_km2": 5447.5, "lwd_note": null, "quality": {"valid_water_fraction": 1.0, "cloud_fraction": 0.0, "glint_fraction": 0.0}, "model": {"weights": "weights/lgbm", "file": "weights/lgbm/model.txt", "sha256": "0eeebf43fcccd8c7c07f053b7ec723229d1a3c9b92d12eec1bdb269258c51470", "sha256_short": "0eeebf43fccc", "trained_at": "2026-09-25T01:35:55Z", "threshold": 0.63, "harmonize": "none", "class": "MARIDA Marine Debris (любой плавающий мусор, не только пластик)"}}, "probable": {"prob_max": 0.91, "prob_mean": 0.779, "signs": {"foam": {"flag": false, "white_ratio_b2_b8": 0.643, "wind10m_ms": 1.49, "rule": "прирост B2 над водой ≥ 0.8 прироста B8 («белый» спектр) или ветер ≥ 7.0 м/с"}, "glint": {"flag": false, "b11_water_median": 0.0055, "glint_share": 0.0, "rule": "медиана B11 воды зоны > 0.01 или ≥ 20 % пикселей зоны — блик (маска качества)"}, "ship": {"flag": false, "share": 0, "bright_target_px_within_500m": 0, "rule": "≥ 30 % пикселей — у яркой цели или кильватера (reports/artifacts.md) или яркая цель с откликом в SWIR (судно, лодка: B11 ≥ 0,015) ближе 500 м, или малый яркий объект (≤ 40 пикс.) с B11 ≥ 0,01 ближе 500 м (лодка с кильватером)"}, "coast": {"flag": false, "land_px_within_300m": 0, "rule": "суша (маска качества) ближе 300 м — прибой, кромка берега"}, "shallow": {"flag": false, "b3_water_zone": 0.0095, "b3_ratio_to_scene_water": 0.83, "rule": "медиана B3 воды зоны ≥ 2× медианы воды снимка и ≥ 0,03, или B4 воды зоны ≥ 0,02 и (≥ 2× воды снимка или B8 ≥ 0,013) — мелководье, яркое дно, илистая банка"}, "seam": {"flag": false, "share": 0, "rule": "≥ 30 % пикселей — прямая линия вдоль трека/границы яркости (шов)"}, "cloud": {"flag": false, "cloud_fraction": 0.0, "rule": "облака или тени облаков (маска качества) ≥ 20 % зоны"}, "diag": {"dist_land_m": null, "dist_bright_m": null, "n_bright_px_500m": 0, "b11_bright_max_500m": null, "b4_water_zone": 0.0041, "b8_water_zone": 0.0041, "b11_det_median": 0.0063, "b8_det_median": 0.0181, "water_scene_b3": 0.0114, "water_scene_b4": 0.0054, "n_det_px": 7, "n_obj": 3}, "note": "эвристики, не классификатор; на размеченных данных не проверены"}, "n_cozar_filaments": 0}, "field_nearby": {"items": [{"source": "ADIS (4TU.ResearchData, судовая камера)", "segment_id": 437124, "ship": "Bark Europa", "date": "2024-08-17", "days_from_scene": 2363, "distance_km": 5751.3, "lon": 167.19954, "lat": -15.52294, "n_items": 0, "area_km2": 0.1994, "size_class": "> 5 см", "c_items_km2": 0.0, "ci95_lo": 0.0, "ci95_hi": 18.5, "ci95_method": "точный интервал Пуассона для N, делённый на A", "raw_10cm_items_km2": 0.0, "authors_cal_10cm_items_km2": 0.0, "authors_cal_10cm_lo95": null, "authors_cal_10cm_hi95": null}, {"source": "ADIS (4TU.ResearchData, судовая камера)", "segment_id": 417394, "ship": "Bark Europa", "date": "2024-08-17", "days_from_scene": 2363, "distance_km": 5751.7, "lon": 167.20278, "lat": -15.52361, "n_items": 3, "area_km2": 0.2326, "size_class": "> 5 см", "c_items_km2": 12.9, "ci95_lo": 2.66, "ci95_hi": 37.69, "ci95_method": "точный интервал Пуассона для N, делённый на A", "raw_10cm_items_km2": 12.9, "authors_cal_10cm_items_km2": 65.61, "authors_cal_10cm_lo95": 7.34, "authors_cal_10cm_hi95": 586.02}, {"source": "ADIS (4TU.ResearchData, судовая камера)", "segment_id": 437123, "ship": "Bark Europa", "date": "2024-08-17", "days_from_scene": 2363, "distance_km": 5758.6, "lon": 167.26541, "lat": -15.53092, "n_items": 0, "area_km2": 0.4595, "size_class": "> 5 см", "c_items_km2": 0.0, "ci95_lo": 0.0, "ci95_hi": 8.03, "ci95_method": "точный интервал Пуассона для N, делённый на A", "raw_10cm_items_km2": 0.0, "authors_cal_10cm_items_km2": 0.0, "authors_cal_10cm_lo95": null, "authors_cal_10cm_hi95": null}], "nearest_organizer_sample": {"sample_id": "MPL-0922", "source_id": "S4_BLACK_SEA_DOORS3", "distance_km": 9848.4}, "note": "Измерение ≠ оценка: это независимые полевые счёты C = N/A в другое время и в другом месте; со сценой они не связаны и не калибруют её. Ближайший отрезок ADIS — за 5751 км: только для порядка величин."}}}]}