{"type":"FeatureCollection","features":[{"type":"Feature","geometry":{"type":"Polygon","coordinates":[[[115.26404,-8.717603],[115.264039,-8.717784],[115.264221,-8.717785],[115.264221,-8.717875],[115.264402,-8.717876],[115.264403,-8.717786],[115.264494,-8.717786],[115.264494,-8.717696],[115.264131,-8.717694],[115.264131,-8.717603],[115.26404,-8.717603]]]},"properties":{"id":"bali_2025-07-20_lgbm_0","region":"bali","date":"2025-07-20","area_m2":800.0,"mean_prob":0.8059,"max_prob":0.9333,"model":"lgbm","n_px":8,"px_area_m2":100.0,"confirmed":false,"confirmed_by":null,"lon":115.264255,"lat":-8.717751}},{"type":"Feature","geometry":{"type":"Polygon","coordinates":[[[115.263858,-8.717693],[115.263858,-8.717783],[115.263767,-8.717783],[115.263766,-8.717873],[115.263676,-8.717873],[115.263675,-8.717963],[115.263766,-8.717963],[115.263766,-8.718054],[115.263856,-8.718054],[115.263858,-8.717783],[115.263949,-8.717783],[115.263949,-8.717693],[115.263858,-8.717693]]]},"properties":{"id":"bali_2025-07-20_lgbm_1","region":"bali","date":"2025-07-20","area_m2":500.0,"mean_prob":0.8635,"max_prob":0.9647,"model":"lgbm","n_px":5,"px_area_m2":100.0,"confirmed":false,"confirmed_by":null,"lon":115.263812,"lat":-8.717882}},{"type":"Feature","geometry":{"type":"Polygon","coordinates":[[[115.399706,-8.719646],[115.399706,-8.719736],[115.399887,-8.719737],[115.399888,-8.719646],[115.399706,-8.719646]]]},"properties":{"id":"bali_2025-07-20_lgbm_2","region":"bali","date":"2025-07-20","area_m2":200.0,"mean_prob":0.8176,"max_prob":0.8353,"model":"lgbm","n_px":2,"px_area_m2":100.0,"confirmed":false,"confirmed_by":null,"lon":115.399797,"lat":-8.719691}},{"type":"Feature","geometry":{"type":"Polygon","coordinates":[[[115.257125,-8.71947],[115.257125,-8.71956],[115.256943,-8.71956],[115.256943,-8.71965],[115.256852,-8.71965],[115.256852,-8.71974],[115.257488,-8.719743],[115.257487,-8.719833],[115.25776,-8.719835],[115.25776,-8.719744],[115.257669,-8.719744],[115.25767,-8.719653],[115.257852,-8.719654],[115.257851,-8.719745],[115.258215,-8.719746],[115.258215,-8.719656],[115.258578,-8.719658],[115.258579,-8.719567],[115.25767,-8.719563],[115.25767,-8.719653],[115.257579,-8.719653],[115.257578,-8.719743],[115.257488,-8.719743],[115.257488,-8.719653],[115.257397,-8.719652],[115.257398,-8.719562],[115.257307,-8.719561],[115.257307,-8.719471],[115.257125,-8.71947]]]},"properties":{"id":"bali_2025-07-20_lgbm_3","region":"bali","date":"2025-07-20","area_m2":3200.0,"mean_prob":0.8912,"max_prob":0.9922,"model":"lgbm","n_px":32,"px_area_m2":100.0,"confirmed":true,"confirmed_by":"mdd","lon":115.257636,"lat":-8.719653}},{"type":"Feature","geometry":{"type":"Polygon","coordinates":[[[115.259761,-8.719482],[115.25976,-8.719573],[115.259669,-8.719572],[115.259669,-8.719663],[115.259305,-8.719661],[115.259305,-8.719842],[115.259395,-8.719842],[115.259395,-8.719933],[115.259486,-8.719933],[115.259487,-8.719752],[115.259668,-8.719753],[115.259669,-8.719663],[115.259942,-8.719664],[115.259942,-8.719573],[115.259851,-8.719573],[115.259851,-8.719483],[115.259761,-8.719482]]]},"properties":{"id":"bali_2025-07-20_lgbm_4","region":"bali","date":"2025-07-20","area_m2":1100.0,"mean_prob":0.8061,"max_prob":0.9529,"model":"lgbm","n_px":11,"px_area_m2":100.0,"confirmed":false,"confirmed_by":null,"lon":115.259582,"lat":-8.719699}},{"type":"Feature","geometry":{"type":"Polygon","coordinates":[[[115.258942,-8.719569],[115.258942,-8.719659],[115.259124,-8.71966],[115.259124,-8.71957],[115.258942,-8.719569]]]},"properties":{"id":"bali_2025-07-20_lgbm_5","region":"bali","date":"2025-07-20","area_m2":200.0,"mean_prob":0.7431,"max_prob":0.8196,"model":"lgbm","n_px":2,"px_area_m2":100.0,"confirmed":false,"confirmed_by":null,"lon":115.259033,"lat":-8.719614}},{"type":"Feature","geometry":{"type":"Polygon","coordinates":[[[115.25494,-8.720455],[115.25494,-8.720545],[115.25503,-8.720545],[115.25503,-8.720726],[115.25512,-8.720727],[115.255121,-8.720546],[115.25503,-8.720545],[115.255031,-8.720455],[115.25494,-8.720455]]]},"properties":{"id":"bali_2025-07-20_lgbm_6","region":"bali","date":"2025-07-20","area_m2":300.0,"mean_prob":0.8484,"max_prob":0.9529,"model":"lgbm","n_px":3,"px_area_m2":100.0,"confirmed":false,"confirmed_by":null,"lon":115.255045,"lat":-8.720591}},{"type":"Feature","geometry":{"type":"Polygon","coordinates":[[[115.254847,-8.720906],[115.254847,-8.720997],[115.254756,-8.720996],[115.254755,-8.721087],[115.254846,-8.721087],[115.254847,-8.720997],[115.254937,-8.720997],[115.254938,-8.720907],[115.254847,-8.720906]]]},"properties":{"id":"bali_2025-07-20_lgbm_7","region":"bali","date":"2025-07-20","area_m2":200.0,"mean_prob":0.9275,"max_prob":0.9608,"model":"lgbm","n_px":2,"px_area_m2":100.0,"confirmed":false,"confirmed_by":null,"lon":115.254847,"lat":-8.720997}},{"type":"Feature","geometry":{"type":"Polygon","coordinates":[[[115.247285,-8.72503],[115.247285,-8.725121],[115.247467,-8.725122],[115.247467,-8.725031],[115.247285,-8.72503]]]},"properties":{"id":"bali_2025-07-20_lgbm_8","region":"bali","date":"2025-07-20","area_m2":200.0,"mean_prob":0.7725,"max_prob":0.851,"model":"lgbm","n_px":2,"px_area_m2":100.0,"confirmed":false,"confirmed_by":null,"lon":115.247376,"lat":-8.725076}},{"type":"Feature","geometry":{"type":"Polygon","coordinates":[[[115.25045,-8.72839],[115.250449,-8.728571],[115.25054,-8.728571],[115.250541,-8.728481],[115.250632,-8.728481],[115.250632,-8.728391],[115.25045,-8.72839]]]},"properties":{"id":"bali_2025-07-20_lgbm_9","region":"bali","date":"2025-07-20","area_m2":300.0,"mean_prob":0.885,"max_prob":0.9373,"model":"lgbm","n_px":3,"px_area_m2":100.0,"confirmed":false,"confirmed_by":null,"lon":115.250526,"lat":-8.728466}},{"type":"Feature","geometry":{"type":"Polygon","coordinates":[[[115.43909,-8.733373],[115.43909,-8.733463],[115.439272,-8.733464],[115.439272,-8.733373],[115.43909,-8.733373]]]},"properties":{"id":"bali_2025-07-20_lgbm_10","region":"bali","date":"2025-07-20","area_m2":200.0,"mean_prob":0.9804,"max_prob":0.9961,"model":"lgbm","n_px":2,"px_area_m2":100.0,"confirmed":false,"confirmed_by":null,"lon":115.439181,"lat":-8.733418}},{"type":"Feature","geometry":{"type":"Polygon","coordinates":[[[115.2486,-8.735343],[115.2486,-8.735524],[115.24869,-8.735525],[115.248691,-8.735344],[115.2486,-8.735343]]]},"properties":{"id":"bali_2025-07-20_lgbm_11","region":"bali","date":"2025-07-20","area_m2":200.0,"mean_prob":0.8902,"max_prob":0.8941,"model":"lgbm","n_px":2,"px_area_m2":100.0,"confirmed":false,"confirmed_by":null,"lon":115.248645,"lat":-8.735434}},{"type":"Feature","geometry":{"type":"Polygon","coordinates":[[[115.244034,-8.740204],[115.244034,-8.740295],[115.244215,-8.740296],[115.244216,-8.740205],[115.244034,-8.740204]]]},"properties":{"id":"bali_2025-07-20_lgbm_12","region":"bali","date":"2025-07-20","area_m2":200.0,"mean_prob":0.8608,"max_prob":0.9373,"model":"lgbm","n_px":2,"px_area_m2":100.0,"confirmed":false,"confirmed_by":null,"lon":115.244125,"lat":-8.74025}},{"type":"Feature","geometry":{"type":"Polygon","coordinates":[[[115.243397,-8.740382],[115.243397,-8.740473],[115.243306,-8.740472],[115.243305,-8.740563],[115.243396,-8.740563],[115.243397,-8.740473],[115.243487,-8.740473],[115.243487,-8.740654],[115.243577,-8.740654],[115.243578,-8.740564],[115.243669,-8.740564],[115.243669,-8.740474],[115.243578,-8.740473],[115.243579,-8.740383],[115.243397,-8.740382]]]},"properties":{"id":"bali_2025-07-20_lgbm_13","region":"bali","date":"2025-07-20","area_m2":600.0,"mean_prob":0.8614,"max_prob":0.9686,"model":"lgbm","n_px":6,"px_area_m2":100.0,"confirmed":false,"confirmed_by":null,"lon":115.243502,"lat":-8.740503}},{"type":"Feature","geometry":{"type":"Polygon","coordinates":[[[115.242298,-8.742185],[115.242298,-8.742276],[115.242207,-8.742275],[115.242206,-8.742366],[115.242297,-8.742366],[115.242297,-8.742457],[115.242206,-8.742456],[115.242205,-8.742547],[115.242296,-8.742547],[115.242295,-8.742728],[115.242568,-8.742729],[115.242569,-8.742639],[115.242659,-8.742639],[115.24266,-8.742549],[115.242569,-8.742548],[115.24257,-8.742277],[115.242479,-8.742277],[115.24248,-8.742186],[115.242298,-8.742185]]]},"properties":{"id":"bali_2025-07-20_lgbm_14","region":"bali","date":"2025-07-20","area_m2":2000.0,"mean_prob":0.9335,"max_prob":1.0,"model":"lgbm","n_px":20,"px_area_m2":100.0,"confirmed":false,"confirmed_by":null,"lon":115.242419,"lat":-8.742471}},{"type":"Feature","geometry":{"type":"Polygon","coordinates":[[[115.241202,-8.743446],[115.241201,-8.743627],[115.241292,-8.743627],[115.24129,-8.744079],[115.24138,-8.74408],[115.24138,-8.74417],[115.241289,-8.74417],[115.241289,-8.74426],[115.241198,-8.74426],[115.241197,-8.744441],[115.241106,-8.74444],[115.241105,-8.744621],[115.241014,-8.744621],[115.241014,-8.744801],[115.241104,-8.744802],[115.241105,-8.744711],[115.241287,-8.744712],[115.241287,-8.744531],[115.241378,-8.744532],[115.241379,-8.744441],[115.24147,-8.744442],[115.241471,-8.744171],[115.241562,-8.744171],[115.241565,-8.743538],[115.241656,-8.743539],[115.241656,-8.743448],[115.241202,-8.743446]],[[115.241382,-8.743809],[115.241473,-8.743809],[115.241472,-8.74399],[115.241381,-8.743989],[115.241382,-8.743809]]]},"properties":{"id":"bali_2025-07-20_lgbm_15","region":"bali","date":"2025-07-20","area_m2":4100.0,"mean_prob":0.8704,"max_prob":0.9961,"model":"lgbm","n_px":41,"px_area_m2":100.0,"confirmed":false,"confirmed_by":null,"lon":115.241355,"lat":-8.744048}},{"type":"Feature","geometry":{"type":"Polygon","coordinates":[[[115.240559,-8.744799],[115.240559,-8.74489],[115.24065,-8.74489],[115.240649,-8.74498],[115.240831,-8.744981],[115.240831,-8.744891],[115.24065,-8.74489],[115.24065,-8.7448],[115.240559,-8.744799]]]},"properties":{"id":"bali_2025-07-20_lgbm_16","region":"bali","date":"2025-07-20","area_m2":300.0,"mean_prob":0.6915,"max_prob":0.7216,"model":"lgbm","n_px":3,"px_area_m2":100.0,"confirmed":false,"confirmed_by":null,"lon":115.240695,"lat":-8.744905}},{"type":"Feature","geometry":{"type":"Polygon","coordinates":[[[115.238737,-8.745876],[115.238735,-8.746147],[115.238644,-8.746146],[115.238643,-8.746508],[115.238915,-8.746509],[115.238917,-8.746148],[115.238826,-8.746147],[115.238827,-8.745876],[115.238737,-8.745876]]]},"properties":{"id":"bali_2025-07-20_lgbm_17","region":"bali","date":"2025-07-20","area_m2":1500.0,"mean_prob":0.8871,"max_prob":0.9961,"model":"lgbm","n_px":15,"px_area_m2":100.0,"confirmed":false,"confirmed_by":null,"lon":115.23878,"lat":-8.746265}},{"type":"Feature","geometry":{"type":"Polygon","coordinates":[[[115.237823,-8.746866],[115.237822,-8.747047],[115.237731,-8.747046],[115.237731,-8.747227],[115.237821,-8.747228],[115.237821,-8.747318],[115.237912,-8.747318],[115.237913,-8.747138],[115.238094,-8.747138],[115.238094,-8.747229],[115.238276,-8.74723],[115.238276,-8.747139],[115.238094,-8.747138],[115.238095,-8.746958],[115.237914,-8.746957],[115.237914,-8.746866],[115.237823,-8.746866]]]},"properties":{"id":"bali_2025-07-20_lgbm_18","region":"bali","date":"2025-07-20","area_m2":1300.0,"mean_prob":0.8694,"max_prob":0.9725,"model":"lgbm","n_px":13,"px_area_m2":100.0,"confirmed":false,"confirmed_by":null,"lon":115.237944,"lat":-8.7471}},{"type":"Feature","geometry":{"type":"Polygon","coordinates":[[[115.262043,-8.756471],[115.262042,-8.756652],[115.262224,-8.756653],[115.262224,-8.756562],[115.262133,-8.756562],[115.262134,-8.756472],[115.262043,-8.756471]]]},"properties":{"id":"bali_2025-07-20_lgbm_19","region":"bali","date":"2025-07-20","area_m2":300.0,"mean_prob":0.8144,"max_prob":0.9804,"model":"lgbm","n_px":3,"px_area_m2":100.0,"confirmed":false,"confirmed_by":null,"lon":115.262118,"lat":-8.756577}},{"type":"Feature","geometry":{"type":"Polygon","coordinates":[[[115.429423,-8.763081],[115.429423,-8.763171],[115.429695,-8.763172],[115.429696,-8.763082],[115.429423,-8.763081]]]},"properties":{"id":"bali_2025-07-20_lgbm_20","region":"bali","date":"2025-07-20","area_m2":300.0,"mean_prob":0.9464,"max_prob":0.9961,"model":"lgbm","n_px":3,"px_area_m2":100.0,"confirmed":false,"confirmed_by":null,"lon":115.429559,"lat":-8.763126}},{"type":"Feature","geometry":{"type":"Polygon","coordinates":[[[115.432654,-8.772859],[115.432654,-8.77295],[115.432835,-8.772951],[115.432836,-8.77286],[115.432654,-8.772859]]]},"properties":{"id":"bali_2025-07-20_lgbm_21","region":"bali","date":"2025-07-20","area_m2":200.0,"mean_prob":0.9216,"max_prob":0.9451,"model":"lgbm","n_px":2,"px_area_m2":100.0,"confirmed":false,"confirmed_by":null,"lon":115.432745,"lat":-8.772905}},{"type":"Feature","geometry":{"type":"Polygon","coordinates":[[[115.452961,-8.785602],[115.45296,-8.785783],[115.453051,-8.785783],[115.453052,-8.785602],[115.452961,-8.785602]]]},"properties":{"id":"bali_2025-07-20_lgbm_22","region":"bali","date":"2025-07-20","area_m2":200.0,"mean_prob":0.9431,"max_prob":0.9804,"model":"lgbm","n_px":2,"px_area_m2":100.0,"confirmed":false,"confirmed_by":null,"lon":115.453006,"lat":-8.785693}},{"type":"Feature","geometry":{"type":"Polygon","coordinates":[[[115.239061,-8.79271],[115.239061,-8.792801],[115.239243,-8.792801],[115.239243,-8.792711],[115.239061,-8.79271]]]},"properties":{"id":"bali_2025-07-20_lgbm_23","region":"bali","date":"2025-07-20","area_m2":200.0,"mean_prob":0.9902,"max_prob":0.9922,"model":"lgbm","n_px":2,"px_area_m2":100.0,"confirmed":false,"confirmed_by":null,"lon":115.239152,"lat":-8.792756}},{"type":"Feature","geometry":{"type":"Polygon","coordinates":[[[115.406846,-8.856569],[115.406845,-8.85675],[115.406936,-8.85675],[115.406937,-8.856569],[115.406846,-8.856569]]]},"properties":{"id":"bali_2025-07-20_lgbm_24","region":"bali","date":"2025-07-20","area_m2":200.0,"mean_prob":0.7843,"max_prob":0.8314,"model":"lgbm","n_px":2,"px_area_m2":100.0,"confirmed":false,"confirmed_by":null,"lon":115.406891,"lat":-8.85666}},{"type":"Feature","geometry":{"type":"Polygon","coordinates":[[[115.337981,-8.866848],[115.337981,-8.866938],[115.338163,-8.866939],[115.338163,-8.866849],[115.337981,-8.866848]]]},"properties":{"id":"bali_2025-07-20_lgbm_25","region":"bali","date":"2025-07-20","area_m2":200.0,"mean_prob":0.902,"max_prob":0.9216,"model":"lgbm","n_px":2,"px_area_m2":100.0,"confirmed":false,"confirmed_by":null,"lon":115.338072,"lat":-8.866894}},{"type":"Feature","geometry":{"type":"Polygon","coordinates":[[[115.32934,-8.867804],[115.32934,-8.867985],[115.329431,-8.867985],[115.329431,-8.867804],[115.32934,-8.867804]]]},"properties":{"id":"bali_2025-07-20_lgbm_26","region":"bali","date":"2025-07-20","area_m2":200.0,"mean_prob":0.7627,"max_prob":0.8706,"model":"lgbm","n_px":2,"px_area_m2":100.0,"confirmed":false,"confirmed_by":null,"lon":115.329385,"lat":-8.867895}},{"type":"Feature","geometry":{"type":"Polygon","coordinates":[[[115.418713,-8.929949],[115.418712,-8.93013],[115.418803,-8.93013],[115.418804,-8.929949],[115.418713,-8.929949]]]},"properties":{"id":"bali_2025-07-20_lgbm_27","region":"bali","date":"2025-07-20","area_m2":200.0,"mean_prob":0.7431,"max_prob":0.8235,"model":"lgbm","n_px":2,"px_area_m2":100.0,"confirmed":false,"confirmed_by":null,"lon":115.418758,"lat":-8.930039}},{"type":"Feature","geometry":{"type":"Polygon","coordinates":[[[115.417886,-8.931934],[115.417885,-8.932115],[115.417976,-8.932116],[115.417977,-8.931935],[115.417886,-8.931934]]]},"properties":{"id":"bali_2025-07-20_lgbm_28","region":"bali","date":"2025-07-20","area_m2":200.0,"mean_prob":0.8706,"max_prob":0.9294,"model":"lgbm","n_px":2,"px_area_m2":100.0,"confirmed":false,"confirmed_by":null,"lon":115.417931,"lat":-8.932025}},{"type":"Feature","geometry":{"type":"Polygon","coordinates":[[[115.401146,-8.934033],[115.401145,-8.934213],[115.401236,-8.934214],[115.401237,-8.934033],[115.401146,-8.934033]]]},"properties":{"id":"bali_2025-07-20_lgbm_29","region":"bali","date":"2025-07-20","area_m2":200.0,"mean_prob":0.9392,"max_prob":0.9529,"model":"lgbm","n_px":2,"px_area_m2":100.0,"confirmed":false,"confirmed_by":null,"lon":115.401191,"lat":-8.934123}}]}