{"type": "FeatureCollection", "features": [{"type": "Feature", "id": "SZ-drift-bali-2025-05-13-000", "geometry": {"type": "Polygon", "coordinates": [[[115.464512, -8.943519], [115.464512, -8.716301], [115.235529, -8.716301], [115.235529, -8.943519], [115.464512, -8.943519]]]}, "properties": {"kind": "detection_zone", "layer_kind": "scene_zone", "zone_id": "SZ-drift-bali-2025-05-13-000", "scene_key": "drift-bali-2025-05-13", "scene_kind": "drift", "scene_id": "S2A_MSIL2A_20250513T022131_R003_T50LLR_20250513T075816", "region": "bali", "title": "Бали (пролив Бадунг) · вся вырезка", "mission": "Sentinel-2", "datetime": "2025-05-13T02:21:31.024000Z", "detection_status": "not_detected", "status": "not_detected", "concentration_status": "unavailable", "flags": [], "n_cozar_filaments": 0, "measured": {"zone_area_km2": 633.039, "suspicious_area_m2": 0, "n_pixels": 0, "n_objects": 0, "water_km2": 497.922, "lwd_m2_km2": 0.0, "quality": {"valid_water_fraction": 0.793, "cloud_fraction": 0.187, "glint_fraction": 0.0}, "model": {"weights": "weights/lgbm", "file": "weights/lgbm/model.txt", "sha256": "0eeebf43fcccd8c7c07f053b7ec723229d1a3c9b92d12eec1bdb269258c51470", "sha256_short": "0eeebf43fccc", "trained_at": "2026-09-25T01:35:55Z", "threshold": 0.63, "harmonize": "none", "class": "MARIDA Marine Debris (любой плавающий мусор, не только пластик)"}}, "probable": {"prob_max": 0.537, "prob_mean": null, "signs": null, "n_cozar_filaments": 0}, "field_nearby": {"items": [{"source": "ADIS (4TU.ResearchData, судовая камера)", "segment_id": 437124, "ship": "Bark Europa", "date": "2024-08-17", "days_from_scene": -269, "distance_km": 5751.3, "lon": 167.19954, "lat": -15.52294, "n_items": 0, "area_km2": 0.1994, "size_class": "> 5 см", "c_items_km2": 0.0, "ci95_lo": 0.0, "ci95_hi": 18.5, "ci95_method": "точный интервал Пуассона для N, делённый на A"}, {"source": "ADIS (4TU.ResearchData, судовая камера)", "segment_id": 417394, "ship": "Bark Europa", "date": "2024-08-17", "days_from_scene": -269, "distance_km": 5751.7, "lon": 167.20278, "lat": -15.52361, "n_items": 3, "area_km2": 0.2326, "size_class": "> 5 см", "c_items_km2": 12.9, "ci95_lo": 2.66, "ci95_hi": 37.69, "ci95_method": "точный интервал Пуассона для N, делённый на A"}, {"source": "ADIS (4TU.ResearchData, судовая камера)", "segment_id": 437123, "ship": "Bark Europa", "date": "2024-08-17", "days_from_scene": -269, "distance_km": 5758.6, "lon": 167.26541, "lat": -15.53092, "n_items": 0, "area_km2": 0.4595, "size_class": "> 5 см", "c_items_km2": 0.0, "ci95_lo": 0.0, "ci95_hi": 8.03, "ci95_method": "точный интервал Пуассона для N, делённый на A"}], "nearest_organizer_sample": {"sample_id": "MPL-0922", "source_id": "S4_BLACK_SEA_DOORS3", "distance_km": 9848.4}, "note": "Измерение ≠ оценка: это независимые полевые счёты C = N/A в другое время и в другом месте; со сценой они не связаны и не калибруют её. Ближайший отрезок ADIS — за 5751 км: только для порядка величин."}}}]}