{"type": "FeatureCollection", "features": [{"type": "Feature", "id": "D-SZ-fresh-guanabara-2026-08-30-001-20", "geometry": {"type": "Polygon", "coordinates": [[[-43.0567378, -22.7226914], [-43.0567365, -22.7227817], [-43.0568338, -22.7227829], [-43.0568325, -22.7228732], [-43.0567352, -22.722872], [-43.0567365, -22.7227817], [-43.0566392, -22.7227805], [-43.0566366, -22.7229611], [-43.056442, -22.7229587], [-43.0564432, -22.7228684], [-43.0565406, -22.7228696], [-43.0565431, -22.722689], [-43.0567378, -22.7226914]]]}, "properties": {"kind": "detection", "det_id": "D-SZ-fresh-guanabara-2026-08-30-001-20", "zone_id": "SZ-fresh-guanabara-2026-08-30-001", "scene_id": "S2C_MSIL2A_20260830T130241_R095_T23KPQ_20260830T161908", "datetime": "2026-08-30T13:02:41.025000Z", "n_pixels": 6, "area_m2": 600, "prob_max": 0.8902, "prob_mean": 0.751, "threshold": 0.63, "in_strip": true, "artifact": null}}, {"type": "Feature", "id": "D-SZ-fresh-guanabara-2026-08-30-002-23", "geometry": {"type": "Polygon", "coordinates": [[[-43.2085081, -22.7293411], [-43.208507, -22.7294314], [-43.2083123, -22.7294292], [-43.2083135, -22.729339], [-43.2085081, -22.7293411]]]}, "properties": {"kind": "detection", "det_id": "D-SZ-fresh-guanabara-2026-08-30-002-23", "zone_id": "SZ-fresh-guanabara-2026-08-30-002", "scene_id": "S2C_MSIL2A_20260830T130241_R095_T23KPQ_20260830T161908", "datetime": "2026-08-30T13:02:41.025000Z", "n_pixels": 2, "area_m2": 200, "prob_max": 0.8118, "prob_mean": 0.7549, "threshold": 0.63, "in_strip": true, "artifact": null}}, {"type": "Feature", "id": "D-SZ-fresh-guanabara-2026-08-30-002-24", "geometry": {"type": "Polygon", "coordinates": [[[-43.2082161, -22.7293379], [-43.2082149, -22.7294282], [-43.2081176, -22.7294271], [-43.2081188, -22.7293368], [-43.2082161, -22.7293379]]]}, "properties": {"kind": "detection", "det_id": "D-SZ-fresh-guanabara-2026-08-30-002-24", "zone_id": "SZ-fresh-guanabara-2026-08-30-002", "scene_id": "S2C_MSIL2A_20260830T130241_R095_T23KPQ_20260830T161908", "datetime": "2026-08-30T13:02:41.025000Z", "n_pixels": 1, "area_m2": 100, "prob_max": 0.7647, "prob_mean": 0.7647, "threshold": 0.63, "in_strip": true, "artifact": null}}, {"type": "Feature", "id": "D-SZ-fresh-guanabara-2026-08-30-002-29", "geometry": {"type": "Polygon", "coordinates": [[[-43.2078197, -22.7298753], [-43.2078173, -22.7300558], [-43.20772, -22.7300547], [-43.2077224, -22.7298742], [-43.2078197, -22.7298753]]]}, "properties": {"kind": "detection", "det_id": "D-SZ-fresh-guanabara-2026-08-30-002-29", "zone_id": "SZ-fresh-guanabara-2026-08-30-002", "scene_id": "S2C_MSIL2A_20260830T130241_R095_T23KPQ_20260830T161908", "datetime": "2026-08-30T13:02:41.025000Z", "n_pixels": 2, "area_m2": 200, "prob_max": 0.9098, "prob_mean": 0.8627, "threshold": 0.63, "in_strip": true, "artifact": null}}, {"type": "Feature", "id": "D-SZ-fresh-guanabara-2026-08-30-002-32", "geometry": {"type": "Polygon", "coordinates": [[[-43.2076215, -22.7301439], [-43.2076203, -22.7302342], [-43.2073283, -22.730231], [-43.2073295, -22.7301407], [-43.2076215, -22.7301439]]]}, "properties": {"kind": "detection", "det_id": "D-SZ-fresh-guanabara-2026-08-30-002-32", "zone_id": "SZ-fresh-guanabara-2026-08-30-002", "scene_id": "S2C_MSIL2A_20260830T130241_R095_T23KPQ_20260830T161908", "datetime": "2026-08-30T13:02:41.025000Z", "n_pixels": 3, "area_m2": 300, "prob_max": 0.9529, "prob_mean": 0.8876, "threshold": 0.63, "in_strip": true, "artifact": null}}, {"type": "Feature", "id": "D-SZ-fresh-guanabara-2026-08-30-002-33", "geometry": {"type": "Polygon", "coordinates": [[[-43.2099564, -22.7302604], [-43.2099553, -22.7303507], [-43.2097606, -22.7303485], [-43.2097618, -22.7302582], [-43.2099564, -22.7302604]]]}, "properties": {"kind": "detection", "det_id": "D-SZ-fresh-guanabara-2026-08-30-002-33", "zone_id": "SZ-fresh-guanabara-2026-08-30-002", "scene_id": "S2C_MSIL2A_20260830T130241_R095_T23KPQ_20260830T161908", "datetime": "2026-08-30T13:02:41.025000Z", "n_pixels": 2, "area_m2": 200, "prob_max": 0.898, "prob_mean": 0.8804, "threshold": 0.63, "in_strip": true, "artifact": "seam"}}, {"type": "Feature", "id": "D-SZ-fresh-guanabara-2026-08-30-002-34", "geometry": {"type": "Polygon", "coordinates": [[[-43.2101488, -22.7304432], [-43.2101476, -22.7305335], [-43.2100503, -22.7305324], [-43.2100514, -22.7304421], [-43.2101488, -22.7304432]]]}, "properties": {"kind": "detection", "det_id": "D-SZ-fresh-guanabara-2026-08-30-002-34", "zone_id": "SZ-fresh-guanabara-2026-08-30-002", "scene_id": "S2C_MSIL2A_20260830T130241_R095_T23KPQ_20260830T161908", "datetime": "2026-08-30T13:02:41.025000Z", "n_pixels": 1, "area_m2": 100, "prob_max": 0.8941, "prob_mean": 0.8941, "threshold": 0.63, "in_strip": true, "artifact": null}}, {"type": "Feature", "id": "D-SZ-fresh-guanabara-2026-08-30-002-35", "geometry": {"type": "Polygon", "coordinates": [[[-43.2101464, -22.7306238], [-43.2101417, -22.730985], [-43.2100444, -22.7309839], [-43.2100491, -22.7306227], [-43.2101464, -22.7306238]]]}, "properties": {"kind": "detection", "det_id": "D-SZ-fresh-guanabara-2026-08-30-002-35", "zone_id": "SZ-fresh-guanabara-2026-08-30-002", "scene_id": "S2C_MSIL2A_20260830T130241_R095_T23KPQ_20260830T161908", "datetime": "2026-08-30T13:02:41.025000Z", "n_pixels": 4, "area_m2": 400, "prob_max": 0.9843, "prob_mean": 0.9343, "threshold": 0.63, "in_strip": true, "artifact": "seam"}}, {"type": "Feature", "id": "D-SZ-fresh-guanabara-2026-08-30-003-25", "geometry": {"type": "Polygon", "coordinates": [[[-43.1969226, -22.7293914], [-43.1969203, -22.729572], [-43.1970176, -22.7295731], [-43.1970164, -22.7296634], [-43.1968217, -22.7296612], [-43.1968241, -22.7294806], [-43.1967268, -22.7294795], [-43.1967256, -22.7295698], [-43.1966282, -22.7295687], [-43.1966306, -22.7293882], [-43.1969226, -22.7293914]]]}, "properties": {"kind": "detection", "det_id": "D-SZ-fresh-guanabara-2026-08-30-003-25", "zone_id": "SZ-fresh-guanabara-2026-08-30-003", "scene_id": "S2C_MSIL2A_20260830T130241_R095_T23KPQ_20260830T161908", "datetime": "2026-08-30T13:02:41.025000Z", "n_pixels": 7, "area_m2": 700, "prob_max": 0.9961, "prob_mean": 0.9395, "threshold": 0.63, "in_strip": true, "artifact": "ship"}}, {"type": "Feature", "id": "D-SZ-fresh-guanabara-2026-08-30-003-28", "geometry": {"type": "Polygon", "coordinates": [[[-43.1966271, -22.729659], [-43.1966259, -22.7297493], [-43.1965285, -22.7297482], [-43.1965297, -22.7296579], [-43.1966271, -22.729659]]]}, "properties": {"kind": "detection", "det_id": "D-SZ-fresh-guanabara-2026-08-30-003-28", "zone_id": "SZ-fresh-guanabara-2026-08-30-003", "scene_id": "S2C_MSIL2A_20260830T130241_R095_T23KPQ_20260830T161908", "datetime": "2026-08-30T13:02:41.025000Z", "n_pixels": 1, "area_m2": 100, "prob_max": 0.8667, "prob_mean": 0.8667, "threshold": 0.63, "in_strip": true, "artifact": "ship"}}, {"type": "Feature", "id": "D-SZ-fresh-guanabara-2026-08-30-004-37", "geometry": {"type": "Polygon", "coordinates": [[[-43.0545943, -22.7297088], [-43.0545918, -22.7298894], [-43.0544944, -22.7298882], [-43.054497, -22.7297076], [-43.0545943, -22.7297088]]]}, "properties": {"kind": "detection", "det_id": "D-SZ-fresh-guanabara-2026-08-30-004-37", "zone_id": "SZ-fresh-guanabara-2026-08-30-004", "scene_id": "S2C_MSIL2A_20260830T130241_R095_T23KPQ_20260830T161908", "datetime": "2026-08-30T13:02:41.025000Z", "n_pixels": 2, "area_m2": 200, "prob_max": 0.8196, "prob_mean": 0.7373, "threshold": 0.63, "in_strip": true, "artifact": null}}, {"type": "Feature", "id": "D-SZ-fresh-guanabara-2026-08-30-004-41", "geometry": {"type": "Polygon", "coordinates": [[[-43.0552412, -22.7321548], [-43.0552399, -22.7322451], [-43.0550452, -22.7322427], [-43.0550465, -22.7321524], [-43.0552412, -22.7321548]]]}, "properties": {"kind": "detection", "det_id": "D-SZ-fresh-guanabara-2026-08-30-004-41", "zone_id": "SZ-fresh-guanabara-2026-08-30-004", "scene_id": "S2C_MSIL2A_20260830T130241_R095_T23KPQ_20260830T161908", "datetime": "2026-08-30T13:02:41.025000Z", "n_pixels": 2, "area_m2": 200, "prob_max": 0.9412, "prob_mean": 0.8314, "threshold": 0.63, "in_strip": true, "artifact": null}}, {"type": "Feature", "id": "D-SZ-fresh-guanabara-2026-08-30-004-45", "geometry": {"type": "Polygon", "coordinates": [[[-43.0567908, -22.7327154], [-43.0567895, -22.7328057], [-43.0566922, -22.7328045], [-43.0566896, -22.7329851], [-43.0565923, -22.7329839], [-43.0565961, -22.7327131], [-43.0567908, -22.7327154]]]}, "properties": {"kind": "detection", "det_id": "D-SZ-fresh-guanabara-2026-08-30-004-45", "zone_id": "SZ-fresh-guanabara-2026-08-30-004", "scene_id": "S2C_MSIL2A_20260830T130241_R095_T23KPQ_20260830T161908", "datetime": "2026-08-30T13:02:41.025000Z", "n_pixels": 4, "area_m2": 400, "prob_max": 0.7882, "prob_mean": 0.7333, "threshold": 0.63, "in_strip": true, "artifact": "ship"}}, {"type": "Feature", "id": "D-SZ-fresh-guanabara-2026-08-30-004-46", "geometry": {"type": "Polygon", "coordinates": [[[-43.0560121, -22.732706], [-43.0560109, -22.7327963], [-43.0559135, -22.7327951], [-43.0559148, -22.7327048], [-43.0560121, -22.732706]]]}, "properties": {"kind": "detection", "det_id": "D-SZ-fresh-guanabara-2026-08-30-004-46", "zone_id": "SZ-fresh-guanabara-2026-08-30-004", "scene_id": "S2C_MSIL2A_20260830T130241_R095_T23KPQ_20260830T161908", "datetime": "2026-08-30T13:02:41.025000Z", "n_pixels": 1, "area_m2": 100, "prob_max": 0.6863, "prob_mean": 0.6863, "threshold": 0.63, "in_strip": true, "artifact": "ship"}}, {"type": "Feature", "id": "D-SZ-fresh-guanabara-2026-08-30-005-42", "geometry": {"type": "Polygon", "coordinates": [[[-43.2109778, -22.7340647], [-43.2109755, -22.7342453], [-43.2108781, -22.7342442], [-43.2108793, -22.7341539], [-43.210782, -22.7341528], [-43.2107831, -22.7340626], [-43.2109778, -22.7340647]]]}, "properties": {"kind": "detection", "det_id": "D-SZ-fresh-guanabara-2026-08-30-005-42", "zone_id": "SZ-fresh-guanabara-2026-08-30-005", "scene_id": "S2C_MSIL2A_20260830T130241_R095_T23KPQ_20260830T161908", "datetime": "2026-08-30T13:02:41.025000Z", "n_pixels": 3, "area_m2": 300, "prob_max": 0.8392, "prob_mean": 0.7216, "threshold": 0.63, "in_strip": true, "artifact": "seam"}}, {"type": "Feature", "id": "D-SZ-fresh-guanabara-2026-08-30-005-44", "geometry": {"type": "Polygon", "coordinates": [[[-43.2109719, -22.7345162], [-43.2109637, -22.7351483], [-43.2108664, -22.7351472], [-43.2108652, -22.7352375], [-43.2107679, -22.7352364], [-43.210769, -22.7351461], [-43.2106717, -22.735145], [-43.2106729, -22.7350547], [-43.2108675, -22.7350569], [-43.2108699, -22.7348763], [-43.2107726, -22.7348752], [-43.2107737, -22.7347849], [-43.2108711, -22.734786], [-43.2108746, -22.7345151], [-43.2109719, -22.7345162]]]}, "properties": {"kind": "detection", "det_id": "D-SZ-fresh-guanabara-2026-08-30-005-44", "zone_id": "SZ-fresh-guanabara-2026-08-30-005", "scene_id": "S2C_MSIL2A_20260830T130241_R095_T23KPQ_20260830T161908", "datetime": "2026-08-30T13:02:41.025000Z", "n_pixels": 11, "area_m2": 1100, "prob_max": 0.9882, "prob_mean": 0.8863, "threshold": 0.63, "in_strip": true, "artifact": "seam"}}, {"type": "Feature", "id": "D-SZ-fresh-guanabara-2026-08-30-006-52", "geometry": {"type": "Polygon", "coordinates": [[[-43.0879492, -22.7392319], [-43.0879467, -22.7394125], [-43.087752, -22.7394101], [-43.0877532, -22.7393198], [-43.0878506, -22.739321], [-43.0878518, -22.7392307], [-43.0879492, -22.7392319]]]}, "properties": {"kind": "detection", "det_id": "D-SZ-fresh-guanabara-2026-08-30-006-52", "zone_id": "SZ-fresh-guanabara-2026-08-30-006", "scene_id": "S2C_MSIL2A_20260830T130241_R095_T23KPQ_20260830T161908", "datetime": "2026-08-30T13:02:41.025000Z", "n_pixels": 3, "area_m2": 300, "prob_max": 0.7569, "prob_mean": 0.7346, "threshold": 0.63, "in_strip": true, "artifact": "seam"}}, {"type": "Feature", "id": "D-SZ-fresh-guanabara-2026-08-30-006-53", "geometry": {"type": "Polygon", "coordinates": [[[-43.0873626, -22.7394055], [-43.0873601, -22.739586], [-43.0872628, -22.7395849], [-43.087264, -22.7394946], [-43.0871667, -22.7394934], [-43.0871679, -22.7394031], [-43.0873626, -22.7394055]]]}, "properties": {"kind": "detection", "det_id": "D-SZ-fresh-guanabara-2026-08-30-006-53", "zone_id": "SZ-fresh-guanabara-2026-08-30-006", "scene_id": "S2C_MSIL2A_20260830T130241_R095_T23KPQ_20260830T161908", "datetime": "2026-08-30T13:02:41.025000Z", "n_pixels": 3, "area_m2": 300, "prob_max": 0.9373, "prob_mean": 0.7621, "threshold": 0.63, "in_strip": true, "artifact": "ship"}}, {"type": "Feature", "id": "D-SZ-fresh-guanabara-2026-08-30-006-55", "geometry": {"type": "Polygon", "coordinates": [[[-43.0875535, -22.7396787], [-43.0875523, -22.7397689], [-43.0874549, -22.7397678], [-43.0874562, -22.7396775], [-43.0875535, -22.7396787]]]}, "properties": {"kind": "detection", "det_id": "D-SZ-fresh-guanabara-2026-08-30-006-55", "zone_id": "SZ-fresh-guanabara-2026-08-30-006", "scene_id": "S2C_MSIL2A_20260830T130241_R095_T23KPQ_20260830T161908", "datetime": "2026-08-30T13:02:41.025000Z", "n_pixels": 1, "area_m2": 100, "prob_max": 0.6431, "prob_mean": 0.6431, "threshold": 0.63, "in_strip": true, "artifact": "ship"}}, {"type": "Feature", "id": "D-SZ-fresh-guanabara-2026-08-30-006-56", "geometry": {"type": "Polygon", "coordinates": [[[-43.0863666, -22.741019], [-43.0863654, -22.7411093], [-43.0861707, -22.7411069], [-43.0861719, -22.7410166], [-43.0863666, -22.741019]]]}, "properties": {"kind": "detection", "det_id": "D-SZ-fresh-guanabara-2026-08-30-006-56", "zone_id": "SZ-fresh-guanabara-2026-08-30-006", "scene_id": "S2C_MSIL2A_20260830T130241_R095_T23KPQ_20260830T161908", "datetime": "2026-08-30T13:02:41.025000Z", "n_pixels": 2, "area_m2": 200, "prob_max": 0.651, "prob_mean": 0.6451, "threshold": 0.63, "in_strip": true, "artifact": null}}, {"type": "Feature", "id": "D-SZ-fresh-guanabara-2026-08-30-007-57", "geometry": {"type": "Polygon", "coordinates": [[[-43.0663766, -22.7433067], [-43.0663728, -22.7435775], [-43.0661782, -22.7435752], [-43.0661794, -22.7434849], [-43.0662768, -22.7434861], [-43.0662793, -22.7433055], [-43.0663766, -22.7433067]]]}, "properties": {"kind": "detection", "det_id": "D-SZ-fresh-guanabara-2026-08-30-007-57", "zone_id": "SZ-fresh-guanabara-2026-08-30-007", "scene_id": "S2C_MSIL2A_20260830T130241_R095_T23KPQ_20260830T161908", "datetime": "2026-08-30T13:02:41.025000Z", "n_pixels": 4, "area_m2": 400, "prob_max": 0.9608, "prob_mean": 0.852, "threshold": 0.63, "in_strip": true, "artifact": "seam"}}, {"type": "Feature", "id": "D-SZ-fresh-guanabara-2026-08-30-007-60", "geometry": {"type": "Polygon", "coordinates": [[[-43.0660808, -22.743574], [-43.0660795, -22.7436643], [-43.0659822, -22.7436631], [-43.0659835, -22.7435728], [-43.0660808, -22.743574]]]}, "properties": {"kind": "detection", "det_id": "D-SZ-fresh-guanabara-2026-08-30-007-60", "zone_id": "SZ-fresh-guanabara-2026-08-30-007", "scene_id": "S2C_MSIL2A_20260830T130241_R095_T23KPQ_20260830T161908", "datetime": "2026-08-30T13:02:41.025000Z", "n_pixels": 1, "area_m2": 100, "prob_max": 0.7725, "prob_mean": 0.7725, "threshold": 0.63, "in_strip": true, "artifact": null}}, {"type": "Feature", "id": "D-SZ-fresh-guanabara-2026-08-30-007-62", "geometry": {"type": "Polygon", "coordinates": [[[-43.066273, -22.7437569], [-43.0662717, -22.7438472], [-43.0661743, -22.743846], [-43.0661731, -22.7439363], [-43.0660757, -22.7439351], [-43.066077, -22.7438449], [-43.0661743, -22.743846], [-43.0661756, -22.7437557], [-43.066273, -22.7437569]]]}, "properties": {"kind": "detection", "det_id": "D-SZ-fresh-guanabara-2026-08-30-007-62", "zone_id": "SZ-fresh-guanabara-2026-08-30-007", "scene_id": "S2C_MSIL2A_20260830T130241_R095_T23KPQ_20260830T161908", "datetime": "2026-08-30T13:02:41.025000Z", "n_pixels": 2, "area_m2": 200, "prob_max": 0.7882, "prob_mean": 0.7255, "threshold": 0.63, "in_strip": true, "artifact": "seam"}}, {"type": "Feature", "id": "D-SZ-fresh-guanabara-2026-08-30-007-63", "geometry": {"type": "Polygon", "coordinates": [[[-43.065192, -22.7444662], [-43.0651908, -22.7445565], [-43.0650934, -22.7445553], [-43.0650947, -22.7444651], [-43.065192, -22.7444662]]]}, "properties": {"kind": "detection", "det_id": "D-SZ-fresh-guanabara-2026-08-30-007-63", "zone_id": "SZ-fresh-guanabara-2026-08-30-007", "scene_id": "S2C_MSIL2A_20260830T130241_R095_T23KPQ_20260830T161908", "datetime": "2026-08-30T13:02:41.025000Z", "n_pixels": 1, "area_m2": 100, "prob_max": 0.7137, "prob_mean": 0.7137, "threshold": 0.63, "in_strip": true, "artifact": null}}, {"type": "Feature", "id": "D-SZ-fresh-guanabara-2026-08-30-007-65", "geometry": {"type": "Polygon", "coordinates": [[[-43.065862, -22.7452871], [-43.0658607, -22.7453774], [-43.065666, -22.745375], [-43.0656673, -22.7452847], [-43.065862, -22.7452871]]]}, "properties": {"kind": "detection", "det_id": "D-SZ-fresh-guanabara-2026-08-30-007-65", "zone_id": "SZ-fresh-guanabara-2026-08-30-007", "scene_id": "S2C_MSIL2A_20260830T130241_R095_T23KPQ_20260830T161908", "datetime": "2026-08-30T13:02:41.025000Z", "n_pixels": 2, "area_m2": 200, "prob_max": 0.8549, "prob_mean": 0.8275, "threshold": 0.63, "in_strip": true, "artifact": "seam"}}, {"type": "Feature", "id": "D-SZ-fresh-guanabara-2026-08-30-007-67", "geometry": {"type": "Polygon", "coordinates": [[[-43.0659568, -22.7454688], [-43.0659542, -22.7456494], [-43.0658569, -22.7456482], [-43.0658582, -22.7455579], [-43.0657608, -22.7455567], [-43.0657621, -22.7454665], [-43.0659568, -22.7454688]]]}, "properties": {"kind": "detection", "det_id": "D-SZ-fresh-guanabara-2026-08-30-007-67", "zone_id": "SZ-fresh-guanabara-2026-08-30-007", "scene_id": "S2C_MSIL2A_20260830T130241_R095_T23KPQ_20260830T161908", "datetime": "2026-08-30T13:02:41.025000Z", "n_pixels": 3, "area_m2": 300, "prob_max": 0.9176, "prob_mean": 0.8549, "threshold": 0.63, "in_strip": true, "artifact": "seam"}}, {"type": "Feature", "id": "D-SZ-fresh-guanabara-2026-08-30-008-64", "geometry": {"type": "Polygon", "coordinates": [[[-43.2274567, -22.7471623], [-43.2274532, -22.7474332], [-43.2272585, -22.747431], [-43.227262, -22.7471601], [-43.2274567, -22.7471623]]]}, "properties": {"kind": "detection", "det_id": "D-SZ-fresh-guanabara-2026-08-30-008-64", "zone_id": "SZ-fresh-guanabara-2026-08-30-008", "scene_id": "S2C_MSIL2A_20260830T130241_R095_T23KPQ_20260830T161908", "datetime": "2026-08-30T13:02:41.025000Z", "n_pixels": 6, "area_m2": 600, "prob_max": 0.9922, "prob_mean": 0.9575, "threshold": 0.63, "in_strip": true, "artifact": null}}, {"type": "Feature", "id": "D-SZ-fresh-guanabara-2026-08-30-008-68", "geometry": {"type": "Polygon", "coordinates": [[[-43.2266639, -22.7482372], [-43.2266604, -22.748508], [-43.2265631, -22.748507], [-43.2265619, -22.7485973], [-43.2264646, -22.7485962], [-43.2264657, -22.7485059], [-43.2263684, -22.7485048], [-43.2263707, -22.7483242], [-43.226468, -22.7483253], [-43.2264692, -22.748235], [-43.2266639, -22.7482372]]]}, "properties": {"kind": "detection", "det_id": "D-SZ-fresh-guanabara-2026-08-30-008-68", "zone_id": "SZ-fresh-guanabara-2026-08-30-008", "scene_id": "S2C_MSIL2A_20260830T130241_R095_T23KPQ_20260830T161908", "datetime": "2026-08-30T13:02:41.025000Z", "n_pixels": 9, "area_m2": 900, "prob_max": 0.9961, "prob_mean": 0.9468, "threshold": 0.63, "in_strip": true, "artifact": null}}, {"type": "Feature", "id": "D-SZ-fresh-guanabara-2026-08-30-008-70", "geometry": {"type": "Polygon", "coordinates": [[[-43.2261713, -22.7486832], [-43.2261702, -22.7487735], [-43.2260728, -22.7487724], [-43.226074, -22.7486821], [-43.2261713, -22.7486832]]]}, "properties": {"kind": "detection", "det_id": "D-SZ-fresh-guanabara-2026-08-30-008-70", "zone_id": "SZ-fresh-guanabara-2026-08-30-008", "scene_id": "S2C_MSIL2A_20260830T130241_R095_T23KPQ_20260830T161908", "datetime": "2026-08-30T13:02:41.025000Z", "n_pixels": 1, "area_m2": 100, "prob_max": 0.6902, "prob_mean": 0.6902, "threshold": 0.63, "in_strip": true, "artifact": null}}, {"type": "Feature", "id": "D-SZ-fresh-guanabara-2026-08-30-008-71", "geometry": {"type": "Polygon", "coordinates": [[[-43.2256799, -22.749039], [-43.2256787, -22.7491293], [-43.2255814, -22.7491282], [-43.2255826, -22.7490379], [-43.2256799, -22.749039]]]}, "properties": {"kind": "detection", "det_id": "D-SZ-fresh-guanabara-2026-08-30-008-71", "zone_id": "SZ-fresh-guanabara-2026-08-30-008", "scene_id": "S2C_MSIL2A_20260830T130241_R095_T23KPQ_20260830T161908", "datetime": "2026-08-30T13:02:41.025000Z", "n_pixels": 1, "area_m2": 100, "prob_max": 0.7686, "prob_mean": 0.7686, "threshold": 0.63, "in_strip": true, "artifact": null}}, {"type": "Feature", "id": "D-SZ-fresh-guanabara-2026-08-30-008-72", "geometry": {"type": "Polygon", "coordinates": [[[-43.2282087, -22.7492477], [-43.2282076, -22.749338], [-43.2283049, -22.7493391], [-43.2283038, -22.7494294], [-43.2281091, -22.7494272], [-43.2281114, -22.7492466], [-43.2282087, -22.7492477]]]}, "properties": {"kind": "detection", "det_id": "D-SZ-fresh-guanabara-2026-08-30-008-72", "zone_id": "SZ-fresh-guanabara-2026-08-30-008", "scene_id": "S2C_MSIL2A_20260830T130241_R095_T23KPQ_20260830T161908", "datetime": "2026-08-30T13:02:41.025000Z", "n_pixels": 3, "area_m2": 300, "prob_max": 0.9686, "prob_mean": 0.834, "threshold": 0.63, "in_strip": true, "artifact": null}}, {"type": "Feature", "id": "D-SZ-fresh-guanabara-2026-08-30-009-75", "geometry": {"type": "Polygon", "coordinates": [[[-43.103194, -22.7491663], [-43.1031928, -22.7492566], [-43.1030955, -22.7492554], [-43.1030967, -22.7491651], [-43.103194, -22.7491663]]]}, "properties": {"kind": "detection", "det_id": "D-SZ-fresh-guanabara-2026-08-30-009-75", "zone_id": "SZ-fresh-guanabara-2026-08-30-009", "scene_id": "S2C_MSIL2A_20260830T130241_R095_T23KPQ_20260830T161908", "datetime": "2026-08-30T13:02:41.025000Z", "n_pixels": 1, "area_m2": 100, "prob_max": 0.8627, "prob_mean": 0.8627, "threshold": 0.63, "in_strip": true, "artifact": null}}, {"type": "Feature", "id": "D-SZ-fresh-guanabara-2026-08-30-009-76", "geometry": {"type": "Polygon", "coordinates": [[[-43.1009551, -22.7491397], [-43.1009538, -22.74923], [-43.1008565, -22.7492288], [-43.1008577, -22.7491385], [-43.1009551, -22.7491397]]]}, "properties": {"kind": "detection", "det_id": "D-SZ-fresh-guanabara-2026-08-30-009-76", "zone_id": "SZ-fresh-guanabara-2026-08-30-009", "scene_id": "S2C_MSIL2A_20260830T130241_R095_T23KPQ_20260830T161908", "datetime": "2026-08-30T13:02:41.025000Z", "n_pixels": 1, "area_m2": 100, "prob_max": 0.7882, "prob_mean": 0.7882, "threshold": 0.63, "in_strip": true, "artifact": "ship"}}, {"type": "Feature", "id": "D-SZ-fresh-guanabara-2026-08-30-009-79", "geometry": {"type": "Polygon", "coordinates": [[[-43.1012322, -22.7502266], [-43.1012297, -22.7504072], [-43.1011323, -22.750406], [-43.1011348, -22.7502255], [-43.1012322, -22.7502266]]]}, "properties": {"kind": "detection", "det_id": "D-SZ-fresh-guanabara-2026-08-30-009-79", "zone_id": "SZ-fresh-guanabara-2026-08-30-009", "scene_id": "S2C_MSIL2A_20260830T130241_R095_T23KPQ_20260830T161908", "datetime": "2026-08-30T13:02:41.025000Z", "n_pixels": 2, "area_m2": 200, "prob_max": 0.8745, "prob_mean": 0.8, "threshold": 0.63, "in_strip": true, "artifact": null}}, {"type": "Feature", "id": "D-SZ-fresh-guanabara-2026-08-30-009-80", "geometry": {"type": "Polygon", "coordinates": [[[-43.1017164, -22.750413], [-43.1017151, -22.7505033], [-43.1016178, -22.7505021], [-43.101619, -22.7504118], [-43.1017164, -22.750413]]]}, "properties": {"kind": "detection", "det_id": "D-SZ-fresh-guanabara-2026-08-30-009-80", "zone_id": "SZ-fresh-guanabara-2026-08-30-009", "scene_id": "S2C_MSIL2A_20260830T130241_R095_T23KPQ_20260830T161908", "datetime": "2026-08-30T13:02:41.025000Z", "n_pixels": 1, "area_m2": 100, "prob_max": 0.7686, "prob_mean": 0.7686, "threshold": 0.63, "in_strip": true, "artifact": null}}, {"type": "Feature", "id": "D-SZ-fresh-guanabara-2026-08-30-010-92", "geometry": {"type": "Polygon", "coordinates": [[[-43.0481816, -22.7562692], [-43.0481804, -22.7563595], [-43.0483751, -22.7563619], [-43.0483738, -22.7564522], [-43.0479844, -22.7564474], [-43.0479857, -22.7563571], [-43.047791, -22.7563547], [-43.0477897, -22.756445], [-43.047595, -22.7564426], [-43.0475976, -22.7562621], [-43.0481816, -22.7562692]]]}, "properties": {"kind": "detection", "det_id": "D-SZ-fresh-guanabara-2026-08-30-010-92", "zone_id": "SZ-fresh-guanabara-2026-08-30-010", "scene_id": "S2C_MSIL2A_20260830T130241_R095_T23KPQ_20260830T161908", "datetime": "2026-08-30T13:02:41.025000Z", "n_pixels": 12, "area_m2": 1200, "prob_max": 0.9569, "prob_mean": 0.8422, "threshold": 0.63, "in_strip": true, "artifact": null}}, {"type": "Feature", "id": "D-SZ-fresh-guanabara-2026-08-30-010-93", "geometry": {"type": "Polygon", "coordinates": [[[-43.0488618, -22.7563678], [-43.0488605, -22.7564581], [-43.0487632, -22.7564569], [-43.0487644, -22.7563666], [-43.0488618, -22.7563678]]]}, "properties": {"kind": "detection", "det_id": "D-SZ-fresh-guanabara-2026-08-30-010-93", "zone_id": "SZ-fresh-guanabara-2026-08-30-010", "scene_id": "S2C_MSIL2A_20260830T130241_R095_T23KPQ_20260830T161908", "datetime": "2026-08-30T13:02:41.025000Z", "n_pixels": 1, "area_m2": 100, "prob_max": 0.6431, "prob_mean": 0.6431, "threshold": 0.63, "in_strip": true, "artifact": null}}, {"type": "Feature", "id": "D-SZ-fresh-guanabara-2026-08-30-010-94", "geometry": {"type": "Polygon", "coordinates": [[[-43.0485697, -22.7563643], [-43.0485685, -22.7564545], [-43.0484711, -22.7564533], [-43.0484724, -22.7563631], [-43.0485697, -22.7563643]]]}, "properties": {"kind": "detection", "det_id": "D-SZ-fresh-guanabara-2026-08-30-010-94", "zone_id": "SZ-fresh-guanabara-2026-08-30-010", "scene_id": "S2C_MSIL2A_20260830T130241_R095_T23KPQ_20260830T161908", "datetime": "2026-08-30T13:02:41.025000Z", "n_pixels": 1, "area_m2": 100, "prob_max": 0.9451, "prob_mean": 0.9451, "threshold": 0.63, "in_strip": true, "artifact": null}}, {"type": "Feature", "id": "D-SZ-fresh-guanabara-2026-08-30-011-97", "geometry": {"type": "Polygon", "coordinates": [[[-43.0700305, -22.7604178], [-43.0700292, -22.7605081], [-43.0699319, -22.7605069], [-43.0699331, -22.7604166], [-43.0700305, -22.7604178]]]}, "properties": {"kind": "detection", "det_id": "D-SZ-fresh-guanabara-2026-08-30-011-97", "zone_id": "SZ-fresh-guanabara-2026-08-30-011", "scene_id": "S2C_MSIL2A_20260830T130241_R095_T23KPQ_20260830T161908", "datetime": "2026-08-30T13:02:41.025000Z", "n_pixels": 1, "area_m2": 100, "prob_max": 0.749, "prob_mean": 0.749, "threshold": 0.63, "in_strip": true, "artifact": "ship"}}, {"type": "Feature", "id": "D-SZ-fresh-guanabara-2026-08-30-011-98", "geometry": {"type": "Polygon", "coordinates": [[[-43.0700254, -22.7607789], [-43.0700241, -22.7608692], [-43.0701215, -22.7608704], [-43.0701202, -22.7609607], [-43.0700229, -22.7609595], [-43.0700241, -22.7608692], [-43.0699268, -22.760868], [-43.0699281, -22.7607777], [-43.0700254, -22.7607789]]]}, "properties": {"kind": "detection", "det_id": "D-SZ-fresh-guanabara-2026-08-30-011-98", "zone_id": "SZ-fresh-guanabara-2026-08-30-011", "scene_id": "S2C_MSIL2A_20260830T130241_R095_T23KPQ_20260830T161908", "datetime": "2026-08-30T13:02:41.025000Z", "n_pixels": 2, "area_m2": 200, "prob_max": 0.8667, "prob_mean": 0.8333, "threshold": 0.63, "in_strip": true, "artifact": "ship"}}, {"type": "Feature", "id": "D-SZ-fresh-guanabara-2026-08-30-011-101", "geometry": {"type": "Polygon", "coordinates": [[[-43.069526, -22.7616759], [-43.0695234, -22.7618565], [-43.0694261, -22.7618553], [-43.0694286, -22.7616747], [-43.069526, -22.7616759]]]}, "properties": {"kind": "detection", "det_id": "D-SZ-fresh-guanabara-2026-08-30-011-101", "zone_id": "SZ-fresh-guanabara-2026-08-30-011", "scene_id": "S2C_MSIL2A_20260830T130241_R095_T23KPQ_20260830T161908", "datetime": "2026-08-30T13:02:41.025000Z", "n_pixels": 2, "area_m2": 200, "prob_max": 0.9961, "prob_mean": 0.9961, "threshold": 0.63, "in_strip": true, "artifact": null}}, {"type": "Feature", "id": "D-SZ-fresh-guanabara-2026-08-30-012-100", "geometry": {"type": "Polygon", "coordinates": [[[-43.1549093, -22.7625051], [-43.154908, -22.7625954], [-43.1547133, -22.7625931], [-43.1547145, -22.7625028], [-43.1549093, -22.7625051]]]}, "properties": {"kind": "detection", "det_id": "D-SZ-fresh-guanabara-2026-08-30-012-100", "zone_id": "SZ-fresh-guanabara-2026-08-30-012", "scene_id": "S2C_MSIL2A_20260830T130241_R095_T23KPQ_20260830T161908", "datetime": "2026-08-30T13:02:41.025000Z", "n_pixels": 2, "area_m2": 200, "prob_max": 0.7843, "prob_mean": 0.7157, "threshold": 0.63, "in_strip": true, "artifact": null}}, {"type": "Feature", "id": "D-SZ-fresh-guanabara-2026-08-30-012-103", "geometry": {"type": "Polygon", "coordinates": [[[-43.1540245, -22.763127], [-43.1540233, -22.7632173], [-43.153926, -22.7632162], [-43.1539272, -22.7631259], [-43.1540245, -22.763127]]]}, "properties": {"kind": "detection", "det_id": "D-SZ-fresh-guanabara-2026-08-30-012-103", "zone_id": "SZ-fresh-guanabara-2026-08-30-012", "scene_id": "S2C_MSIL2A_20260830T130241_R095_T23KPQ_20260830T161908", "datetime": "2026-08-30T13:02:41.025000Z", "n_pixels": 1, "area_m2": 100, "prob_max": 0.9098, "prob_mean": 0.9098, "threshold": 0.63, "in_strip": true, "artifact": null}}, {"type": "Feature", "id": "D-SZ-fresh-guanabara-2026-08-30-012-105", "geometry": {"type": "Polygon", "coordinates": [[[-43.1537167, -22.7642974], [-43.1537142, -22.764478], [-43.1536169, -22.7644768], [-43.1536193, -22.7642963], [-43.1537167, -22.7642974]]]}, "properties": {"kind": "detection", "det_id": "D-SZ-fresh-guanabara-2026-08-30-012-105", "zone_id": "SZ-fresh-guanabara-2026-08-30-012", "scene_id": "S2C_MSIL2A_20260830T130241_R095_T23KPQ_20260830T161908", "datetime": "2026-08-30T13:02:41.025000Z", "n_pixels": 2, "area_m2": 200, "prob_max": 0.9922, "prob_mean": 0.9765, "threshold": 0.63, "in_strip": true, "artifact": null}}, {"type": "Feature", "id": "D-SZ-fresh-guanabara-2026-08-30-013-116", "geometry": {"type": "Polygon", "coordinates": [[[-43.2698475, -22.7751711], [-43.2698452, -22.7753517], [-43.2696505, -22.7753496], [-43.2696516, -22.7752593], [-43.2695542, -22.7752582], [-43.2695554, -22.7751679], [-43.2698475, -22.7751711]]]}, "properties": {"kind": "detection", "det_id": "D-SZ-fresh-guanabara-2026-08-30-013-116", "zone_id": "SZ-fresh-guanabara-2026-08-30-013", "scene_id": "S2C_MSIL2A_20260830T130241_R095_T23KPQ_20260830T161908", "datetime": "2026-08-30T13:02:41.025000Z", "n_pixels": 5, "area_m2": 500, "prob_max": 0.9765, "prob_mean": 0.9114, "threshold": 0.63, "in_strip": true, "artifact": null}}, {"type": "Feature", "id": "D-SZ-fresh-guanabara-2026-08-30-014-120", "geometry": {"type": "Polygon", "coordinates": [[[-43.1103844, -22.7785096], [-43.1103832, -22.7785998], [-43.1102858, -22.7785987], [-43.110287, -22.7785084], [-43.1103844, -22.7785096]]]}, "properties": {"kind": "detection", "det_id": "D-SZ-fresh-guanabara-2026-08-30-014-120", "zone_id": "SZ-fresh-guanabara-2026-08-30-014", "scene_id": "S2C_MSIL2A_20260830T130241_R095_T23KPQ_20260830T161908", "datetime": "2026-08-30T13:02:41.025000Z", "n_pixels": 1, "area_m2": 100, "prob_max": 0.9255, "prob_mean": 0.9255, "threshold": 0.63, "in_strip": true, "artifact": null}}, {"type": "Feature", "id": "D-SZ-fresh-guanabara-2026-08-30-014-121", "geometry": {"type": "Polygon", "coordinates": [[[-43.1098938, -22.7787746], [-43.1098914, -22.7789552], [-43.109794, -22.7789541], [-43.1097965, -22.7787735], [-43.1098938, -22.7787746]]]}, "properties": {"kind": "detection", "det_id": "D-SZ-fresh-guanabara-2026-08-30-014-121", "zone_id": "SZ-fresh-guanabara-2026-08-30-014", "scene_id": "S2C_MSIL2A_20260830T130241_R095_T23KPQ_20260830T161908", "datetime": "2026-08-30T13:02:41.025000Z", "n_pixels": 2, "area_m2": 200, "prob_max": 0.9961, "prob_mean": 0.9961, "threshold": 0.63, "in_strip": true, "artifact": null}}, {"type": "Feature", "id": "D-SZ-fresh-guanabara-2026-08-30-014-122", "geometry": {"type": "Polygon", "coordinates": [[[-43.107828, -22.7802853], [-43.1078267, -22.7803756], [-43.1077293, -22.7803744], [-43.1077306, -22.7802841], [-43.107828, -22.7802853]]]}, "properties": {"kind": "detection", "det_id": "D-SZ-fresh-guanabara-2026-08-30-014-122", "zone_id": "SZ-fresh-guanabara-2026-08-30-014", "scene_id": "S2C_MSIL2A_20260830T130241_R095_T23KPQ_20260830T161908", "datetime": "2026-08-30T13:02:41.025000Z", "n_pixels": 1, "area_m2": 100, "prob_max": 0.8627, "prob_mean": 0.8627, "threshold": 0.63, "in_strip": true, "artifact": "ship"}}, {"type": "Feature", "id": "D-SZ-fresh-guanabara-2026-08-30-014-123", "geometry": {"type": "Polygon", "coordinates": [[[-43.1081176, -22.7804693], [-43.1081163, -22.7805596], [-43.108019, -22.7805585], [-43.1080202, -22.7804682], [-43.1081176, -22.7804693]]]}, "properties": {"kind": "detection", "det_id": "D-SZ-fresh-guanabara-2026-08-30-014-123", "zone_id": "SZ-fresh-guanabara-2026-08-30-014", "scene_id": "S2C_MSIL2A_20260830T130241_R095_T23KPQ_20260830T161908", "datetime": "2026-08-30T13:02:41.025000Z", "n_pixels": 1, "area_m2": 100, "prob_max": 0.7412, "prob_mean": 0.7412, "threshold": 0.63, "in_strip": true, "artifact": "ship"}}, {"type": "Feature", "id": "D-SZ-fresh-guanabara-2026-08-30-014-124", "geometry": {"type": "Polygon", "coordinates": [[[-43.1081101, -22.7810111], [-43.1081089, -22.7811013], [-43.1080115, -22.7811002], [-43.1080127, -22.7810099], [-43.1081101, -22.7810111]]]}, "properties": {"kind": "detection", "det_id": "D-SZ-fresh-guanabara-2026-08-30-014-124", "zone_id": "SZ-fresh-guanabara-2026-08-30-014", "scene_id": "S2C_MSIL2A_20260830T130241_R095_T23KPQ_20260830T161908", "datetime": "2026-08-30T13:02:41.025000Z", "n_pixels": 1, "area_m2": 100, "prob_max": 0.8745, "prob_mean": 0.8745, "threshold": 0.63, "in_strip": true, "artifact": null}}, {"type": "Feature", "id": "D-SZ-fresh-guanabara-2026-08-30-015-130", "geometry": {"type": "Polygon", "coordinates": [[[-43.1455957, -22.7959901], [-43.1455945, -22.7960804], [-43.1453997, -22.7960781], [-43.1454009, -22.7959878], [-43.1455957, -22.7959901]]]}, "properties": {"kind": "detection", "det_id": "D-SZ-fresh-guanabara-2026-08-30-015-130", "zone_id": "SZ-fresh-guanabara-2026-08-30-015", "scene_id": "S2C_MSIL2A_20260830T130241_R095_T23KPQ_20260830T161908", "datetime": "2026-08-30T13:02:41.025000Z", "n_pixels": 2, "area_m2": 200, "prob_max": 0.9922, "prob_mean": 0.9882, "threshold": 0.63, "in_strip": true, "artifact": null}}, {"type": "Feature", "id": "D-SZ-fresh-guanabara-2026-08-30-015-132", "geometry": {"type": "Polygon", "coordinates": [[[-43.1452938, -22.796709], [-43.1452925, -22.7967993], [-43.1451952, -22.7967982], [-43.1451964, -22.7967079], [-43.1452938, -22.796709]]]}, "properties": {"kind": "detection", "det_id": "D-SZ-fresh-guanabara-2026-08-30-015-132", "zone_id": "SZ-fresh-guanabara-2026-08-30-015", "scene_id": "S2C_MSIL2A_20260830T130241_R095_T23KPQ_20260830T161908", "datetime": "2026-08-30T13:02:41.025000Z", "n_pixels": 1, "area_m2": 100, "prob_max": 0.9961, "prob_mean": 0.9961, "threshold": 0.63, "in_strip": true, "artifact": null}}, {"type": "Feature", "id": "D-SZ-fresh-guanabara-2026-08-30-015-133", "geometry": {"type": "Polygon", "coordinates": [[[-43.1420789, -22.7967619], [-43.1420777, -22.7968522], [-43.1419803, -22.7968511], [-43.1419816, -22.7967608], [-43.1420789, -22.7967619]]]}, "properties": {"kind": "detection", "det_id": "D-SZ-fresh-guanabara-2026-08-30-015-133", "zone_id": "SZ-fresh-guanabara-2026-08-30-015", "scene_id": "S2C_MSIL2A_20260830T130241_R095_T23KPQ_20260830T161908", "datetime": "2026-08-30T13:02:41.025000Z", "n_pixels": 1, "area_m2": 100, "prob_max": 0.9333, "prob_mean": 0.9333, "threshold": 0.63, "in_strip": true, "artifact": null}}, {"type": "Feature", "id": "D-SZ-fresh-guanabara-2026-08-30-015-134", "geometry": {"type": "Polygon", "coordinates": [[[-43.1448032, -22.7969742], [-43.1448007, -22.7971548], [-43.1447034, -22.7971537], [-43.1447058, -22.7969731], [-43.1448032, -22.7969742]]]}, "properties": {"kind": "detection", "det_id": "D-SZ-fresh-guanabara-2026-08-30-015-134", "zone_id": "SZ-fresh-guanabara-2026-08-30-015", "scene_id": "S2C_MSIL2A_20260830T130241_R095_T23KPQ_20260830T161908", "datetime": "2026-08-30T13:02:41.025000Z", "n_pixels": 2, "area_m2": 200, "prob_max": 0.9922, "prob_mean": 0.9608, "threshold": 0.63, "in_strip": true, "artifact": null}}, {"type": "Feature", "id": "D-SZ-fresh-guanabara-2026-08-30-015-135", "geometry": {"type": "Polygon", "coordinates": [[[-43.1430503, -22.7969538], [-43.1430491, -22.7970441], [-43.1429517, -22.797043], [-43.1429529, -22.7969527], [-43.1430503, -22.7969538]]]}, "properties": {"kind": "detection", "det_id": "D-SZ-fresh-guanabara-2026-08-30-015-135", "zone_id": "SZ-fresh-guanabara-2026-08-30-015", "scene_id": "S2C_MSIL2A_20260830T130241_R095_T23KPQ_20260830T161908", "datetime": "2026-08-30T13:02:41.025000Z", "n_pixels": 1, "area_m2": 100, "prob_max": 0.9804, "prob_mean": 0.9804, "threshold": 0.63, "in_strip": true, "artifact": null}}, {"type": "Feature", "id": "D-SZ-fresh-guanabara-2026-08-30-015-136", "geometry": {"type": "Polygon", "coordinates": [[[-43.1458732, -22.797077], [-43.1458719, -22.7971673], [-43.1457746, -22.7971661], [-43.1457758, -22.7970758], [-43.1458732, -22.797077]]]}, "properties": {"kind": "detection", "det_id": "D-SZ-fresh-guanabara-2026-08-30-015-136", "zone_id": "SZ-fresh-guanabara-2026-08-30-015", "scene_id": "S2C_MSIL2A_20260830T130241_R095_T23KPQ_20260830T161908", "datetime": "2026-08-30T13:02:41.025000Z", "n_pixels": 1, "area_m2": 100, "prob_max": 0.9294, "prob_mean": 0.9294, "threshold": 0.63, "in_strip": true, "artifact": null}}, {"type": "Feature", "id": "D-SZ-fresh-guanabara-2026-08-30-015-137", "geometry": {"type": "Polygon", "coordinates": [[[-43.1437283, -22.7972326], [-43.1437271, -22.7973229], [-43.1436297, -22.7973218], [-43.1436309, -22.7972315], [-43.1437283, -22.7972326]]]}, "properties": {"kind": "detection", "det_id": "D-SZ-fresh-guanabara-2026-08-30-015-137", "zone_id": "SZ-fresh-guanabara-2026-08-30-015", "scene_id": "S2C_MSIL2A_20260830T130241_R095_T23KPQ_20260830T161908", "datetime": "2026-08-30T13:02:41.025000Z", "n_pixels": 1, "area_m2": 100, "prob_max": 0.749, "prob_mean": 0.749, "threshold": 0.63, "in_strip": true, "artifact": null}}, {"type": "Feature", "id": "D-SZ-fresh-guanabara-2026-08-30-015-138", "geometry": {"type": "Polygon", "coordinates": [[[-43.1457697, -22.7975273], [-43.1457685, -22.7976176], [-43.1456711, -22.7976164], [-43.1456723, -22.7975262], [-43.1457697, -22.7975273]]]}, "properties": {"kind": "detection", "det_id": "D-SZ-fresh-guanabara-2026-08-30-015-138", "zone_id": "SZ-fresh-guanabara-2026-08-30-015", "scene_id": "S2C_MSIL2A_20260830T130241_R095_T23KPQ_20260830T161908", "datetime": "2026-08-30T13:02:41.025000Z", "n_pixels": 1, "area_m2": 100, "prob_max": 0.949, "prob_mean": 0.949, "threshold": 0.63, "in_strip": true, "artifact": null}}, {"type": "Feature", "id": "D-SZ-fresh-guanabara-2026-08-30-015-139", "geometry": {"type": "Polygon", "coordinates": [[[-43.1452803, -22.7977022], [-43.1452791, -22.7977925], [-43.1450843, -22.7977902], [-43.1450856, -22.7976999], [-43.1452803, -22.7977022]]]}, "properties": {"kind": "detection", "det_id": "D-SZ-fresh-guanabara-2026-08-30-015-139", "zone_id": "SZ-fresh-guanabara-2026-08-30-015", "scene_id": "S2C_MSIL2A_20260830T130241_R095_T23KPQ_20260830T161908", "datetime": "2026-08-30T13:02:41.025000Z", "n_pixels": 2, "area_m2": 200, "prob_max": 0.9255, "prob_mean": 0.9157, "threshold": 0.63, "in_strip": true, "artifact": null}}, {"type": "Feature", "id": "D-SZ-fresh-guanabara-2026-08-30-015-140", "geometry": {"type": "Polygon", "coordinates": [[[-43.144791, -22.7978771], [-43.1447885, -22.7980577], [-43.1446911, -22.7980566], [-43.1446887, -22.7982371], [-43.1444939, -22.7982349], [-43.1444951, -22.7981446], [-43.1445925, -22.7981457], [-43.1445938, -22.7980554], [-43.1446911, -22.7980566], [-43.1446936, -22.797876], [-43.144791, -22.7978771]]]}, "properties": {"kind": "detection", "det_id": "D-SZ-fresh-guanabara-2026-08-30-015-140", "zone_id": "SZ-fresh-guanabara-2026-08-30-015", "scene_id": "S2C_MSIL2A_20260830T130241_R095_T23KPQ_20260830T161908", "datetime": "2026-08-30T13:02:41.025000Z", "n_pixels": 5, "area_m2": 500, "prob_max": 0.9961, "prob_mean": 0.9639, "threshold": 0.63, "in_strip": true, "artifact": null}}, {"type": "Feature", "id": "D-SZ-fresh-guanabara-2026-08-30-015-141", "geometry": {"type": "Polygon", "coordinates": [[[-43.1430381, -22.7978567], [-43.1430356, -22.7980373], [-43.1429382, -22.7980362], [-43.1429395, -22.7979459], [-43.1428421, -22.7979447], [-43.1428433, -22.7978544], [-43.1430381, -22.7978567]]]}, "properties": {"kind": "detection", "det_id": "D-SZ-fresh-guanabara-2026-08-30-015-141", "zone_id": "SZ-fresh-guanabara-2026-08-30-015", "scene_id": "S2C_MSIL2A_20260830T130241_R095_T23KPQ_20260830T161908", "datetime": "2026-08-30T13:02:41.025000Z", "n_pixels": 3, "area_m2": 300, "prob_max": 0.9961, "prob_mean": 0.9935, "threshold": 0.63, "in_strip": true, "artifact": null}}, {"type": "Feature", "id": "D-SZ-fresh-guanabara-2026-08-30-015-142", "geometry": {"type": "Polygon", "coordinates": [[[-43.146444, -22.798077], [-43.1464428, -22.7981672], [-43.1463454, -22.7981661], [-43.1463466, -22.7980758], [-43.146444, -22.798077]]]}, "properties": {"kind": "detection", "det_id": "D-SZ-fresh-guanabara-2026-08-30-015-142", "zone_id": "SZ-fresh-guanabara-2026-08-30-015", "scene_id": "S2C_MSIL2A_20260830T130241_R095_T23KPQ_20260830T161908", "datetime": "2026-08-30T13:02:41.025000Z", "n_pixels": 1, "area_m2": 100, "prob_max": 0.702, "prob_mean": 0.702, "threshold": 0.63, "in_strip": true, "artifact": null}}, {"type": "Feature", "id": "D-SZ-fresh-guanabara-2026-08-30-015-143", "geometry": {"type": "Polygon", "coordinates": [[[-43.1434239, -22.7981321], [-43.1434215, -22.7983127], [-43.1432267, -22.7983104], [-43.1432279, -22.7982201], [-43.1433253, -22.7982213], [-43.1433265, -22.798131], [-43.1434239, -22.7981321]]]}, "properties": {"kind": "detection", "det_id": "D-SZ-fresh-guanabara-2026-08-30-015-143", "zone_id": "SZ-fresh-guanabara-2026-08-30-015", "scene_id": "S2C_MSIL2A_20260830T130241_R095_T23KPQ_20260830T161908", "datetime": "2026-08-30T13:02:41.025000Z", "n_pixels": 3, "area_m2": 300, "prob_max": 0.9961, "prob_mean": 0.9869, "threshold": 0.63, "in_strip": true, "artifact": null}}, {"type": "Feature", "id": "D-SZ-fresh-guanabara-2026-08-30-015-144", "geometry": {"type": "Polygon", "coordinates": [[[-43.1456625, -22.7982485], [-43.1456613, -22.7983388], [-43.1455639, -22.7983376], [-43.1455651, -22.7982473], [-43.1456625, -22.7982485]]]}, "properties": {"kind": "detection", "det_id": "D-SZ-fresh-guanabara-2026-08-30-015-144", "zone_id": "SZ-fresh-guanabara-2026-08-30-015", "scene_id": "S2C_MSIL2A_20260830T130241_R095_T23KPQ_20260830T161908", "datetime": "2026-08-30T13:02:41.025000Z", "n_pixels": 1, "area_m2": 100, "prob_max": 0.7569, "prob_mean": 0.7569, "threshold": 0.63, "in_strip": true, "artifact": null}}, {"type": "Feature", "id": "D-SZ-fresh-guanabara-2026-08-30-015-145", "geometry": {"type": "Polygon", "coordinates": [[[-43.145077, -22.798332], [-43.1450758, -22.7984223], [-43.1449784, -22.7984211], [-43.1449796, -22.7983308], [-43.145077, -22.798332]]]}, "properties": {"kind": "detection", "det_id": "D-SZ-fresh-guanabara-2026-08-30-015-145", "zone_id": "SZ-fresh-guanabara-2026-08-30-015", "scene_id": "S2C_MSIL2A_20260830T130241_R095_T23KPQ_20260830T161908", "datetime": "2026-08-30T13:02:41.025000Z", "n_pixels": 1, "area_m2": 100, "prob_max": 0.7882, "prob_mean": 0.7882, "threshold": 0.63, "in_strip": true, "artifact": null}}, {"type": "Feature", "id": "D-SZ-fresh-guanabara-2026-08-30-015-146", "geometry": {"type": "Polygon", "coordinates": [[[-43.1463381, -22.7987078], [-43.1463369, -22.7987981], [-43.1462395, -22.798797], [-43.1462407, -22.7987067], [-43.1463381, -22.7987078]]]}, "properties": {"kind": "detection", "det_id": "D-SZ-fresh-guanabara-2026-08-30-015-146", "zone_id": "SZ-fresh-guanabara-2026-08-30-015", "scene_id": "S2C_MSIL2A_20260830T130241_R095_T23KPQ_20260830T161908", "datetime": "2026-08-30T13:02:41.025000Z", "n_pixels": 1, "area_m2": 100, "prob_max": 0.9882, "prob_mean": 0.9882, "threshold": 0.63, "in_strip": true, "artifact": null}}, {"type": "Feature", "id": "D-SZ-fresh-guanabara-2026-08-30-015-147", "geometry": {"type": "Polygon", "coordinates": [[[-43.1447775, -22.7988703], [-43.1447763, -22.7989606], [-43.1446789, -22.7989595], [-43.1446801, -22.7988692], [-43.1447775, -22.7988703]]]}, "properties": {"kind": "detection", "det_id": "D-SZ-fresh-guanabara-2026-08-30-015-147", "zone_id": "SZ-fresh-guanabara-2026-08-30-015", "scene_id": "S2C_MSIL2A_20260830T130241_R095_T23KPQ_20260830T161908", "datetime": "2026-08-30T13:02:41.025000Z", "n_pixels": 1, "area_m2": 100, "prob_max": 0.9922, "prob_mean": 0.9922, "threshold": 0.63, "in_strip": true, "artifact": null}}, {"type": "Feature", "id": "D-SZ-fresh-guanabara-2026-08-30-015-148", "geometry": {"type": "Polygon", "coordinates": [[[-43.144388, -22.7988658], [-43.1443868, -22.7989561], [-43.144192, -22.7989538], [-43.1441932, -22.7988635], [-43.144388, -22.7988658]]]}, "properties": {"kind": "detection", "det_id": "D-SZ-fresh-guanabara-2026-08-30-015-148", "zone_id": "SZ-fresh-guanabara-2026-08-30-015", "scene_id": "S2C_MSIL2A_20260830T130241_R095_T23KPQ_20260830T161908", "datetime": "2026-08-30T13:02:41.025000Z", "n_pixels": 2, "area_m2": 200, "prob_max": 0.9922, "prob_mean": 0.9843, "threshold": 0.63, "in_strip": true, "artifact": null}}, {"type": "Feature", "id": "D-SZ-fresh-guanabara-2026-08-30-015-149", "geometry": {"type": "Polygon", "coordinates": [[[-43.1426339, -22.7989356], [-43.1426326, -22.7990259], [-43.1425352, -22.7990248], [-43.1425365, -22.7989345], [-43.1426339, -22.7989356]]]}, "properties": {"kind": "detection", "det_id": "D-SZ-fresh-guanabara-2026-08-30-015-149", "zone_id": "SZ-fresh-guanabara-2026-08-30-015", "scene_id": "S2C_MSIL2A_20260830T130241_R095_T23KPQ_20260830T161908", "datetime": "2026-08-30T13:02:41.025000Z", "n_pixels": 1, "area_m2": 100, "prob_max": 1.0, "prob_mean": 1.0, "threshold": 0.63, "in_strip": true, "artifact": null}}, {"type": "Feature", "id": "D-SZ-fresh-guanabara-2026-08-30-015-150", "geometry": {"type": "Polygon", "coordinates": [[[-43.14487, -22.7992326], [-43.1448688, -22.7993229], [-43.144674, -22.7993206], [-43.1446752, -22.7992303], [-43.14487, -22.7992326]]]}, "properties": {"kind": "detection", "det_id": "D-SZ-fresh-guanabara-2026-08-30-015-150", "zone_id": "SZ-fresh-guanabara-2026-08-30-015", "scene_id": "S2C_MSIL2A_20260830T130241_R095_T23KPQ_20260830T161908", "datetime": "2026-08-30T13:02:41.025000Z", "n_pixels": 2, "area_m2": 200, "prob_max": 0.9961, "prob_mean": 0.9961, "threshold": 0.63, "in_strip": true, "artifact": null}}, {"type": "Feature", "id": "D-SZ-fresh-guanabara-2026-08-30-015-151", "geometry": {"type": "Polygon", "coordinates": [[[-43.1454531, -22.7993297], [-43.1454506, -22.7995103], [-43.1453533, -22.7995091], [-43.1453557, -22.7993285], [-43.1454531, -22.7993297]]]}, "properties": {"kind": "detection", "det_id": "D-SZ-fresh-guanabara-2026-08-30-015-151", "zone_id": "SZ-fresh-guanabara-2026-08-30-015", "scene_id": "S2C_MSIL2A_20260830T130241_R095_T23KPQ_20260830T161908", "datetime": "2026-08-30T13:02:41.025000Z", "n_pixels": 2, "area_m2": 200, "prob_max": 0.9882, "prob_mean": 0.8412, "threshold": 0.63, "in_strip": true, "artifact": null}}, {"type": "Feature", "id": "D-SZ-fresh-guanabara-2026-08-30-015-152", "geometry": {"type": "Polygon", "coordinates": [[[-43.1439911, -22.799403], [-43.1439899, -22.7994933], [-43.1438925, -22.7994921], [-43.1438937, -22.7994018], [-43.1439911, -22.799403]]]}, "properties": {"kind": "detection", "det_id": "D-SZ-fresh-guanabara-2026-08-30-015-152", "zone_id": "SZ-fresh-guanabara-2026-08-30-015", "scene_id": "S2C_MSIL2A_20260830T130241_R095_T23KPQ_20260830T161908", "datetime": "2026-08-30T13:02:41.025000Z", "n_pixels": 1, "area_m2": 100, "prob_max": 0.9961, "prob_mean": 0.9961, "threshold": 0.63, "in_strip": true, "artifact": null}}, {"type": "Feature", "id": "D-SZ-fresh-guanabara-2026-08-30-015-153", "geometry": {"type": "Polygon", "coordinates": [[[-43.1445742, -22.7995001], [-43.144573, -22.7995903], [-43.1444756, -22.7995892], [-43.1444768, -22.7994989], [-43.1445742, -22.7995001]]]}, "properties": {"kind": "detection", "det_id": "D-SZ-fresh-guanabara-2026-08-30-015-153", "zone_id": "SZ-fresh-guanabara-2026-08-30-015", "scene_id": "S2C_MSIL2A_20260830T130241_R095_T23KPQ_20260830T161908", "datetime": "2026-08-30T13:02:41.025000Z", "n_pixels": 1, "area_m2": 100, "prob_max": 0.9961, "prob_mean": 0.9961, "threshold": 0.63, "in_strip": true, "artifact": null}}, {"type": "Feature", "id": "D-SZ-fresh-guanabara-2026-08-30-015-154", "geometry": {"type": "Polygon", "coordinates": [[[-43.1472961, -22.7998929], [-43.1472948, -22.7999832], [-43.1471975, -22.7999821], [-43.1471987, -22.7998918], [-43.1472961, -22.7998929]]]}, "properties": {"kind": "detection", "det_id": "D-SZ-fresh-guanabara-2026-08-30-015-154", "zone_id": "SZ-fresh-guanabara-2026-08-30-015", "scene_id": "S2C_MSIL2A_20260830T130241_R095_T23KPQ_20260830T161908", "datetime": "2026-08-30T13:02:41.025000Z", "n_pixels": 1, "area_m2": 100, "prob_max": 0.8784, "prob_mean": 0.8784, "threshold": 0.63, "in_strip": true, "artifact": null}}, {"type": "Feature", "id": "D-SZ-fresh-guanabara-2026-08-30-015-155", "geometry": {"type": "Polygon", "coordinates": [[[-43.1446655, -22.7999526], [-43.144663, -22.8001332], [-43.1445656, -22.8001321], [-43.1445681, -22.7999515], [-43.1446655, -22.7999526]]]}, "properties": {"kind": "detection", "det_id": "D-SZ-fresh-guanabara-2026-08-30-015-155", "zone_id": "SZ-fresh-guanabara-2026-08-30-015", "scene_id": "S2C_MSIL2A_20260830T130241_R095_T23KPQ_20260830T161908", "datetime": "2026-08-30T13:02:41.025000Z", "n_pixels": 2, "area_m2": 200, "prob_max": 0.949, "prob_mean": 0.8882, "threshold": 0.63, "in_strip": true, "artifact": null}}, {"type": "Feature", "id": "D-SZ-fresh-guanabara-2026-08-30-015-156", "geometry": {"type": "Polygon", "coordinates": [[[-43.1483648, -22.800086], [-43.1483624, -22.8002665], [-43.148265, -22.8002654], [-43.1482675, -22.8000848], [-43.1483648, -22.800086]]]}, "properties": {"kind": "detection", "det_id": "D-SZ-fresh-guanabara-2026-08-30-015-156", "zone_id": "SZ-fresh-guanabara-2026-08-30-015", "scene_id": "S2C_MSIL2A_20260830T130241_R095_T23KPQ_20260830T161908", "datetime": "2026-08-30T13:02:41.025000Z", "n_pixels": 2, "area_m2": 200, "prob_max": 0.9961, "prob_mean": 0.9588, "threshold": 0.63, "in_strip": true, "artifact": null}}, {"type": "Feature", "id": "D-SZ-fresh-guanabara-2026-08-30-015-157", "geometry": {"type": "Polygon", "coordinates": [[[-43.1436892, -22.8001219], [-43.143688, -22.8002122], [-43.1434932, -22.8002099], [-43.1434944, -22.8001196], [-43.1436892, -22.8001219]]]}, "properties": {"kind": "detection", "det_id": "D-SZ-fresh-guanabara-2026-08-30-015-157", "zone_id": "SZ-fresh-guanabara-2026-08-30-015", "scene_id": "S2C_MSIL2A_20260830T130241_R095_T23KPQ_20260830T161908", "datetime": "2026-08-30T13:02:41.025000Z", "n_pixels": 2, "area_m2": 200, "prob_max": 0.9922, "prob_mean": 0.9922, "threshold": 0.63, "in_strip": true, "artifact": null}}, {"type": "Feature", "id": "D-SZ-fresh-guanabara-2026-08-30-015-158", "geometry": {"type": "Polygon", "coordinates": [[[-43.1451389, -22.8009515], [-43.1451365, -22.8011321], [-43.1450391, -22.8011309], [-43.1450416, -22.8009503], [-43.1451389, -22.8009515]]]}, "properties": {"kind": "detection", "det_id": "D-SZ-fresh-guanabara-2026-08-30-015-158", "zone_id": "SZ-fresh-guanabara-2026-08-30-015", "scene_id": "S2C_MSIL2A_20260830T130241_R095_T23KPQ_20260830T161908", "datetime": "2026-08-30T13:02:41.025000Z", "n_pixels": 2, "area_m2": 200, "prob_max": 0.9647, "prob_mean": 0.8471, "threshold": 0.63, "in_strip": true, "artifact": null}}, {"type": "Feature", "id": "D-SZ-fresh-guanabara-2026-08-30-015-159", "geometry": {"type": "Polygon", "coordinates": [[[-43.1461091, -22.8012337], [-43.1461079, -22.801324], [-43.1460105, -22.8013228], [-43.1460117, -22.8012325], [-43.1461091, -22.8012337]]]}, "properties": {"kind": "detection", "det_id": "D-SZ-fresh-guanabara-2026-08-30-015-159", "zone_id": "SZ-fresh-guanabara-2026-08-30-015", "scene_id": "S2C_MSIL2A_20260830T130241_R095_T23KPQ_20260830T161908", "datetime": "2026-08-30T13:02:41.025000Z", "n_pixels": 1, "area_m2": 100, "prob_max": 0.9961, "prob_mean": 0.9961, "threshold": 0.63, "in_strip": true, "artifact": null}}, {"type": "Feature", "id": "D-SZ-fresh-guanabara-2026-08-30-015-160", "geometry": {"type": "Polygon", "coordinates": [[[-43.1465912, -22.8016005], [-43.1465899, -22.8016908], [-43.1464926, -22.8016897], [-43.1464913, -22.8017799], [-43.146394, -22.8017788], [-43.1463964, -22.8015982], [-43.1465912, -22.8016005]]]}, "properties": {"kind": "detection", "det_id": "D-SZ-fresh-guanabara-2026-08-30-015-160", "zone_id": "SZ-fresh-guanabara-2026-08-30-015", "scene_id": "S2C_MSIL2A_20260830T130241_R095_T23KPQ_20260830T161908", "datetime": "2026-08-30T13:02:41.025000Z", "n_pixels": 3, "area_m2": 300, "prob_max": 0.949, "prob_mean": 0.8523, "threshold": 0.63, "in_strip": true, "artifact": null}}, {"type": "Feature", "id": "D-SZ-fresh-guanabara-2026-08-30-015-162", "geometry": {"type": "Polygon", "coordinates": [[[-43.1471462, -22.8037742], [-43.147145, -22.8038645], [-43.1470476, -22.8038634], [-43.1470463, -22.8039537], [-43.146949, -22.8039525], [-43.1469514, -22.803772], [-43.1471462, -22.8037742]]]}, "properties": {"kind": "detection", "det_id": "D-SZ-fresh-guanabara-2026-08-30-015-162", "zone_id": "SZ-fresh-guanabara-2026-08-30-015", "scene_id": "S2C_MSIL2A_20260830T130241_R095_T23KPQ_20260830T161908", "datetime": "2026-08-30T13:02:41.025000Z", "n_pixels": 3, "area_m2": 300, "prob_max": 0.9647, "prob_mean": 0.8575, "threshold": 0.63, "in_strip": true, "artifact": null}}, {"type": "Feature", "id": "D-SZ-fresh-guanabara-2026-08-30-015-163", "geometry": {"type": "Polygon", "coordinates": [[[-43.1464645, -22.8037663], [-43.1464632, -22.8038566], [-43.1462685, -22.8038543], [-43.1462697, -22.803764], [-43.1464645, -22.8037663]]]}, "properties": {"kind": "detection", "det_id": "D-SZ-fresh-guanabara-2026-08-30-015-163", "zone_id": "SZ-fresh-guanabara-2026-08-30-015", "scene_id": "S2C_MSIL2A_20260830T130241_R095_T23KPQ_20260830T161908", "datetime": "2026-08-30T13:02:41.025000Z", "n_pixels": 2, "area_m2": 200, "prob_max": 0.9961, "prob_mean": 0.9706, "threshold": 0.63, "in_strip": true, "artifact": null}}, {"type": "Feature", "id": "D-SZ-fresh-guanabara-2026-08-30-015-165", "geometry": {"type": "Polygon", "coordinates": [[[-43.1475162, -22.8052234], [-43.147515, -22.8053137], [-43.1474176, -22.8053125], [-43.1474188, -22.8052223], [-43.1475162, -22.8052234]]]}, "properties": {"kind": "detection", "det_id": "D-SZ-fresh-guanabara-2026-08-30-015-165", "zone_id": "SZ-fresh-guanabara-2026-08-30-015", "scene_id": "S2C_MSIL2A_20260830T130241_R095_T23KPQ_20260830T161908", "datetime": "2026-08-30T13:02:41.025000Z", "n_pixels": 1, "area_m2": 100, "prob_max": 0.7608, "prob_mean": 0.7608, "threshold": 0.63, "in_strip": true, "artifact": null}}, {"type": "Feature", "id": "D-SZ-fresh-guanabara-2026-08-30-016-164", "geometry": {"type": "Polygon", "coordinates": [[[-43.0708838, -22.8035919], [-43.0708813, -22.8037725], [-43.0709787, -22.8037737], [-43.0709774, -22.8038639], [-43.07088, -22.8038628], [-43.0708787, -22.803953], [-43.0707814, -22.8039519], [-43.0707826, -22.8038616], [-43.0704905, -22.803858], [-43.0704918, -22.8037678], [-43.0703944, -22.8037666], [-43.0703956, -22.8036763], [-43.0705904, -22.8036787], [-43.0705917, -22.8035884], [-43.0708838, -22.8035919]]]}, "properties": {"kind": "detection", "det_id": "D-SZ-fresh-guanabara-2026-08-30-016-164", "zone_id": "SZ-fresh-guanabara-2026-08-30-016", "scene_id": "S2C_MSIL2A_20260830T130241_R095_T23KPQ_20260830T161908", "datetime": "2026-08-30T13:02:41.025000Z", "n_pixels": 14, "area_m2": 1400, "prob_max": 0.9961, "prob_mean": 0.9339, "threshold": 0.63, "in_strip": true, "artifact": null}}, {"type": "Feature", "id": "D-SZ-fresh-guanabara-2026-08-30-016-166", "geometry": {"type": "Polygon", "coordinates": [[[-43.0725266, -22.8045148], [-43.0725254, -22.8046051], [-43.072428, -22.8046039], [-43.0724267, -22.8046942], [-43.0727189, -22.8046977], [-43.0727176, -22.804788], [-43.072815, -22.8047892], [-43.0728137, -22.8048795], [-43.0729111, -22.8048806], [-43.0729047, -22.8053321], [-43.0728074, -22.8053309], [-43.0728048, -22.8055115], [-43.0727074, -22.8055103], [-43.0727087, -22.80542], [-43.0726113, -22.8054188], [-43.0726126, -22.8053285], [-43.0725152, -22.8053274], [-43.0725203, -22.8049662], [-43.0724229, -22.804965], [-43.0724254, -22.8047845], [-43.0723281, -22.8047833], [-43.0723306, -22.8046027], [-43.072428, -22.8046039], [-43.0724293, -22.8045136], [-43.0725266, -22.8045148]], [[-43.0728137, -22.8048795], [-43.0727163, -22.8048783], [-43.0727151, -22.8049686], [-43.0728124, -22.8049697], [-43.0728137, -22.8048795]]]}, "properties": {"kind": "detection", "det_id": "D-SZ-fresh-guanabara-2026-08-30-016-166", "zone_id": "SZ-fresh-guanabara-2026-08-30-016", "scene_id": "S2C_MSIL2A_20260830T130241_R095_T23KPQ_20260830T161908", "datetime": "2026-08-30T13:02:41.025000Z", "n_pixels": 33, "area_m2": 3300, "prob_max": 0.9882, "prob_mean": 0.8683, "threshold": 0.63, "in_strip": true, "artifact": null}}, {"type": "Feature", "id": "D-SZ-fresh-guanabara-2026-08-30-017-173", "geometry": {"type": "Polygon", "coordinates": [[[-43.1649736, -22.8108436], [-43.1649712, -22.8110242], [-43.1647764, -22.8110219], [-43.1647776, -22.8109316], [-43.164875, -22.8109327], [-43.1648762, -22.8108425], [-43.1649736, -22.8108436]]]}, "properties": {"kind": "detection", "det_id": "D-SZ-fresh-guanabara-2026-08-30-017-173", "zone_id": "SZ-fresh-guanabara-2026-08-30-017", "scene_id": "S2C_MSIL2A_20260830T130241_R095_T23KPQ_20260830T161908", "datetime": "2026-08-30T13:02:41.025000Z", "n_pixels": 3, "area_m2": 300, "prob_max": 0.9725, "prob_mean": 0.9268, "threshold": 0.63, "in_strip": true, "artifact": null}}, {"type": "Feature", "id": "D-SZ-fresh-guanabara-2026-08-30-017-174", "geometry": {"type": "Polygon", "coordinates": [[[-43.1646814, -22.8108402], [-43.164679, -22.8110208], [-43.1644842, -22.8110185], [-43.1644866, -22.810838], [-43.1646814, -22.8108402]]]}, "properties": {"kind": "detection", "det_id": "D-SZ-fresh-guanabara-2026-08-30-017-174", "zone_id": "SZ-fresh-guanabara-2026-08-30-017", "scene_id": "S2C_MSIL2A_20260830T130241_R095_T23KPQ_20260830T161908", "datetime": "2026-08-30T13:02:41.025000Z", "n_pixels": 4, "area_m2": 400, "prob_max": 0.9843, "prob_mean": 0.9294, "threshold": 0.63, "in_strip": true, "artifact": null}}, {"type": "Feature", "id": "D-SZ-fresh-guanabara-2026-08-30-017-175", "geometry": {"type": "Polygon", "coordinates": [[[-43.1662361, -22.811129], [-43.1662349, -22.8112193], [-43.1660401, -22.8112171], [-43.1660413, -22.8111268], [-43.1662361, -22.811129]]]}, "properties": {"kind": "detection", "det_id": "D-SZ-fresh-guanabara-2026-08-30-017-175", "zone_id": "SZ-fresh-guanabara-2026-08-30-017", "scene_id": "S2C_MSIL2A_20260830T130241_R095_T23KPQ_20260830T161908", "datetime": "2026-08-30T13:02:41.025000Z", "n_pixels": 2, "area_m2": 200, "prob_max": 0.9529, "prob_mean": 0.8941, "threshold": 0.63, "in_strip": true, "artifact": null}}, {"type": "Feature", "id": "D-SZ-fresh-guanabara-2026-08-30-018-176", "geometry": {"type": "Polygon", "coordinates": [[[-43.1495453, -22.8136452], [-43.1495441, -22.8137355], [-43.1493493, -22.8137332], [-43.1493505, -22.8136429], [-43.1495453, -22.8136452]]]}, "properties": {"kind": "detection", "det_id": "D-SZ-fresh-guanabara-2026-08-30-018-176", "zone_id": "SZ-fresh-guanabara-2026-08-30-018", "scene_id": "S2C_MSIL2A_20260830T130241_R095_T23KPQ_20260830T161908", "datetime": "2026-08-30T13:02:41.025000Z", "n_pixels": 2, "area_m2": 200, "prob_max": 0.9608, "prob_mean": 0.9431, "threshold": 0.63, "in_strip": true, "artifact": null}}, {"type": "Feature", "id": "D-SZ-fresh-guanabara-2026-08-30-018-177", "geometry": {"type": "Polygon", "coordinates": [[[-43.1492409, -22.8145447], [-43.1492397, -22.814635], [-43.1491423, -22.8146338], [-43.1491435, -22.8145435], [-43.1492409, -22.8145447]]]}, "properties": {"kind": "detection", "det_id": "D-SZ-fresh-guanabara-2026-08-30-018-177", "zone_id": "SZ-fresh-guanabara-2026-08-30-018", "scene_id": "S2C_MSIL2A_20260830T130241_R095_T23KPQ_20260830T161908", "datetime": "2026-08-30T13:02:41.025000Z", "n_pixels": 1, "area_m2": 100, "prob_max": 0.8392, "prob_mean": 0.8392, "threshold": 0.63, "in_strip": true, "artifact": null}}, {"type": "Feature", "id": "D-SZ-fresh-guanabara-2026-08-30-018-178", "geometry": {"type": "Polygon", "coordinates": [[[-43.1467001, -22.8151473], [-43.1466976, -22.8153278], [-43.1466003, -22.8153267], [-43.1466027, -22.8151461], [-43.1467001, -22.8151473]]]}, "properties": {"kind": "detection", "det_id": "D-SZ-fresh-guanabara-2026-08-30-018-178", "zone_id": "SZ-fresh-guanabara-2026-08-30-018", "scene_id": "S2C_MSIL2A_20260830T130241_R095_T23KPQ_20260830T161908", "datetime": "2026-08-30T13:02:41.025000Z", "n_pixels": 2, "area_m2": 200, "prob_max": 0.9843, "prob_mean": 0.9373, "threshold": 0.63, "in_strip": true, "artifact": null}}, {"type": "Feature", "id": "D-SZ-fresh-guanabara-2026-08-30-018-179", "geometry": {"type": "Polygon", "coordinates": [[[-43.1443553, -22.8156618], [-43.1443528, -22.8158424], [-43.1442554, -22.8158412], [-43.1442579, -22.8156607], [-43.1443553, -22.8156618]]]}, "properties": {"kind": "detection", "det_id": "D-SZ-fresh-guanabara-2026-08-30-018-179", "zone_id": "SZ-fresh-guanabara-2026-08-30-018", "scene_id": "S2C_MSIL2A_20260830T130241_R095_T23KPQ_20260830T161908", "datetime": "2026-08-30T13:02:41.025000Z", "n_pixels": 2, "area_m2": 200, "prob_max": 0.9647, "prob_mean": 0.9647, "threshold": 0.63, "in_strip": true, "artifact": null}}, {"type": "Feature", "id": "D-SZ-fresh-guanabara-2026-08-30-018-181", "geometry": {"type": "Polygon", "coordinates": [[[-43.1480368, -22.8171495], [-43.1480355, -22.8172398], [-43.1479381, -22.8172386], [-43.1479394, -22.8171484], [-43.1480368, -22.8171495]]]}, "properties": {"kind": "detection", "det_id": "D-SZ-fresh-guanabara-2026-08-30-018-181", "zone_id": "SZ-fresh-guanabara-2026-08-30-018", "scene_id": "S2C_MSIL2A_20260830T130241_R095_T23KPQ_20260830T161908", "datetime": "2026-08-30T13:02:41.025000Z", "n_pixels": 1, "area_m2": 100, "prob_max": 0.9922, "prob_mean": 0.9922, "threshold": 0.63, "in_strip": true, "artifact": null}}, {"type": "Feature", "id": "D-SZ-fresh-guanabara-2026-08-30-019-182", "geometry": {"type": "Polygon", "coordinates": [[[-43.0877393, -22.8171596], [-43.0877381, -22.8172499], [-43.0876407, -22.8172487], [-43.0876394, -22.817339], [-43.087542, -22.8173378], [-43.0875446, -22.8171573], [-43.0877393, -22.8171596]]]}, "properties": {"kind": "detection", "det_id": "D-SZ-fresh-guanabara-2026-08-30-019-182", "zone_id": "SZ-fresh-guanabara-2026-08-30-019", "scene_id": "S2C_MSIL2A_20260830T130241_R095_T23KPQ_20260830T161908", "datetime": "2026-08-30T13:02:41.025000Z", "n_pixels": 3, "area_m2": 300, "prob_max": 0.9176, "prob_mean": 0.8431, "threshold": 0.63, "in_strip": true, "artifact": null}}, {"type": "Feature", "id": "D-SZ-fresh-guanabara-2026-08-30-019-184", "geometry": {"type": "Polygon", "coordinates": [[[-43.0866604, -22.8176884], [-43.0866579, -22.817869], [-43.0863657, -22.8178655], [-43.086367, -22.8177752], [-43.0864644, -22.8177764], [-43.0864657, -22.8176861], [-43.0866604, -22.8176884]]]}, "properties": {"kind": "detection", "det_id": "D-SZ-fresh-guanabara-2026-08-30-019-184", "zone_id": "SZ-fresh-guanabara-2026-08-30-019", "scene_id": "S2C_MSIL2A_20260830T130241_R095_T23KPQ_20260830T161908", "datetime": "2026-08-30T13:02:41.025000Z", "n_pixels": 5, "area_m2": 500, "prob_max": 0.9961, "prob_mean": 0.9224, "threshold": 0.63, "in_strip": true, "artifact": null}}, {"type": "Feature", "id": "D-SZ-fresh-guanabara-2026-08-30-019-185", "geometry": {"type": "Polygon", "coordinates": [[[-43.0841244, -22.8179289], [-43.0841219, -22.8181094], [-43.0840245, -22.8181083], [-43.0840258, -22.818018], [-43.0839284, -22.8180168], [-43.0839296, -22.8179265], [-43.0841244, -22.8179289]]]}, "properties": {"kind": "detection", "det_id": "D-SZ-fresh-guanabara-2026-08-30-019-185", "zone_id": "SZ-fresh-guanabara-2026-08-30-019", "scene_id": "S2C_MSIL2A_20260830T130241_R095_T23KPQ_20260830T161908", "datetime": "2026-08-30T13:02:41.025000Z", "n_pixels": 3, "area_m2": 300, "prob_max": 0.9765, "prob_mean": 0.9111, "threshold": 0.63, "in_strip": true, "artifact": null}}, {"type": "Feature", "id": "D-SZ-fresh-guanabara-2026-08-30-019-187", "geometry": {"type": "Polygon", "coordinates": [[[-43.0871234, -22.8194097], [-43.0871222, -22.8195], [-43.0870248, -22.8194988], [-43.087026, -22.8194086], [-43.0871234, -22.8194097]]]}, "properties": {"kind": "detection", "det_id": "D-SZ-fresh-guanabara-2026-08-30-019-187", "zone_id": "SZ-fresh-guanabara-2026-08-30-019", "scene_id": "S2C_MSIL2A_20260830T130241_R095_T23KPQ_20260830T161908", "datetime": "2026-08-30T13:02:41.025000Z", "n_pixels": 1, "area_m2": 100, "prob_max": 0.9137, "prob_mean": 0.9137, "threshold": 0.63, "in_strip": true, "artifact": null}}, {"type": "Feature", "id": "D-SZ-fresh-guanabara-2026-08-30-019-188", "geometry": {"type": "Polygon", "coordinates": [[[-43.0864404, -22.8194918], [-43.0864379, -22.8196724], [-43.0863405, -22.8196712], [-43.0863418, -22.8195809], [-43.0862444, -22.8195798], [-43.0862456, -22.8194895], [-43.0864404, -22.8194918]]]}, "properties": {"kind": "detection", "det_id": "D-SZ-fresh-guanabara-2026-08-30-019-188", "zone_id": "SZ-fresh-guanabara-2026-08-30-019", "scene_id": "S2C_MSIL2A_20260830T130241_R095_T23KPQ_20260830T161908", "datetime": "2026-08-30T13:02:41.025000Z", "n_pixels": 3, "area_m2": 300, "prob_max": 0.9333, "prob_mean": 0.7765, "threshold": 0.63, "in_strip": true, "artifact": null}}, {"type": "Feature", "id": "D-SZ-fresh-guanabara-2026-08-30-020-204", "geometry": {"type": "Polygon", "coordinates": [[[-43.1464531, -22.8333856], [-43.1464519, -22.8334759], [-43.1463545, -22.8334748], [-43.1463508, -22.8337457], [-43.1462534, -22.8337445], [-43.1462583, -22.8333834], [-43.1464531, -22.8333856]]]}, "properties": {"kind": "detection", "det_id": "D-SZ-fresh-guanabara-2026-08-30-020-204", "zone_id": "SZ-fresh-guanabara-2026-08-30-020", "scene_id": "S2C_MSIL2A_20260830T130241_R095_T23KPQ_20260830T161908", "datetime": "2026-08-30T13:02:41.025000Z", "n_pixels": 5, "area_m2": 500, "prob_max": 0.9294, "prob_mean": 0.8408, "threshold": 0.63, "in_strip": true, "artifact": "ship"}}, {"type": "Feature", "id": "D-SZ-fresh-guanabara-2026-08-30-021-211", "geometry": {"type": "Polygon", "coordinates": [[[-43.1567566, -22.842355], [-43.1567542, -22.8425356], [-43.1566567, -22.8425344], [-43.1566592, -22.8423539], [-43.1567566, -22.842355]]]}, "properties": {"kind": "detection", "det_id": "D-SZ-fresh-guanabara-2026-08-30-021-211", "zone_id": "SZ-fresh-guanabara-2026-08-30-021", "scene_id": "S2C_MSIL2A_20260830T130241_R095_T23KPQ_20260830T161908", "datetime": "2026-08-30T13:02:41.025000Z", "n_pixels": 2, "area_m2": 200, "prob_max": 0.9961, "prob_mean": 0.9745, "threshold": 0.63, "in_strip": true, "artifact": null}}, {"type": "Feature", "id": "D-SZ-fresh-guanabara-2026-08-30-021-213", "geometry": {"type": "Polygon", "coordinates": [[[-43.1568357, -22.8437104], [-43.1568345, -22.8438007], [-43.1567371, -22.8437996], [-43.1567383, -22.8437093], [-43.1568357, -22.8437104]]]}, "properties": {"kind": "detection", "det_id": "D-SZ-fresh-guanabara-2026-08-30-021-213", "zone_id": "SZ-fresh-guanabara-2026-08-30-021", "scene_id": "S2C_MSIL2A_20260830T130241_R095_T23KPQ_20260830T161908", "datetime": "2026-08-30T13:02:41.025000Z", "n_pixels": 1, "area_m2": 100, "prob_max": 0.8941, "prob_mean": 0.8941, "threshold": 0.63, "in_strip": true, "artifact": null}}, {"type": "Feature", "id": "D-SZ-fresh-guanabara-2026-08-30-021-215", "geometry": {"type": "Polygon", "coordinates": [[[-43.1573143, -22.8443481], [-43.1573119, -22.8445287], [-43.1572145, -22.8445276], [-43.1572169, -22.844347], [-43.1573143, -22.8443481]]]}, "properties": {"kind": "detection", "det_id": "D-SZ-fresh-guanabara-2026-08-30-021-215", "zone_id": "SZ-fresh-guanabara-2026-08-30-021", "scene_id": "S2C_MSIL2A_20260830T130241_R095_T23KPQ_20260830T161908", "datetime": "2026-08-30T13:02:41.025000Z", "n_pixels": 2, "area_m2": 200, "prob_max": 0.9843, "prob_mean": 0.8902, "threshold": 0.63, "in_strip": true, "artifact": null}}, {"type": "Feature", "id": "D-SZ-fresh-guanabara-2026-08-30-021-216", "geometry": {"type": "Polygon", "coordinates": [[[-43.1552649, -22.8445953], [-43.1552637, -22.8446856], [-43.1551663, -22.8446844], [-43.1551675, -22.8445942], [-43.1552649, -22.8445953]]]}, "properties": {"kind": "detection", "det_id": "D-SZ-fresh-guanabara-2026-08-30-021-216", "zone_id": "SZ-fresh-guanabara-2026-08-30-021", "scene_id": "S2C_MSIL2A_20260830T130241_R095_T23KPQ_20260830T161908", "datetime": "2026-08-30T13:02:41.025000Z", "n_pixels": 1, "area_m2": 100, "prob_max": 0.8235, "prob_mean": 0.8235, "threshold": 0.63, "in_strip": true, "artifact": null}}, {"type": "Feature", "id": "D-SZ-fresh-guanabara-2026-08-30-021-217", "geometry": {"type": "Polygon", "coordinates": [[[-43.1602307, -22.8448334], [-43.1602283, -22.8450139], [-43.1601309, -22.8450128], [-43.1601333, -22.8448322], [-43.1602307, -22.8448334]]]}, "properties": {"kind": "detection", "det_id": "D-SZ-fresh-guanabara-2026-08-30-021-217", "zone_id": "SZ-fresh-guanabara-2026-08-30-021", "scene_id": "S2C_MSIL2A_20260830T130241_R095_T23KPQ_20260830T161908", "datetime": "2026-08-30T13:02:41.025000Z", "n_pixels": 2, "area_m2": 200, "prob_max": 0.8627, "prob_mean": 0.7647, "threshold": 0.63, "in_strip": true, "artifact": null}}, {"type": "Feature", "id": "D-SZ-fresh-guanabara-2026-08-30-021-219", "geometry": {"type": "Polygon", "coordinates": [[[-43.1604195, -22.8452871], [-43.1604183, -22.8453774], [-43.1603209, -22.8453762], [-43.1603221, -22.8452859], [-43.1604195, -22.8452871]]]}, "properties": {"kind": "detection", "det_id": "D-SZ-fresh-guanabara-2026-08-30-021-219", "zone_id": "SZ-fresh-guanabara-2026-08-30-021", "scene_id": "S2C_MSIL2A_20260830T130241_R095_T23KPQ_20260830T161908", "datetime": "2026-08-30T13:02:41.025000Z", "n_pixels": 1, "area_m2": 100, "prob_max": 0.7961, "prob_mean": 0.7961, "threshold": 0.63, "in_strip": true, "artifact": null}}, {"type": "Feature", "id": "D-SZ-fresh-guanabara-2026-08-30-021-222", "geometry": {"type": "Polygon", "coordinates": [[[-43.1608811, -22.8471888], [-43.1608799, -22.8472791], [-43.1609773, -22.8472802], [-43.1609761, -22.8473705], [-43.1608786, -22.8473694], [-43.1608799, -22.8472791], [-43.1607824, -22.8472779], [-43.1607837, -22.8471876], [-43.1608811, -22.8471888]]]}, "properties": {"kind": "detection", "det_id": "D-SZ-fresh-guanabara-2026-08-30-021-222", "zone_id": "SZ-fresh-guanabara-2026-08-30-021", "scene_id": "S2C_MSIL2A_20260830T130241_R095_T23KPQ_20260830T161908", "datetime": "2026-08-30T13:02:41.025000Z", "n_pixels": 2, "area_m2": 200, "prob_max": 0.8588, "prob_mean": 0.8216, "threshold": 0.63, "in_strip": true, "artifact": null}}, {"type": "Feature", "id": "D-SZ-fresh-guanabara-2026-08-30-022-232", "geometry": {"type": "Polygon", "coordinates": [[[-43.1355525, -22.854028], [-43.1355513, -22.8541183], [-43.1354539, -22.8541171], [-43.1354551, -22.8540268], [-43.1355525, -22.854028]]]}, "properties": {"kind": "detection", "det_id": "D-SZ-fresh-guanabara-2026-08-30-022-232", "zone_id": "SZ-fresh-guanabara-2026-08-30-022", "scene_id": "S2C_MSIL2A_20260830T130241_R095_T23KPQ_20260830T161908", "datetime": "2026-08-30T13:02:41.025000Z", "n_pixels": 1, "area_m2": 100, "prob_max": 0.9529, "prob_mean": 0.9529, "threshold": 0.63, "in_strip": true, "artifact": "ship"}}, {"type": "Feature", "id": "D-SZ-fresh-guanabara-2026-08-30-022-234", "geometry": {"type": "Polygon", "coordinates": [[[-43.1356475, -22.8542097], [-43.1356463, -22.8543], [-43.1355488, -22.8542989], [-43.1355501, -22.8542086], [-43.1356475, -22.8542097]]]}, "properties": {"kind": "detection", "det_id": "D-SZ-fresh-guanabara-2026-08-30-022-234", "zone_id": "SZ-fresh-guanabara-2026-08-30-022", "scene_id": "S2C_MSIL2A_20260830T130241_R095_T23KPQ_20260830T161908", "datetime": "2026-08-30T13:02:41.025000Z", "n_pixels": 1, "area_m2": 100, "prob_max": 0.749, "prob_mean": 0.749, "threshold": 0.63, "in_strip": true, "artifact": "ship"}}, {"type": "Feature", "id": "D-SZ-fresh-guanabara-2026-08-30-022-235", "geometry": {"type": "Polygon", "coordinates": [[[-43.135645, -22.8543903], [-43.1356426, -22.8545709], [-43.1354477, -22.8545686], [-43.135449, -22.8544783], [-43.1355464, -22.8544794], [-43.1355476, -22.8543891], [-43.135645, -22.8543903]]]}, "properties": {"kind": "detection", "det_id": "D-SZ-fresh-guanabara-2026-08-30-022-235", "zone_id": "SZ-fresh-guanabara-2026-08-30-022", "scene_id": "S2C_MSIL2A_20260830T130241_R095_T23KPQ_20260830T161908", "datetime": "2026-08-30T13:02:41.025000Z", "n_pixels": 3, "area_m2": 300, "prob_max": 0.9255, "prob_mean": 0.8667, "threshold": 0.63, "in_strip": true, "artifact": null}}, {"type": "Feature", "id": "D-SZ-fresh-guanabara-2026-08-30-023-257", "geometry": {"type": "Polygon", "coordinates": [[[-43.1613181, -22.8871079], [-43.1613157, -22.8872885], [-43.1611208, -22.8872862], [-43.1611232, -22.8871056], [-43.1613181, -22.8871079]]]}, "properties": {"kind": "detection", "det_id": "D-SZ-fresh-guanabara-2026-08-30-023-257", "zone_id": "SZ-fresh-guanabara-2026-08-30-023", "scene_id": "S2C_MSIL2A_20260830T130241_R095_T23KPQ_20260830T161908", "datetime": "2026-08-30T13:02:41.025000Z", "n_pixels": 4, "area_m2": 400, "prob_max": 0.9922, "prob_mean": 0.8863, "threshold": 0.63, "in_strip": true, "artifact": null}}, {"type": "Feature", "id": "D-SZ-fresh-guanabara-2026-08-30-023-258", "geometry": {"type": "Polygon", "coordinates": [[[-43.1601402, -22.8877264], [-43.160139, -22.8878167], [-43.1600416, -22.8878155], [-43.1600428, -22.8877252], [-43.1601402, -22.8877264]]]}, "properties": {"kind": "detection", "det_id": "D-SZ-fresh-guanabara-2026-08-30-023-258", "zone_id": "SZ-fresh-guanabara-2026-08-30-023", "scene_id": "S2C_MSIL2A_20260830T130241_R095_T23KPQ_20260830T161908", "datetime": "2026-08-30T13:02:41.025000Z", "n_pixels": 1, "area_m2": 100, "prob_max": 0.7961, "prob_mean": 0.7961, "threshold": 0.63, "in_strip": true, "artifact": null}}, {"type": "Feature", "id": "D-SZ-fresh-guanabara-2026-08-30-024-260", "geometry": {"type": "Polygon", "coordinates": [[[-43.1646437, -22.8934675], [-43.1646425, -22.8935578], [-43.1643502, -22.8935545], [-43.1643514, -22.8934642], [-43.1646437, -22.8934675]]]}, "properties": {"kind": "detection", "det_id": "D-SZ-fresh-guanabara-2026-08-30-024-260", "zone_id": "SZ-fresh-guanabara-2026-08-30-024", "scene_id": "S2C_MSIL2A_20260830T130241_R095_T23KPQ_20260830T161908", "datetime": "2026-08-30T13:02:41.025000Z", "n_pixels": 3, "area_m2": 300, "prob_max": 0.9098, "prob_mean": 0.868, "threshold": 0.63, "in_strip": true, "artifact": null}}, {"type": "Feature", "id": "D-SZ-fresh-guanabara-2026-08-30-024-261", "geometry": {"type": "Polygon", "coordinates": [[[-43.163746, -22.8949923], [-43.1637448, -22.8950826], [-43.1635499, -22.8950804], [-43.1635511, -22.8949901], [-43.163746, -22.8949923]]]}, "properties": {"kind": "detection", "det_id": "D-SZ-fresh-guanabara-2026-08-30-024-261", "zone_id": "SZ-fresh-guanabara-2026-08-30-024", "scene_id": "S2C_MSIL2A_20260830T130241_R095_T23KPQ_20260830T161908", "datetime": "2026-08-30T13:02:41.025000Z", "n_pixels": 2, "area_m2": 200, "prob_max": 0.9804, "prob_mean": 0.9647, "threshold": 0.63, "in_strip": true, "artifact": null}}, {"type": "Feature", "id": "D-SZ-fresh-guanabara-2026-08-30-024-262", "geometry": {"type": "Polygon", "coordinates": [[[-43.1637302, -22.8961661], [-43.1637266, -22.8964369], [-43.1636291, -22.8964358], [-43.1636328, -22.896165], [-43.1637302, -22.8961661]]]}, "properties": {"kind": "detection", "det_id": "D-SZ-fresh-guanabara-2026-08-30-024-262", "zone_id": "SZ-fresh-guanabara-2026-08-30-024", "scene_id": "S2C_MSIL2A_20260830T130241_R095_T23KPQ_20260830T161908", "datetime": "2026-08-30T13:02:41.025000Z", "n_pixels": 3, "area_m2": 300, "prob_max": 0.9608, "prob_mean": 0.8314, "threshold": 0.63, "in_strip": true, "artifact": null}}]}