{"type": "FeatureCollection", "features": [{"type": "Feature", "id": "SZ-live-durban-2025-09-26-001", "geometry": {"type": "Polygon", "coordinates": [[[31.026722, -29.862012], [31.025469, -29.862535], [31.025136, -29.863703], [31.025735, -29.864794], [31.026972, -29.865084], [31.027909, -29.864827], [31.02833, -29.864472], [31.028658, -29.863575], [31.028058, -29.862483], [31.026722, -29.862012]]]}, "properties": {"kind": "detection_zone", "layer_kind": "scene_zone", "zone_id": "SZ-live-durban-2025-09-26-001", "scene_key": "live-durban-2025-09-26", "scene_kind": "live", "scene_id": "S2A_MSIL2A_20250926T074031_R092_T36JUN_20250926T110619", "region": "durban", "title": "Дурбан · зона 1", "mission": "Sentinel-2", "datetime": "2025-09-26T07:40:31.024000Z", "detection_status": "insufficient_data", "status": "insufficient_data", "concentration_status": "unavailable", "quantity": {"status": "not_confirmed", "label": "концентрация по снимку не подтверждена", "detail": "перевод площади в штуки не показываем: нет калибровочных пар (см. docs/QUANTITY.md)"}, "verification": "false_alarm_signs", "training_scene": null, "flags": ["ship", "coast", "shallow", "seam", "glint"], "n_cozar_filaments": 0, "crop_file": "crops/SZ-live-durban-2025-09-26-001.jpg", "wind_high": false, "measured": {"zone_area_km2": 0.0842, "suspicious_area_m2": 1000, "n_pixels": 10, "n_objects": 1, "water_km2": 0.0781, "lwd_m2_km2": 12804.1, "lwd_note": null, "quality": {"valid_water_fraction": 0.9, "cloud_fraction": 0.0, "glint_fraction": 0.0}, "model": {"weights": "weights/lgbm", "file": "weights/lgbm/model.txt", "sha256": "0eeebf43fcccd8c7c07f053b7ec723229d1a3c9b92d12eec1bdb269258c51470", "sha256_short": "0eeebf43fccc", "trained_at": "2026-09-25T01:35:55Z", "threshold": 0.63, "harmonize": "none", "class": "MARIDA Marine Debris (любой плавающий мусор, не только пластик)"}}, "probable": {"prob_max": 0.957, "prob_mean": 0.824, "signs": {"foam": {"flag": false, "white_ratio_b2_b8": 0.318, "wind10m_ms": 0.68, "rule": "прирост B2 над водой ≥ 0.8 прироста B8 («белый» спектр) или ветер ≥ 7.0 м/с"}, "glint": {"flag": true, "b11_water_median": 0.0144, "glint_share": 0.0, "rule": "медиана B11 воды зоны > 0.01 или ≥ 20 % пикселей зоны — блик (маска качества)"}, "ship": {"flag": true, "share": 0, "bright_target_px_within_500m": 1976, "rule": "≥ 30 % пикселей — у яркой цели или кильватера (reports/artifacts.md) или яркая цель с откликом в SWIR (судно, лодка: B11 ≥ 0,015) ближе 500 м, или малый яркий объект (≤ 40 пикс.) с B11 ≥ 0,01 ближе 500 м (лодка с кильватером)"}, "coast": {"flag": true, "land_px_within_300m": 528, "rule": "суша (маска качества) ближе 300 м — прибой, кромка берега"}, "shallow": {"flag": true, "b3_water_zone": 0.052, "b3_ratio_to_scene_water": 4.13, "rule": "медиана B3 воды зоны ≥ 2× медианы воды снимка и ≥ 0,03, или B4 воды зоны ≥ 0,02 и (≥ 2× воды снимка или B8 ≥ 0,013) — мелководье, яркое дно, илистая банка"}, "seam": {"flag": true, "share": 1.0, "rule": "≥ 30 % пикселей — прямая линия вдоль трека/границы яркости (шов)"}, "cloud": {"flag": false, "cloud_fraction": 0.0, "rule": "облака или тени облаков (маска качества) ≥ 20 % зоны"}, "diag": {"dist_land_m": 110, "dist_bright_m": 78, "n_bright_px_500m": 62, "b11_bright_max_500m": 0.3007, "b4_water_zone": 0.0516, "b8_water_zone": 0.0425, "b11_det_median": 0.0217, "b8_det_median": 0.0869, "water_scene_b3": 0.0126, "water_scene_b4": 0.0054, "n_det_px": 10, "n_obj": 1}, "note": "эвристики, не классификатор; на размеченных данных не проверены"}, "n_cozar_filaments": 0}, "field_nearby": {"items": [{"source": "ADIS (4TU.ResearchData, судовая камера)", "segment_id": 279754, "ship": "Antsiva", "date": "2022-01-26", "days_from_scene": -1339, "distance_km": 1380.1, "lon": 45.33987, "lat": -30.76971, "n_items": 0, "area_km2": 0.2, "size_class": "> 5 см", "c_items_km2": 0.0, "ci95_lo": 0.0, "ci95_hi": 18.45, "ci95_method": "точный интервал Пуассона для N, делённый на A", "raw_10cm_items_km2": 0.0, "authors_cal_10cm_items_km2": 0.0, "authors_cal_10cm_lo95": null, "authors_cal_10cm_hi95": null}, {"source": "ADIS (4TU.ResearchData, судовая камера)", "segment_id": 299831, "ship": "Antsiva", "date": "2022-01-26", "days_from_scene": -1339, "distance_km": 1380.1, "lon": 45.33982, "lat": -30.77093, "n_items": 0, "area_km2": 0.2, "size_class": "> 5 см", "c_items_km2": 0.0, "ci95_lo": 0.0, "ci95_hi": 18.45, "ci95_method": "точный интервал Пуассона для N, делённый на A", "raw_10cm_items_km2": 0.0, "authors_cal_10cm_items_km2": 0.0, "authors_cal_10cm_lo95": null, "authors_cal_10cm_hi95": null}, {"source": "ADIS (4TU.ResearchData, судовая камера)", "segment_id": 299830, "ship": "Antsiva", "date": "2022-01-26", "days_from_scene": -1339, "distance_km": 1381.8, "lon": 45.36527, "lat": -30.68732, "n_items": 1, "area_km2": 0.1999, "size_class": "> 5 см", "c_items_km2": 5.0, "ci95_lo": 0.13, "ci95_hi": 27.87, "ci95_method": "точный интервал Пуассона для N, делённый на A", "raw_10cm_items_km2": 5.0, "authors_cal_10cm_items_km2": 12.32, "authors_cal_10cm_lo95": 2.17, "authors_cal_10cm_hi95": 70.04}], "nearest_organizer_sample": {"sample_id": "MPL-0922", "source_id": "S4_BLACK_SEA_DOORS3", "distance_km": 7961.8}, "note": "Измерение ≠ оценка: это независимые полевые счёты C = N/A в другое время и в другом месте; со сценой они не связаны и не калибруют её. Ближайший отрезок ADIS — за 1380 км: только для порядка величин."}}}, {"type": "Feature", "id": "SZ-live-durban-2025-09-26-002", "geometry": {"type": "Polygon", "coordinates": [[[31.020902, -29.863188], [31.019965, -29.863445], [31.019323, -29.864518], [31.019616, -29.865425], [31.020024, -29.865701], [31.019912, -29.866151], [31.020206, -29.866967], [31.021018, -29.867791], [31.021941, -29.868256], [31.022974, -29.868362], [31.024223, -29.86802], [31.024865, -29.866947], [31.024574, -29.86595], [31.022626, -29.865019], [31.022642, -29.864207], [31.022035, -29.863476], [31.020902, -29.863188]]]}, "properties": {"kind": "detection_zone", "layer_kind": "scene_zone", "zone_id": "SZ-live-durban-2025-09-26-002", "scene_key": "live-durban-2025-09-26", "scene_kind": "live", "scene_id": "S2A_MSIL2A_20250926T074031_R092_T36JUN_20250926T110619", "region": "durban", "title": "Дурбан · зона 2", "mission": "Sentinel-2", "datetime": "2025-09-26T07:40:31.024000Z", "detection_status": "insufficient_data", "status": "insufficient_data", "concentration_status": "unavailable", "quantity": {"status": "not_confirmed", "label": "концентрация по снимку не подтверждена", "detail": "перевод площади в штуки не показываем: нет калибровочных пар (см. docs/QUANTITY.md)"}, "verification": "false_alarm_signs", "training_scene": null, "flags": ["ship", "coast", "shallow"], "n_cozar_filaments": 0, "crop_file": "crops/SZ-live-durban-2025-09-26-002.jpg", "wind_high": false, "measured": {"zone_area_km2": 0.1901, "suspicious_area_m2": 4300, "n_pixels": 43, "n_objects": 4, "water_km2": 0.1655, "lwd_m2_km2": 25981.9, "lwd_note": null, "quality": {"valid_water_fraction": 0.864, "cloud_fraction": 0.035, "glint_fraction": 0.0}, "model": {"weights": "weights/lgbm", "file": "weights/lgbm/model.txt", "sha256": "0eeebf43fcccd8c7c07f053b7ec723229d1a3c9b92d12eec1bdb269258c51470", "sha256_short": "0eeebf43fccc", "trained_at": "2026-09-25T01:35:55Z", "threshold": 0.63, "harmonize": "none", "class": "MARIDA Marine Debris (любой плавающий мусор, не только пластик)"}}, "probable": {"prob_max": 0.996, "prob_mean": 0.855, "signs": {"foam": {"flag": false, "white_ratio_b2_b8": 0.536, "wind10m_ms": 0.68, "rule": "прирост B2 над водой ≥ 0.8 прироста B8 («белый» спектр) или ветер ≥ 7.0 м/с"}, "glint": {"flag": false, "b11_water_median": 0.007, "glint_share": 0.0, "rule": "медиана B11 воды зоны > 0.01 или ≥ 20 % пикселей зоны — блик (маска качества)"}, "ship": {"flag": true, "share": 0.14, "bright_target_px_within_500m": 1860, "rule": "≥ 30 % пикселей — у яркой цели или кильватера (reports/artifacts.md) или яркая цель с откликом в SWIR (судно, лодка: B11 ≥ 0,015) ближе 500 м, или малый яркий объект (≤ 40 пикс.) с B11 ≥ 0,01 ближе 500 м (лодка с кильватером)"}, "coast": {"flag": true, "land_px_within_300m": 666, "rule": "суша (маска качества) ближе 300 м — прибой, кромка берега"}, "shallow": {"flag": true, "b3_water_zone": 0.053, "b3_ratio_to_scene_water": 4.21, "rule": "медиана B3 воды зоны ≥ 2× медианы воды снимка и ≥ 0,03, или B4 воды зоны ≥ 0,02 и (≥ 2× воды снимка или B8 ≥ 0,013) — мелководье, яркое дно, илистая банка"}, "seam": {"flag": false, "share": 0.07, "rule": "≥ 30 % пикселей — прямая линия вдоль трека/границы яркости (шов)"}, "cloud": {"flag": false, "cloud_fraction": 0.035, "rule": "облака или тени облаков (маска качества) ≥ 20 % зоны"}, "diag": {"dist_land_m": 71, "dist_bright_m": 10, "n_bright_px_500m": 101, "b11_bright_max_500m": 0.2105, "b4_water_zone": 0.0514, "b8_water_zone": 0.0284, "b11_det_median": 0.008, "b8_det_median": 0.0516, "water_scene_b3": 0.0126, "water_scene_b4": 0.0054, "n_det_px": 43, "n_obj": 4}, "note": "эвристики, не классификатор; на размеченных данных не проверены"}, "n_cozar_filaments": 0}, "field_nearby": {"items": [{"source": "ADIS (4TU.ResearchData, судовая камера)", "segment_id": 279754, "ship": "Antsiva", "date": "2022-01-26", "days_from_scene": -1339, "distance_km": 1380.1, "lon": 45.33987, "lat": -30.76971, "n_items": 0, "area_km2": 0.2, "size_class": "> 5 см", "c_items_km2": 0.0, "ci95_lo": 0.0, "ci95_hi": 18.45, "ci95_method": "точный интервал Пуассона для N, делённый на A", "raw_10cm_items_km2": 0.0, "authors_cal_10cm_items_km2": 0.0, "authors_cal_10cm_lo95": null, "authors_cal_10cm_hi95": null}, {"source": "ADIS (4TU.ResearchData, судовая камера)", "segment_id": 299831, "ship": "Antsiva", "date": "2022-01-26", "days_from_scene": -1339, "distance_km": 1380.1, "lon": 45.33982, "lat": -30.77093, "n_items": 0, "area_km2": 0.2, "size_class": "> 5 см", "c_items_km2": 0.0, "ci95_lo": 0.0, "ci95_hi": 18.45, "ci95_method": "точный интервал Пуассона для N, делённый на A", "raw_10cm_items_km2": 0.0, "authors_cal_10cm_items_km2": 0.0, "authors_cal_10cm_lo95": null, "authors_cal_10cm_hi95": null}, {"source": "ADIS (4TU.ResearchData, судовая камера)", "segment_id": 299830, "ship": "Antsiva", "date": "2022-01-26", "days_from_scene": -1339, "distance_km": 1381.8, "lon": 45.36527, "lat": -30.68732, "n_items": 1, "area_km2": 0.1999, "size_class": "> 5 см", "c_items_km2": 5.0, "ci95_lo": 0.13, "ci95_hi": 27.87, "ci95_method": "точный интервал Пуассона для N, делённый на A", "raw_10cm_items_km2": 5.0, "authors_cal_10cm_items_km2": 12.32, "authors_cal_10cm_lo95": 2.17, "authors_cal_10cm_hi95": 70.04}], "nearest_organizer_sample": {"sample_id": "MPL-0922", "source_id": "S4_BLACK_SEA_DOORS3", "distance_km": 7961.8}, "note": "Измерение ≠ оценка: это независимые полевые счёты C = N/A в другое время и в другом месте; со сценой они не связаны и не калибруют её. Ближайший отрезок ADIS — за 1380 км: только для порядка величин."}}}, {"type": "Feature", "id": "SZ-live-durban-2025-09-26-003", "geometry": {"type": "Polygon", "coordinates": [[[31.016493, -29.86628], [31.015241, -29.866802], [31.014913, -29.8677], [31.015305, -29.868788], [31.016021, -29.86925], [31.01664, -29.86935], [31.017576, -29.869093], [31.017998, -29.868738], [31.018328, -29.867751], [31.017728, -29.866659], [31.016493, -29.86628]]]}, "properties": {"kind": "detection_zone", "layer_kind": "scene_zone", "zone_id": "SZ-live-durban-2025-09-26-003", "scene_key": "live-durban-2025-09-26", "scene_kind": "live", "scene_id": "S2A_MSIL2A_20250926T074031_R092_T36JUN_20250926T110619", "region": "durban", "title": "Дурбан · зона 3", "mission": "Sentinel-2", "datetime": "2025-09-26T07:40:31.024000Z", "detection_status": "insufficient_data", "status": "insufficient_data", "concentration_status": "unavailable", "quantity": {"status": "not_confirmed", "label": "концентрация по снимку не подтверждена", "detail": "перевод площади в штуки не показываем: нет калибровочных пар (см. docs/QUANTITY.md)"}, "verification": "false_alarm_signs", "training_scene": null, "flags": ["ship", "coast", "shallow", "seam"], "n_cozar_filaments": 0, "crop_file": "crops/SZ-live-durban-2025-09-26-003.jpg", "wind_high": false, "measured": {"zone_area_km2": 0.0822, "suspicious_area_m2": 600, "n_pixels": 6, "n_objects": 1, "water_km2": 0.0642, "lwd_m2_km2": 9345.8, "lwd_note": null, "quality": {"valid_water_fraction": 0.773, "cloud_fraction": 0.0, "glint_fraction": 0.0}, "model": {"weights": "weights/lgbm", "file": "weights/lgbm/model.txt", "sha256": "0eeebf43fcccd8c7c07f053b7ec723229d1a3c9b92d12eec1bdb269258c51470", "sha256_short": "0eeebf43fccc", "trained_at": "2026-09-25T01:35:55Z", "threshold": 0.63, "harmonize": "none", "class": "MARIDA Marine Debris (любой плавающий мусор, не только пластик)"}}, "probable": {"prob_max": 0.918, "prob_mean": 0.809, "signs": {"foam": {"flag": false, "white_ratio_b2_b8": 0.366, "wind10m_ms": 0.68, "rule": "прирост B2 над водой ≥ 0.8 прироста B8 («белый» спектр) или ветер ≥ 7.0 м/с"}, "glint": {"flag": false, "b11_water_median": 0.0079, "glint_share": 0.0, "rule": "медиана B11 воды зоны > 0.01 или ≥ 20 % пикселей зоны — блик (маска качества)"}, "ship": {"flag": true, "share": 0, "bright_target_px_within_500m": 604, "rule": "≥ 30 % пикселей — у яркой цели или кильватера (reports/artifacts.md) или яркая цель с откликом в SWIR (судно, лодка: B11 ≥ 0,015) ближе 500 м, или малый яркий объект (≤ 40 пикс.) с B11 ≥ 0,01 ближе 500 м (лодка с кильватером)"}, "coast": {"flag": true, "land_px_within_300m": 774, "rule": "суша (маска качества) ближе 300 м — прибой, кромка берега"}, "shallow": {"flag": true, "b3_water_zone": 0.0517, "b3_ratio_to_scene_water": 4.1, "rule": "медиана B3 воды зоны ≥ 2× медианы воды снимка и ≥ 0,03, или B4 воды зоны ≥ 0,02 и (≥ 2× воды снимка или B8 ≥ 0,013) — мелководье, яркое дно, илистая банка"}, "seam": {"flag": true, "share": 1.0, "rule": "≥ 30 % пикселей — прямая линия вдоль трека/границы яркости (шов)"}, "cloud": {"flag": false, "cloud_fraction": 0.0, "rule": "облака или тени облаков (маска качества) ≥ 20 % зоны"}, "diag": {"dist_land_m": 61, "dist_bright_m": 85, "n_bright_px_500m": 68, "b11_bright_max_500m": 0.1316, "b4_water_zone": 0.0458, "b8_water_zone": 0.0178, "b11_det_median": 0.0097, "b8_det_median": 0.0726, "water_scene_b3": 0.0126, "water_scene_b4": 0.0054, "n_det_px": 6, "n_obj": 1}, "note": "эвристики, не классификатор; на размеченных данных не проверены"}, "n_cozar_filaments": 0}, "field_nearby": {"items": [{"source": "ADIS (4TU.ResearchData, судовая камера)", "segment_id": 279754, "ship": "Antsiva", "date": "2022-01-26", "days_from_scene": -1339, "distance_km": 1380.1, "lon": 45.33987, "lat": -30.76971, "n_items": 0, "area_km2": 0.2, "size_class": "> 5 см", "c_items_km2": 0.0, "ci95_lo": 0.0, "ci95_hi": 18.45, "ci95_method": "точный интервал Пуассона для N, делённый на A", "raw_10cm_items_km2": 0.0, "authors_cal_10cm_items_km2": 0.0, "authors_cal_10cm_lo95": null, "authors_cal_10cm_hi95": null}, {"source": "ADIS (4TU.ResearchData, судовая камера)", "segment_id": 299831, "ship": "Antsiva", "date": "2022-01-26", "days_from_scene": -1339, "distance_km": 1380.1, "lon": 45.33982, "lat": -30.77093, "n_items": 0, "area_km2": 0.2, "size_class": "> 5 см", "c_items_km2": 0.0, "ci95_lo": 0.0, "ci95_hi": 18.45, "ci95_method": "точный интервал Пуассона для N, делённый на A", "raw_10cm_items_km2": 0.0, "authors_cal_10cm_items_km2": 0.0, "authors_cal_10cm_lo95": null, "authors_cal_10cm_hi95": null}, {"source": "ADIS (4TU.ResearchData, судовая камера)", "segment_id": 299830, "ship": "Antsiva", "date": "2022-01-26", "days_from_scene": -1339, "distance_km": 1381.8, "lon": 45.36527, "lat": -30.68732, "n_items": 1, "area_km2": 0.1999, "size_class": "> 5 см", "c_items_km2": 5.0, "ci95_lo": 0.13, "ci95_hi": 27.87, "ci95_method": "точный интервал Пуассона для N, делённый на A", "raw_10cm_items_km2": 5.0, "authors_cal_10cm_items_km2": 12.32, "authors_cal_10cm_lo95": 2.17, "authors_cal_10cm_hi95": 70.04}], "nearest_organizer_sample": {"sample_id": "MPL-0922", "source_id": "S4_BLACK_SEA_DOORS3", "distance_km": 7961.8}, "note": "Измерение ≠ оценка: это независимые полевые счёты C = N/A в другое время и в другом месте; со сценой они не связаны и не калибруют её. Ближайший отрезок ADIS — за 1380 км: только для порядка величин."}}}, {"type": "Feature", "id": "SZ-live-durban-2025-09-26-004", "geometry": {"type": "Polygon", "coordinates": [[[31.018387, -29.870007], [31.01745, -29.870264], [31.017029, -29.870618], [31.016595, -29.871604], [31.01697, -29.873595], [31.018201, -29.874155], [31.019241, -29.8739], [31.019873, -29.873368], [31.020315, -29.871931], [31.019926, -29.870662], [31.019109, -29.870108], [31.018387, -29.870007]]]}, "properties": {"kind": "detection_zone", "layer_kind": "scene_zone", "zone_id": "SZ-live-durban-2025-09-26-004", "scene_key": "live-durban-2025-09-26", "scene_kind": "live", "scene_id": "S2A_MSIL2A_20250926T074031_R092_T36JUN_20250926T110619", "region": "durban", "title": "Дурбан · зона 4", "mission": "Sentinel-2", "datetime": "2025-09-26T07:40:31.024000Z", "detection_status": "insufficient_data", "status": "insufficient_data", "concentration_status": "unavailable", "quantity": {"status": "not_confirmed", "label": "концентрация по снимку не подтверждена", "detail": "перевод площади в штуки не показываем: нет калибровочных пар (см. docs/QUANTITY.md)"}, "verification": "false_alarm_signs", "training_scene": null, "flags": ["ship", "shallow"], "n_cozar_filaments": 0, "crop_file": "crops/SZ-live-durban-2025-09-26-004.jpg", "wind_high": false, "measured": {"zone_area_km2": 0.1258, "suspicious_area_m2": 3800, "n_pixels": 38, "n_objects": 2, "water_km2": 0.1262, "lwd_m2_km2": 30110.9, "lwd_note": null, "quality": {"valid_water_fraction": 1.0, "cloud_fraction": 0.0, "glint_fraction": 0.0}, "model": {"weights": "weights/lgbm", "file": "weights/lgbm/model.txt", "sha256": "0eeebf43fcccd8c7c07f053b7ec723229d1a3c9b92d12eec1bdb269258c51470", "sha256_short": "0eeebf43fccc", "trained_at": "2026-09-25T01:35:55Z", "threshold": 0.63, "harmonize": "none", "class": "MARIDA Marine Debris (любой плавающий мусор, не только пластик)"}}, "probable": {"prob_max": 0.969, "prob_mean": 0.819, "signs": {"foam": {"flag": false, "white_ratio_b2_b8": 0.393, "wind10m_ms": 0.68, "rule": "прирост B2 над водой ≥ 0.8 прироста B8 («белый» спектр) или ветер ≥ 7.0 м/с"}, "glint": {"flag": false, "b11_water_median": 0.0044, "glint_share": 0.0, "rule": "медиана B11 воды зоны > 0.01 или ≥ 20 % пикселей зоны — блик (маска качества)"}, "ship": {"flag": true, "share": 0, "bright_target_px_within_500m": 291, "rule": "≥ 30 % пикселей — у яркой цели или кильватера (reports/artifacts.md) или яркая цель с откликом в SWIR (судно, лодка: B11 ≥ 0,015) ближе 500 м, или малый яркий объект (≤ 40 пикс.) с B11 ≥ 0,01 ближе 500 м (лодка с кильватером)"}, "coast": {"flag": false, "land_px_within_300m": 0, "rule": "суша (маска качества) ближе 300 м — прибой, кромка берега"}, "shallow": {"flag": true, "b3_water_zone": 0.058, "b3_ratio_to_scene_water": 4.6, "rule": "медиана B3 воды зоны ≥ 2× медианы воды снимка и ≥ 0,03, или B4 воды зоны ≥ 0,02 и (≥ 2× воды снимка или B8 ≥ 0,013) — мелководье, яркое дно, илистая банка"}, "seam": {"flag": false, "share": 0.237, "rule": "≥ 30 % пикселей — прямая линия вдоль трека/границы яркости (шов)"}, "cloud": {"flag": false, "cloud_fraction": 0.0, "rule": "облака или тени облаков (маска качества) ≥ 20 % зоны"}, "diag": {"dist_land_m": 511, "dist_bright_m": 424, "n_bright_px_500m": 16, "b11_bright_max_500m": 0.1087, "b4_water_zone": 0.0596, "b8_water_zone": 0.0419, "b11_det_median": 0.0045, "b8_det_median": 0.0696, "water_scene_b3": 0.0126, "water_scene_b4": 0.0054, "n_det_px": 38, "n_obj": 2}, "note": "эвристики, не классификатор; на размеченных данных не проверены"}, "n_cozar_filaments": 0}, "field_nearby": {"items": [{"source": "ADIS (4TU.ResearchData, судовая камера)", "segment_id": 279754, "ship": "Antsiva", "date": "2022-01-26", "days_from_scene": -1339, "distance_km": 1380.1, "lon": 45.33987, "lat": -30.76971, "n_items": 0, "area_km2": 0.2, "size_class": "> 5 см", "c_items_km2": 0.0, "ci95_lo": 0.0, "ci95_hi": 18.45, "ci95_method": "точный интервал Пуассона для N, делённый на A", "raw_10cm_items_km2": 0.0, "authors_cal_10cm_items_km2": 0.0, "authors_cal_10cm_lo95": null, "authors_cal_10cm_hi95": null}, {"source": "ADIS (4TU.ResearchData, судовая камера)", "segment_id": 299831, "ship": "Antsiva", "date": "2022-01-26", "days_from_scene": -1339, "distance_km": 1380.1, "lon": 45.33982, "lat": -30.77093, "n_items": 0, "area_km2": 0.2, "size_class": "> 5 см", "c_items_km2": 0.0, "ci95_lo": 0.0, "ci95_hi": 18.45, "ci95_method": "точный интервал Пуассона для N, делённый на A", "raw_10cm_items_km2": 0.0, "authors_cal_10cm_items_km2": 0.0, "authors_cal_10cm_lo95": null, "authors_cal_10cm_hi95": null}, {"source": "ADIS (4TU.ResearchData, судовая камера)", "segment_id": 299830, "ship": "Antsiva", "date": "2022-01-26", "days_from_scene": -1339, "distance_km": 1381.8, "lon": 45.36527, "lat": -30.68732, "n_items": 1, "area_km2": 0.1999, "size_class": "> 5 см", "c_items_km2": 5.0, "ci95_lo": 0.13, "ci95_hi": 27.87, "ci95_method": "точный интервал Пуассона для N, делённый на A", "raw_10cm_items_km2": 5.0, "authors_cal_10cm_items_km2": 12.32, "authors_cal_10cm_lo95": 2.17, "authors_cal_10cm_hi95": 70.04}], "nearest_organizer_sample": {"sample_id": "MPL-0922", "source_id": "S4_BLACK_SEA_DOORS3", "distance_km": 7961.8}, "note": "Измерение ≠ оценка: это независимые полевые счёты C = N/A в другое время и в другом месте; со сценой они не связаны и не калибруют её. Ближайший отрезок ADIS — за 1380 км: только для порядка величин."}}}, {"type": "Feature", "id": "SZ-live-durban-2025-09-26-005", "geometry": {"type": "Polygon", "coordinates": [[[31.011817, -29.872435], [31.010671, -29.872778], [31.010145, -29.873221], [31.009818, -29.874028], [31.010111, -29.874935], [31.011342, -29.875495], [31.013107, -29.875251], [31.013749, -29.874178], [31.01346, -29.873091], [31.012643, -29.872537], [31.011817, -29.872435]]]}, "properties": {"kind": "detection_zone", "layer_kind": "scene_zone", "zone_id": "SZ-live-durban-2025-09-26-005", "scene_key": "live-durban-2025-09-26", "scene_kind": "live", "scene_id": "S2A_MSIL2A_20250926T074031_R092_T36JUN_20250926T110619", "region": "durban", "title": "Дурбан · зона 5", "mission": "Sentinel-2", "datetime": "2025-09-26T07:40:31.024000Z", "detection_status": "insufficient_data", "status": "insufficient_data", "concentration_status": "unavailable", "quantity": {"status": "not_confirmed", "label": "концентрация по снимку не подтверждена", "detail": "перевод площади в штуки не показываем: нет калибровочных пар (см. docs/QUANTITY.md)"}, "verification": "false_alarm_signs", "training_scene": null, "flags": ["coast", "shallow", "ship"], "n_cozar_filaments": 0, "crop_file": "crops/SZ-live-durban-2025-09-26-005.jpg", "wind_high": false, "measured": {"zone_area_km2": 0.0973, "suspicious_area_m2": 2200, "n_pixels": 22, "n_objects": 1, "water_km2": 0.0991, "lwd_m2_km2": 22199.8, "lwd_note": null, "quality": {"valid_water_fraction": 1.0, "cloud_fraction": 0.0, "glint_fraction": 0.0}, "model": {"weights": "weights/lgbm", "file": "weights/lgbm/model.txt", "sha256": "0eeebf43fcccd8c7c07f053b7ec723229d1a3c9b92d12eec1bdb269258c51470", "sha256_short": "0eeebf43fccc", "trained_at": "2026-09-25T01:35:55Z", "threshold": 0.63, "harmonize": "none", "class": "MARIDA Marine Debris (любой плавающий мусор, не только пластик)"}}, "probable": {"prob_max": 0.984, "prob_mean": 0.894, "signs": {"foam": {"flag": false, "white_ratio_b2_b8": 0.405, "wind10m_ms": 0.68, "rule": "прирост B2 над водой ≥ 0.8 прироста B8 («белый» спектр) или ветер ≥ 7.0 м/с"}, "glint": {"flag": false, "b11_water_median": 0.0054, "glint_share": 0.0, "rule": "медиана B11 воды зоны > 0.01 или ≥ 20 % пикселей зоны — блик (маска качества)"}, "ship": {"flag": true, "share": 1.0, "bright_target_px_within_500m": 767, "rule": "≥ 30 % пикселей — у яркой цели или кильватера (reports/artifacts.md) или яркая цель с откликом в SWIR (судно, лодка: B11 ≥ 0,015) ближе 500 м, или малый яркий объект (≤ 40 пикс.) с B11 ≥ 0,01 ближе 500 м (лодка с кильватером)"}, "coast": {"flag": true, "land_px_within_300m": 30, "rule": "суша (маска качества) ближе 300 м — прибой, кромка берега"}, "shallow": {"flag": true, "b3_water_zone": 0.0496, "b3_ratio_to_scene_water": 3.94, "rule": "медиана B3 воды зоны ≥ 2× медианы воды снимка и ≥ 0,03, или B4 воды зоны ≥ 0,02 и (≥ 2× воды снимка или B8 ≥ 0,013) — мелководье, яркое дно, илистая банка"}, "seam": {"flag": false, "share": 0, "rule": "≥ 30 % пикселей — прямая линия вдоль трека/границы яркости (шов)"}, "cloud": {"flag": false, "cloud_fraction": 0.0, "rule": "облака или тени облаков (маска качества) ≥ 20 % зоны"}, "diag": {"dist_land_m": 264, "dist_bright_m": 434, "n_bright_px_500m": 15, "b11_bright_max_500m": 0.1284, "b4_water_zone": 0.0477, "b8_water_zone": 0.0246, "b11_det_median": 0.0058, "b8_det_median": 0.0519, "water_scene_b3": 0.0126, "water_scene_b4": 0.0054, "n_det_px": 22, "n_obj": 1}, "note": "эвристики, не классификатор; на размеченных данных не проверены"}, "n_cozar_filaments": 0}, "field_nearby": {"items": [{"source": "ADIS (4TU.ResearchData, судовая камера)", "segment_id": 279754, "ship": "Antsiva", "date": "2022-01-26", "days_from_scene": -1339, "distance_km": 1380.1, "lon": 45.33987, "lat": -30.76971, "n_items": 0, "area_km2": 0.2, "size_class": "> 5 см", "c_items_km2": 0.0, "ci95_lo": 0.0, "ci95_hi": 18.45, "ci95_method": "точный интервал Пуассона для N, делённый на A", "raw_10cm_items_km2": 0.0, "authors_cal_10cm_items_km2": 0.0, "authors_cal_10cm_lo95": null, "authors_cal_10cm_hi95": null}, {"source": "ADIS (4TU.ResearchData, судовая камера)", "segment_id": 299831, "ship": "Antsiva", "date": "2022-01-26", "days_from_scene": -1339, "distance_km": 1380.1, "lon": 45.33982, "lat": -30.77093, "n_items": 0, "area_km2": 0.2, "size_class": "> 5 см", "c_items_km2": 0.0, "ci95_lo": 0.0, "ci95_hi": 18.45, "ci95_method": "точный интервал Пуассона для N, делённый на A", "raw_10cm_items_km2": 0.0, "authors_cal_10cm_items_km2": 0.0, "authors_cal_10cm_lo95": null, "authors_cal_10cm_hi95": null}, {"source": "ADIS (4TU.ResearchData, судовая камера)", "segment_id": 299830, "ship": "Antsiva", "date": "2022-01-26", "days_from_scene": -1339, "distance_km": 1381.8, "lon": 45.36527, "lat": -30.68732, "n_items": 1, "area_km2": 0.1999, "size_class": "> 5 см", "c_items_km2": 5.0, "ci95_lo": 0.13, "ci95_hi": 27.87, "ci95_method": "точный интервал Пуассона для N, делённый на A", "raw_10cm_items_km2": 5.0, "authors_cal_10cm_items_km2": 12.32, "authors_cal_10cm_lo95": 2.17, "authors_cal_10cm_hi95": 70.04}], "nearest_organizer_sample": {"sample_id": "MPL-0922", "source_id": "S4_BLACK_SEA_DOORS3", "distance_km": 7961.8}, "note": "Измерение ≠ оценка: это независимые полевые счёты C = N/A в другое время и в другом месте; со сценой они не связаны и не калибруют её. Ближайший отрезок ADIS — за 1380 км: только для порядка величин."}}}, {"type": "Feature", "id": "SZ-live-durban-2025-09-26-006", "geometry": {"type": "Polygon", "coordinates": [[[31.009477, -29.875557], [31.008541, -29.875814], [31.007909, -29.876345], [31.007473, -29.877421], [31.007762, -29.878508], [31.008169, -29.878875], [31.009095, -29.87916], [31.010343, -29.878908], [31.010764, -29.878554], [31.01109, -29.877747], [31.010812, -29.876119], [31.010097, -29.875657], [31.009477, -29.875557]]]}, "properties": {"kind": "detection_zone", "layer_kind": "scene_zone", "zone_id": "SZ-live-durban-2025-09-26-006", "scene_key": "live-durban-2025-09-26", "scene_kind": "live", "scene_id": "S2A_MSIL2A_20250926T074031_R092_T36JUN_20250926T110619", "region": "durban", "title": "Дурбан · зона 6", "mission": "Sentinel-2", "datetime": "2025-09-26T07:40:31.024000Z", "detection_status": "insufficient_data", "status": "insufficient_data", "concentration_status": "unavailable", "quantity": {"status": "not_confirmed", "label": "концентрация по снимку не подтверждена", "detail": "перевод площади в штуки не показываем: нет калибровочных пар (см. docs/QUANTITY.md)"}, "verification": "false_alarm_signs", "training_scene": null, "flags": ["coast", "shallow", "ship"], "n_cozar_filaments": 0, "crop_file": "crops/SZ-live-durban-2025-09-26-006.jpg", "wind_high": false, "measured": {"zone_area_km2": 0.1073, "suspicious_area_m2": 2000, "n_pixels": 20, "n_objects": 2, "water_km2": 0.1068, "lwd_m2_km2": 18726.6, "lwd_note": null, "quality": {"valid_water_fraction": 1.0, "cloud_fraction": 0.0, "glint_fraction": 0.0}, "model": {"weights": "weights/lgbm", "file": "weights/lgbm/model.txt", "sha256": "0eeebf43fcccd8c7c07f053b7ec723229d1a3c9b92d12eec1bdb269258c51470", "sha256_short": "0eeebf43fccc", "trained_at": "2026-09-25T01:35:55Z", "threshold": 0.63, "harmonize": "none", "class": "MARIDA Marine Debris (любой плавающий мусор, не только пластик)"}}, "probable": {"prob_max": 0.976, "prob_mean": 0.843, "signs": {"foam": {"flag": false, "white_ratio_b2_b8": 0.355, "wind10m_ms": 0.68, "rule": "прирост B2 над водой ≥ 0.8 прироста B8 («белый» спектр) или ветер ≥ 7.0 м/с"}, "glint": {"flag": false, "b11_water_median": 0.0059, "glint_share": 0.0, "rule": "медиана B11 воды зоны > 0.01 или ≥ 20 % пикселей зоны — блик (маска качества)"}, "ship": {"flag": true, "share": 1.0, "bright_target_px_within_500m": 717, "rule": "≥ 30 % пикселей — у яркой цели или кильватера (reports/artifacts.md) или яркая цель с откликом в SWIR (судно, лодка: B11 ≥ 0,015) ближе 500 м, или малый яркий объект (≤ 40 пикс.) с B11 ≥ 0,01 ближе 500 м (лодка с кильватером)"}, "coast": {"flag": true, "land_px_within_300m": 238, "rule": "суша (маска качества) ближе 300 м — прибой, кромка берега"}, "shallow": {"flag": true, "b3_water_zone": 0.0498, "b3_ratio_to_scene_water": 3.95, "rule": "медиана B3 воды зоны ≥ 2× медианы воды снимка и ≥ 0,03, или B4 воды зоны ≥ 0,02 и (≥ 2× воды снимка или B8 ≥ 0,013) — мелководье, яркое дно, илистая банка"}, "seam": {"flag": false, "share": 0, "rule": "≥ 30 % пикселей — прямая линия вдоль трека/границы яркости (шов)"}, "cloud": {"flag": false, "cloud_fraction": 0.0, "rule": "облака или тени облаков (маска качества) ≥ 20 % зоны"}, "diag": {"dist_land_m": 225, "dist_bright_m": 10, "n_bright_px_500m": 16, "b11_bright_max_500m": 0.1284, "b4_water_zone": 0.0484, "b8_water_zone": 0.0241, "b11_det_median": 0.0053, "b8_det_median": 0.0565, "water_scene_b3": 0.0126, "water_scene_b4": 0.0054, "n_det_px": 20, "n_obj": 2}, "note": "эвристики, не классификатор; на размеченных данных не проверены"}, "n_cozar_filaments": 0}, "field_nearby": {"items": [{"source": "ADIS (4TU.ResearchData, судовая камера)", "segment_id": 279754, "ship": "Antsiva", "date": "2022-01-26", "days_from_scene": -1339, "distance_km": 1380.1, "lon": 45.33987, "lat": -30.76971, "n_items": 0, "area_km2": 0.2, "size_class": "> 5 см", "c_items_km2": 0.0, "ci95_lo": 0.0, "ci95_hi": 18.45, "ci95_method": "точный интервал Пуассона для N, делённый на A", "raw_10cm_items_km2": 0.0, "authors_cal_10cm_items_km2": 0.0, "authors_cal_10cm_lo95": null, "authors_cal_10cm_hi95": null}, {"source": "ADIS (4TU.ResearchData, судовая камера)", "segment_id": 299831, "ship": "Antsiva", "date": "2022-01-26", "days_from_scene": -1339, "distance_km": 1380.1, "lon": 45.33982, "lat": -30.77093, "n_items": 0, "area_km2": 0.2, "size_class": "> 5 см", "c_items_km2": 0.0, "ci95_lo": 0.0, "ci95_hi": 18.45, "ci95_method": "точный интервал Пуассона для N, делённый на A", "raw_10cm_items_km2": 0.0, "authors_cal_10cm_items_km2": 0.0, "authors_cal_10cm_lo95": null, "authors_cal_10cm_hi95": null}, {"source": "ADIS (4TU.ResearchData, судовая камера)", "segment_id": 299830, "ship": "Antsiva", "date": "2022-01-26", "days_from_scene": -1339, "distance_km": 1381.8, "lon": 45.36527, "lat": -30.68732, "n_items": 1, "area_km2": 0.1999, "size_class": "> 5 см", "c_items_km2": 5.0, "ci95_lo": 0.13, "ci95_hi": 27.87, "ci95_method": "точный интервал Пуассона для N, делённый на A", "raw_10cm_items_km2": 5.0, "authors_cal_10cm_items_km2": 12.32, "authors_cal_10cm_lo95": 2.17, "authors_cal_10cm_hi95": 70.04}], "nearest_organizer_sample": {"sample_id": "MPL-0922", "source_id": "S4_BLACK_SEA_DOORS3", "distance_km": 7961.8}, "note": "Измерение ≠ оценка: это независимые полевые счёты C = N/A в другое время и в другом месте; со сценой они не связаны и не калибруют её. Ближайший отрезок ADIS — за 1380 км: только для порядка величин."}}}]}