{"type": "FeatureCollection", "features": [{"type": "Feature", "id": "D-SZ-fresh-guanabara-2026-09-19-001-7", "geometry": {"type": "Polygon", "coordinates": [[[-43.2126198, -22.727581], [-43.2126186, -22.7276713], [-43.2124239, -22.7276692], [-43.2124216, -22.7278497], [-43.2125189, -22.7278508], [-43.2125178, -22.7279411], [-43.2119337, -22.7279346], [-43.2119349, -22.7278443], [-43.2117402, -22.7278421], [-43.2117414, -22.7277518], [-43.2121308, -22.7277562], [-43.2121319, -22.7276659], [-43.2123266, -22.7276681], [-43.2123278, -22.7275778], [-43.2126198, -22.727581]]]}, "properties": {"kind": "detection", "det_id": "D-SZ-fresh-guanabara-2026-09-19-001-7", "zone_id": "SZ-fresh-guanabara-2026-09-19-001", "scene_id": "S2C_MSIL2A_20260919T130251_R095_T23KPQ_20260919T161210", "datetime": "2026-09-19T13:02:51.025000Z", "n_pixels": 19, "area_m2": 1900, "prob_max": 0.9922, "prob_mean": 0.8733, "threshold": 0.63, "in_strip": true, "artifact": null}}, {"type": "Feature", "id": "D-SZ-fresh-guanabara-2026-09-19-002-11", "geometry": {"type": "Polygon", "coordinates": [[[-43.0326919, -22.736484], [-43.0326907, -22.7365743], [-43.032788, -22.7365755], [-43.0327867, -22.7366658], [-43.0324947, -22.7366622], [-43.0324973, -22.7364816], [-43.0326919, -22.736484]]]}, "properties": {"kind": "detection", "det_id": "D-SZ-fresh-guanabara-2026-09-19-002-11", "zone_id": "SZ-fresh-guanabara-2026-09-19-002", "scene_id": "S2C_MSIL2A_20260919T130251_R095_T23KPQ_20260919T161210", "datetime": "2026-09-19T13:02:51.025000Z", "n_pixels": 5, "area_m2": 500, "prob_max": 0.9882, "prob_mean": 0.8769, "threshold": 0.63, "in_strip": true, "artifact": null}}, {"type": "Feature", "id": "D-SZ-fresh-guanabara-2026-09-19-003-12", "geometry": {"type": "Polygon", "coordinates": [[[-43.2346051, -22.7439904], [-43.2346028, -22.744171], [-43.2343108, -22.7441678], [-43.2343131, -22.7439872], [-43.2346051, -22.7439904]]]}, "properties": {"kind": "detection", "det_id": "D-SZ-fresh-guanabara-2026-09-19-003-12", "zone_id": "SZ-fresh-guanabara-2026-09-19-003", "scene_id": "S2C_MSIL2A_20260919T130251_R095_T23KPQ_20260919T161210", "datetime": "2026-09-19T13:02:51.025000Z", "n_pixels": 6, "area_m2": 600, "prob_max": 1.0, "prob_mean": 0.9569, "threshold": 0.63, "in_strip": true, "artifact": null}}, {"type": "Feature", "id": "D-SZ-fresh-guanabara-2026-09-19-004-32", "geometry": {"type": "Polygon", "coordinates": [[[-43.1429627, -22.7962304], [-43.1429615, -22.7963207], [-43.1427667, -22.7963184], [-43.1427679, -22.7962281], [-43.1429627, -22.7962304]]]}, "properties": {"kind": "detection", "det_id": "D-SZ-fresh-guanabara-2026-09-19-004-32", "zone_id": "SZ-fresh-guanabara-2026-09-19-004", "scene_id": "S2C_MSIL2A_20260919T130251_R095_T23KPQ_20260919T161210", "datetime": "2026-09-19T13:02:51.025000Z", "n_pixels": 2, "area_m2": 200, "prob_max": 0.8667, "prob_mean": 0.8235, "threshold": 0.63, "in_strip": true, "artifact": null}}, {"type": "Feature", "id": "D-SZ-fresh-guanabara-2026-09-19-004-33", "geometry": {"type": "Polygon", "coordinates": [[[-43.1461604, -22.7974415], [-43.146158, -22.7976221], [-43.1460606, -22.797621], [-43.146063, -22.7974404], [-43.1461604, -22.7974415]]]}, "properties": {"kind": "detection", "det_id": "D-SZ-fresh-guanabara-2026-09-19-004-33", "zone_id": "SZ-fresh-guanabara-2026-09-19-004", "scene_id": "S2C_MSIL2A_20260919T130251_R095_T23KPQ_20260919T161210", "datetime": "2026-09-19T13:02:51.025000Z", "n_pixels": 2, "area_m2": 200, "prob_max": 0.9255, "prob_mean": 0.9039, "threshold": 0.63, "in_strip": true, "artifact": null}}, {"type": "Feature", "id": "D-SZ-fresh-guanabara-2026-09-19-004-34", "geometry": {"type": "Polygon", "coordinates": [[[-43.143917, -22.7976863], [-43.1439157, -22.7977766], [-43.1438184, -22.7977755], [-43.1438196, -22.7976852], [-43.143917, -22.7976863]]]}, "properties": {"kind": "detection", "det_id": "D-SZ-fresh-guanabara-2026-09-19-004-34", "zone_id": "SZ-fresh-guanabara-2026-09-19-004", "scene_id": "S2C_MSIL2A_20260919T130251_R095_T23KPQ_20260919T161210", "datetime": "2026-09-19T13:02:51.025000Z", "n_pixels": 1, "area_m2": 100, "prob_max": 0.8431, "prob_mean": 0.8431, "threshold": 0.63, "in_strip": true, "artifact": null}}, {"type": "Feature", "id": "D-SZ-fresh-guanabara-2026-09-19-004-35", "geometry": {"type": "Polygon", "coordinates": [[[-43.1453655, -22.7986062], [-43.1453643, -22.7986965], [-43.1452669, -22.7986954], [-43.1452681, -22.7986051], [-43.1453655, -22.7986062]]]}, "properties": {"kind": "detection", "det_id": "D-SZ-fresh-guanabara-2026-09-19-004-35", "zone_id": "SZ-fresh-guanabara-2026-09-19-004", "scene_id": "S2C_MSIL2A_20260919T130251_R095_T23KPQ_20260919T161210", "datetime": "2026-09-19T13:02:51.025000Z", "n_pixels": 1, "area_m2": 100, "prob_max": 0.9686, "prob_mean": 0.9686, "threshold": 0.63, "in_strip": true, "artifact": null}}, {"type": "Feature", "id": "D-SZ-fresh-guanabara-2026-09-19-004-36", "geometry": {"type": "Polygon", "coordinates": [[[-43.1451707, -22.798604], [-43.1451695, -22.7986943], [-43.1449747, -22.798692], [-43.1449759, -22.7986017], [-43.1451707, -22.798604]]]}, "properties": {"kind": "detection", "det_id": "D-SZ-fresh-guanabara-2026-09-19-004-36", "zone_id": "SZ-fresh-guanabara-2026-09-19-004", "scene_id": "S2C_MSIL2A_20260919T130251_R095_T23KPQ_20260919T161210", "datetime": "2026-09-19T13:02:51.025000Z", "n_pixels": 2, "area_m2": 200, "prob_max": 0.9294, "prob_mean": 0.9098, "threshold": 0.63, "in_strip": true, "artifact": null}}, {"type": "Feature", "id": "D-SZ-fresh-guanabara-2026-09-19-004-37", "geometry": {"type": "Polygon", "coordinates": [[[-43.1426388, -22.7985745], [-43.1426375, -22.7986648], [-43.1425401, -22.7986636], [-43.1425414, -22.7985734], [-43.1426388, -22.7985745]]]}, "properties": {"kind": "detection", "det_id": "D-SZ-fresh-guanabara-2026-09-19-004-37", "zone_id": "SZ-fresh-guanabara-2026-09-19-004", "scene_id": "S2C_MSIL2A_20260919T130251_R095_T23KPQ_20260919T161210", "datetime": "2026-09-19T13:02:51.025000Z", "n_pixels": 1, "area_m2": 100, "prob_max": 0.6471, "prob_mean": 0.6471, "threshold": 0.63, "in_strip": true, "artifact": null}}, {"type": "Feature", "id": "D-SZ-fresh-guanabara-2026-09-19-004-38", "geometry": {"type": "Polygon", "coordinates": [[[-43.1457538, -22.7987011], [-43.1457526, -22.7987913], [-43.1456552, -22.7987902], [-43.1456564, -22.7986999], [-43.1457538, -22.7987011]]]}, "properties": {"kind": "detection", "det_id": "D-SZ-fresh-guanabara-2026-09-19-004-38", "zone_id": "SZ-fresh-guanabara-2026-09-19-004", "scene_id": "S2C_MSIL2A_20260919T130251_R095_T23KPQ_20260919T161210", "datetime": "2026-09-19T13:02:51.025000Z", "n_pixels": 1, "area_m2": 100, "prob_max": 0.8392, "prob_mean": 0.8392, "threshold": 0.63, "in_strip": true, "artifact": null}}, {"type": "Feature", "id": "D-SZ-fresh-guanabara-2026-09-19-004-39", "geometry": {"type": "Polygon", "coordinates": [[[-43.1461409, -22.7988862], [-43.1461384, -22.7990667], [-43.1460411, -22.7990656], [-43.1460435, -22.798885], [-43.1461409, -22.7988862]]]}, "properties": {"kind": "detection", "det_id": "D-SZ-fresh-guanabara-2026-09-19-004-39", "zone_id": "SZ-fresh-guanabara-2026-09-19-004", "scene_id": "S2C_MSIL2A_20260919T130251_R095_T23KPQ_20260919T161210", "datetime": "2026-09-19T13:02:51.025000Z", "n_pixels": 2, "area_m2": 200, "prob_max": 0.9922, "prob_mean": 0.9549, "threshold": 0.63, "in_strip": true, "artifact": null}}, {"type": "Feature", "id": "D-SZ-fresh-guanabara-2026-09-19-004-40", "geometry": {"type": "Polygon", "coordinates": [[[-43.1434141, -22.7988544], [-43.1434129, -22.7989447], [-43.1433155, -22.7989436], [-43.1433168, -22.7988533], [-43.1434141, -22.7988544]]]}, "properties": {"kind": "detection", "det_id": "D-SZ-fresh-guanabara-2026-09-19-004-40", "zone_id": "SZ-fresh-guanabara-2026-09-19-004", "scene_id": "S2C_MSIL2A_20260919T130251_R095_T23KPQ_20260919T161210", "datetime": "2026-09-19T13:02:51.025000Z", "n_pixels": 1, "area_m2": 100, "prob_max": 0.7529, "prob_mean": 0.7529, "threshold": 0.63, "in_strip": true, "artifact": null}}, {"type": "Feature", "id": "D-SZ-fresh-guanabara-2026-09-19-004-41", "geometry": {"type": "Polygon", "coordinates": [[[-43.1425242, -22.7998374], [-43.142523, -22.7999277], [-43.1424256, -22.7999266], [-43.1424269, -22.7998363], [-43.1425242, -22.7998374]]]}, "properties": {"kind": "detection", "det_id": "D-SZ-fresh-guanabara-2026-09-19-004-41", "zone_id": "SZ-fresh-guanabara-2026-09-19-004", "scene_id": "S2C_MSIL2A_20260919T130251_R095_T23KPQ_20260919T161210", "datetime": "2026-09-19T13:02:51.025000Z", "n_pixels": 1, "area_m2": 100, "prob_max": 0.8275, "prob_mean": 0.8275, "threshold": 0.63, "in_strip": true, "artifact": null}}, {"type": "Feature", "id": "D-SZ-fresh-guanabara-2026-09-19-004-42", "geometry": {"type": "Polygon", "coordinates": [[[-43.1457342, -22.8001457], [-43.145733, -22.800236], [-43.1456356, -22.8002348], [-43.1456344, -22.8003251], [-43.145537, -22.800324], [-43.1455395, -22.8001434], [-43.1457342, -22.8001457]]]}, "properties": {"kind": "detection", "det_id": "D-SZ-fresh-guanabara-2026-09-19-004-42", "zone_id": "SZ-fresh-guanabara-2026-09-19-004", "scene_id": "S2C_MSIL2A_20260919T130251_R095_T23KPQ_20260919T161210", "datetime": "2026-09-19T13:02:51.025000Z", "n_pixels": 3, "area_m2": 300, "prob_max": 0.9961, "prob_mean": 0.7843, "threshold": 0.63, "in_strip": true, "artifact": null}}, {"type": "Feature", "id": "D-SZ-fresh-guanabara-2026-09-19-004-43", "geometry": {"type": "Polygon", "coordinates": [[[-43.1439813, -22.8001253], [-43.1439801, -22.8002156], [-43.1438827, -22.8002144], [-43.1438839, -22.8001241], [-43.1439813, -22.8001253]]]}, "properties": {"kind": "detection", "det_id": "D-SZ-fresh-guanabara-2026-09-19-004-43", "zone_id": "SZ-fresh-guanabara-2026-09-19-004", "scene_id": "S2C_MSIL2A_20260919T130251_R095_T23KPQ_20260919T161210", "datetime": "2026-09-19T13:02:51.025000Z", "n_pixels": 1, "area_m2": 100, "prob_max": 0.6431, "prob_mean": 0.6431, "threshold": 0.63, "in_strip": true, "artifact": null}}, {"type": "Feature", "id": "D-SZ-fresh-guanabara-2026-09-19-004-44", "geometry": {"type": "Polygon", "coordinates": [[[-43.1441737, -22.8003081], [-43.1441712, -22.8004887], [-43.1440738, -22.8004876], [-43.1440763, -22.800307], [-43.1441737, -22.8003081]]]}, "properties": {"kind": "detection", "det_id": "D-SZ-fresh-guanabara-2026-09-19-004-44", "zone_id": "SZ-fresh-guanabara-2026-09-19-004", "scene_id": "S2C_MSIL2A_20260919T130251_R095_T23KPQ_20260919T161210", "datetime": "2026-09-19T13:02:51.025000Z", "n_pixels": 2, "area_m2": 200, "prob_max": 0.9843, "prob_mean": 0.9314, "threshold": 0.63, "in_strip": true, "artifact": null}}, {"type": "Feature", "id": "D-SZ-fresh-guanabara-2026-09-19-004-45", "geometry": {"type": "Polygon", "coordinates": [[[-43.1437792, -22.8006647], [-43.143778, -22.800755], [-43.1436806, -22.8007539], [-43.1436818, -22.8006636], [-43.1437792, -22.8006647]]]}, "properties": {"kind": "detection", "det_id": "D-SZ-fresh-guanabara-2026-09-19-004-45", "zone_id": "SZ-fresh-guanabara-2026-09-19-004", "scene_id": "S2C_MSIL2A_20260919T130251_R095_T23KPQ_20260919T161210", "datetime": "2026-09-19T13:02:51.025000Z", "n_pixels": 1, "area_m2": 100, "prob_max": 0.9882, "prob_mean": 0.9882, "threshold": 0.63, "in_strip": true, "artifact": null}}, {"type": "Feature", "id": "D-SZ-fresh-guanabara-2026-09-19-004-46", "geometry": {"type": "Polygon", "coordinates": [[[-43.1450416, -22.8009503], [-43.1450403, -22.8010406], [-43.1449429, -22.8010395], [-43.1449442, -22.8009492], [-43.1450416, -22.8009503]]]}, "properties": {"kind": "detection", "det_id": "D-SZ-fresh-guanabara-2026-09-19-004-46", "zone_id": "SZ-fresh-guanabara-2026-09-19-004", "scene_id": "S2C_MSIL2A_20260919T130251_R095_T23KPQ_20260919T161210", "datetime": "2026-09-19T13:02:51.025000Z", "n_pixels": 1, "area_m2": 100, "prob_max": 0.9647, "prob_mean": 0.9647, "threshold": 0.63, "in_strip": true, "artifact": "ship"}}, {"type": "Feature", "id": "D-SZ-fresh-guanabara-2026-09-19-004-47", "geometry": {"type": "Polygon", "coordinates": [[[-43.1445546, -22.8009447], [-43.1445534, -22.801035], [-43.144456, -22.8010338], [-43.1444572, -22.8009435], [-43.1445546, -22.8009447]]]}, "properties": {"kind": "detection", "det_id": "D-SZ-fresh-guanabara-2026-09-19-004-47", "zone_id": "SZ-fresh-guanabara-2026-09-19-004", "scene_id": "S2C_MSIL2A_20260919T130251_R095_T23KPQ_20260919T161210", "datetime": "2026-09-19T13:02:51.025000Z", "n_pixels": 1, "area_m2": 100, "prob_max": 0.9451, "prob_mean": 0.9451, "threshold": 0.63, "in_strip": true, "artifact": null}}, {"type": "Feature", "id": "D-SZ-fresh-guanabara-2026-09-19-004-48", "geometry": {"type": "Polygon", "coordinates": [[[-43.1454274, -22.8012257], [-43.1454262, -22.801316], [-43.1453288, -22.8013149], [-43.14533, -22.8012246], [-43.1454274, -22.8012257]]]}, "properties": {"kind": "detection", "det_id": "D-SZ-fresh-guanabara-2026-09-19-004-48", "zone_id": "SZ-fresh-guanabara-2026-09-19-004", "scene_id": "S2C_MSIL2A_20260919T130251_R095_T23KPQ_20260919T161210", "datetime": "2026-09-19T13:02:51.025000Z", "n_pixels": 1, "area_m2": 100, "prob_max": 0.9765, "prob_mean": 0.9765, "threshold": 0.63, "in_strip": true, "artifact": null}}, {"type": "Feature", "id": "D-SZ-fresh-guanabara-2026-09-19-004-50", "geometry": {"type": "Polygon", "coordinates": [[[-43.1447372, -22.8018498], [-43.144736, -22.8019401], [-43.1446386, -22.801939], [-43.1446398, -22.8018487], [-43.1447372, -22.8018498]]]}, "properties": {"kind": "detection", "det_id": "D-SZ-fresh-guanabara-2026-09-19-004-50", "zone_id": "SZ-fresh-guanabara-2026-09-19-004", "scene_id": "S2C_MSIL2A_20260919T130251_R095_T23KPQ_20260919T161210", "datetime": "2026-09-19T13:02:51.025000Z", "n_pixels": 1, "area_m2": 100, "prob_max": 0.9686, "prob_mean": 0.9686, "threshold": 0.63, "in_strip": true, "artifact": null}}]}