{"type": "FeatureCollection", "features": [{"type": "Feature", "id": "SZ-fresh-guanabara-2026-09-19-001", "geometry": {"type": "Polygon", "coordinates": [[[-43.212637, -22.726227], [-43.213798, -22.726781], [-43.21408, -22.727597], [-43.213875, -22.728408], [-43.212988, -22.729211], [-43.211431, -22.729193], [-43.210562, -22.728642], [-43.21028, -22.727826], [-43.210385, -22.727285], [-43.210879, -22.726659], [-43.212637, -22.726227]]]}, "properties": {"kind": "detection_zone", "layer_kind": "scene_zone", "zone_id": "SZ-fresh-guanabara-2026-09-19-001", "scene_key": "fresh-guanabara-2026-09-19", "scene_kind": "fresh_s2", "scene_id": "S2C_MSIL2A_20260919T130251_R095_T23KPQ_20260919T161210", "region": "guanabara", "title": "Залив Гуанабара (Рио-де-Жанейро) · зона 1", "mission": "Sentinel-2", "datetime": "2026-09-19T13:02:51.025000Z", "detection_status": "insufficient_data", "status": "insufficient_data", "concentration_status": "unavailable", "quantity": {"status": "not_confirmed", "label": "концентрация по снимку не подтверждена", "detail": "перевод площади в штуки не показываем: нет калибровочных пар (см. docs/QUANTITY.md)"}, "verification": "false_alarm_signs", "training_scene": null, "flags": ["ship", "coast", "shallow", "glint"], "n_cozar_filaments": 0, "crop_file": "crops/SZ-fresh-guanabara-2026-09-19-001.jpg", "wind_high": false, "measured": {"zone_area_km2": 0.0991, "suspicious_area_m2": 1900, "n_pixels": 19, "n_objects": 1, "water_km2": 0.0776, "lwd_m2_km2": 24484.5, "lwd_note": null, "quality": {"valid_water_fraction": 0.77, "cloud_fraction": 0.0, "glint_fraction": 0.0}, "model": {"weights": "weights/lgbm", "file": "weights/lgbm/model.txt", "sha256": "0eeebf43fcccd8c7c07f053b7ec723229d1a3c9b92d12eec1bdb269258c51470", "sha256_short": "0eeebf43fccc", "trained_at": "2026-09-25T01:36:30Z", "threshold": 0.63, "harmonize": "none", "class": "MARIDA Marine Debris (любой плавающий мусор, не только пластик)"}}, "probable": {"prob_max": 0.992, "prob_mean": 0.873, "signs": {"foam": {"flag": false, "white_ratio_b2_b8": 0.534, "wind10m_ms": 1.38, "rule": "прирост B2 над водой ≥ 0.8 прироста B8 («белый» спектр) или ветер ≥ 7.0 м/с"}, "glint": {"flag": true, "b11_water_median": 0.0102, "glint_share": 0.0, "rule": "медиана B11 воды зоны > 0.01 или ≥ 20 % пикселей зоны — блик (маска качества)"}, "ship": {"flag": true, "share": 0, "bright_target_px_within_500m": 76, "rule": "≥ 30 % пикселей — у яркой цели или кильватера (reports/artifacts.md) или яркая цель с откликом в SWIR (судно, лодка: B11 ≥ 0,015) ближе 500 м, или малый яркий объект (≤ 40 пикс.) с B11 ≥ 0,01 ближе 500 м (лодка с кильватером)"}, "coast": {"flag": true, "land_px_within_300m": 1462, "rule": "суша (маска качества) ближе 300 м — прибой, кромка берега"}, "shallow": {"flag": true, "b3_water_zone": 0.0279, "b3_ratio_to_scene_water": 1.03, "rule": "медиана B3 воды зоны ≥ 2× медианы воды снимка и ≥ 0,03, или B4 воды зоны ≥ 0,02 и (≥ 2× воды снимка или B8 ≥ 0,013) — мелководье, яркое дно, илистая банка"}, "seam": {"flag": false, "share": 0, "rule": "≥ 30 % пикселей — прямая линия вдоль трека/границы яркости (шов)"}, "cloud": {"flag": false, "cloud_fraction": 0.0, "rule": "облака или тени облаков (маска качества) ≥ 20 % зоны"}, "diag": {"dist_land_m": 94, "dist_bright_m": 10, "n_bright_px_500m": 160, "b11_bright_max_500m": 0.1164, "b4_water_zone": 0.028, "b8_water_zone": 0.0138, "b11_det_median": 0.0132, "b8_det_median": 0.0391, "water_scene_b3": 0.0271, "water_scene_b4": 0.0177, "n_det_px": 19, "n_obj": 1}, "note": "эвристики, не классификатор; на размеченных данных не проверены"}, "n_cozar_filaments": 0}, "field_nearby": {"items": [{"source": "ADIS (4TU.ResearchData, судовая камера)", "segment_id": 336436, "ship": "Bark Europa", "date": "2022-10-31", "days_from_scene": -1419, "distance_km": 347.4, "lon": -40.0369, "lat": -24.05508, "n_items": 0, "area_km2": 0.3704, "size_class": "> 5 см", "c_items_km2": 0.0, "ci95_lo": 0.0, "ci95_hi": 9.96, "ci95_method": "точный интервал Пуассона для N, делённый на A", "raw_10cm_items_km2": 0.0, "authors_cal_10cm_items_km2": 0.0, "authors_cal_10cm_lo95": null, "authors_cal_10cm_hi95": null}, {"source": "ADIS (4TU.ResearchData, судовая камера)", "segment_id": 336437, "ship": "Bark Europa", "date": "2022-10-31", "days_from_scene": -1419, "distance_km": 348.5, "lon": -40.06524, "lat": -24.14022, "n_items": 0, "area_km2": 0.3705, "size_class": "> 5 см", "c_items_km2": 0.0, "ci95_lo": 0.0, "ci95_hi": 9.96, "ci95_method": "точный интервал Пуассона для N, делённый на A", "raw_10cm_items_km2": 0.0, "authors_cal_10cm_items_km2": 0.0, "authors_cal_10cm_lo95": null, "authors_cal_10cm_hi95": null}, {"source": "ADIS (4TU.ResearchData, судовая камера)", "segment_id": 336438, "ship": "Bark Europa", "date": "2022-10-31", "days_from_scene": -1419, "distance_km": 349.7, "lon": -40.09594, "lat": -24.22453, "n_items": 0, "area_km2": 0.3702, "size_class": "> 5 см", "c_items_km2": 0.0, "ci95_lo": 0.0, "ci95_hi": 9.96, "ci95_method": "точный интервал Пуассона для N, делённый на A", "raw_10cm_items_km2": 0.0, "authors_cal_10cm_items_km2": 0.0, "authors_cal_10cm_lo95": null, "authors_cal_10cm_hi95": null}], "nearest_organizer_sample": {"sample_id": "MPL-0513", "source_id": "S2_SARGASSO_MSM41", "distance_km": 5301.6}, "note": "Измерение ≠ оценка: это независимые полевые счёты C = N/A в другое время и в другом месте; со сценой они не связаны и не калибруют её. Ближайший отрезок ADIS — за 347 км: только для порядка величин."}, "acquired_at": "2026-09-19T13:02:51.025000Z", "acquisition_date": "2026-09-19", "processed_at": "2026-09-26T19:13:12Z", "human_checked": false, "auto_label": "автоматически, не проверено человеком"}}, {"type": "Feature", "id": "SZ-fresh-guanabara-2026-09-19-002", "geometry": {"type": "Polygon", "coordinates": [[[-43.032711, -22.73513], [-43.033583, -22.735411], [-43.033968, -22.735777], [-43.034247, -22.736684], [-43.033647, -22.73776], [-43.032475, -22.738016], [-43.031315, -22.73746], [-43.031037, -22.736464], [-43.031637, -22.735387], [-43.032711, -22.73513]]]}, "properties": {"kind": "detection_zone", "layer_kind": "scene_zone", "zone_id": "SZ-fresh-guanabara-2026-09-19-002", "scene_key": "fresh-guanabara-2026-09-19", "scene_kind": "fresh_s2", "scene_id": "S2C_MSIL2A_20260919T130251_R095_T23KPQ_20260919T161210", "region": "guanabara", "title": "Залив Гуанабара (Рио-де-Жанейро) · зона 2", "mission": "Sentinel-2", "datetime": "2026-09-19T13:02:51.025000Z", "detection_status": "insufficient_data", "status": "insufficient_data", "concentration_status": "unavailable", "quantity": {"status": "not_confirmed", "label": "концентрация по снимку не подтверждена", "detail": "перевод площади в штуки не показываем: нет калибровочных пар (см. docs/QUANTITY.md)"}, "verification": "false_alarm_signs", "training_scene": null, "flags": ["ship", "shallow", "glint", "foam"], "n_cozar_filaments": 0, "crop_file": "crops/SZ-fresh-guanabara-2026-09-19-002.jpg", "wind_high": false, "measured": {"zone_area_km2": 0.0773, "suspicious_area_m2": 500, "n_pixels": 5, "n_objects": 1, "water_km2": 0.0561, "lwd_m2_km2": 8912.7, "lwd_note": null, "quality": {"valid_water_fraction": 0.707, "cloud_fraction": 0.087, "glint_fraction": 0.0}, "model": {"weights": "weights/lgbm", "file": "weights/lgbm/model.txt", "sha256": "0eeebf43fcccd8c7c07f053b7ec723229d1a3c9b92d12eec1bdb269258c51470", "sha256_short": "0eeebf43fccc", "trained_at": "2026-09-25T01:36:30Z", "threshold": 0.63, "harmonize": "none", "class": "MARIDA Marine Debris (любой плавающий мусор, не только пластик)"}}, "probable": {"prob_max": 0.988, "prob_mean": 0.877, "signs": {"foam": {"flag": true, "white_ratio_b2_b8": 0.89, "wind10m_ms": 1.38, "rule": "прирост B2 над водой ≥ 0.8 прироста B8 («белый» спектр) или ветер ≥ 7.0 м/с"}, "glint": {"flag": true, "b11_water_median": 0.014, "glint_share": 0.0, "rule": "медиана B11 воды зоны > 0.01 или ≥ 20 % пикселей зоны — блик (маска качества)"}, "ship": {"flag": true, "share": 0, "bright_target_px_within_500m": 2010, "rule": "≥ 30 % пикселей — у яркой цели или кильватера (reports/artifacts.md) или яркая цель с откликом в SWIR (судно, лодка: B11 ≥ 0,015) ближе 500 м, или малый яркий объект (≤ 40 пикс.) с B11 ≥ 0,01 ближе 500 м (лодка с кильватером)"}, "coast": {"flag": false, "land_px_within_300m": 0, "rule": "суша (маска качества) ближе 300 м — прибой, кромка берега"}, "shallow": {"flag": true, "b3_water_zone": 0.043, "b3_ratio_to_scene_water": 1.59, "rule": "медиана B3 воды зоны ≥ 2× медианы воды снимка и ≥ 0,03, или B4 воды зоны ≥ 0,02 и (≥ 2× воды снимка или B8 ≥ 0,013) — мелководье, яркое дно, илистая банка"}, "seam": {"flag": false, "share": 0, "rule": "≥ 30 % пикселей — прямая линия вдоль трека/границы яркости (шов)"}, "cloud": {"flag": false, "cloud_fraction": 0.087, "rule": "облака или тени облаков (маска качества) ≥ 20 % зоны"}, "diag": {"dist_land_m": 402, "dist_bright_m": 10, "n_bright_px_500m": 47, "b11_bright_max_500m": 0.0415, "b4_water_zone": 0.0413, "b8_water_zone": 0.0198, "b11_det_median": 0.0209, "b8_det_median": 0.0456, "water_scene_b3": 0.0271, "water_scene_b4": 0.0177, "n_det_px": 5, "n_obj": 1}, "note": "эвристики, не классификатор; на размеченных данных не проверены"}, "n_cozar_filaments": 0}, "field_nearby": {"items": [{"source": "ADIS (4TU.ResearchData, судовая камера)", "segment_id": 336436, "ship": "Bark Europa", "date": "2022-10-31", "days_from_scene": -1419, "distance_km": 347.4, "lon": -40.0369, "lat": -24.05508, "n_items": 0, "area_km2": 0.3704, "size_class": "> 5 см", "c_items_km2": 0.0, "ci95_lo": 0.0, "ci95_hi": 9.96, "ci95_method": "точный интервал Пуассона для N, делённый на A", "raw_10cm_items_km2": 0.0, "authors_cal_10cm_items_km2": 0.0, "authors_cal_10cm_lo95": null, "authors_cal_10cm_hi95": null}, {"source": "ADIS (4TU.ResearchData, судовая камера)", "segment_id": 336437, "ship": "Bark Europa", "date": "2022-10-31", "days_from_scene": -1419, "distance_km": 348.5, "lon": -40.06524, "lat": -24.14022, "n_items": 0, "area_km2": 0.3705, "size_class": "> 5 см", "c_items_km2": 0.0, "ci95_lo": 0.0, "ci95_hi": 9.96, "ci95_method": "точный интервал Пуассона для N, делённый на A", "raw_10cm_items_km2": 0.0, "authors_cal_10cm_items_km2": 0.0, "authors_cal_10cm_lo95": null, "authors_cal_10cm_hi95": null}, {"source": "ADIS (4TU.ResearchData, судовая камера)", "segment_id": 336438, "ship": "Bark Europa", "date": "2022-10-31", "days_from_scene": -1419, "distance_km": 349.7, "lon": -40.09594, "lat": -24.22453, "n_items": 0, "area_km2": 0.3702, "size_class": "> 5 см", "c_items_km2": 0.0, "ci95_lo": 0.0, "ci95_hi": 9.96, "ci95_method": "точный интервал Пуассона для N, делённый на A", "raw_10cm_items_km2": 0.0, "authors_cal_10cm_items_km2": 0.0, "authors_cal_10cm_lo95": null, "authors_cal_10cm_hi95": null}], "nearest_organizer_sample": {"sample_id": "MPL-0513", "source_id": "S2_SARGASSO_MSM41", "distance_km": 5301.6}, "note": "Измерение ≠ оценка: это независимые полевые счёты C = N/A в другое время и в другом месте; со сценой они не связаны и не калибруют её. Ближайший отрезок ADIS — за 347 км: только для порядка величин."}, "acquired_at": "2026-09-19T13:02:51.025000Z", "acquisition_date": "2026-09-19", "processed_at": "2026-09-26T19:13:12Z", "human_checked": false, "auto_label": "автоматически, не проверено человеком"}}, {"type": "Feature", "id": "SZ-fresh-guanabara-2026-09-19-003", "geometry": {"type": "Polygon", "coordinates": [[[-43.234623, -22.742636], [-43.235784, -22.743191], [-43.236063, -22.744187], [-43.235465, -22.745264], [-43.234293, -22.745522], [-43.233132, -22.744967], [-43.232853, -22.743971], [-43.233451, -22.742894], [-43.234623, -22.742636]]]}, "properties": {"kind": "detection_zone", "layer_kind": "scene_zone", "zone_id": "SZ-fresh-guanabara-2026-09-19-003", "scene_key": "fresh-guanabara-2026-09-19", "scene_kind": "fresh_s2", "scene_id": "S2C_MSIL2A_20260919T130251_R095_T23KPQ_20260919T161210", "region": "guanabara", "title": "Залив Гуанабара (Рио-де-Жанейро) · зона 3", "mission": "Sentinel-2", "datetime": "2026-09-19T13:02:51.025000Z", "detection_status": "insufficient_data", "status": "insufficient_data", "concentration_status": "unavailable", "quantity": {"status": "not_confirmed", "label": "концентрация по снимку не подтверждена", "detail": "перевод площади в штуки не показываем: нет калибровочных пар (см. docs/QUANTITY.md)"}, "verification": "false_alarm_signs", "training_scene": null, "flags": ["ship", "coast", "shallow"], "n_cozar_filaments": 0, "crop_file": "crops/SZ-fresh-guanabara-2026-09-19-003.jpg", "wind_high": false, "measured": {"zone_area_km2": 0.0771, "suspicious_area_m2": 600, "n_pixels": 6, "n_objects": 1, "water_km2": 0.057, "lwd_m2_km2": 10526.3, "lwd_note": null, "quality": {"valid_water_fraction": 0.709, "cloud_fraction": 0.0, "glint_fraction": 0.0}, "model": {"weights": "weights/lgbm", "file": "weights/lgbm/model.txt", "sha256": "0eeebf43fcccd8c7c07f053b7ec723229d1a3c9b92d12eec1bdb269258c51470", "sha256_short": "0eeebf43fccc", "trained_at": "2026-09-25T01:36:30Z", "threshold": 0.63, "harmonize": "none", "class": "MARIDA Marine Debris (любой плавающий мусор, не только пластик)"}}, "probable": {"prob_max": 1.0, "prob_mean": 0.957, "signs": {"foam": {"flag": false, "white_ratio_b2_b8": 0.548, "wind10m_ms": 1.38, "rule": "прирост B2 над водой ≥ 0.8 прироста B8 («белый» спектр) или ветер ≥ 7.0 м/с"}, "glint": {"flag": false, "b11_water_median": 0.0084, "glint_share": 0.0, "rule": "медиана B11 воды зоны > 0.01 или ≥ 20 % пикселей зоны — блик (маска качества)"}, "ship": {"flag": true, "share": 0, "bright_target_px_within_500m": 245, "rule": "≥ 30 % пикселей — у яркой цели или кильватера (reports/artifacts.md) или яркая цель с откликом в SWIR (судно, лодка: B11 ≥ 0,015) ближе 500 м, или малый яркий объект (≤ 40 пикс.) с B11 ≥ 0,01 ближе 500 м (лодка с кильватером)"}, "coast": {"flag": true, "land_px_within_300m": 267, "rule": "суша (маска качества) ближе 300 м — прибой, кромка берега"}, "shallow": {"flag": true, "b3_water_zone": 0.0362, "b3_ratio_to_scene_water": 1.34, "rule": "медиана B3 воды зоны ≥ 2× медианы воды снимка и ≥ 0,03, или B4 воды зоны ≥ 0,02 и (≥ 2× воды снимка или B8 ≥ 0,013) — мелководье, яркое дно, илистая банка"}, "seam": {"flag": false, "share": 0, "rule": "≥ 30 % пикселей — прямая линия вдоль трека/границы яркости (шов)"}, "cloud": {"flag": false, "cloud_fraction": 0.0, "rule": "облака или тени облаков (маска качества) ≥ 20 % зоны"}, "diag": {"dist_land_m": 196, "dist_bright_m": 233, "n_bright_px_500m": 29, "b11_bright_max_500m": 0.0501, "b4_water_zone": 0.0346, "b8_water_zone": 0.0244, "b11_det_median": 0.0082, "b8_det_median": 0.0484, "water_scene_b3": 0.0271, "water_scene_b4": 0.0177, "n_det_px": 6, "n_obj": 1}, "note": "эвристики, не классификатор; на размеченных данных не проверены"}, "n_cozar_filaments": 0}, "field_nearby": {"items": [{"source": "ADIS (4TU.ResearchData, судовая камера)", "segment_id": 336436, "ship": "Bark Europa", "date": "2022-10-31", "days_from_scene": -1419, "distance_km": 347.4, "lon": -40.0369, "lat": -24.05508, "n_items": 0, "area_km2": 0.3704, "size_class": "> 5 см", "c_items_km2": 0.0, "ci95_lo": 0.0, "ci95_hi": 9.96, "ci95_method": "точный интервал Пуассона для N, делённый на A", "raw_10cm_items_km2": 0.0, "authors_cal_10cm_items_km2": 0.0, "authors_cal_10cm_lo95": null, "authors_cal_10cm_hi95": null}, {"source": "ADIS (4TU.ResearchData, судовая камера)", "segment_id": 336437, "ship": "Bark Europa", "date": "2022-10-31", "days_from_scene": -1419, "distance_km": 348.5, "lon": -40.06524, "lat": -24.14022, "n_items": 0, "area_km2": 0.3705, "size_class": "> 5 см", "c_items_km2": 0.0, "ci95_lo": 0.0, "ci95_hi": 9.96, "ci95_method": "точный интервал Пуассона для N, делённый на A", "raw_10cm_items_km2": 0.0, "authors_cal_10cm_items_km2": 0.0, "authors_cal_10cm_lo95": null, "authors_cal_10cm_hi95": null}, {"source": "ADIS (4TU.ResearchData, судовая камера)", "segment_id": 336438, "ship": "Bark Europa", "date": "2022-10-31", "days_from_scene": -1419, "distance_km": 349.7, "lon": -40.09594, "lat": -24.22453, "n_items": 0, "area_km2": 0.3702, "size_class": "> 5 см", "c_items_km2": 0.0, "ci95_lo": 0.0, "ci95_hi": 9.96, "ci95_method": "точный интервал Пуассона для N, делённый на A", "raw_10cm_items_km2": 0.0, "authors_cal_10cm_items_km2": 0.0, "authors_cal_10cm_lo95": null, "authors_cal_10cm_hi95": null}], "nearest_organizer_sample": {"sample_id": "MPL-0513", "source_id": "S2_SARGASSO_MSM41", "distance_km": 5301.6}, "note": "Измерение ≠ оценка: это независимые полевые счёты C = N/A в другое время и в другом месте; со сценой они не связаны и не калибруют её. Ближайший отрезок ADIS — за 347 км: только для порядка величин."}, "acquired_at": "2026-09-19T13:02:51.025000Z", "acquisition_date": "2026-09-19", "processed_at": "2026-09-26T19:13:12Z", "human_checked": false, "auto_label": "автоматически, не проверено человеком"}}, {"type": "Feature", "id": "SZ-fresh-guanabara-2026-09-19-004", "geometry": {"type": "Polygon", "coordinates": [[[-43.142981, -22.794876], [-43.144142, -22.795431], [-43.144324, -22.796427], [-43.144807, -22.796703], [-43.145201, -22.796347], [-43.146179, -22.796087], [-43.147052, -22.796368], [-43.14753, -22.797006], [-43.147413, -22.798449], [-43.147599, -22.799084], [-43.1471, -22.799981], [-43.146783, -22.801783], [-43.145206, -22.80321], [-43.14462, -22.803293], [-43.143747, -22.803012], [-43.143269, -22.802375], [-43.143274, -22.802013], [-43.142789, -22.801827], [-43.142408, -22.801191], [-43.141534, -22.801], [-43.141056, -22.800362], [-43.141184, -22.798106], [-43.141874, -22.797482], [-43.141397, -22.796754], [-43.141411, -22.795761], [-43.141906, -22.795134], [-43.142981, -22.794876]]]}, "properties": {"kind": "detection_zone", "layer_kind": "scene_zone", "zone_id": "SZ-fresh-guanabara-2026-09-19-004", "scene_key": "fresh-guanabara-2026-09-19", "scene_kind": "fresh_s2", "scene_id": "S2C_MSIL2A_20260919T130251_R095_T23KPQ_20260919T161210", "region": "guanabara", "title": "Залив Гуанабара (Рио-де-Жанейро) · зона 4", "mission": "Sentinel-2", "datetime": "2026-09-19T13:02:51.025000Z", "detection_status": "insufficient_data", "status": "insufficient_data", "concentration_status": "unavailable", "quantity": {"status": "not_confirmed", "label": "концентрация по снимку не подтверждена", "detail": "перевод площади в штуки не показываем: нет калибровочных пар (см. docs/QUANTITY.md)"}, "verification": "false_alarm_signs", "training_scene": null, "flags": ["ship"], "n_cozar_filaments": 0, "crop_file": "crops/SZ-fresh-guanabara-2026-09-19-004.jpg", "wind_high": false, "measured": {"zone_area_km2": 0.4385, "suspicious_area_m2": 2500, "n_pixels": 25, "n_objects": 18, "water_km2": 0.443, "lwd_m2_km2": 5643.3, "lwd_note": null, "quality": {"valid_water_fraction": 1.0, "cloud_fraction": 0.0, "glint_fraction": 0.0}, "model": {"weights": "weights/lgbm", "file": "weights/lgbm/model.txt", "sha256": "0eeebf43fcccd8c7c07f053b7ec723229d1a3c9b92d12eec1bdb269258c51470", "sha256_short": "0eeebf43fccc", "trained_at": "2026-09-25T01:36:30Z", "threshold": 0.63, "harmonize": "none", "class": "MARIDA Marine Debris (любой плавающий мусор, не только пластик)"}}, "probable": {"prob_max": 0.996, "prob_mean": 0.871, "signs": {"foam": {"flag": false, "white_ratio_b2_b8": 0.374, "wind10m_ms": 1.38, "rule": "прирост B2 над водой ≥ 0.8 прироста B8 («белый» спектр) или ветер ≥ 7.0 м/с"}, "glint": {"flag": false, "b11_water_median": 0.0085, "glint_share": 0.0, "rule": "медиана B11 воды зоны > 0.01 или ≥ 20 % пикселей зоны — блик (маска качества)"}, "ship": {"flag": true, "share": 0.04, "bright_target_px_within_500m": 6, "rule": "≥ 30 % пикселей — у яркой цели или кильватера (reports/artifacts.md) или яркая цель с откликом в SWIR (судно, лодка: B11 ≥ 0,015) ближе 500 м, или малый яркий объект (≤ 40 пикс.) с B11 ≥ 0,01 ближе 500 м (лодка с кильватером)"}, "coast": {"flag": false, "land_px_within_300m": 0, "rule": "суша (маска качества) ближе 300 м — прибой, кромка берега"}, "shallow": {"flag": false, "b3_water_zone": 0.0213, "b3_ratio_to_scene_water": 0.79, "rule": "медиана B3 воды зоны ≥ 2× медианы воды снимка и ≥ 0,03, или B4 воды зоны ≥ 0,02 и (≥ 2× воды снимка или B8 ≥ 0,013) — мелководье, яркое дно, илистая банка"}, "seam": {"flag": false, "share": 0, "rule": "≥ 30 % пикселей — прямая линия вдоль трека/границы яркости (шов)"}, "cloud": {"flag": false, "cloud_fraction": 0.0, "rule": "облака или тени облаков (маска качества) ≥ 20 % зоны"}, "diag": {"dist_land_m": 943, "dist_bright_m": 10, "n_bright_px_500m": 35, "b11_bright_max_500m": 0.0321, "b4_water_zone": 0.0131, "b8_water_zone": 0.0085, "b11_det_median": 0.0137, "b8_det_median": 0.0328, "water_scene_b3": 0.0271, "water_scene_b4": 0.0177, "n_det_px": 25, "n_obj": 18}, "note": "эвристики, не классификатор; на размеченных данных не проверены"}, "n_cozar_filaments": 0}, "field_nearby": {"items": [{"source": "ADIS (4TU.ResearchData, судовая камера)", "segment_id": 336436, "ship": "Bark Europa", "date": "2022-10-31", "days_from_scene": -1419, "distance_km": 347.4, "lon": -40.0369, "lat": -24.05508, "n_items": 0, "area_km2": 0.3704, "size_class": "> 5 см", "c_items_km2": 0.0, "ci95_lo": 0.0, "ci95_hi": 9.96, "ci95_method": "точный интервал Пуассона для N, делённый на A", "raw_10cm_items_km2": 0.0, "authors_cal_10cm_items_km2": 0.0, "authors_cal_10cm_lo95": null, "authors_cal_10cm_hi95": null}, {"source": "ADIS (4TU.ResearchData, судовая камера)", "segment_id": 336437, "ship": "Bark Europa", "date": "2022-10-31", "days_from_scene": -1419, "distance_km": 348.5, "lon": -40.06524, "lat": -24.14022, "n_items": 0, "area_km2": 0.3705, "size_class": "> 5 см", "c_items_km2": 0.0, "ci95_lo": 0.0, "ci95_hi": 9.96, "ci95_method": "точный интервал Пуассона для N, делённый на A", "raw_10cm_items_km2": 0.0, "authors_cal_10cm_items_km2": 0.0, "authors_cal_10cm_lo95": null, "authors_cal_10cm_hi95": null}, {"source": "ADIS (4TU.ResearchData, судовая камера)", "segment_id": 336438, "ship": "Bark Europa", "date": "2022-10-31", "days_from_scene": -1419, "distance_km": 349.7, "lon": -40.09594, "lat": -24.22453, "n_items": 0, "area_km2": 0.3702, "size_class": "> 5 см", "c_items_km2": 0.0, "ci95_lo": 0.0, "ci95_hi": 9.96, "ci95_method": "точный интервал Пуассона для N, делённый на A", "raw_10cm_items_km2": 0.0, "authors_cal_10cm_items_km2": 0.0, "authors_cal_10cm_lo95": null, "authors_cal_10cm_hi95": null}], "nearest_organizer_sample": {"sample_id": "MPL-0513", "source_id": "S2_SARGASSO_MSM41", "distance_km": 5301.6}, "note": "Измерение ≠ оценка: это независимые полевые счёты C = N/A в другое время и в другом месте; со сценой они не связаны и не калибруют её. Ближайший отрезок ADIS — за 347 км: только для порядка величин."}, "acquired_at": "2026-09-19T13:02:51.025000Z", "acquisition_date": "2026-09-19", "processed_at": "2026-09-26T19:13:12Z", "human_checked": false, "auto_label": "автоматически, не проверено человеком"}}]}