{"type":"FeatureCollection","features":[{"type":"Feature","geometry":{"type":"Polygon","coordinates":[[[-88.114524,15.900435],[-88.114524,15.900344],[-88.11471,15.900343],[-88.114709,15.900072],[-88.114429,15.900074],[-88.114429,15.900164],[-88.114242,15.900165],[-88.114243,15.900255],[-88.11415,15.900256],[-88.114151,15.900437],[-88.114524,15.900435]]]},"properties":{"id":"honduras_2026-05-30_mdd_0","region":"honduras","date":"2026-05-30","area_m2":1800.0,"mean_prob":0.5242,"max_prob":0.5451,"model":"mdd","n_px":18,"px_area_m2":100.0,"lon":-88.114445,"lat":15.900264}},{"type":"Feature","geometry":{"type":"Polygon","coordinates":[[[-88.12254,15.880598],[-88.122539,15.880417],[-88.122259,15.880418],[-88.12226,15.880509],[-88.122353,15.880508],[-88.122354,15.880599],[-88.12254,15.880598]]]},"properties":{"id":"honduras_2026-05-30_mdd_1","region":"honduras","date":"2026-05-30","area_m2":500.0,"mean_prob":0.5278,"max_prob":0.5451,"model":"mdd","n_px":5,"px_area_m2":100.0,"lon":-88.122418,"lat":15.880499}},{"type":"Feature","geometry":{"type":"Polygon","coordinates":[[[-88.115904,15.879638],[-88.115904,15.879547],[-88.11581,15.879548],[-88.11581,15.879457],[-88.115716,15.879458],[-88.115717,15.879639],[-88.115904,15.879638]]]},"properties":{"id":"honduras_2026-05-30_mdd_2","region":"honduras","date":"2026-05-30","area_m2":300.0,"mean_prob":0.515,"max_prob":0.5216,"model":"mdd","n_px":3,"px_area_m2":100.0,"lon":-88.115795,"lat":15.879563}},{"type":"Feature","geometry":{"type":"Polygon","coordinates":[[[-88.154713,15.806309],[-88.154712,15.806218],[-88.155085,15.806216],[-88.155085,15.806126],[-88.155365,15.806124],[-88.155364,15.806034],[-88.155645,15.806033],[-88.155644,15.805942],[-88.155924,15.805941],[-88.155924,15.80585],[-88.15611,15.805849],[-88.15611,15.805759],[-88.156297,15.805758],[-88.156296,15.805668],[-88.156483,15.805667],[-88.156482,15.805576],[-88.156669,15.805575],[-88.156668,15.805485],[-88.156762,15.805484],[-88.156761,15.805394],[-88.156855,15.805393],[-88.156854,15.805213],[-88.156947,15.805212],[-88.156944,15.80476],[-88.156851,15.804761],[-88.15685,15.80458],[-88.156757,15.80458],[-88.156756,15.80449],[-88.156663,15.804491],[-88.156662,15.8044],[-88.156569,15.804401],[-88.156568,15.80431],[-88.156475,15.804311],[-88.156474,15.80422],[-88.156381,15.804221],[-88.156381,15.804131],[-88.156194,15.804132],[-88.156193,15.804041],[-88.155353,15.804046],[-88.155354,15.804136],[-88.15526,15.804136],[-88.155261,15.804227],[-88.155074,15.804228],[-88.155075,15.804409],[-88.154982,15.804409],[-88.154982,15.8045],[-88.154889,15.8045],[-88.154889,15.80459],[-88.154796,15.804591],[-88.154797,15.804681],[-88.154703,15.804682],[-88.154704,15.804863],[-88.154518,15.804864],[-88.154518,15.804954],[-88.154425,15.804954],[-88.154425,15.805045],[-88.154332,15.805045],[-88.154332,15.805136],[-88.154239,15.805136],[-88.15424,15.805227],[-88.15396,15.805228],[-88.15396,15.805318],[-88.153493,15.805321],[-88.153494,15.805411],[-88.153214,15.805413],[-88.153214,15.805503],[-88.152841,15.805505],[-88.152841,15.805596],[-88.152748,15.805596],[-88.152748,15.805686],[-88.152655,15.805687],[-88.152656,15.805777],[-88.152469,15.805778],[-88.152471,15.80623],[-88.152658,15.806229],[-88.152659,15.80632],[-88.154713,15.806309]]]},"properties":{"id":"honduras_2026-05-30_mdd_3","region":"honduras","date":"2026-05-30","area_m2":68500.0,"mean_prob":0.6698,"max_prob":0.8667,"model":"mdd","n_px":685,"px_area_m2":100.0,"lon":-88.154982,"lat":15.805343}},{"type":"Feature","geometry":{"type":"Polygon","coordinates":[[[-88.146488,15.804725],[-88.146487,15.804545],[-88.146207,15.804546],[-88.146207,15.804636],[-88.146301,15.804636],[-88.146301,15.804726],[-88.146488,15.804725]]]},"properties":{"id":"honduras_2026-05-30_mdd_4","region":"honduras","date":"2026-05-30","area_m2":500.0,"mean_prob":0.5224,"max_prob":0.5373,"model":"mdd","n_px":5,"px_area_m2":100.0,"lon":-88.146366,"lat":15.804626}},{"type":"Feature","geometry":{"type":"Polygon","coordinates":[[[-88.137427,15.803869],[-88.137427,15.803779],[-88.137707,15.803777],[-88.137706,15.803687],[-88.137893,15.803686],[-88.137893,15.803595],[-88.138079,15.803594],[-88.138079,15.803504],[-88.138359,15.803503],[-88.138358,15.803412],[-88.139012,15.803409],[-88.139011,15.803318],[-88.139385,15.803316],[-88.139384,15.803226],[-88.139758,15.803224],[-88.139757,15.803134],[-88.139944,15.803133],[-88.139943,15.803042],[-88.140037,15.803042],[-88.140036,15.802861],[-88.139849,15.802862],[-88.139849,15.802772],[-88.137888,15.802782],[-88.137889,15.802872],[-88.137608,15.802874],[-88.137609,15.802964],[-88.137422,15.802965],[-88.137423,15.803056],[-88.137236,15.803056],[-88.137237,15.803147],[-88.137143,15.803147],[-88.137144,15.803238],[-88.13705,15.803238],[-88.137051,15.803419],[-88.136958,15.80342],[-88.136959,15.80351],[-88.136865,15.80351],[-88.136867,15.803782],[-88.137053,15.803781],[-88.137054,15.803871],[-88.137427,15.803869]]]},"properties":{"id":"honduras_2026-05-30_mdd_5","region":"honduras","date":"2026-05-30","area_m2":23000.0,"mean_prob":0.5875,"max_prob":0.6706,"model":"mdd","n_px":230,"px_area_m2":100.0,"lon":-88.138294,"lat":15.803208}},{"type":"Feature","geometry":{"type":"Polygon","coordinates":[[[-88.183971,15.748302],[-88.18397,15.748121],[-88.184063,15.748121],[-88.184062,15.74794],[-88.184155,15.747939],[-88.184154,15.747759],[-88.184248,15.747758],[-88.184247,15.747577],[-88.184153,15.747578],[-88.184154,15.747759],[-88.184061,15.747759],[-88.184062,15.74794],[-88.183969,15.74794],[-88.18397,15.748121],[-88.183876,15.748122],[-88.183877,15.748303],[-88.183971,15.748302]]]},"properties":{"id":"honduras_2026-05-30_mdd_6","region":"honduras","date":"2026-05-30","area_m2":800.0,"mean_prob":0.5074,"max_prob":0.5137,"model":"mdd","n_px":8,"px_area_m2":100.0,"lon":-88.184062,"lat":15.74794}},{"type":"Feature","geometry":{"type":"Polygon","coordinates":[[[-88.184339,15.747487],[-88.184338,15.747306],[-88.184432,15.747305],[-88.18443,15.747034],[-88.184523,15.747034],[-88.184522,15.746853],[-88.184616,15.746852],[-88.184615,15.746672],[-88.184708,15.746671],[-88.184707,15.74649],[-88.1848,15.74649],[-88.184799,15.746309],[-88.184892,15.746308],[-88.184891,15.746128],[-88.184985,15.746127],[-88.184984,15.745946],[-88.185077,15.745946],[-88.185075,15.745675],[-88.185169,15.745674],[-88.185168,15.745493],[-88.185261,15.745493],[-88.18526,15.745312],[-88.185353,15.745312],[-88.185352,15.745131],[-88.185446,15.74513],[-88.185445,15.74504],[-88.185538,15.745039],[-88.185537,15.744859],[-88.185631,15.744858],[-88.18563,15.744677],[-88.185723,15.744677],[-88.185722,15.744496],[-88.185815,15.744496],[-88.185814,15.744315],[-88.185908,15.744314],[-88.185907,15.744224],[-88.186,15.744223],[-88.185999,15.744043],[-88.186093,15.744042],[-88.186092,15.743952],[-88.186185,15.743951],[-88.186184,15.74377],[-88.186278,15.74377],[-88.186277,15.74368],[-88.186371,15.743679],[-88.186369,15.743498],[-88.186463,15.743498],[-88.186462,15.743317],[-88.186555,15.743317],[-88.186555,15.743226],[-88.186648,15.743226],[-88.186647,15.743045],[-88.18674,15.743044],[-88.18674,15.742954],[-88.186646,15.742954],[-88.186647,15.743045],[-88.186554,15.743045],[-88.186554,15.743136],[-88.186461,15.743136],[-88.186461,15.743227],[-88.186368,15.743227],[-88.186368,15.743318],[-88.186275,15.743318],[-88.186276,15.743499],[-88.186183,15.743499],[-88.186184,15.74368],[-88.186091,15.743681],[-88.186091,15.743771],[-88.185998,15.743772],[-88.185999,15.743952],[-88.185905,15.743953],[-88.185907,15.744134],[-88.185813,15.744134],[-88.185814,15.744224],[-88.18572,15.744225],[-88.185721,15.744406],[-88.185628,15.744406],[-88.185629,15.744497],[-88.185535,15.744497],[-88.185536,15.744678],[-88.185443,15.744678],[-88.185444,15.744859],[-88.185351,15.74486],[-88.185352,15.745131],[-88.185259,15.745131],[-88.18526,15.745222],[-88.185166,15.745222],[-88.185167,15.745403],[-88.185074,15.745404],[-88.185075,15.745584],[-88.184982,15.745585],[-88.184983,15.745766],[-88.184889,15.745766],[-88.18489,15.745856],[-88.184797,15.745857],[-88.184798,15.746128],[-88.184705,15.746129],[-88.184706,15.746309],[-88.184612,15.74631],[-88.184614,15.746581],[-88.184521,15.746582],[-88.184522,15.746762],[-88.184428,15.746763],[-88.18443,15.747034],[-88.184337,15.747035],[-88.184338,15.747215],[-88.184244,15.747216],[-88.184246,15.747487],[-88.184339,15.747487]]]},"properties":{"id":"honduras_2026-05-30_mdd_7","region":"honduras","date":"2026-05-30","area_m2":8400.0,"mean_prob":0.5216,"max_prob":0.5529,"model":"mdd","n_px":84,"px_area_m2":100.0,"lon":-88.1854,"lat":15.745124}},{"type":"Feature","geometry":{"type":"Polygon","coordinates":[[[-88.186926,15.742863],[-88.186925,15.742772],[-88.187019,15.742772],[-88.187018,15.742681],[-88.187111,15.742681],[-88.187111,15.74259],[-88.187204,15.74259],[-88.187204,15.742499],[-88.187297,15.742499],[-88.187296,15.742409],[-88.187203,15.742409],[-88.187204,15.742499],[-88.18711,15.7425],[-88.187111,15.74259],[-88.187018,15.742591],[-88.187018,15.742681],[-88.186925,15.742682],[-88.186925,15.742772],[-88.186832,15.742773],[-88.186832,15.742863],[-88.186926,15.742863]]]},"properties":{"id":"honduras_2026-05-30_mdd_8","region":"honduras","date":"2026-05-30","area_m2":500.0,"mean_prob":0.509,"max_prob":0.5176,"model":"mdd","n_px":5,"px_area_m2":100.0,"lon":-88.187064,"lat":15.742636}}]}