{"type": "FeatureCollection", "features": [{"type": "Feature", "id": "D-SZ-live-manila-2026-04-01-001-2", "geometry": {"type": "Polygon", "coordinates": [[[120.9191991, 14.7133932], [120.9192, 14.7133029], [120.9192928, 14.7133037], [120.919292, 14.7133941], [120.9191991, 14.7133932]]]}, "properties": {"kind": "detection", "det_id": "D-SZ-live-manila-2026-04-01-001-2", "zone_id": "SZ-live-manila-2026-04-01-001", "scene_id": "S2B_MSIL2A_20260401T021529_R003_T51PTS_20260401T051526", "datetime": "2026-04-01T02:15:29.024000Z", "n_pixels": 1, "area_m2": 100, "prob_max": 0.9373, "prob_mean": 0.9373, "threshold": 0.63, "in_strip": true, "artifact": "ship"}}, {"type": "Feature", "id": "D-SZ-live-manila-2026-04-01-001-4", "geometry": {"type": "Polygon", "coordinates": [[[120.9191208, 14.7118564], [120.9191217, 14.711766], [120.9192145, 14.7117668], [120.9192137, 14.7118572], [120.9191208, 14.7118564]]]}, "properties": {"kind": "detection", "det_id": "D-SZ-live-manila-2026-04-01-001-4", "zone_id": "SZ-live-manila-2026-04-01-001", "scene_id": "S2B_MSIL2A_20260401T021529_R003_T51PTS_20260401T051526", "datetime": "2026-04-01T02:15:29.024000Z", "n_pixels": 1, "area_m2": 100, "prob_max": 0.9529, "prob_mean": 0.9529, "threshold": 0.63, "in_strip": true, "artifact": "ship"}}, {"type": "Feature", "id": "D-SZ-live-manila-2026-04-01-001-5", "geometry": {"type": "Polygon", "coordinates": [[[120.9202374, 14.7115953], [120.9202383, 14.7115049], [120.9203311, 14.7115058], [120.9203302, 14.7115961], [120.9202374, 14.7115953]]]}, "properties": {"kind": "detection", "det_id": "D-SZ-live-manila-2026-04-01-001-5", "zone_id": "SZ-live-manila-2026-04-01-001", "scene_id": "S2B_MSIL2A_20260401T021529_R003_T51PTS_20260401T051526", "datetime": "2026-04-01T02:15:29.024000Z", "n_pixels": 1, "area_m2": 100, "prob_max": 0.9922, "prob_mean": 0.9922, "threshold": 0.63, "in_strip": true, "artifact": null}}, {"type": "Feature", "id": "D-SZ-live-manila-2026-04-01-001-6", "geometry": {"type": "Polygon", "coordinates": [[[120.921537, 14.711607], [120.9215379, 14.7115166], [120.9216307, 14.7115174], [120.9216299, 14.7116078], [120.921537, 14.711607]]]}, "properties": {"kind": "detection", "det_id": "D-SZ-live-manila-2026-04-01-001-6", "zone_id": "SZ-live-manila-2026-04-01-001", "scene_id": "S2B_MSIL2A_20260401T021529_R003_T51PTS_20260401T051526", "datetime": "2026-04-01T02:15:29.024000Z", "n_pixels": 1, "area_m2": 100, "prob_max": 0.6588, "prob_mean": 0.6588, "threshold": 0.63, "in_strip": true, "artifact": null}}, {"type": "Feature", "id": "D-SZ-live-manila-2026-04-01-001-8", "geometry": {"type": "Polygon", "coordinates": [[[120.920246, 14.7106918], [120.9202477, 14.710511], [120.9204333, 14.7105127], [120.9204316, 14.7106934], [120.920246, 14.7106918]]]}, "properties": {"kind": "detection", "det_id": "D-SZ-live-manila-2026-04-01-001-8", "zone_id": "SZ-live-manila-2026-04-01-001", "scene_id": "S2B_MSIL2A_20260401T021529_R003_T51PTS_20260401T051526", "datetime": "2026-04-01T02:15:29.024000Z", "n_pixels": 4, "area_m2": 400, "prob_max": 1.0, "prob_mean": 0.9392, "threshold": 0.63, "in_strip": true, "artifact": null}}, {"type": "Feature", "id": "D-SZ-live-manila-2026-04-01-002-9", "geometry": {"type": "Polygon", "coordinates": [[[120.8562033, 14.7091141], [120.8562051, 14.7089334], [120.8562979, 14.7089343], [120.856297, 14.7090246], [120.8563899, 14.7090255], [120.856389, 14.7091158], [120.8562033, 14.7091141]]]}, "properties": {"kind": "detection", "det_id": "D-SZ-live-manila-2026-04-01-002-9", "zone_id": "SZ-live-manila-2026-04-01-002", "scene_id": "S2B_MSIL2A_20260401T021529_R003_T51PTS_20260401T051526", "datetime": "2026-04-01T02:15:29.024000Z", "n_pixels": 3, "area_m2": 300, "prob_max": 0.9961, "prob_mean": 0.9307, "threshold": 0.63, "in_strip": true, "artifact": "ship"}}, {"type": "Feature", "id": "D-SZ-live-manila-2026-04-01-002-11", "geometry": {"type": "Polygon", "coordinates": [[[120.8573269, 14.7081306], [120.8573278, 14.7080402], [120.8575135, 14.7080419], [120.8575126, 14.7081323], [120.8573269, 14.7081306]]]}, "properties": {"kind": "detection", "det_id": "D-SZ-live-manila-2026-04-01-002-11", "zone_id": "SZ-live-manila-2026-04-01-002", "scene_id": "S2B_MSIL2A_20260401T021529_R003_T51PTS_20260401T051526", "datetime": "2026-04-01T02:15:29.024000Z", "n_pixels": 2, "area_m2": 200, "prob_max": 0.7765, "prob_mean": 0.7098, "threshold": 0.63, "in_strip": true, "artifact": "ship"}}, {"type": "Feature", "id": "D-SZ-live-manila-2026-04-01-002-14", "geometry": {"type": "Polygon", "coordinates": [[[120.8561237, 14.707758], [120.8561246, 14.7076677], [120.8562174, 14.7076685], [120.8562166, 14.7077589], [120.8561237, 14.707758]]]}, "properties": {"kind": "detection", "det_id": "D-SZ-live-manila-2026-04-01-002-14", "zone_id": "SZ-live-manila-2026-04-01-002", "scene_id": "S2B_MSIL2A_20260401T021529_R003_T51PTS_20260401T051526", "datetime": "2026-04-01T02:15:29.024000Z", "n_pixels": 1, "area_m2": 100, "prob_max": 0.8196, "prob_mean": 0.8196, "threshold": 0.63, "in_strip": true, "artifact": "ship"}}, {"type": "Feature", "id": "D-SZ-live-manila-2026-04-01-002-15", "geometry": {"type": "Polygon", "coordinates": [[[120.8544652, 14.7064776], [120.854467, 14.7062969], [120.8546526, 14.7062986], [120.8546518, 14.706389], [120.8545589, 14.7063881], [120.854558, 14.7064785], [120.8544652, 14.7064776]]]}, "properties": {"kind": "detection", "det_id": "D-SZ-live-manila-2026-04-01-002-15", "zone_id": "SZ-live-manila-2026-04-01-002", "scene_id": "S2B_MSIL2A_20260401T021529_R003_T51PTS_20260401T051526", "datetime": "2026-04-01T02:15:29.024000Z", "n_pixels": 3, "area_m2": 300, "prob_max": 1.0, "prob_mean": 0.9778, "threshold": 0.63, "in_strip": true, "artifact": "ship"}}, {"type": "Feature", "id": "D-SZ-live-manila-2026-04-01-002-17", "geometry": {"type": "Polygon", "coordinates": [[[120.8558647, 14.7057677], [120.8558655, 14.7056774], [120.8560512, 14.7056791], [120.8560503, 14.7057694], [120.8558647, 14.7057677]]]}, "properties": {"kind": "detection", "det_id": "D-SZ-live-manila-2026-04-01-002-17", "zone_id": "SZ-live-manila-2026-04-01-002", "scene_id": "S2B_MSIL2A_20260401T021529_R003_T51PTS_20260401T051526", "datetime": "2026-04-01T02:15:29.024000Z", "n_pixels": 2, "area_m2": 200, "prob_max": 0.9804, "prob_mean": 0.9078, "threshold": 0.63, "in_strip": true, "artifact": null}}, {"type": "Feature", "id": "D-SZ-live-manila-2026-04-01-002-22", "geometry": {"type": "Polygon", "coordinates": [[[120.8543936, 14.7043084], [120.8543945, 14.704218], [120.8544873, 14.7042189], [120.8544864, 14.7043092], [120.8543936, 14.7043084]]]}, "properties": {"kind": "detection", "det_id": "D-SZ-live-manila-2026-04-01-002-22", "zone_id": "SZ-live-manila-2026-04-01-002", "scene_id": "S2B_MSIL2A_20260401T021529_R003_T51PTS_20260401T051526", "datetime": "2026-04-01T02:15:29.024000Z", "n_pixels": 1, "area_m2": 100, "prob_max": 0.9373, "prob_mean": 0.9373, "threshold": 0.63, "in_strip": true, "artifact": null}}, {"type": "Feature", "id": "D-SZ-live-manila-2026-04-01-002-26", "geometry": {"type": "Polygon", "coordinates": [[[120.8546985, 14.7016004], [120.8547003, 14.7014197], [120.8547931, 14.7014206], [120.8547914, 14.7016013], [120.8546985, 14.7016004]]]}, "properties": {"kind": "detection", "det_id": "D-SZ-live-manila-2026-04-01-002-26", "zone_id": "SZ-live-manila-2026-04-01-002", "scene_id": "S2B_MSIL2A_20260401T021529_R003_T51PTS_20260401T051526", "datetime": "2026-04-01T02:15:29.024000Z", "n_pixels": 2, "area_m2": 200, "prob_max": 0.9843, "prob_mean": 0.9471, "threshold": 0.63, "in_strip": true, "artifact": "ship"}}, {"type": "Feature", "id": "D-SZ-live-manila-2026-04-01-003-16", "geometry": {"type": "Polygon", "coordinates": [[[120.9244635, 14.7064825], [120.9244644, 14.7063922], [120.9245572, 14.706393], [120.9245581, 14.7063027], [120.9246509, 14.7063035], [120.9246518, 14.7062131], [120.9247446, 14.706214], [120.9247454, 14.7061236], [120.9248383, 14.7061244], [120.9248374, 14.7062148], [120.9247446, 14.706214], [120.9247429, 14.7063947], [120.9245572, 14.706393], [120.9245564, 14.7064834], [120.9244635, 14.7064825]]]}, "properties": {"kind": "detection", "det_id": "D-SZ-live-manila-2026-04-01-003-16", "zone_id": "SZ-live-manila-2026-04-01-003", "scene_id": "S2B_MSIL2A_20260401T021529_R003_T51PTS_20260401T051526", "datetime": "2026-04-01T02:15:29.024000Z", "n_pixels": 5, "area_m2": 500, "prob_max": 0.9569, "prob_mean": 0.8463, "threshold": 0.63, "in_strip": true, "artifact": "ship"}}, {"type": "Feature", "id": "D-SZ-live-manila-2026-04-01-004-29", "geometry": {"type": "Polygon", "coordinates": [[[120.919612, 14.69921], [120.9196129, 14.6991197], [120.9197057, 14.6991205], [120.9197048, 14.6992109], [120.919612, 14.69921]]]}, "properties": {"kind": "detection", "det_id": "D-SZ-live-manila-2026-04-01-004-29", "zone_id": "SZ-live-manila-2026-04-01-004", "scene_id": "S2B_MSIL2A_20260401T021529_R003_T51PTS_20260401T051526", "datetime": "2026-04-01T02:15:29.024000Z", "n_pixels": 1, "area_m2": 100, "prob_max": 0.7922, "prob_mean": 0.7922, "threshold": 0.63, "in_strip": true, "artifact": null}}, {"type": "Feature", "id": "D-SZ-live-manila-2026-04-01-004-30", "geometry": {"type": "Polygon", "coordinates": [[[120.9193361, 14.6989365], [120.919337, 14.6988461], [120.9194298, 14.698847], [120.9194289, 14.6989373], [120.9193361, 14.6989365]]]}, "properties": {"kind": "detection", "det_id": "D-SZ-live-manila-2026-04-01-004-30", "zone_id": "SZ-live-manila-2026-04-01-004", "scene_id": "S2B_MSIL2A_20260401T021529_R003_T51PTS_20260401T051526", "datetime": "2026-04-01T02:15:29.024000Z", "n_pixels": 1, "area_m2": 100, "prob_max": 0.6824, "prob_mean": 0.6824, "threshold": 0.63, "in_strip": true, "artifact": null}}, {"type": "Feature", "id": "D-SZ-live-manila-2026-04-01-004-31", "geometry": {"type": "Polygon", "coordinates": [[[120.9164636, 14.6983685], [120.9164653, 14.6981878], [120.916651, 14.6981895], [120.9166493, 14.6983702], [120.9164636, 14.6983685]]]}, "properties": {"kind": "detection", "det_id": "D-SZ-live-manila-2026-04-01-004-31", "zone_id": "SZ-live-manila-2026-04-01-004", "scene_id": "S2B_MSIL2A_20260401T021529_R003_T51PTS_20260401T051526", "datetime": "2026-04-01T02:15:29.024000Z", "n_pixels": 4, "area_m2": 400, "prob_max": 0.9294, "prob_mean": 0.9078, "threshold": 0.63, "in_strip": true, "artifact": null}}, {"type": "Feature", "id": "D-SZ-live-manila-2026-04-01-004-33", "geometry": {"type": "Polygon", "coordinates": [[[120.9178663, 14.6972968], [120.9178672, 14.6972064], [120.91796, 14.6972072], [120.9179591, 14.6972976], [120.9178663, 14.6972968]]]}, "properties": {"kind": "detection", "det_id": "D-SZ-live-manila-2026-04-01-004-33", "zone_id": "SZ-live-manila-2026-04-01-004", "scene_id": "S2B_MSIL2A_20260401T021529_R003_T51PTS_20260401T051526", "datetime": "2026-04-01T02:15:29.024000Z", "n_pixels": 1, "area_m2": 100, "prob_max": 0.9569, "prob_mean": 0.9569, "threshold": 0.63, "in_strip": true, "artifact": null}}, {"type": "Feature", "id": "D-SZ-live-manila-2026-04-01-005-59", "geometry": {"type": "Polygon", "coordinates": [[[120.8637958, 14.6825282], [120.8637967, 14.6824378], [120.8638895, 14.6824387], [120.8638886, 14.682529], [120.8637958, 14.6825282]]]}, "properties": {"kind": "detection", "det_id": "D-SZ-live-manila-2026-04-01-005-59", "zone_id": "SZ-live-manila-2026-04-01-005", "scene_id": "S2B_MSIL2A_20260401T021529_R003_T51PTS_20260401T051526", "datetime": "2026-04-01T02:15:29.024000Z", "n_pixels": 1, "area_m2": 100, "prob_max": 0.9569, "prob_mean": 0.9569, "threshold": 0.63, "in_strip": true, "artifact": "ship"}}, {"type": "Feature", "id": "D-SZ-live-manila-2026-04-01-005-64", "geometry": {"type": "Polygon", "coordinates": [[[120.862323, 14.6812496], [120.8623239, 14.6811592], [120.8624167, 14.6811601], [120.8624176, 14.6810697], [120.8625104, 14.6810706], [120.8625087, 14.6812513], [120.862323, 14.6812496]]]}, "properties": {"kind": "detection", "det_id": "D-SZ-live-manila-2026-04-01-005-64", "zone_id": "SZ-live-manila-2026-04-01-005", "scene_id": "S2B_MSIL2A_20260401T021529_R003_T51PTS_20260401T051526", "datetime": "2026-04-01T02:15:29.024000Z", "n_pixels": 3, "area_m2": 300, "prob_max": 1.0, "prob_mean": 0.9059, "threshold": 0.63, "in_strip": true, "artifact": null}}, {"type": "Feature", "id": "D-SZ-live-manila-2026-04-01-005-66", "geometry": {"type": "Polygon", "coordinates": [[[120.8632556, 14.6808064], [120.8632573, 14.6806257], [120.863443, 14.6806274], [120.8634412, 14.6808081], [120.8632556, 14.6808064]]]}, "properties": {"kind": "detection", "det_id": "D-SZ-live-manila-2026-04-01-005-66", "zone_id": "SZ-live-manila-2026-04-01-005", "scene_id": "S2B_MSIL2A_20260401T021529_R003_T51PTS_20260401T051526", "datetime": "2026-04-01T02:15:29.024000Z", "n_pixels": 4, "area_m2": 400, "prob_max": 0.9882, "prob_mean": 0.9108, "threshold": 0.63, "in_strip": true, "artifact": null}}, {"type": "Feature", "id": "D-SZ-live-manila-2026-04-01-006-72", "geometry": {"type": "Polygon", "coordinates": [[[120.8693184, 14.6777899], [120.8693192, 14.6776995], [120.869412, 14.6777004], [120.8694112, 14.6777907], [120.8693184, 14.6777899]]]}, "properties": {"kind": "detection", "det_id": "D-SZ-live-manila-2026-04-01-006-72", "zone_id": "SZ-live-manila-2026-04-01-006", "scene_id": "S2B_MSIL2A_20260401T021529_R003_T51PTS_20260401T051526", "datetime": "2026-04-01T02:15:29.024000Z", "n_pixels": 1, "area_m2": 100, "prob_max": 0.9961, "prob_mean": 0.9961, "threshold": 0.63, "in_strip": true, "artifact": null}}, {"type": "Feature", "id": "D-SZ-live-manila-2026-04-01-006-75", "geometry": {"type": "Polygon", "coordinates": [[[120.8696064, 14.6767985], [120.8696073, 14.6767082], [120.8697001, 14.676709], [120.8696992, 14.6767994], [120.8696064, 14.6767985]]]}, "properties": {"kind": "detection", "det_id": "D-SZ-live-manila-2026-04-01-006-75", "zone_id": "SZ-live-manila-2026-04-01-006", "scene_id": "S2B_MSIL2A_20260401T021529_R003_T51PTS_20260401T051526", "datetime": "2026-04-01T02:15:29.024000Z", "n_pixels": 1, "area_m2": 100, "prob_max": 0.9882, "prob_mean": 0.9882, "threshold": 0.63, "in_strip": true, "artifact": null}}, {"type": "Feature", "id": "D-SZ-live-manila-2026-04-01-006-76", "geometry": {"type": "Polygon", "coordinates": [[[120.8676608, 14.6764192], [120.8676617, 14.6763289], [120.8678473, 14.6763306], [120.8678465, 14.6764209], [120.8676608, 14.6764192]]]}, "properties": {"kind": "detection", "det_id": "D-SZ-live-manila-2026-04-01-006-76", "zone_id": "SZ-live-manila-2026-04-01-006", "scene_id": "S2B_MSIL2A_20260401T021529_R003_T51PTS_20260401T051526", "datetime": "2026-04-01T02:15:29.024000Z", "n_pixels": 2, "area_m2": 200, "prob_max": 0.8275, "prob_mean": 0.8098, "threshold": 0.63, "in_strip": true, "artifact": "ship"}}, {"type": "Feature", "id": "D-SZ-live-manila-2026-04-01-006-79", "geometry": {"type": "Polygon", "coordinates": [[[120.8672029, 14.6757825], [120.8672038, 14.6756922], [120.8672966, 14.675693], [120.8672957, 14.6757834], [120.8672029, 14.6757825]]]}, "properties": {"kind": "detection", "det_id": "D-SZ-live-manila-2026-04-01-006-79", "zone_id": "SZ-live-manila-2026-04-01-006", "scene_id": "S2B_MSIL2A_20260401T021529_R003_T51PTS_20260401T051526", "datetime": "2026-04-01T02:15:29.024000Z", "n_pixels": 1, "area_m2": 100, "prob_max": 0.7961, "prob_mean": 0.7961, "threshold": 0.63, "in_strip": true, "artifact": null}}, {"type": "Feature", "id": "D-SZ-live-manila-2026-04-01-006-81", "geometry": {"type": "Polygon", "coordinates": [[[120.8698069, 14.6752643], [120.8698078, 14.6751739], [120.8699006, 14.6751748], [120.8698997, 14.6752651], [120.8698069, 14.6752643]]]}, "properties": {"kind": "detection", "det_id": "D-SZ-live-manila-2026-04-01-006-81", "zone_id": "SZ-live-manila-2026-04-01-006", "scene_id": "S2B_MSIL2A_20260401T021529_R003_T51PTS_20260401T051526", "datetime": "2026-04-01T02:15:29.024000Z", "n_pixels": 1, "area_m2": 100, "prob_max": 0.7098, "prob_mean": 0.7098, "threshold": 0.63, "in_strip": true, "artifact": null}}, {"type": "Feature", "id": "D-SZ-live-manila-2026-04-01-007-94", "geometry": {"type": "Polygon", "coordinates": [[[120.887537, 14.6654865], [120.8875378, 14.6653962], [120.8876307, 14.665397], [120.8876315, 14.6653067], [120.8877243, 14.6653075], [120.8877252, 14.6652172], [120.8880036, 14.6652197], [120.8880045, 14.6651293], [120.8881901, 14.665131], [120.8881893, 14.6652214], [120.8880036, 14.6652197], [120.8880028, 14.66531], [120.88791, 14.6653092], [120.8879091, 14.6653995], [120.8876307, 14.665397], [120.8876298, 14.6654874], [120.887537, 14.6654865]]]}, "properties": {"kind": "detection", "det_id": "D-SZ-live-manila-2026-04-01-007-94", "zone_id": "SZ-live-manila-2026-04-01-007", "scene_id": "S2B_MSIL2A_20260401T021529_R003_T51PTS_20260401T051526", "datetime": "2026-04-01T02:15:29.024000Z", "n_pixels": 9, "area_m2": 900, "prob_max": 0.9725, "prob_mean": 0.8706, "threshold": 0.63, "in_strip": true, "artifact": null}}, {"type": "Feature", "id": "D-SZ-live-manila-2026-04-01-007-95", "geometry": {"type": "Polygon", "coordinates": [[[120.8883723, 14.6654941], [120.888374, 14.6653134], [120.8885596, 14.6653151], [120.8885579, 14.6654958], [120.8883723, 14.6654941]]]}, "properties": {"kind": "detection", "det_id": "D-SZ-live-manila-2026-04-01-007-95", "zone_id": "SZ-live-manila-2026-04-01-007", "scene_id": "S2B_MSIL2A_20260401T021529_R003_T51PTS_20260401T051526", "datetime": "2026-04-01T02:15:29.024000Z", "n_pixels": 4, "area_m2": 400, "prob_max": 0.9961, "prob_mean": 0.9412, "threshold": 0.63, "in_strip": true, "artifact": null}}, {"type": "Feature", "id": "D-SZ-live-manila-2026-04-01-007-96", "geometry": {"type": "Polygon", "coordinates": [[[120.8890254, 14.6651386], [120.8890271, 14.6649579], [120.88912, 14.6649587], [120.8891182, 14.6651395], [120.8890254, 14.6651386]]]}, "properties": {"kind": "detection", "det_id": "D-SZ-live-manila-2026-04-01-007-96", "zone_id": "SZ-live-manila-2026-04-01-007", "scene_id": "S2B_MSIL2A_20260401T021529_R003_T51PTS_20260401T051526", "datetime": "2026-04-01T02:15:29.024000Z", "n_pixels": 2, "area_m2": 200, "prob_max": 0.9843, "prob_mean": 0.9824, "threshold": 0.63, "in_strip": true, "artifact": null}}, {"type": "Feature", "id": "D-SZ-live-manila-2026-04-01-008-105", "geometry": {"type": "Polygon", "coordinates": [[[120.9270946, 14.6341254], [120.9270954, 14.634035], [120.926817, 14.6340325], [120.9268179, 14.6339422], [120.9270963, 14.6339446], [120.9270954, 14.634035], [120.927281, 14.6340367], [120.9272802, 14.634127], [120.9270946, 14.6341254]]]}, "properties": {"kind": "detection", "det_id": "D-SZ-live-manila-2026-04-01-008-105", "zone_id": "SZ-live-manila-2026-04-01-008", "scene_id": "S2B_MSIL2A_20260401T021529_R003_T51PTS_20260401T051526", "datetime": "2026-04-01T02:15:29.024000Z", "n_pixels": 5, "area_m2": 500, "prob_max": 0.9686, "prob_mean": 0.8816, "threshold": 0.63, "in_strip": true, "artifact": "ship"}}, {"type": "Feature", "id": "D-SZ-live-manila-2026-04-01-009-112", "geometry": {"type": "Polygon", "coordinates": [[[120.9309752, 14.6062376], [120.9309778, 14.6059665], [120.9310706, 14.6059673], [120.9310697, 14.6060577], [120.9311625, 14.6060585], [120.9311617, 14.6061488], [120.9310689, 14.606148], [120.931068, 14.6062384], [120.9309752, 14.6062376]]]}, "properties": {"kind": "detection", "det_id": "D-SZ-live-manila-2026-04-01-009-112", "zone_id": "SZ-live-manila-2026-04-01-009", "scene_id": "S2B_MSIL2A_20260401T021529_R003_T51PTS_20260401T051526", "datetime": "2026-04-01T02:15:29.024000Z", "n_pixels": 4, "area_m2": 400, "prob_max": 1.0, "prob_mean": 0.9549, "threshold": 0.63, "in_strip": true, "artifact": "ship"}}, {"type": "Feature", "id": "D-SZ-live-manila-2026-04-01-009-113", "geometry": {"type": "Polygon", "coordinates": [[[120.9316391, 14.6047073], [120.93164, 14.6046169], [120.9318256, 14.6046186], [120.9318247, 14.6047089], [120.9316391, 14.6047073]]]}, "properties": {"kind": "detection", "det_id": "D-SZ-live-manila-2026-04-01-009-113", "zone_id": "SZ-live-manila-2026-04-01-009", "scene_id": "S2B_MSIL2A_20260401T021529_R003_T51PTS_20260401T051526", "datetime": "2026-04-01T02:15:29.024000Z", "n_pixels": 2, "area_m2": 200, "prob_max": 0.8824, "prob_mean": 0.8765, "threshold": 0.63, "in_strip": true, "artifact": "ship"}}, {"type": "Feature", "id": "D-SZ-live-manila-2026-04-01-010-129", "geometry": {"type": "Polygon", "coordinates": [[[120.7472719, 14.5492387], [120.7472728, 14.5491484], [120.74718, 14.5491475], [120.7471809, 14.5490572], [120.7470882, 14.5490563], [120.7470891, 14.5489659], [120.7472746, 14.5489677], [120.7472728, 14.5491484], [120.7473655, 14.5491493], [120.7473646, 14.5492396], [120.7472719, 14.5492387]]]}, "properties": {"kind": "detection", "det_id": "D-SZ-live-manila-2026-04-01-010-129", "zone_id": "SZ-live-manila-2026-04-01-010", "scene_id": "S2B_MSIL2A_20260401T021529_R003_T51PTS_20260401T051526", "datetime": "2026-04-01T02:15:29.024000Z", "n_pixels": 4, "area_m2": 400, "prob_max": 0.9569, "prob_mean": 0.8304, "threshold": 0.63, "in_strip": true, "artifact": null}}, {"type": "Feature", "id": "D-SZ-live-manila-2026-04-01-010-131", "geometry": {"type": "Polygon", "coordinates": [[[120.7457162, 14.5471456], [120.7457171, 14.5470553], [120.7458098, 14.5470562], [120.7458089, 14.5471465], [120.7457162, 14.5471456]]]}, "properties": {"kind": "detection", "det_id": "D-SZ-live-manila-2026-04-01-010-131", "zone_id": "SZ-live-manila-2026-04-01-010", "scene_id": "S2B_MSIL2A_20260401T021529_R003_T51PTS_20260401T051526", "datetime": "2026-04-01T02:15:29.024000Z", "n_pixels": 1, "area_m2": 100, "prob_max": 0.9529, "prob_mean": 0.9529, "threshold": 0.63, "in_strip": true, "artifact": null}}]}