{"type": "FeatureCollection", "features": [{"type": "Feature", "id": "D-SZ-fresh-haiti-2026-08-30-001-2", "geometry": {"type": "Polygon", "coordinates": [[[-72.6332177, 18.7567451], [-72.6332189, 18.7566548], [-72.6331241, 18.7566536], [-72.6331229, 18.7567439], [-72.6332177, 18.7567451]]]}, "properties": {"kind": "detection", "det_id": "D-SZ-fresh-haiti-2026-08-30-001-2", "zone_id": "SZ-fresh-haiti-2026-08-30-001", "scene_id": "S2B_MSIL2A_20260830T152649_R025_T18QYF_20260830T185732", "datetime": "2026-08-30T15:26:49.024000Z", "n_pixels": 1, "area_m2": 100, "prob_max": 0.651, "prob_mean": 0.651, "threshold": 0.63, "in_strip": true, "artifact": null}}, {"type": "Feature", "id": "D-SZ-fresh-haiti-2026-08-30-001-3", "geometry": {"type": "Polygon", "coordinates": [[[-72.632094, 18.7557374], [-72.6320953, 18.7556471], [-72.6319057, 18.7556447], [-72.6319044, 18.755735], [-72.632094, 18.7557374]]]}, "properties": {"kind": "detection", "det_id": "D-SZ-fresh-haiti-2026-08-30-001-3", "zone_id": "SZ-fresh-haiti-2026-08-30-001", "scene_id": "S2B_MSIL2A_20260830T152649_R025_T18QYF_20260830T185732", "datetime": "2026-08-30T15:26:49.024000Z", "n_pixels": 2, "area_m2": 200, "prob_max": 0.9686, "prob_mean": 0.8647, "threshold": 0.63, "in_strip": true, "artifact": null}}, {"type": "Feature", "id": "D-SZ-fresh-haiti-2026-08-30-001-4", "geometry": {"type": "Polygon", "coordinates": [[[-72.6311499, 18.7554545], [-72.6311511, 18.7553642], [-72.6310563, 18.755363], [-72.6310576, 18.7552727], [-72.630868, 18.7552703], [-72.6308667, 18.7553606], [-72.6309615, 18.7553618], [-72.6309603, 18.7554521], [-72.6311499, 18.7554545]]]}, "properties": {"kind": "detection", "det_id": "D-SZ-fresh-haiti-2026-08-30-001-4", "zone_id": "SZ-fresh-haiti-2026-08-30-001", "scene_id": "S2B_MSIL2A_20260830T152649_R025_T18QYF_20260830T185732", "datetime": "2026-08-30T15:26:49.024000Z", "n_pixels": 4, "area_m2": 400, "prob_max": 0.9412, "prob_mean": 0.8686, "threshold": 0.63, "in_strip": true, "artifact": null}}, {"type": "Feature", "id": "D-SZ-fresh-haiti-2026-08-30-001-5", "geometry": {"type": "Polygon", "coordinates": [[[-72.629934, 18.7542649], [-72.6299365, 18.7540843], [-72.6296521, 18.7540807], [-72.6296508, 18.754171], [-72.6297456, 18.7541722], [-72.6297444, 18.7542625], [-72.629934, 18.7542649]]]}, "properties": {"kind": "detection", "det_id": "D-SZ-fresh-haiti-2026-08-30-001-5", "zone_id": "SZ-fresh-haiti-2026-08-30-001", "scene_id": "S2B_MSIL2A_20260830T152649_R025_T18QYF_20260830T185732", "datetime": "2026-08-30T15:26:49.024000Z", "n_pixels": 5, "area_m2": 500, "prob_max": 0.9961, "prob_mean": 0.9098, "threshold": 0.63, "in_strip": true, "artifact": null}}, {"type": "Feature", "id": "D-SZ-fresh-haiti-2026-08-30-001-6", "geometry": {"type": "Polygon", "coordinates": [[[-72.6288318, 18.7517221], [-72.6288343, 18.7515415], [-72.6287395, 18.7515403], [-72.6287383, 18.7516306], [-72.6286435, 18.7516294], [-72.6286422, 18.7517197], [-72.6288318, 18.7517221]]]}, "properties": {"kind": "detection", "det_id": "D-SZ-fresh-haiti-2026-08-30-001-6", "zone_id": "SZ-fresh-haiti-2026-08-30-001", "scene_id": "S2B_MSIL2A_20260830T152649_R025_T18QYF_20260830T185732", "datetime": "2026-08-30T15:26:49.024000Z", "n_pixels": 3, "area_m2": 300, "prob_max": 0.9882, "prob_mean": 0.8837, "threshold": 0.63, "in_strip": true, "artifact": null}}, {"type": "Feature", "id": "D-SZ-fresh-haiti-2026-08-30-001-7", "geometry": {"type": "Polygon", "coordinates": [[[-72.6283641, 18.7512645], [-72.6283654, 18.7511742], [-72.6282706, 18.751173], [-72.6282693, 18.7512633], [-72.6283641, 18.7512645]]]}, "properties": {"kind": "detection", "det_id": "D-SZ-fresh-haiti-2026-08-30-001-7", "zone_id": "SZ-fresh-haiti-2026-08-30-001", "scene_id": "S2B_MSIL2A_20260830T152649_R025_T18QYF_20260830T185732", "datetime": "2026-08-30T15:26:49.024000Z", "n_pixels": 1, "area_m2": 100, "prob_max": 0.8627, "prob_mean": 0.8627, "threshold": 0.63, "in_strip": true, "artifact": null}}, {"type": "Feature", "id": "D-SZ-fresh-haiti-2026-08-30-001-8", "geometry": {"type": "Polygon", "coordinates": [[[-72.628081, 18.7511706], [-72.6280823, 18.7510803], [-72.6279875, 18.7510791], [-72.6279862, 18.7511694], [-72.628081, 18.7511706]]]}, "properties": {"kind": "detection", "det_id": "D-SZ-fresh-haiti-2026-08-30-001-8", "zone_id": "SZ-fresh-haiti-2026-08-30-001", "scene_id": "S2B_MSIL2A_20260830T152649_R025_T18QYF_20260830T185732", "datetime": "2026-08-30T15:26:49.024000Z", "n_pixels": 1, "area_m2": 100, "prob_max": 0.8, "prob_mean": 0.8, "threshold": 0.63, "in_strip": true, "artifact": null}}, {"type": "Feature", "id": "D-SZ-fresh-haiti-2026-08-30-002-9", "geometry": {"type": "Polygon", "coordinates": [[[-72.6266162, 18.747449], [-72.6266174, 18.7473587], [-72.6265226, 18.7473575], [-72.6265214, 18.7474478], [-72.6266162, 18.747449]]]}, "properties": {"kind": "detection", "det_id": "D-SZ-fresh-haiti-2026-08-30-002-9", "zone_id": "SZ-fresh-haiti-2026-08-30-002", "scene_id": "S2B_MSIL2A_20260830T152649_R025_T18QYF_20260830T185732", "datetime": "2026-08-30T15:26:49.024000Z", "n_pixels": 1, "area_m2": 100, "prob_max": 0.9059, "prob_mean": 0.9059, "threshold": 0.63, "in_strip": true, "artifact": null}}, {"type": "Feature", "id": "D-SZ-fresh-haiti-2026-08-30-002-10", "geometry": {"type": "Polygon", "coordinates": [[[-72.6267198, 18.7468181], [-72.6267223, 18.7466375], [-72.626438, 18.7466339], [-72.6264367, 18.7467242], [-72.6265315, 18.7467254], [-72.6265302, 18.7468157], [-72.6267198, 18.7468181]]]}, "properties": {"kind": "detection", "det_id": "D-SZ-fresh-haiti-2026-08-30-002-10", "zone_id": "SZ-fresh-haiti-2026-08-30-002", "scene_id": "S2B_MSIL2A_20260830T152649_R025_T18QYF_20260830T185732", "datetime": "2026-08-30T15:26:49.024000Z", "n_pixels": 5, "area_m2": 500, "prob_max": 1.0, "prob_mean": 0.9208, "threshold": 0.63, "in_strip": true, "artifact": null}}, {"type": "Feature", "id": "D-SZ-fresh-haiti-2026-08-30-002-13", "geometry": {"type": "Polygon", "coordinates": [[[-72.6268272, 18.7459163], [-72.6268285, 18.745826], [-72.6267337, 18.7458248], [-72.6267324, 18.7459151], [-72.6268272, 18.7459163]]]}, "properties": {"kind": "detection", "det_id": "D-SZ-fresh-haiti-2026-08-30-002-13", "zone_id": "SZ-fresh-haiti-2026-08-30-002", "scene_id": "S2B_MSIL2A_20260830T152649_R025_T18QYF_20260830T185732", "datetime": "2026-08-30T15:26:49.024000Z", "n_pixels": 1, "area_m2": 100, "prob_max": 0.6745, "prob_mean": 0.6745, "threshold": 0.63, "in_strip": true, "artifact": null}}, {"type": "Feature", "id": "D-SZ-fresh-haiti-2026-08-30-003-11", "geometry": {"type": "Polygon", "coordinates": [[[-72.5433095, 18.7457411], [-72.5433121, 18.7455605], [-72.5431226, 18.745558], [-72.54312, 18.7457386], [-72.5433095, 18.7457411]]]}, "properties": {"kind": "detection", "det_id": "D-SZ-fresh-haiti-2026-08-30-003-11", "zone_id": "SZ-fresh-haiti-2026-08-30-003", "scene_id": "S2B_MSIL2A_20260830T152649_R025_T18QYF_20260830T185732", "datetime": "2026-08-30T15:26:49.024000Z", "n_pixels": 4, "area_m2": 400, "prob_max": 0.9373, "prob_mean": 0.899, "threshold": 0.63, "in_strip": true, "artifact": null}}, {"type": "Feature", "id": "D-SZ-fresh-haiti-2026-08-30-003-12", "geometry": {"type": "Polygon", "coordinates": [[[-72.5427474, 18.7452821], [-72.5427487, 18.7451918], [-72.5428435, 18.7451931], [-72.5428448, 18.7451028], [-72.54275, 18.7451015], [-72.5427513, 18.7450112], [-72.5425617, 18.7450088], [-72.5425591, 18.7451894], [-72.5426539, 18.7451906], [-72.5426526, 18.7452809], [-72.5427474, 18.7452821]]]}, "properties": {"kind": "detection", "det_id": "D-SZ-fresh-haiti-2026-08-30-003-12", "zone_id": "SZ-fresh-haiti-2026-08-30-003", "scene_id": "S2B_MSIL2A_20260830T152649_R025_T18QYF_20260830T185732", "datetime": "2026-08-30T15:26:49.024000Z", "n_pixels": 6, "area_m2": 600, "prob_max": 1.0, "prob_mean": 0.8444, "threshold": 0.63, "in_strip": true, "artifact": null}}, {"type": "Feature", "id": "D-SZ-fresh-haiti-2026-08-30-004-14", "geometry": {"type": "Polygon", "coordinates": [[[-72.6146987, 18.7387173], [-72.6147012, 18.7385367], [-72.6144169, 18.7385331], [-72.6144156, 18.7386234], [-72.6146052, 18.7386258], [-72.6146039, 18.7387161], [-72.6146987, 18.7387173]]]}, "properties": {"kind": "detection", "det_id": "D-SZ-fresh-haiti-2026-08-30-004-14", "zone_id": "SZ-fresh-haiti-2026-08-30-004", "scene_id": "S2B_MSIL2A_20260830T152649_R025_T18QYF_20260830T185732", "datetime": "2026-08-30T15:26:49.024000Z", "n_pixels": 4, "area_m2": 400, "prob_max": 1.0, "prob_mean": 0.8863, "threshold": 0.63, "in_strip": true, "artifact": null}}, {"type": "Feature", "id": "D-SZ-fresh-haiti-2026-08-30-004-15", "geometry": {"type": "Polygon", "coordinates": [[[-72.6136688, 18.737801], [-72.61367, 18.7377107], [-72.6135753, 18.7377095], [-72.613574, 18.7377998], [-72.6136688, 18.737801]]]}, "properties": {"kind": "detection", "det_id": "D-SZ-fresh-haiti-2026-08-30-004-15", "zone_id": "SZ-fresh-haiti-2026-08-30-004", "scene_id": "S2B_MSIL2A_20260830T152649_R025_T18QYF_20260830T185732", "datetime": "2026-08-30T15:26:49.024000Z", "n_pixels": 1, "area_m2": 100, "prob_max": 0.6353, "prob_mean": 0.6353, "threshold": 0.63, "in_strip": true, "artifact": null}}, {"type": "Feature", "id": "D-SZ-fresh-haiti-2026-08-30-005-16", "geometry": {"type": "Polygon", "coordinates": [[[-72.5295213, 18.7356251], [-72.5295226, 18.7355348], [-72.5294278, 18.7355336], [-72.5294265, 18.7356239], [-72.5295213, 18.7356251]]]}, "properties": {"kind": "detection", "det_id": "D-SZ-fresh-haiti-2026-08-30-005-16", "zone_id": "SZ-fresh-haiti-2026-08-30-005", "scene_id": "S2B_MSIL2A_20260830T152649_R025_T18QYF_20260830T185732", "datetime": "2026-08-30T15:26:49.024000Z", "n_pixels": 1, "area_m2": 100, "prob_max": 0.7098, "prob_mean": 0.7098, "threshold": 0.63, "in_strip": true, "artifact": null}}, {"type": "Feature", "id": "D-SZ-fresh-haiti-2026-08-30-005-17", "geometry": {"type": "Polygon", "coordinates": [[[-72.5294292, 18.7354433], [-72.5294305, 18.735353], [-72.5295252, 18.7353542], [-72.5295279, 18.7351736], [-72.5294331, 18.7351724], [-72.529437, 18.7349015], [-72.5295318, 18.7349028], [-72.5295331, 18.7348125], [-72.5294383, 18.7348112], [-72.529441, 18.7346306], [-72.5292514, 18.7346281], [-72.5292449, 18.7350796], [-72.5293396, 18.7350808], [-72.5293344, 18.735442], [-72.5294292, 18.7354433]]]}, "properties": {"kind": "detection", "det_id": "D-SZ-fresh-haiti-2026-08-30-005-17", "zone_id": "SZ-fresh-haiti-2026-08-30-005", "scene_id": "S2B_MSIL2A_20260830T152649_R025_T18QYF_20260830T185732", "datetime": "2026-08-30T15:26:49.024000Z", "n_pixels": 17, "area_m2": 1700, "prob_max": 1.0, "prob_mean": 0.9859, "threshold": 0.63, "in_strip": true, "artifact": null}}]}