{"type":"FeatureCollection","features":[{"type":"Feature","geometry":{"type":"Polygon","coordinates":[[[-88.293367,15.897178],[-88.293366,15.896998],[-88.293273,15.896998],[-88.293274,15.897179],[-88.293367,15.897178]]]},"properties":{"id":"honduras_2026-05-30_lgbm_0","region":"honduras","date":"2026-05-30","area_m2":200.0,"mean_prob":0.8392,"max_prob":0.9255,"model":"lgbm","n_px":2,"px_area_m2":100.0,"confirmed":false,"confirmed_by":null,"lon":-88.29332,"lat":15.897088}},{"type":"Feature","geometry":{"type":"Polygon","coordinates":[[[-88.293178,15.896818],[-88.293177,15.896637],[-88.293084,15.896638],[-88.293085,15.896819],[-88.293178,15.896818]]]},"properties":{"id":"honduras_2026-05-30_lgbm_1","region":"honduras","date":"2026-05-30","area_m2":200.0,"mean_prob":0.7549,"max_prob":0.7922,"model":"lgbm","n_px":2,"px_area_m2":100.0,"confirmed":false,"confirmed_by":null,"lon":-88.293131,"lat":15.896728}},{"type":"Feature","geometry":{"type":"Polygon","coordinates":[[[-88.294887,15.886504],[-88.294886,15.886323],[-88.294792,15.886324],[-88.294793,15.886504],[-88.294887,15.886504]]]},"properties":{"id":"honduras_2026-05-30_lgbm_2","region":"honduras","date":"2026-05-30","area_m2":200.0,"mean_prob":0.8725,"max_prob":0.9412,"model":"lgbm","n_px":2,"px_area_m2":100.0,"confirmed":false,"confirmed_by":null,"lon":-88.294839,"lat":15.886414}},{"type":"Feature","geometry":{"type":"Polygon","coordinates":[[[-88.125064,15.880946],[-88.125063,15.880856],[-88.124877,15.880857],[-88.124877,15.880947],[-88.125064,15.880946]]]},"properties":{"id":"honduras_2026-05-30_lgbm_3","region":"honduras","date":"2026-05-30","area_m2":200.0,"mean_prob":0.7353,"max_prob":0.7882,"model":"lgbm","n_px":2,"px_area_m2":100.0,"confirmed":false,"confirmed_by":null,"lon":-88.12497,"lat":15.880901}},{"type":"Feature","geometry":{"type":"Polygon","coordinates":[[[-88.111895,15.880833],[-88.111894,15.880743],[-88.111987,15.880743],[-88.111987,15.880652],[-88.1118,15.880653],[-88.111801,15.880834],[-88.111895,15.880833]]]},"properties":{"id":"honduras_2026-05-30_lgbm_4","region":"honduras","date":"2026-05-30","area_m2":300.0,"mean_prob":0.9699,"max_prob":0.9843,"model":"lgbm","n_px":3,"px_area_m2":100.0,"confirmed":false,"confirmed_by":null,"lon":-88.111878,"lat":15.880728}},{"type":"Feature","geometry":{"type":"Polygon","coordinates":[[[-88.105072,15.879964],[-88.105072,15.879874],[-88.104885,15.879875],[-88.104885,15.879965],[-88.105072,15.879964]]]},"properties":{"id":"honduras_2026-05-30_lgbm_5","region":"honduras","date":"2026-05-30","area_m2":200.0,"mean_prob":0.9804,"max_prob":0.9843,"model":"lgbm","n_px":2,"px_area_m2":100.0,"confirmed":false,"confirmed_by":null,"lon":-88.104978,"lat":15.87992}},{"type":"Feature","geometry":{"type":"Polygon","coordinates":[[[-88.106099,15.879869],[-88.106098,15.879688],[-88.106004,15.879689],[-88.106005,15.879779],[-88.105912,15.879779],[-88.105912,15.87987],[-88.106099,15.879869]]]},"properties":{"id":"honduras_2026-05-30_lgbm_6","region":"honduras","date":"2026-05-30","area_m2":300.0,"mean_prob":0.9307,"max_prob":0.9961,"model":"lgbm","n_px":3,"px_area_m2":100.0,"confirmed":false,"confirmed_by":null,"lon":-88.106021,"lat":15.879794}},{"type":"Feature","geometry":{"type":"Polygon","coordinates":[[[-88.105538,15.879872],[-88.105538,15.879781],[-88.105351,15.879782],[-88.105352,15.879873],[-88.105538,15.879872]]]},"properties":{"id":"honduras_2026-05-30_lgbm_7","region":"honduras","date":"2026-05-30","area_m2":200.0,"mean_prob":0.9863,"max_prob":0.9961,"model":"lgbm","n_px":2,"px_area_m2":100.0,"confirmed":false,"confirmed_by":null,"lon":-88.105445,"lat":15.879827}},{"type":"Feature","geometry":{"type":"Polygon","coordinates":[[[-88.107311,15.879501],[-88.10731,15.879411],[-88.107124,15.879412],[-88.107124,15.879502],[-88.107311,15.879501]]]},"properties":{"id":"honduras_2026-05-30_lgbm_8","region":"honduras","date":"2026-05-30","area_m2":200.0,"mean_prob":0.9294,"max_prob":0.9686,"model":"lgbm","n_px":2,"px_area_m2":100.0,"confirmed":false,"confirmed_by":null,"lon":-88.107217,"lat":15.879456}},{"type":"Feature","geometry":{"type":"Polygon","coordinates":[[[-88.108058,15.879407],[-88.108057,15.879316],[-88.10787,15.879317],[-88.107871,15.879408],[-88.108058,15.879407]]]},"properties":{"id":"honduras_2026-05-30_lgbm_9","region":"honduras","date":"2026-05-30","area_m2":200.0,"mean_prob":0.9647,"max_prob":0.9686,"model":"lgbm","n_px":2,"px_area_m2":100.0,"confirmed":false,"confirmed_by":null,"lon":-88.107964,"lat":15.879362}},{"type":"Feature","geometry":{"type":"Polygon","coordinates":[[[-88.26994,15.86993],[-88.269939,15.86975],[-88.269846,15.86975],[-88.269845,15.86966],[-88.269285,15.869663],[-88.269286,15.869754],[-88.269659,15.869751],[-88.26966,15.869842],[-88.269753,15.869841],[-88.269754,15.869932],[-88.26994,15.86993]]]},"properties":{"id":"honduras_2026-05-30_lgbm_10","region":"honduras","date":"2026-05-30","area_m2":1100.0,"mean_prob":0.9234,"max_prob":0.9961,"model":"lgbm","n_px":11,"px_area_m2":100.0,"confirmed":false,"confirmed_by":null,"lon":-88.26968,"lat":15.869764}},{"type":"Feature","geometry":{"type":"Polygon","coordinates":[[[-88.265645,15.869956],[-88.265644,15.869865],[-88.265364,15.869867],[-88.265365,15.869957],[-88.265645,15.869956]]]},"properties":{"id":"honduras_2026-05-30_lgbm_11","region":"honduras","date":"2026-05-30","area_m2":300.0,"mean_prob":0.9294,"max_prob":0.9647,"model":"lgbm","n_px":3,"px_area_m2":100.0,"artifact":"seam","confirmed":false,"confirmed_by":null,"lon":-88.265504,"lat":15.869911}},{"type":"Feature","geometry":{"type":"Polygon","coordinates":[[[-88.261065,15.86935],[-88.261065,15.869259],[-88.260971,15.86926],[-88.260971,15.869169],[-88.260784,15.86917],[-88.260785,15.869351],[-88.261065,15.86935]]]},"properties":{"id":"honduras_2026-05-30_lgbm_12","region":"honduras","date":"2026-05-30","area_m2":500.0,"mean_prob":0.9851,"max_prob":1.0,"model":"lgbm","n_px":5,"px_area_m2":100.0,"confirmed":false,"confirmed_by":null,"lon":-88.260906,"lat":15.869269}},{"type":"Feature","geometry":{"type":"Polygon","coordinates":[[[-88.296728,15.867693],[-88.296726,15.867512],[-88.296633,15.867513],[-88.296634,15.867693],[-88.296728,15.867693]]]},"properties":{"id":"honduras_2026-05-30_lgbm_13","region":"honduras","date":"2026-05-30","area_m2":200.0,"mean_prob":0.8706,"max_prob":0.9255,"model":"lgbm","n_px":2,"px_area_m2":100.0,"confirmed":false,"confirmed_by":null,"lon":-88.29668,"lat":15.867603}},{"type":"Feature","geometry":{"type":"Polygon","coordinates":[[[-88.298047,15.855031],[-88.298047,15.85494],[-88.29814,15.85494],[-88.29814,15.85485],[-88.297953,15.854851],[-88.297954,15.855031],[-88.298047,15.855031]]]},"properties":{"id":"honduras_2026-05-30_lgbm_14","region":"honduras","date":"2026-05-30","area_m2":300.0,"mean_prob":0.8745,"max_prob":1.0,"model":"lgbm","n_px":3,"px_area_m2":100.0,"confirmed":false,"confirmed_by":null,"lon":-88.298031,"lat":15.854926}},{"type":"Feature","geometry":{"type":"Polygon","coordinates":[[[-88.275947,15.844949],[-88.275946,15.844768],[-88.275852,15.844768],[-88.275853,15.844949],[-88.275947,15.844949]]]},"properties":{"id":"honduras_2026-05-30_lgbm_15","region":"honduras","date":"2026-05-30","area_m2":200.0,"mean_prob":0.9216,"max_prob":0.9804,"model":"lgbm","n_px":2,"px_area_m2":100.0,"confirmed":false,"confirmed_by":null,"lon":-88.275899,"lat":15.844858}},{"type":"Feature","geometry":{"type":"Polygon","coordinates":[[[-88.144099,15.794885],[-88.144097,15.794614],[-88.144191,15.794614],[-88.14419,15.794433],[-88.144096,15.794433],[-88.144097,15.794614],[-88.144004,15.794615],[-88.144005,15.794886],[-88.144099,15.794885]]]},"properties":{"id":"honduras_2026-05-30_lgbm_16","region":"honduras","date":"2026-05-30","area_m2":500.0,"mean_prob":0.9388,"max_prob":0.9961,"model":"lgbm","n_px":5,"px_area_m2":100.0,"confirmed":false,"confirmed_by":null,"lon":-88.144088,"lat":15.794659}},{"type":"Feature","geometry":{"type":"Polygon","coordinates":[[[-88.146771,15.788725],[-88.14677,15.788454],[-88.146676,15.788454],[-88.146678,15.788725],[-88.146771,15.788725]]]},"properties":{"id":"honduras_2026-05-30_lgbm_17","region":"honduras","date":"2026-05-30","area_m2":300.0,"mean_prob":0.9072,"max_prob":0.9961,"model":"lgbm","n_px":3,"px_area_m2":100.0,"confirmed":false,"confirmed_by":null,"lon":-88.146724,"lat":15.788589}},{"type":"Feature","geometry":{"type":"Polygon","coordinates":[[[-88.149085,15.785097],[-88.149084,15.784916],[-88.14899,15.784917],[-88.148991,15.785097],[-88.149085,15.785097]]]},"properties":{"id":"honduras_2026-05-30_lgbm_18","region":"honduras","date":"2026-05-30","area_m2":200.0,"mean_prob":0.9882,"max_prob":0.9882,"model":"lgbm","n_px":2,"px_area_m2":100.0,"confirmed":false,"confirmed_by":null,"lon":-88.149037,"lat":15.785007}},{"type":"Feature","geometry":{"type":"Polygon","coordinates":[[[-88.151382,15.778667],[-88.151381,15.778486],[-88.151288,15.778487],[-88.151289,15.778668],[-88.151382,15.778667]]]},"properties":{"id":"honduras_2026-05-30_lgbm_19","region":"honduras","date":"2026-05-30","area_m2":200.0,"mean_prob":0.7706,"max_prob":0.8196,"model":"lgbm","n_px":2,"px_area_m2":100.0,"confirmed":false,"confirmed_by":null,"lon":-88.151335,"lat":15.778577}},{"type":"Feature","geometry":{"type":"Polygon","coordinates":[[[-88.179579,15.763602],[-88.179579,15.763511],[-88.179672,15.763511],[-88.179671,15.76342],[-88.179485,15.763421],[-88.179486,15.763602],[-88.179579,15.763602]]]},"properties":{"id":"honduras_2026-05-30_lgbm_20","region":"honduras","date":"2026-05-30","area_m2":300.0,"mean_prob":0.9281,"max_prob":0.9882,"model":"lgbm","n_px":3,"px_area_m2":100.0,"confirmed":false,"confirmed_by":null,"lon":-88.179563,"lat":15.763496}},{"type":"Feature","geometry":{"type":"Polygon","coordinates":[[[-88.184313,15.758966],[-88.184312,15.758876],[-88.184219,15.758876],[-88.184218,15.758695],[-88.184124,15.758696],[-88.184124,15.758606],[-88.18403,15.758606],[-88.184031,15.758696],[-88.184124,15.758696],[-88.184125,15.758786],[-88.184031,15.758787],[-88.184032,15.758877],[-88.184125,15.758877],[-88.184126,15.758967],[-88.184313,15.758966]]]},"properties":{"id":"honduras_2026-05-30_lgbm_21","region":"honduras","date":"2026-05-30","area_m2":600.0,"mean_prob":0.9908,"max_prob":1.0,"model":"lgbm","n_px":6,"px_area_m2":100.0,"artifact":"ship","confirmed":true,"confirmed_by":"mdd","lon":-88.184156,"lat":15.758816}},{"type":"Feature","geometry":{"type":"Polygon","coordinates":[[[-88.208586,15.728462],[-88.208586,15.728372],[-88.208679,15.728371],[-88.208679,15.728281],[-88.208585,15.728281],[-88.208586,15.728372],[-88.208493,15.728372],[-88.208493,15.728463],[-88.208586,15.728462]]]},"properties":{"id":"honduras_2026-05-30_lgbm_22","region":"honduras","date":"2026-05-30","area_m2":200.0,"mean_prob":0.902,"max_prob":0.9961,"model":"lgbm","n_px":2,"px_area_m2":100.0,"confirmed":false,"confirmed_by":null,"lon":-88.208586,"lat":15.728372}},{"type":"Feature","geometry":{"type":"Polygon","coordinates":[[[-88.214548,15.726621],[-88.214548,15.726531],[-88.214361,15.726532],[-88.214362,15.726622],[-88.214548,15.726621]]]},"properties":{"id":"honduras_2026-05-30_lgbm_23","region":"honduras","date":"2026-05-30","area_m2":200.0,"mean_prob":0.8902,"max_prob":0.8902,"model":"lgbm","n_px":2,"px_area_m2":100.0,"confirmed":false,"confirmed_by":null,"lon":-88.214455,"lat":15.726577}}]}