{"type": "FeatureCollection", "features": [{"type": "Feature", "id": "D-SZ-live-honduras-2025-01-30-001-1", "geometry": {"type": "Polygon", "coordinates": [[[-88.1741456, 15.8895434], [-88.1741446, 15.8893626], [-88.1739578, 15.8893636], [-88.1739589, 15.8895444], [-88.1741456, 15.8895434]]]}, "properties": {"kind": "detection", "det_id": "D-SZ-live-honduras-2025-01-30-001-1", "zone_id": "SZ-live-honduras-2025-01-30-001", "scene_id": "S2C_MSIL2A_20250130T161541_R140_T16PCC_20250130T190910", "datetime": "2025-01-30T16:15:41.025000Z", "n_pixels": 4, "area_m2": 400, "prob_max": 0.9608, "prob_mean": 0.9392, "threshold": 0.63, "in_strip": true, "artifact": null}}, {"type": "Feature", "id": "D-SZ-live-honduras-2025-01-30-001-2", "geometry": {"type": "Polygon", "coordinates": [[[-88.1731986, 15.8872888], [-88.1731981, 15.8871984], [-88.1730113, 15.8871994], [-88.1730118, 15.8872898], [-88.1731986, 15.8872888]]]}, "properties": {"kind": "detection", "det_id": "D-SZ-live-honduras-2025-01-30-001-2", "zone_id": "SZ-live-honduras-2025-01-30-001", "scene_id": "S2C_MSIL2A_20250130T161541_R140_T16PCC_20250130T190910", "datetime": "2025-01-30T16:15:41.025000Z", "n_pixels": 2, "area_m2": 200, "prob_max": 0.9922, "prob_mean": 0.9667, "threshold": 0.63, "in_strip": true, "artifact": null}}, {"type": "Feature", "id": "D-SZ-live-honduras-2025-01-30-001-3", "geometry": {"type": "Polygon", "coordinates": [[[-88.1730916, 15.8849392], [-88.1730911, 15.8848489], [-88.1729977, 15.8848494], [-88.1729982, 15.8849397], [-88.1730916, 15.8849392]]]}, "properties": {"kind": "detection", "det_id": "D-SZ-live-honduras-2025-01-30-001-3", "zone_id": "SZ-live-honduras-2025-01-30-001", "scene_id": "S2C_MSIL2A_20250130T161541_R140_T16PCC_20250130T190910", "datetime": "2025-01-30T16:15:41.025000Z", "n_pixels": 1, "area_m2": 100, "prob_max": 0.9765, "prob_mean": 0.9765, "threshold": 0.63, "in_strip": true, "artifact": null}}, {"type": "Feature", "id": "D-SZ-live-honduras-2025-01-30-002-4", "geometry": {"type": "Polygon", "coordinates": [[[-88.1730691, 15.8810526], [-88.1730681, 15.8808719], [-88.1729747, 15.8808724], [-88.1729757, 15.8810531], [-88.1730691, 15.8810526]]]}, "properties": {"kind": "detection", "det_id": "D-SZ-live-honduras-2025-01-30-002-4", "zone_id": "SZ-live-honduras-2025-01-30-002", "scene_id": "S2C_MSIL2A_20250130T161541_R140_T16PCC_20250130T190910", "datetime": "2025-01-30T16:15:41.025000Z", "n_pixels": 2, "area_m2": 200, "prob_max": 0.9961, "prob_mean": 0.9941, "threshold": 0.63, "in_strip": true, "artifact": null}}, {"type": "Feature", "id": "D-SZ-live-honduras-2025-01-30-002-5", "geometry": {"type": "Polygon", "coordinates": [[[-88.172779, 15.8793368], [-88.1727779, 15.8791561], [-88.1726846, 15.8791566], [-88.1726856, 15.8793373], [-88.172779, 15.8793368]]]}, "properties": {"kind": "detection", "det_id": "D-SZ-live-honduras-2025-01-30-002-5", "zone_id": "SZ-live-honduras-2025-01-30-002", "scene_id": "S2C_MSIL2A_20250130T161541_R140_T16PCC_20250130T190910", "datetime": "2025-01-30T16:15:41.025000Z", "n_pixels": 2, "area_m2": 200, "prob_max": 0.9843, "prob_mean": 0.9745, "threshold": 0.63, "in_strip": true, "artifact": null}}, {"type": "Feature", "id": "D-SZ-live-honduras-2025-01-30-002-6", "geometry": {"type": "Polygon", "coordinates": [[[-88.1726689, 15.876445], [-88.1726678, 15.8762642], [-88.1725744, 15.8762647], [-88.1725755, 15.8764455], [-88.1726689, 15.876445]]]}, "properties": {"kind": "detection", "det_id": "D-SZ-live-honduras-2025-01-30-002-6", "zone_id": "SZ-live-honduras-2025-01-30-002", "scene_id": "S2C_MSIL2A_20250130T161541_R140_T16PCC_20250130T190910", "datetime": "2025-01-30T16:15:41.025000Z", "n_pixels": 2, "area_m2": 200, "prob_max": 0.9922, "prob_mean": 0.9922, "threshold": 0.63, "in_strip": true, "artifact": null}}, {"type": "Feature", "id": "D-SZ-live-honduras-2025-01-30-002-7", "geometry": {"type": "Polygon", "coordinates": [[[-88.1719087, 15.8741894], [-88.1719076, 15.8740086], [-88.1718143, 15.8740091], [-88.1718153, 15.8741899], [-88.1719087, 15.8741894]]]}, "properties": {"kind": "detection", "det_id": "D-SZ-live-honduras-2025-01-30-002-7", "zone_id": "SZ-live-honduras-2025-01-30-002", "scene_id": "S2C_MSIL2A_20250130T161541_R140_T16PCC_20250130T190910", "datetime": "2025-01-30T16:15:41.025000Z", "n_pixels": 2, "area_m2": 200, "prob_max": 0.9686, "prob_mean": 0.9608, "threshold": 0.63, "in_strip": true, "artifact": null}}, {"type": "Feature", "id": "D-SZ-live-honduras-2025-01-30-002-8", "geometry": {"type": "Polygon", "coordinates": [[[-88.172, 15.8738273], [-88.1719995, 15.8737369], [-88.1719061, 15.8737374], [-88.1719066, 15.8738278], [-88.172, 15.8738273]]]}, "properties": {"kind": "detection", "det_id": "D-SZ-live-honduras-2025-01-30-002-8", "zone_id": "SZ-live-honduras-2025-01-30-002", "scene_id": "S2C_MSIL2A_20250130T161541_R140_T16PCC_20250130T190910", "datetime": "2025-01-30T16:15:41.025000Z", "n_pixels": 1, "area_m2": 100, "prob_max": 0.9882, "prob_mean": 0.9882, "threshold": 0.63, "in_strip": true, "artifact": null}}, {"type": "Feature", "id": "D-SZ-live-honduras-2025-01-30-002-9", "geometry": {"type": "Polygon", "coordinates": [[[-88.1703107, 15.8723902], [-88.1703101, 15.8722999], [-88.1702168, 15.8723004], [-88.1702162, 15.87221], [-88.1701229, 15.8722105], [-88.1701239, 15.8723912], [-88.1703107, 15.8723902]]]}, "properties": {"kind": "detection", "det_id": "D-SZ-live-honduras-2025-01-30-002-9", "zone_id": "SZ-live-honduras-2025-01-30-002", "scene_id": "S2C_MSIL2A_20250130T161541_R140_T16PCC_20250130T190910", "datetime": "2025-01-30T16:15:41.025000Z", "n_pixels": 3, "area_m2": 300, "prob_max": 0.9961, "prob_mean": 0.9346, "threshold": 0.63, "in_strip": true, "artifact": null}}, {"type": "Feature", "id": "D-SZ-live-honduras-2025-01-30-002-10", "geometry": {"type": "Polygon", "coordinates": [[[-88.1692766, 15.8712208], [-88.1692761, 15.8711304], [-88.1691827, 15.8711309], [-88.1691822, 15.8710405], [-88.1690888, 15.871041], [-88.1690899, 15.8712218], [-88.1692766, 15.8712208]]]}, "properties": {"kind": "detection", "det_id": "D-SZ-live-honduras-2025-01-30-002-10", "zone_id": "SZ-live-honduras-2025-01-30-002", "scene_id": "S2C_MSIL2A_20250130T161541_R140_T16PCC_20250130T190910", "datetime": "2025-01-30T16:15:41.025000Z", "n_pixels": 3, "area_m2": 300, "prob_max": 0.7725, "prob_mean": 0.7412, "threshold": 0.63, "in_strip": true, "artifact": null}}, {"type": "Feature", "id": "D-SZ-live-honduras-2025-01-30-002-11", "geometry": {"type": "Polygon", "coordinates": [[[-88.1689005, 15.8707709], [-88.1689, 15.8706805], [-88.1689934, 15.87068], [-88.1689928, 15.8705896], [-88.1688061, 15.8705906], [-88.1688071, 15.8707714], [-88.1689005, 15.8707709]]]}, "properties": {"kind": "detection", "det_id": "D-SZ-live-honduras-2025-01-30-002-11", "zone_id": "SZ-live-honduras-2025-01-30-002", "scene_id": "S2C_MSIL2A_20250130T161541_R140_T16PCC_20250130T190910", "datetime": "2025-01-30T16:15:41.025000Z", "n_pixels": 3, "area_m2": 300, "prob_max": 1.0, "prob_mean": 0.8588, "threshold": 0.63, "in_strip": true, "artifact": null}}, {"type": "Feature", "id": "D-SZ-live-honduras-2025-01-30-002-12", "geometry": {"type": "Polygon", "coordinates": [[[-88.1677726, 15.8695115], [-88.1677715, 15.8693307], [-88.1675848, 15.8693317], [-88.1675853, 15.8694221], [-88.1676787, 15.8694216], [-88.1676792, 15.869512], [-88.1677726, 15.8695115]]]}, "properties": {"kind": "detection", "det_id": "D-SZ-live-honduras-2025-01-30-002-12", "zone_id": "SZ-live-honduras-2025-01-30-002", "scene_id": "S2C_MSIL2A_20250130T161541_R140_T16PCC_20250130T190910", "datetime": "2025-01-30T16:15:41.025000Z", "n_pixels": 3, "area_m2": 300, "prob_max": 0.9922, "prob_mean": 0.8954, "threshold": 0.63, "in_strip": true, "artifact": null}}, {"type": "Feature", "id": "D-SZ-live-honduras-2025-01-30-002-13", "geometry": {"type": "Polygon", "coordinates": [[[-88.1673036, 15.8691525], [-88.167303, 15.8690621], [-88.1673964, 15.8690616], [-88.1673959, 15.8689712], [-88.1670224, 15.8689732], [-88.1670234, 15.869154], [-88.1673036, 15.8691525]]]}, "properties": {"kind": "detection", "det_id": "D-SZ-live-honduras-2025-01-30-002-13", "zone_id": "SZ-live-honduras-2025-01-30-002", "scene_id": "S2C_MSIL2A_20250130T161541_R140_T16PCC_20250130T190910", "datetime": "2025-01-30T16:15:41.025000Z", "n_pixels": 7, "area_m2": 700, "prob_max": 0.9569, "prob_mean": 0.8779, "threshold": 0.63, "in_strip": true, "artifact": "ship"}}, {"type": "Feature", "id": "D-SZ-live-honduras-2025-01-30-003-23", "geometry": {"type": "Polygon", "coordinates": [[[-88.1268861, 15.8390859], [-88.1268856, 15.8389955], [-88.1267922, 15.838996], [-88.1267927, 15.8390864], [-88.1268861, 15.8390859]]]}, "properties": {"kind": "detection", "det_id": "D-SZ-live-honduras-2025-01-30-003-23", "zone_id": "SZ-live-honduras-2025-01-30-003", "scene_id": "S2C_MSIL2A_20250130T161541_R140_T16PCC_20250130T190910", "datetime": "2025-01-30T16:15:41.025000Z", "n_pixels": 1, "area_m2": 100, "prob_max": 0.6863, "prob_mean": 0.6863, "threshold": 0.63, "in_strip": true, "artifact": null}}, {"type": "Feature", "id": "D-SZ-live-honduras-2025-01-30-003-24", "geometry": {"type": "Polygon", "coordinates": [[[-88.1264062, 15.8367382], [-88.1264057, 15.8366478], [-88.1263123, 15.8366483], [-88.1263128, 15.8367387], [-88.1264062, 15.8367382]]]}, "properties": {"kind": "detection", "det_id": "D-SZ-live-honduras-2025-01-30-003-24", "zone_id": "SZ-live-honduras-2025-01-30-003", "scene_id": "S2C_MSIL2A_20250130T161541_R140_T16PCC_20250130T190910", "datetime": "2025-01-30T16:15:41.025000Z", "n_pixels": 1, "area_m2": 100, "prob_max": 0.9647, "prob_mean": 0.9647, "threshold": 0.63, "in_strip": true, "artifact": null}}, {"type": "Feature", "id": "D-SZ-live-honduras-2025-01-30-003-25", "geometry": {"type": "Polygon", "coordinates": [[[-88.1263068, 15.8356541], [-88.1263063, 15.8355637], [-88.1261196, 15.8355646], [-88.1261201, 15.835655], [-88.1263068, 15.8356541]]]}, "properties": {"kind": "detection", "det_id": "D-SZ-live-honduras-2025-01-30-003-25", "zone_id": "SZ-live-honduras-2025-01-30-003", "scene_id": "S2C_MSIL2A_20250130T161541_R140_T16PCC_20250130T190910", "datetime": "2025-01-30T16:15:41.025000Z", "n_pixels": 2, "area_m2": 200, "prob_max": 0.9961, "prob_mean": 0.9824, "threshold": 0.63, "in_strip": true, "artifact": null}}, {"type": "Feature", "id": "D-SZ-live-honduras-2025-01-30-003-26", "geometry": {"type": "Polygon", "coordinates": [[[-88.1252722, 15.8343036], [-88.1252717, 15.8342132], [-88.1251784, 15.8342137], [-88.1251789, 15.8343041], [-88.1252722, 15.8343036]]]}, "properties": {"kind": "detection", "det_id": "D-SZ-live-honduras-2025-01-30-003-26", "zone_id": "SZ-live-honduras-2025-01-30-003", "scene_id": "S2C_MSIL2A_20250130T161541_R140_T16PCC_20250130T190910", "datetime": "2025-01-30T16:15:41.025000Z", "n_pixels": 1, "area_m2": 100, "prob_max": 0.9843, "prob_mean": 0.9843, "threshold": 0.63, "in_strip": true, "artifact": null}}, {"type": "Feature", "id": "D-SZ-live-honduras-2025-01-30-004-29", "geometry": {"type": "Polygon", "coordinates": [[[-88.1241153, 15.810808], [-88.1241148, 15.8107176], [-88.1243015, 15.8107166], [-88.124301, 15.8106262], [-88.1239275, 15.8106282], [-88.1239285, 15.810809], [-88.1241153, 15.810808]]]}, "properties": {"kind": "detection", "det_id": "D-SZ-live-honduras-2025-01-30-004-29", "zone_id": "SZ-live-honduras-2025-01-30-004", "scene_id": "S2C_MSIL2A_20250130T161541_R140_T16PCC_20250130T190910", "datetime": "2025-01-30T16:15:41.025000Z", "n_pixels": 6, "area_m2": 600, "prob_max": 0.9961, "prob_mean": 0.9431, "threshold": 0.63, "in_strip": true, "artifact": null}}, {"type": "Feature", "id": "D-SZ-live-honduras-2025-01-30-005-30", "geometry": {"type": "Polygon", "coordinates": [[[-88.1273313, 15.8014811], [-88.1273308, 15.8013907], [-88.1272375, 15.8013912], [-88.127238, 15.8014816], [-88.1273313, 15.8014811]]]}, "properties": {"kind": "detection", "det_id": "D-SZ-live-honduras-2025-01-30-005-30", "zone_id": "SZ-live-honduras-2025-01-30-005", "scene_id": "S2C_MSIL2A_20250130T161541_R140_T16PCC_20250130T190910", "datetime": "2025-01-30T16:15:41.025000Z", "n_pixels": 1, "area_m2": 100, "prob_max": 0.9961, "prob_mean": 0.9961, "threshold": 0.63, "in_strip": true, "artifact": null}}, {"type": "Feature", "id": "D-SZ-live-honduras-2025-01-30-005-31", "geometry": {"type": "Polygon", "coordinates": [[[-88.1277966, 15.8012075], [-88.1277961, 15.8011171], [-88.1278894, 15.8011166], [-88.1278889, 15.8010262], [-88.1277022, 15.8010272], [-88.1277027, 15.8011176], [-88.1276094, 15.8011181], [-88.1276099, 15.8012085], [-88.1277966, 15.8012075]]]}, "properties": {"kind": "detection", "det_id": "D-SZ-live-honduras-2025-01-30-005-31", "zone_id": "SZ-live-honduras-2025-01-30-005", "scene_id": "S2C_MSIL2A_20250130T161541_R140_T16PCC_20250130T190910", "datetime": "2025-01-30T16:15:41.025000Z", "n_pixels": 4, "area_m2": 400, "prob_max": 0.9882, "prob_mean": 0.9569, "threshold": 0.63, "in_strip": true, "artifact": null}}, {"type": "Feature", "id": "D-SZ-live-honduras-2025-01-30-006-33", "geometry": {"type": "Polygon", "coordinates": [[[-88.1330681, 15.7922314], [-88.1330676, 15.792141], [-88.1329742, 15.7921415], [-88.1329747, 15.7922319], [-88.1330681, 15.7922314]]]}, "properties": {"kind": "detection", "det_id": "D-SZ-live-honduras-2025-01-30-006-33", "zone_id": "SZ-live-honduras-2025-01-30-006", "scene_id": "S2C_MSIL2A_20250130T161541_R140_T16PCC_20250130T190910", "datetime": "2025-01-30T16:15:41.025000Z", "n_pixels": 1, "area_m2": 100, "prob_max": 0.749, "prob_mean": 0.749, "threshold": 0.63, "in_strip": true, "artifact": null}}, {"type": "Feature", "id": "D-SZ-live-honduras-2025-01-30-006-34", "geometry": {"type": "Polygon", "coordinates": [[[-88.1332538, 15.7920496], [-88.1332533, 15.7919592], [-88.1333466, 15.7919588], [-88.1333461, 15.7918684], [-88.1334395, 15.7918679], [-88.133439, 15.7917775], [-88.1335323, 15.791777], [-88.1335318, 15.7916866], [-88.1334385, 15.7916871], [-88.133439, 15.7917775], [-88.1332523, 15.7917785], [-88.1332533, 15.7919592], [-88.1331599, 15.7919597], [-88.1331604, 15.7920501], [-88.1332538, 15.7920496]]]}, "properties": {"kind": "detection", "det_id": "D-SZ-live-honduras-2025-01-30-006-34", "zone_id": "SZ-live-honduras-2025-01-30-006", "scene_id": "S2C_MSIL2A_20250130T161541_R140_T16PCC_20250130T190910", "datetime": "2025-01-30T16:15:41.025000Z", "n_pixels": 5, "area_m2": 500, "prob_max": 1.0, "prob_mean": 0.9616, "threshold": 0.63, "in_strip": true, "artifact": null}}, {"type": "Feature", "id": "D-SZ-live-honduras-2025-01-30-007-35", "geometry": {"type": "Polygon", "coordinates": [[[-88.1384416, 15.7848817], [-88.138441, 15.7847913], [-88.1383477, 15.7847918], [-88.1383482, 15.7848822], [-88.1384416, 15.7848817]]]}, "properties": {"kind": "detection", "det_id": "D-SZ-live-honduras-2025-01-30-007-35", "zone_id": "SZ-live-honduras-2025-01-30-007", "scene_id": "S2C_MSIL2A_20250130T161541_R140_T16PCC_20250130T190910", "datetime": "2025-01-30T16:15:41.025000Z", "n_pixels": 1, "area_m2": 100, "prob_max": 0.9176, "prob_mean": 0.9176, "threshold": 0.63, "in_strip": true, "artifact": null}}, {"type": "Feature", "id": "D-SZ-live-honduras-2025-01-30-007-36", "geometry": {"type": "Polygon", "coordinates": [[[-88.1389073, 15.7846985], [-88.1389063, 15.7845177], [-88.1387196, 15.7845187], [-88.1387206, 15.7846994], [-88.1389073, 15.7846985]]]}, "properties": {"kind": "detection", "det_id": "D-SZ-live-honduras-2025-01-30-007-36", "zone_id": "SZ-live-honduras-2025-01-30-007", "scene_id": "S2C_MSIL2A_20250130T161541_R140_T16PCC_20250130T190910", "datetime": "2025-01-30T16:15:41.025000Z", "n_pixels": 4, "area_m2": 400, "prob_max": 0.9961, "prob_mean": 0.9216, "threshold": 0.63, "in_strip": true, "artifact": null}}, {"type": "Feature", "id": "D-SZ-live-honduras-2025-01-30-008-37", "geometry": {"type": "Polygon", "coordinates": [[[-88.1444787, 15.7794266], [-88.1444782, 15.7793362], [-88.1443848, 15.7793367], [-88.1443854, 15.7794271], [-88.1444787, 15.7794266]]]}, "properties": {"kind": "detection", "det_id": "D-SZ-live-honduras-2025-01-30-008-37", "zone_id": "SZ-live-honduras-2025-01-30-008", "scene_id": "S2C_MSIL2A_20250130T161541_R140_T16PCC_20250130T190910", "datetime": "2025-01-30T16:15:41.025000Z", "n_pixels": 1, "area_m2": 100, "prob_max": 0.8118, "prob_mean": 0.8118, "threshold": 0.63, "in_strip": true, "artifact": null}}, {"type": "Feature", "id": "D-SZ-live-honduras-2025-01-30-008-38", "geometry": {"type": "Polygon", "coordinates": [[[-88.1447577, 15.7792443], [-88.1447572, 15.7791539], [-88.1446639, 15.7791544], [-88.1446644, 15.7792448], [-88.1447577, 15.7792443]]]}, "properties": {"kind": "detection", "det_id": "D-SZ-live-honduras-2025-01-30-008-38", "zone_id": "SZ-live-honduras-2025-01-30-008", "scene_id": "S2C_MSIL2A_20250130T161541_R140_T16PCC_20250130T190910", "datetime": "2025-01-30T16:15:41.025000Z", "n_pixels": 1, "area_m2": 100, "prob_max": 0.7216, "prob_mean": 0.7216, "threshold": 0.63, "in_strip": true, "artifact": null}}, {"type": "Feature", "id": "D-SZ-live-honduras-2025-01-30-008-39", "geometry": {"type": "Polygon", "coordinates": [[[-88.1463344, 15.7774282], [-88.1463334, 15.7772474], [-88.1462401, 15.7772479], [-88.1462411, 15.7774287], [-88.1463344, 15.7774282]]]}, "properties": {"kind": "detection", "det_id": "D-SZ-live-honduras-2025-01-30-008-39", "zone_id": "SZ-live-honduras-2025-01-30-008", "scene_id": "S2C_MSIL2A_20250130T161541_R140_T16PCC_20250130T190910", "datetime": "2025-01-30T16:15:41.025000Z", "n_pixels": 2, "area_m2": 200, "prob_max": 0.9843, "prob_mean": 0.9686, "threshold": 0.63, "in_strip": true, "artifact": null}}, {"type": "Feature", "id": "D-SZ-live-honduras-2025-01-30-008-40", "geometry": {"type": "Polygon", "coordinates": [[[-88.1469827, 15.7765209], [-88.1469822, 15.7764305], [-88.1468889, 15.776431], [-88.1468894, 15.7765214], [-88.1469827, 15.7765209]]]}, "properties": {"kind": "detection", "det_id": "D-SZ-live-honduras-2025-01-30-008-40", "zone_id": "SZ-live-honduras-2025-01-30-008", "scene_id": "S2C_MSIL2A_20250130T161541_R140_T16PCC_20250130T190910", "datetime": "2025-01-30T16:15:41.025000Z", "n_pixels": 1, "area_m2": 100, "prob_max": 0.9765, "prob_mean": 0.9765, "threshold": 0.63, "in_strip": true, "artifact": null}}]}