{"type":"FeatureCollection","features":[{"type":"Feature","geometry":{"type":"Polygon","coordinates":[[[120.888757,14.712395],[120.888761,14.712034],[120.888668,14.712033],[120.888669,14.711942],[120.888576,14.711941],[120.888578,14.711761],[120.888856,14.711763],[120.888854,14.712034],[120.888946,14.712035],[120.888946,14.712126],[120.889038,14.712126],[120.889036,14.712397],[120.888757,14.712395]]]},"properties":{"id":"manila_2025-01-06_lgbm_0","region":"manila","date":"2025-01-06","area_m2":1900.0,"mean_prob":0.9612,"max_prob":1.0,"model":"lgbm","n_px":19,"px_area_m2":100.0,"confirmed":false,"confirmed_by":null,"lon":120.888821,"lat":14.712084}},{"type":"Feature","geometry":{"type":"Polygon","coordinates":[[[120.920323,14.712409],[120.920324,14.712229],[120.920417,14.712229],[120.920415,14.71241],[120.920323,14.712409]]]},"properties":{"id":"manila_2025-01-06_lgbm_1","region":"manila","date":"2025-01-06","area_m2":200.0,"mean_prob":0.8157,"max_prob":0.8706,"model":"lgbm","n_px":2,"px_area_m2":100.0,"confirmed":false,"confirmed_by":null,"lon":120.92037,"lat":14.712319}},{"type":"Feature","geometry":{"type":"Polygon","coordinates":[[[120.890805,14.711871],[120.890806,14.711781],[120.890898,14.711782],[120.890899,14.711692],[120.890992,14.711692],[120.89099,14.711873],[120.890805,14.711871]]]},"properties":{"id":"manila_2025-01-06_lgbm_2","region":"manila","date":"2025-01-06","area_m2":300.0,"mean_prob":0.9778,"max_prob":1.0,"model":"lgbm","n_px":3,"px_area_m2":100.0,"confirmed":false,"confirmed_by":null,"lon":120.890914,"lat":14.711797}},{"type":"Feature","geometry":{"type":"Polygon","coordinates":[[[120.88311,14.710717],[120.883113,14.710446],[120.883299,14.710448],[120.883297,14.710628],[120.883204,14.710627],[120.883203,14.710718],[120.88311,14.710717]]]},"properties":{"id":"manila_2025-01-06_lgbm_3","region":"manila","date":"2025-01-06","area_m2":500.0,"mean_prob":0.9027,"max_prob":1.0,"model":"lgbm","n_px":5,"px_area_m2":100.0,"confirmed":false,"confirmed_by":null,"lon":120.883195,"lat":14.710564}},{"type":"Feature","geometry":{"type":"Polygon","coordinates":[[[120.88868,14.710768],[120.888681,14.710677],[120.888588,14.710677],[120.88859,14.710496],[120.888776,14.710498],[120.888775,14.710588],[120.88896,14.71059],[120.888959,14.71077],[120.88868,14.710768]]]},"properties":{"id":"manila_2025-01-06_lgbm_4","region":"manila","date":"2025-01-06","area_m2":900.0,"mean_prob":0.9891,"max_prob":1.0,"model":"lgbm","n_px":9,"px_area_m2":100.0,"confirmed":false,"confirmed_by":null,"lon":120.888769,"lat":14.710643}},{"type":"Feature","geometry":{"type":"Polygon","coordinates":[[[120.884602,14.710098],[120.884603,14.710008],[120.884695,14.710008],[120.884696,14.709918],[120.884882,14.70992],[120.88488,14.710101],[120.884602,14.710098]]]},"properties":{"id":"manila_2025-01-06_lgbm_5","region":"manila","date":"2025-01-06","area_m2":500.0,"mean_prob":0.9969,"max_prob":1.0,"model":"lgbm","n_px":5,"px_area_m2":100.0,"confirmed":false,"confirmed_by":null,"lon":120.88476,"lat":14.710018}},{"type":"Feature","geometry":{"type":"Polygon","coordinates":[[[120.88553,14.710106],[120.885531,14.710016],[120.885438,14.710015],[120.885439,14.709925],[120.88581,14.709928],[120.885808,14.710109],[120.88553,14.710106]]]},"properties":{"id":"manila_2025-01-06_lgbm_6","region":"manila","date":"2025-01-06","area_m2":700.0,"mean_prob":0.9272,"max_prob":0.9961,"model":"lgbm","n_px":7,"px_area_m2":100.0,"confirmed":false,"confirmed_by":null,"lon":120.885644,"lat":14.710011}},{"type":"Feature","geometry":{"type":"Polygon","coordinates":[[[120.886087,14.710112],[120.886089,14.709931],[120.886182,14.709932],[120.88618,14.710112],[120.886087,14.710112]]]},"properties":{"id":"manila_2025-01-06_lgbm_7","region":"manila","date":"2025-01-06","area_m2":200.0,"mean_prob":0.7333,"max_prob":0.7608,"model":"lgbm","n_px":2,"px_area_m2":100.0,"confirmed":false,"confirmed_by":null,"lon":120.886134,"lat":14.710022}},{"type":"Feature","geometry":{"type":"Polygon","coordinates":[[[120.887015,14.71012],[120.887017,14.709939],[120.887203,14.709941],[120.887201,14.710122],[120.887015,14.71012]]]},"properties":{"id":"manila_2025-01-06_lgbm_8","region":"manila","date":"2025-01-06","area_m2":400.0,"mean_prob":0.8324,"max_prob":0.8824,"model":"lgbm","n_px":4,"px_area_m2":100.0,"confirmed":false,"confirmed_by":null,"lon":120.887109,"lat":14.710031}},{"type":"Feature","geometry":{"type":"Polygon","coordinates":[[[120.894193,14.707023],[120.894195,14.706842],[120.894288,14.706843],[120.894286,14.707024],[120.894193,14.707023]]]},"properties":{"id":"manila_2025-01-06_lgbm_9","region":"manila","date":"2025-01-06","area_m2":200.0,"mean_prob":0.9,"max_prob":0.9882,"model":"lgbm","n_px":2,"px_area_m2":100.0,"confirmed":false,"confirmed_by":null,"lon":120.894241,"lat":14.706933}},{"type":"Feature","geometry":{"type":"Polygon","coordinates":[[[120.91471,14.707028],[120.914711,14.706937],[120.914804,14.706938],[120.914805,14.706848],[120.914991,14.706849],[120.914991,14.706759],[120.915177,14.706761],[120.915178,14.70667],[120.915456,14.706673],[120.915457,14.706582],[120.91555,14.706583],[120.915549,14.706674],[120.915456,14.706673],[120.915456,14.706763],[120.91527,14.706761],[120.915269,14.706852],[120.915083,14.70685],[120.915083,14.706941],[120.914897,14.706939],[120.914896,14.707029],[120.91471,14.707028]]]},"properties":{"id":"manila_2025-01-06_lgbm_10","region":"manila","date":"2025-01-06","area_m2":1200.0,"mean_prob":0.9418,"max_prob":1.0,"model":"lgbm","n_px":12,"px_area_m2":100.0,"confirmed":false,"confirmed_by":null,"lon":120.915107,"lat":14.70682}},{"type":"Feature","geometry":{"type":"Polygon","coordinates":[[[120.933013,14.705565],[120.933015,14.705384],[120.933108,14.705385],[120.933106,14.705566],[120.933013,14.705565]]]},"properties":{"id":"manila_2025-01-06_lgbm_11","region":"manila","date":"2025-01-06","area_m2":200.0,"mean_prob":0.949,"max_prob":0.9608,"model":"lgbm","n_px":2,"px_area_m2":100.0,"confirmed":false,"confirmed_by":null,"lon":120.933061,"lat":14.705475}},{"type":"Feature","geometry":{"type":"Polygon","coordinates":[[[120.921995,14.702484],[120.921996,14.702394],[120.922088,14.702395],[120.922089,14.702305],[120.922182,14.702305],[120.92218,14.702486],[120.921995,14.702484]]]},"properties":{"id":"manila_2025-01-06_lgbm_12","region":"manila","date":"2025-01-06","area_m2":300.0,"mean_prob":0.9516,"max_prob":0.9922,"model":"lgbm","n_px":3,"px_area_m2":100.0,"confirmed":false,"confirmed_by":null,"lon":120.922104,"lat":14.70241}},{"type":"Feature","geometry":{"type":"Polygon","coordinates":[[[120.762347,14.700276],[120.762348,14.700095],[120.762441,14.700096],[120.762439,14.700277],[120.762347,14.700276]]]},"properties":{"id":"manila_2025-01-06_lgbm_13","region":"manila","date":"2025-01-06","area_m2":200.0,"mean_prob":0.9275,"max_prob":0.9686,"model":"lgbm","n_px":2,"px_area_m2":100.0,"confirmed":false,"confirmed_by":null,"lon":120.762394,"lat":14.700186}},{"type":"Feature","geometry":{"type":"Polygon","coordinates":[[[120.927424,14.697744],[120.927425,14.697653],[120.92761,14.697655],[120.92761,14.697745],[120.927424,14.697744]]]},"properties":{"id":"manila_2025-01-06_lgbm_14","region":"manila","date":"2025-01-06","area_m2":200.0,"mean_prob":0.9745,"max_prob":0.9882,"model":"lgbm","n_px":2,"px_area_m2":100.0,"confirmed":false,"confirmed_by":null,"lon":120.927517,"lat":14.697699}},{"type":"Feature","geometry":{"type":"Polygon","coordinates":[[[120.918793,14.697486],[120.918794,14.697395],[120.918887,14.697396],[120.918887,14.697306],[120.91898,14.697307],[120.918978,14.697487],[120.918793,14.697486]]]},"properties":{"id":"manila_2025-01-06_lgbm_15","region":"manila","date":"2025-01-06","area_m2":300.0,"mean_prob":0.8,"max_prob":0.8275,"model":"lgbm","n_px":3,"px_area_m2":100.0,"confirmed":false,"confirmed_by":null,"lon":120.918902,"lat":14.697411}},{"type":"Feature","geometry":{"type":"Polygon","coordinates":[[[120.762686,14.694316],[120.762688,14.694135],[120.76278,14.694136],[120.762779,14.694316],[120.762686,14.694316]]]},"properties":{"id":"manila_2025-01-06_lgbm_16","region":"manila","date":"2025-01-06","area_m2":200.0,"mean_prob":0.9176,"max_prob":0.9647,"model":"lgbm","n_px":2,"px_area_m2":100.0,"confirmed":false,"confirmed_by":null,"lon":120.762733,"lat":14.694226}},{"type":"Feature","geometry":{"type":"Polygon","coordinates":[[[120.923379,14.693551],[120.92338,14.693461],[120.923565,14.693462],[120.923565,14.693553],[120.923379,14.693551]]]},"properties":{"id":"manila_2025-01-06_lgbm_17","region":"manila","date":"2025-01-06","area_m2":200.0,"mean_prob":0.9471,"max_prob":0.9961,"model":"lgbm","n_px":2,"px_area_m2":100.0,"confirmed":false,"confirmed_by":null,"lon":120.923472,"lat":14.693507}},{"type":"Feature","geometry":{"type":"Polygon","coordinates":[[[120.923657,14.693553],[120.923658,14.693463],[120.923844,14.693465],[120.923843,14.693555],[120.923657,14.693553]]]},"properties":{"id":"manila_2025-01-06_lgbm_18","region":"manila","date":"2025-01-06","area_m2":200.0,"mean_prob":0.8725,"max_prob":0.8863,"model":"lgbm","n_px":2,"px_area_m2":100.0,"confirmed":false,"confirmed_by":null,"lon":120.923751,"lat":14.693509}},{"type":"Feature","geometry":{"type":"Polygon","coordinates":[[[120.846437,14.692127],[120.846438,14.691946],[120.846531,14.691947],[120.846529,14.692127],[120.846437,14.692127]]]},"properties":{"id":"manila_2025-01-06_lgbm_19","region":"manila","date":"2025-01-06","area_m2":200.0,"mean_prob":0.8941,"max_prob":0.9216,"model":"lgbm","n_px":2,"px_area_m2":100.0,"confirmed":false,"confirmed_by":null,"lon":120.846484,"lat":14.692037}},{"type":"Feature","geometry":{"type":"Polygon","coordinates":[[[120.930911,14.692172],[120.930912,14.692082],[120.931098,14.692084],[120.931097,14.692174],[120.930911,14.692172]]]},"properties":{"id":"manila_2025-01-06_lgbm_20","region":"manila","date":"2025-01-06","area_m2":200.0,"mean_prob":0.9922,"max_prob":0.9922,"model":"lgbm","n_px":2,"px_area_m2":100.0,"confirmed":false,"confirmed_by":null,"lon":120.931005,"lat":14.692128}},{"type":"Feature","geometry":{"type":"Polygon","coordinates":[[[120.925169,14.690766],[120.92517,14.690675],[120.925355,14.690677],[120.925355,14.690767],[120.925169,14.690766]]]},"properties":{"id":"manila_2025-01-06_lgbm_21","region":"manila","date":"2025-01-06","area_m2":200.0,"mean_prob":0.9882,"max_prob":0.9882,"model":"lgbm","n_px":2,"px_area_m2":100.0,"confirmed":false,"confirmed_by":null,"lon":120.925262,"lat":14.690721}},{"type":"Feature","geometry":{"type":"Polygon","coordinates":[[[120.854726,14.689312],[120.854727,14.689131],[120.85482,14.689132],[120.854818,14.689313],[120.854726,14.689312]]]},"properties":{"id":"manila_2025-01-06_lgbm_22","region":"manila","date":"2025-01-06","area_m2":200.0,"mean_prob":0.8314,"max_prob":0.8431,"model":"lgbm","n_px":2,"px_area_m2":100.0,"confirmed":false,"confirmed_by":null,"lon":120.854773,"lat":14.689222}},{"type":"Feature","geometry":{"type":"Polygon","coordinates":[[[120.877762,14.687716],[120.877764,14.687536],[120.877857,14.687537],[120.877855,14.687717],[120.877762,14.687716]]]},"properties":{"id":"manila_2025-01-06_lgbm_23","region":"manila","date":"2025-01-06","area_m2":200.0,"mean_prob":0.8137,"max_prob":0.8196,"model":"lgbm","n_px":2,"px_area_m2":100.0,"confirmed":true,"confirmed_by":"mdd","lon":120.87781,"lat":14.687627}},{"type":"Feature","geometry":{"type":"Polygon","coordinates":[[[120.880919,14.687655],[120.88092,14.687565],[120.881106,14.687566],[120.881105,14.687657],[120.880919,14.687655]]]},"properties":{"id":"manila_2025-01-06_lgbm_24","region":"manila","date":"2025-01-06","area_m2":200.0,"mean_prob":0.9667,"max_prob":0.9961,"model":"lgbm","n_px":2,"px_area_m2":100.0,"confirmed":true,"confirmed_by":"mdd","lon":120.881012,"lat":14.687611}},{"type":"Feature","geometry":{"type":"Polygon","coordinates":[[[120.858014,14.685276],[120.858016,14.685095],[120.858109,14.685096],[120.858107,14.685277],[120.858014,14.685276]]]},"properties":{"id":"manila_2025-01-06_lgbm_25","region":"manila","date":"2025-01-06","area_m2":200.0,"mean_prob":0.9922,"max_prob":1.0,"model":"lgbm","n_px":2,"px_area_m2":100.0,"confirmed":false,"confirmed_by":null,"lon":120.858061,"lat":14.685186}},{"type":"Feature","geometry":{"type":"Polygon","coordinates":[[[120.849603,14.681584],[120.849605,14.681403],[120.84979,14.681405],[120.849789,14.681586],[120.849603,14.681584]]]},"properties":{"id":"manila_2025-01-06_lgbm_26","region":"manila","date":"2025-01-06","area_m2":400.0,"mean_prob":0.9765,"max_prob":0.9882,"model":"lgbm","n_px":4,"px_area_m2":100.0,"confirmed":false,"confirmed_by":null,"lon":120.849697,"lat":14.681494}},{"type":"Feature","geometry":{"type":"Polygon","coordinates":[[[120.862416,14.68125],[120.862418,14.68107],[120.86251,14.681071],[120.862509,14.681251],[120.862416,14.68125]]]},"properties":{"id":"manila_2025-01-06_lgbm_27","region":"manila","date":"2025-01-06","area_m2":200.0,"mean_prob":1.0,"max_prob":1.0,"model":"lgbm","n_px":2,"px_area_m2":100.0,"confirmed":false,"confirmed_by":null,"lon":120.862463,"lat":14.681161}},{"type":"Feature","geometry":{"type":"Polygon","coordinates":[[[120.856106,14.681012],[120.856107,14.680921],[120.856293,14.680923],[120.856292,14.681013],[120.856106,14.681012]]]},"properties":{"id":"manila_2025-01-06_lgbm_28","region":"manila","date":"2025-01-06","area_m2":200.0,"mean_prob":0.9725,"max_prob":1.0,"model":"lgbm","n_px":2,"px_area_m2":100.0,"confirmed":false,"confirmed_by":null,"lon":120.856199,"lat":14.680967}},{"type":"Feature","geometry":{"type":"Polygon","coordinates":[[[120.885344,14.681189],[120.885346,14.681009],[120.885439,14.68101],[120.885438,14.6811],[120.885531,14.681101],[120.88553,14.681191],[120.885344,14.681189]]]},"properties":{"id":"manila_2025-01-06_lgbm_29","region":"manila","date":"2025-01-06","area_m2":300.0,"mean_prob":0.9791,"max_prob":0.9961,"model":"lgbm","n_px":3,"px_area_m2":100.0,"confirmed":false,"confirmed_by":null,"lon":120.885422,"lat":14.681115}},{"type":"Feature","geometry":{"type":"Polygon","coordinates":[[[120.871334,14.680519],[120.871336,14.680338],[120.871521,14.68034],[120.87152,14.680521],[120.871334,14.680519]]]},"properties":{"id":"manila_2025-01-06_lgbm_30","region":"manila","date":"2025-01-06","area_m2":400.0,"mean_prob":0.951,"max_prob":0.9961,"model":"lgbm","n_px":4,"px_area_m2":100.0,"confirmed":false,"confirmed_by":null,"lon":120.871428,"lat":14.68043}},{"type":"Feature","geometry":{"type":"Polygon","coordinates":[[[120.868863,14.676882],[120.868865,14.676701],[120.868958,14.676702],[120.868956,14.676883],[120.868863,14.676882]]]},"properties":{"id":"manila_2025-01-06_lgbm_31","region":"manila","date":"2025-01-06","area_m2":200.0,"mean_prob":0.8157,"max_prob":0.9255,"model":"lgbm","n_px":2,"px_area_m2":100.0,"confirmed":false,"confirmed_by":null,"lon":120.86891,"lat":14.676792}},{"type":"Feature","geometry":{"type":"Polygon","coordinates":[[[120.844919,14.67648],[120.844921,14.6763],[120.845014,14.676301],[120.845012,14.676481],[120.844919,14.67648]]]},"properties":{"id":"manila_2025-01-06_lgbm_32","region":"manila","date":"2025-01-06","area_m2":200.0,"mean_prob":0.8392,"max_prob":0.9216,"model":"lgbm","n_px":2,"px_area_m2":100.0,"confirmed":false,"confirmed_by":null,"lon":120.844966,"lat":14.67639}},{"type":"Feature","geometry":{"type":"Polygon","coordinates":[[[120.881412,14.675009],[120.881414,14.674828],[120.881507,14.674829],[120.881506,14.674919],[120.881599,14.67492],[120.881598,14.675011],[120.881412,14.675009]]]},"properties":{"id":"manila_2025-01-06_lgbm_33","region":"manila","date":"2025-01-06","area_m2":300.0,"mean_prob":0.9059,"max_prob":0.9961,"model":"lgbm","n_px":3,"px_area_m2":100.0,"confirmed":false,"confirmed_by":null,"lon":120.88149,"lat":14.674934}},{"type":"Feature","geometry":{"type":"Polygon","coordinates":[[[120.91836,14.67453],[120.918361,14.67444],[120.918547,14.674441],[120.918546,14.674532],[120.91836,14.67453]]]},"properties":{"id":"manila_2025-01-06_lgbm_34","region":"manila","date":"2025-01-06","area_m2":200.0,"mean_prob":0.8471,"max_prob":0.898,"model":"lgbm","n_px":2,"px_area_m2":100.0,"confirmed":false,"confirmed_by":null,"lon":120.918454,"lat":14.674486}},{"type":"Feature","geometry":{"type":"Polygon","coordinates":[[[120.92388,14.669971],[120.923882,14.66979],[120.923789,14.669789],[120.923791,14.669609],[120.923883,14.669609],[120.923882,14.66979],[120.923974,14.669791],[120.923973,14.669972],[120.92388,14.669971]]]},"properties":{"id":"manila_2025-01-06_lgbm_35","region":"manila","date":"2025-01-06","area_m2":400.0,"mean_prob":0.9098,"max_prob":0.9922,"model":"lgbm","n_px":4,"px_area_m2":100.0,"confirmed":false,"confirmed_by":null,"lon":120.923882,"lat":14.66979}},{"type":"Feature","geometry":{"type":"Polygon","coordinates":[[[120.92547,14.66872],[120.925471,14.668539],[120.925657,14.668541],[120.925656,14.668631],[120.925563,14.66863],[120.925563,14.668721],[120.92547,14.66872]]]},"properties":{"id":"manila_2025-01-06_lgbm_36","region":"manila","date":"2025-01-06","area_m2":300.0,"mean_prob":0.9882,"max_prob":1.0,"model":"lgbm","n_px":3,"px_area_m2":100.0,"confirmed":false,"confirmed_by":null,"lon":120.925548,"lat":14.668615}},{"type":"Feature","geometry":{"type":"Polygon","coordinates":[[[120.931134,14.668499],[120.931136,14.668319],[120.931228,14.668319],[120.931227,14.6685],[120.931134,14.668499]]]},"properties":{"id":"manila_2025-01-06_lgbm_37","region":"manila","date":"2025-01-06","area_m2":200.0,"mean_prob":0.8255,"max_prob":0.9804,"model":"lgbm","n_px":2,"px_area_m2":100.0,"confirmed":false,"confirmed_by":null,"lon":120.931181,"lat":14.668409}},{"type":"Feature","geometry":{"type":"Polygon","coordinates":[[[120.924823,14.668353],[120.924825,14.668172],[120.924918,14.668173],[120.924916,14.668354],[120.924823,14.668353]]]},"properties":{"id":"manila_2025-01-06_lgbm_38","region":"manila","date":"2025-01-06","area_m2":200.0,"mean_prob":0.9196,"max_prob":0.9412,"model":"lgbm","n_px":2,"px_area_m2":100.0,"confirmed":false,"confirmed_by":null,"lon":120.924871,"lat":14.668263}},{"type":"Feature","geometry":{"type":"Polygon","coordinates":[[[120.704416,14.665466],[120.704418,14.665286],[120.704511,14.665286],[120.704509,14.665467],[120.704416,14.665466]]]},"properties":{"id":"manila_2025-01-06_lgbm_39","region":"manila","date":"2025-01-06","area_m2":200.0,"mean_prob":0.8608,"max_prob":0.9765,"model":"lgbm","n_px":2,"px_area_m2":100.0,"confirmed":false,"confirmed_by":null,"lon":120.704463,"lat":14.665376}},{"type":"Feature","geometry":{"type":"Polygon","coordinates":[[[120.786139,14.660567],[120.78614,14.660386],[120.786233,14.660387],[120.786231,14.660568],[120.786139,14.660567]]]},"properties":{"id":"manila_2025-01-06_lgbm_40","region":"manila","date":"2025-01-06","area_m2":200.0,"mean_prob":0.9176,"max_prob":0.9412,"model":"lgbm","n_px":2,"px_area_m2":100.0,"confirmed":false,"confirmed_by":null,"lon":120.786186,"lat":14.660477}},{"type":"Feature","geometry":{"type":"Polygon","coordinates":[[[120.767712,14.656325],[120.767714,14.656144],[120.767807,14.656145],[120.767805,14.656326],[120.767712,14.656325]]]},"properties":{"id":"manila_2025-01-06_lgbm_41","region":"manila","date":"2025-01-06","area_m2":200.0,"mean_prob":0.9824,"max_prob":0.9961,"model":"lgbm","n_px":2,"px_area_m2":100.0,"confirmed":false,"confirmed_by":null,"lon":120.76776,"lat":14.656235}},{"type":"Feature","geometry":{"type":"Polygon","coordinates":[[[120.848727,14.647691],[120.848729,14.64751],[120.848822,14.647511],[120.848821,14.647602],[120.848914,14.647603],[120.848913,14.647693],[120.848727,14.647691]]]},"properties":{"id":"manila_2025-01-06_lgbm_42","region":"manila","date":"2025-01-06","area_m2":300.0,"mean_prob":0.8614,"max_prob":0.9059,"model":"lgbm","n_px":3,"px_area_m2":100.0,"confirmed":false,"confirmed_by":null,"lon":120.848805,"lat":14.647617}},{"type":"Feature","geometry":{"type":"Polygon","coordinates":[[[120.93438,14.63907],[120.934381,14.638979],[120.934567,14.638981],[120.934566,14.639071],[120.93438,14.63907]]]},"properties":{"id":"manila_2025-01-06_lgbm_43","region":"manila","date":"2025-01-06","area_m2":200.0,"mean_prob":0.9431,"max_prob":0.9647,"model":"lgbm","n_px":2,"px_area_m2":100.0,"confirmed":false,"confirmed_by":null,"lon":120.934473,"lat":14.639025}},{"type":"Feature","geometry":{"type":"Polygon","coordinates":[[[120.892978,14.630295],[120.892979,14.630205],[120.893165,14.630206],[120.893164,14.630297],[120.892978,14.630295]]]},"properties":{"id":"manila_2025-01-06_lgbm_44","region":"manila","date":"2025-01-06","area_m2":200.0,"mean_prob":0.9529,"max_prob":0.9569,"model":"lgbm","n_px":2,"px_area_m2":100.0,"confirmed":false,"confirmed_by":null,"lon":120.893072,"lat":14.630251}},{"type":"Feature","geometry":{"type":"Polygon","coordinates":[[[120.858124,14.626182],[120.858125,14.626092],[120.858311,14.626093],[120.85831,14.626184],[120.858124,14.626182]]]},"properties":{"id":"manila_2025-01-06_lgbm_45","region":"manila","date":"2025-01-06","area_m2":200.0,"mean_prob":0.8784,"max_prob":0.9373,"model":"lgbm","n_px":2,"px_area_m2":100.0,"confirmed":false,"confirmed_by":null,"lon":120.858217,"lat":14.626138}},{"type":"Feature","geometry":{"type":"Polygon","coordinates":[[[120.856183,14.625441],[120.856184,14.62526],[120.856277,14.625261],[120.856275,14.625442],[120.856183,14.625441]]]},"properties":{"id":"manila_2025-01-06_lgbm_46","region":"manila","date":"2025-01-06","area_m2":200.0,"mean_prob":0.9569,"max_prob":0.9882,"model":"lgbm","n_px":2,"px_area_m2":100.0,"confirmed":false,"confirmed_by":null,"lon":120.85623,"lat":14.625351}},{"type":"Feature","geometry":{"type":"Polygon","coordinates":[[[120.903617,14.624066],[120.903619,14.623885],[120.903712,14.623886],[120.90371,14.624067],[120.903617,14.624066]]]},"properties":{"id":"manila_2025-01-06_lgbm_47","region":"manila","date":"2025-01-06","area_m2":200.0,"mean_prob":0.9588,"max_prob":0.9686,"model":"lgbm","n_px":2,"px_area_m2":100.0,"confirmed":false,"confirmed_by":null,"lon":120.903664,"lat":14.623976}},{"type":"Feature","geometry":{"type":"Polygon","coordinates":[[[120.856576,14.623186],[120.856577,14.623005],[120.85667,14.623006],[120.856669,14.623187],[120.856576,14.623186]]]},"properties":{"id":"manila_2025-01-06_lgbm_48","region":"manila","date":"2025-01-06","area_m2":200.0,"mean_prob":0.8804,"max_prob":0.9804,"model":"lgbm","n_px":2,"px_area_m2":100.0,"confirmed":false,"confirmed_by":null,"lon":120.856623,"lat":14.623096}},{"type":"Feature","geometry":{"type":"Polygon","coordinates":[[[120.855382,14.62191],[120.855383,14.621729],[120.855476,14.62173],[120.855475,14.621911],[120.855382,14.62191]]]},"properties":{"id":"manila_2025-01-06_lgbm_49","region":"manila","date":"2025-01-06","area_m2":200.0,"mean_prob":0.951,"max_prob":0.9647,"model":"lgbm","n_px":2,"px_area_m2":100.0,"confirmed":false,"confirmed_by":null,"lon":120.855429,"lat":14.62182}},{"type":"Feature","geometry":{"type":"Polygon","coordinates":[[[120.855854,14.621101],[120.855855,14.62092],[120.856041,14.620922],[120.856039,14.621103],[120.855854,14.621101]]]},"properties":{"id":"manila_2025-01-06_lgbm_50","region":"manila","date":"2025-01-06","area_m2":400.0,"mean_prob":0.9961,"max_prob":1.0,"model":"lgbm","n_px":4,"px_area_m2":100.0,"confirmed":false,"confirmed_by":null,"lon":120.855947,"lat":14.621011}},{"type":"Feature","geometry":{"type":"Polygon","coordinates":[[[120.851883,14.619076],[120.851884,14.618986],[120.852069,14.618988],[120.852069,14.619078],[120.851883,14.619076]]]},"properties":{"id":"manila_2025-01-06_lgbm_51","region":"manila","date":"2025-01-06","area_m2":200.0,"mean_prob":0.8294,"max_prob":0.898,"model":"lgbm","n_px":2,"px_area_m2":100.0,"confirmed":false,"confirmed_by":null,"lon":120.851976,"lat":14.619032}},{"type":"Feature","geometry":{"type":"Polygon","coordinates":[[[120.889042,14.605229],[120.889043,14.605049],[120.889136,14.605049],[120.889134,14.60523],[120.889042,14.605229]]]},"properties":{"id":"manila_2025-01-06_lgbm_52","region":"manila","date":"2025-01-06","area_m2":200.0,"mean_prob":0.8216,"max_prob":0.8824,"model":"lgbm","n_px":2,"px_area_m2":100.0,"confirmed":false,"confirmed_by":null,"lon":120.889089,"lat":14.605139}},{"type":"Feature","geometry":{"type":"Polygon","coordinates":[[[120.89175,14.603447],[120.891751,14.603266],[120.891844,14.603267],[120.891842,14.603447],[120.89175,14.603447]]]},"properties":{"id":"manila_2025-01-06_lgbm_53","region":"manila","date":"2025-01-06","area_m2":200.0,"mean_prob":0.998,"max_prob":1.0,"model":"lgbm","n_px":2,"px_area_m2":100.0,"confirmed":false,"confirmed_by":null,"lon":120.891797,"lat":14.603357}},{"type":"Feature","geometry":{"type":"Polygon","coordinates":[[[120.805941,14.601209],[120.805942,14.601029],[120.806035,14.60103],[120.806033,14.60121],[120.805941,14.601209]]]},"properties":{"id":"manila_2025-01-06_lgbm_54","region":"manila","date":"2025-01-06","area_m2":200.0,"mean_prob":0.9235,"max_prob":0.9608,"model":"lgbm","n_px":2,"px_area_m2":100.0,"confirmed":false,"confirmed_by":null,"lon":120.805988,"lat":14.60112}},{"type":"Feature","geometry":{"type":"Polygon","coordinates":[[[120.856575,14.594542],[120.856577,14.594361],[120.85667,14.594362],[120.856668,14.594543],[120.856575,14.594542]]]},"properties":{"id":"manila_2025-01-06_lgbm_55","region":"manila","date":"2025-01-06","area_m2":200.0,"mean_prob":0.851,"max_prob":0.8824,"model":"lgbm","n_px":2,"px_area_m2":100.0,"confirmed":false,"confirmed_by":null,"lon":120.856622,"lat":14.594452}},{"type":"Feature","geometry":{"type":"Polygon","coordinates":[[[120.851012,14.594129],[120.851014,14.593948],[120.851106,14.593949],[120.851105,14.59413],[120.851012,14.594129]]]},"properties":{"id":"manila_2025-01-06_lgbm_56","region":"manila","date":"2025-01-06","area_m2":200.0,"mean_prob":0.9686,"max_prob":0.9725,"model":"lgbm","n_px":2,"px_area_m2":100.0,"confirmed":false,"confirmed_by":null,"lon":120.851059,"lat":14.594039}},{"type":"Feature","geometry":{"type":"Polygon","coordinates":[[[120.849183,14.591402],[120.849184,14.591221],[120.84937,14.591223],[120.849368,14.591403],[120.849183,14.591402]]]},"properties":{"id":"manila_2025-01-06_lgbm_57","region":"manila","date":"2025-01-06","area_m2":400.0,"mean_prob":0.9451,"max_prob":0.9882,"model":"lgbm","n_px":4,"px_area_m2":100.0,"confirmed":false,"confirmed_by":null,"lon":120.849276,"lat":14.591312}},{"type":"Feature","geometry":{"type":"Polygon","coordinates":[[[120.854103,14.591085],[120.854104,14.590995],[120.85429,14.590997],[120.854289,14.591087],[120.854103,14.591085]]]},"properties":{"id":"manila_2025-01-06_lgbm_58","region":"manila","date":"2025-01-06","area_m2":200.0,"mean_prob":0.9078,"max_prob":0.9922,"model":"lgbm","n_px":2,"px_area_m2":100.0,"confirmed":false,"confirmed_by":null,"lon":120.854197,"lat":14.591041}},{"type":"Feature","geometry":{"type":"Polygon","coordinates":[[[120.844741,14.590186],[120.844742,14.590096],[120.844927,14.590097],[120.844926,14.590188],[120.844741,14.590186]]]},"properties":{"id":"manila_2025-01-06_lgbm_59","region":"manila","date":"2025-01-06","area_m2":200.0,"mean_prob":0.9784,"max_prob":0.9961,"model":"lgbm","n_px":2,"px_area_m2":100.0,"confirmed":false,"confirmed_by":null,"lon":120.844834,"lat":14.590142}},{"type":"Feature","geometry":{"type":"Polygon","coordinates":[[[120.844,14.589998],[120.844001,14.589908],[120.844187,14.58991],[120.844186,14.59],[120.844,14.589998]]]},"properties":{"id":"manila_2025-01-06_lgbm_60","region":"manila","date":"2025-01-06","area_m2":200.0,"mean_prob":0.8627,"max_prob":0.9098,"model":"lgbm","n_px":2,"px_area_m2":100.0,"confirmed":false,"confirmed_by":null,"lon":120.844094,"lat":14.589954}},{"type":"Feature","geometry":{"type":"Polygon","coordinates":[[[120.846609,14.588848],[120.846611,14.588667],[120.846704,14.588668],[120.846702,14.588849],[120.846609,14.588848]]]},"properties":{"id":"manila_2025-01-06_lgbm_61","region":"manila","date":"2025-01-06","area_m2":200.0,"mean_prob":0.8118,"max_prob":0.8353,"model":"lgbm","n_px":2,"px_area_m2":100.0,"confirmed":false,"confirmed_by":null,"lon":120.846657,"lat":14.588758}},{"type":"Feature","geometry":{"type":"Polygon","coordinates":[[[120.844767,14.587475],[120.844768,14.587385],[120.844954,14.587387],[120.844953,14.587477],[120.844767,14.587475]]]},"properties":{"id":"manila_2025-01-06_lgbm_62","region":"manila","date":"2025-01-06","area_m2":200.0,"mean_prob":0.9765,"max_prob":0.9843,"model":"lgbm","n_px":2,"px_area_m2":100.0,"confirmed":false,"confirmed_by":null,"lon":120.84486,"lat":14.587431}},{"type":"Feature","geometry":{"type":"Polygon","coordinates":[[[120.843006,14.587278],[120.843007,14.587188],[120.843193,14.58719],[120.843192,14.58728],[120.843006,14.587278]]]},"properties":{"id":"manila_2025-01-06_lgbm_63","region":"manila","date":"2025-01-06","area_m2":200.0,"mean_prob":0.7196,"max_prob":0.7961,"model":"lgbm","n_px":2,"px_area_m2":100.0,"confirmed":false,"confirmed_by":null,"lon":120.843099,"lat":14.587234}},{"type":"Feature","geometry":{"type":"Polygon","coordinates":[[[120.842265,14.587181],[120.842267,14.587],[120.842359,14.587001],[120.842358,14.587182],[120.842265,14.587181]]]},"properties":{"id":"manila_2025-01-06_lgbm_64","region":"manila","date":"2025-01-06","area_m2":200.0,"mean_prob":0.9922,"max_prob":0.9961,"model":"lgbm","n_px":2,"px_area_m2":100.0,"confirmed":false,"confirmed_by":null,"lon":120.842312,"lat":14.587091}},{"type":"Feature","geometry":{"type":"Polygon","coordinates":[[[120.84746,14.587229],[120.847461,14.587139],[120.847368,14.587138],[120.847369,14.587048],[120.847555,14.587049],[120.847553,14.58723],[120.84746,14.587229]]]},"properties":{"id":"manila_2025-01-06_lgbm_65","region":"manila","date":"2025-01-06","area_m2":300.0,"mean_prob":0.885,"max_prob":0.9922,"model":"lgbm","n_px":3,"px_area_m2":100.0,"confirmed":false,"confirmed_by":null,"lon":120.847477,"lat":14.587124}},{"type":"Feature","geometry":{"type":"Polygon","coordinates":[[[120.839765,14.586616],[120.839767,14.586435],[120.83986,14.586436],[120.839858,14.586617],[120.839765,14.586616]]]},"properties":{"id":"manila_2025-01-06_lgbm_66","region":"manila","date":"2025-01-06","area_m2":200.0,"mean_prob":0.8039,"max_prob":0.9608,"model":"lgbm","n_px":2,"px_area_m2":100.0,"confirmed":false,"confirmed_by":null,"lon":120.839812,"lat":14.586526}},{"type":"Feature","geometry":{"type":"Polygon","coordinates":[[[120.842735,14.586553],[120.842736,14.586463],[120.842921,14.586464],[120.84292,14.586555],[120.842735,14.586553]]]},"properties":{"id":"manila_2025-01-06_lgbm_67","region":"manila","date":"2025-01-06","area_m2":200.0,"mean_prob":0.8843,"max_prob":0.9098,"model":"lgbm","n_px":2,"px_area_m2":100.0,"confirmed":false,"confirmed_by":null,"lon":120.842828,"lat":14.586509}},{"type":"Feature","geometry":{"type":"Polygon","coordinates":[[[120.848399,14.586063],[120.8484,14.585973],[120.848586,14.585974],[120.848585,14.586065],[120.848399,14.586063]]]},"properties":{"id":"manila_2025-01-06_lgbm_68","region":"manila","date":"2025-01-06","area_m2":200.0,"mean_prob":0.9353,"max_prob":0.9569,"model":"lgbm","n_px":2,"px_area_m2":100.0,"confirmed":false,"confirmed_by":null,"lon":120.848493,"lat":14.586019}},{"type":"Feature","geometry":{"type":"Polygon","coordinates":[[[120.840426,14.585447],[120.840427,14.585357],[120.840613,14.585359],[120.840612,14.585449],[120.840426,14.585447]]]},"properties":{"id":"manila_2025-01-06_lgbm_69","region":"manila","date":"2025-01-06","area_m2":200.0,"mean_prob":0.8961,"max_prob":0.9373,"model":"lgbm","n_px":2,"px_area_m2":100.0,"confirmed":false,"confirmed_by":null,"lon":120.840519,"lat":14.585403}},{"type":"Feature","geometry":{"type":"Polygon","coordinates":[[[120.837205,14.582797],[120.837205,14.582707],[120.837113,14.582706],[120.837114,14.582616],[120.837206,14.582616],[120.837205,14.582707],[120.837298,14.582708],[120.837297,14.582798],[120.837205,14.582797]]]},"properties":{"id":"manila_2025-01-06_lgbm_70","region":"manila","date":"2025-01-06","area_m2":200.0,"mean_prob":0.8569,"max_prob":0.8706,"model":"lgbm","n_px":2,"px_area_m2":100.0,"confirmed":false,"confirmed_by":null,"lon":120.837205,"lat":14.582707}},{"type":"Feature","geometry":{"type":"Polygon","coordinates":[[[120.841216,14.580575],[120.841217,14.580485],[120.841124,14.580484],[120.841125,14.580394],[120.84131,14.580395],[120.841309,14.580576],[120.841216,14.580575]]]},"properties":{"id":"manila_2025-01-06_lgbm_71","region":"manila","date":"2025-01-06","area_m2":300.0,"mean_prob":0.8248,"max_prob":0.9294,"model":"lgbm","n_px":3,"px_area_m2":100.0,"confirmed":false,"confirmed_by":null,"lon":120.841232,"lat":14.58047}},{"type":"Feature","geometry":{"type":"Polygon","coordinates":[[[120.840103,14.580475],[120.840104,14.580384],[120.84029,14.580386],[120.840289,14.580476],[120.840103,14.580475]]]},"properties":{"id":"manila_2025-01-06_lgbm_72","region":"manila","date":"2025-01-06","area_m2":200.0,"mean_prob":0.9235,"max_prob":0.9725,"model":"lgbm","n_px":2,"px_area_m2":100.0,"confirmed":false,"confirmed_by":null,"lon":120.840197,"lat":14.58043}},{"type":"Feature","geometry":{"type":"Polygon","coordinates":[[[120.908425,14.576849],[120.908427,14.576669],[120.90852,14.576669],[120.908518,14.57685],[120.908425,14.576849]]]},"properties":{"id":"manila_2025-01-06_lgbm_73","region":"manila","date":"2025-01-06","area_m2":200.0,"mean_prob":0.8176,"max_prob":0.8706,"model":"lgbm","n_px":2,"px_area_m2":100.0,"confirmed":false,"confirmed_by":null,"lon":120.908473,"lat":14.576759}},{"type":"Feature","geometry":{"type":"Polygon","coordinates":[[[120.801028,14.563304],[120.80103,14.563123],[120.801123,14.563124],[120.801121,14.563304],[120.801028,14.563304]]]},"properties":{"id":"manila_2025-01-06_lgbm_74","region":"manila","date":"2025-01-06","area_m2":200.0,"mean_prob":0.9961,"max_prob":0.9961,"model":"lgbm","n_px":2,"px_area_m2":100.0,"confirmed":false,"confirmed_by":null,"lon":120.801075,"lat":14.563214}},{"type":"Feature","geometry":{"type":"Polygon","coordinates":[[[120.805788,14.560457],[120.805789,14.560276],[120.805882,14.560277],[120.80588,14.560458],[120.805788,14.560457]]]},"properties":{"id":"manila_2025-01-06_lgbm_75","region":"manila","date":"2025-01-06","area_m2":200.0,"mean_prob":0.9608,"max_prob":0.9922,"model":"lgbm","n_px":2,"px_area_m2":100.0,"confirmed":false,"confirmed_by":null,"lon":120.805835,"lat":14.560367}},{"type":"Feature","geometry":{"type":"Polygon","coordinates":[[[120.835675,14.54944],[120.835675,14.54935],[120.835861,14.549352],[120.83586,14.549442],[120.835675,14.54944]]]},"properties":{"id":"manila_2025-01-06_lgbm_76","region":"manila","date":"2025-01-06","area_m2":200.0,"mean_prob":0.8941,"max_prob":0.9961,"model":"lgbm","n_px":2,"px_area_m2":100.0,"confirmed":false,"confirmed_by":null,"lon":120.835768,"lat":14.549396}},{"type":"Feature","geometry":{"type":"Polygon","coordinates":[[[120.776521,14.546356],[120.776523,14.546175],[120.776616,14.546176],[120.776614,14.546357],[120.776521,14.546356]]]},"properties":{"id":"manila_2025-01-06_lgbm_77","region":"manila","date":"2025-01-06","area_m2":200.0,"mean_prob":0.8569,"max_prob":0.9843,"model":"lgbm","n_px":2,"px_area_m2":100.0,"confirmed":false,"confirmed_by":null,"lon":120.776568,"lat":14.546266}},{"type":"Feature","geometry":{"type":"Polygon","coordinates":[[[120.773016,14.544335],[120.773018,14.544154],[120.773204,14.544156],[120.773203,14.544246],[120.77311,14.544245],[120.773109,14.544336],[120.773016,14.544335]]]},"properties":{"id":"manila_2025-01-06_lgbm_78","region":"manila","date":"2025-01-06","area_m2":300.0,"mean_prob":0.9843,"max_prob":0.9961,"model":"lgbm","n_px":3,"px_area_m2":100.0,"confirmed":false,"confirmed_by":null,"lon":120.773095,"lat":14.54423}},{"type":"Feature","geometry":{"type":"Polygon","coordinates":[[[120.809518,14.539619],[120.809519,14.539529],[120.809705,14.539531],[120.809704,14.539621],[120.809518,14.539619]]]},"properties":{"id":"manila_2025-01-06_lgbm_79","region":"manila","date":"2025-01-06","area_m2":200.0,"mean_prob":0.9765,"max_prob":0.9882,"model":"lgbm","n_px":2,"px_area_m2":100.0,"confirmed":false,"confirmed_by":null,"lon":120.809612,"lat":14.539575}},{"type":"Feature","geometry":{"type":"Polygon","coordinates":[[[120.921676,14.539015],[120.921677,14.538925],[120.921863,14.538926],[120.921862,14.539017],[120.921676,14.539015]]]},"properties":{"id":"manila_2025-01-06_lgbm_80","region":"manila","date":"2025-01-06","area_m2":200.0,"mean_prob":0.8686,"max_prob":0.8863,"model":"lgbm","n_px":2,"px_area_m2":100.0,"confirmed":false,"confirmed_by":null,"lon":120.92177,"lat":14.538971}},{"type":"Feature","geometry":{"type":"Polygon","coordinates":[[[120.786904,14.53769],[120.786906,14.537509],[120.786999,14.53751],[120.786997,14.537691],[120.786904,14.53769]]]},"properties":{"id":"manila_2025-01-06_lgbm_81","region":"manila","date":"2025-01-06","area_m2":200.0,"mean_prob":0.9569,"max_prob":0.9725,"model":"lgbm","n_px":2,"px_area_m2":100.0,"confirmed":false,"confirmed_by":null,"lon":120.786951,"lat":14.5376}},{"type":"Feature","geometry":{"type":"Polygon","coordinates":[[[120.746193,14.536669],[120.746194,14.536579],[120.746102,14.536578],[120.746103,14.536488],[120.746195,14.536488],[120.746194,14.536579],[120.746287,14.53658],[120.746286,14.53667],[120.746193,14.536669]]]},"properties":{"id":"manila_2025-01-06_lgbm_82","region":"manila","date":"2025-01-06","area_m2":200.0,"mean_prob":0.9314,"max_prob":0.9569,"model":"lgbm","n_px":2,"px_area_m2":100.0,"confirmed":false,"confirmed_by":null,"lon":120.746194,"lat":14.536579}},{"type":"Feature","geometry":{"type":"Polygon","coordinates":[[[120.815421,14.53362],[120.815423,14.53344],[120.815516,14.533441],[120.815514,14.533621],[120.815421,14.53362]]]},"properties":{"id":"manila_2025-01-06_lgbm_83","region":"manila","date":"2025-01-06","area_m2":200.0,"mean_prob":0.902,"max_prob":0.9255,"model":"lgbm","n_px":2,"px_area_m2":100.0,"confirmed":false,"confirmed_by":null,"lon":120.815469,"lat":14.53353}},{"type":"Feature","geometry":{"type":"Polygon","coordinates":[[[120.834015,14.529365],[120.834017,14.529185],[120.834109,14.529186],[120.83411,14.529095],[120.834203,14.529096],[120.834202,14.529186],[120.834109,14.529186],[120.834108,14.529366],[120.834015,14.529365]]]},"properties":{"id":"manila_2025-01-06_lgbm_84","region":"manila","date":"2025-01-06","area_m2":300.0,"mean_prob":0.7843,"max_prob":0.9804,"model":"lgbm","n_px":3,"px_area_m2":100.0,"confirmed":false,"confirmed_by":null,"lon":120.834093,"lat":14.529231}},{"type":"Feature","geometry":{"type":"Polygon","coordinates":[[[120.842219,14.515526],[120.842221,14.515345],[120.842314,14.515346],[120.842312,14.515527],[120.842219,14.515526]]]},"properties":{"id":"manila_2025-01-06_lgbm_85","region":"manila","date":"2025-01-06","area_m2":200.0,"mean_prob":0.9588,"max_prob":0.9922,"model":"lgbm","n_px":2,"px_area_m2":100.0,"confirmed":false,"confirmed_by":null,"lon":120.842266,"lat":14.515436}},{"type":"Feature","geometry":{"type":"Polygon","coordinates":[[[120.785638,14.506414],[120.78564,14.506234],[120.785733,14.506235],[120.785731,14.506415],[120.785638,14.506414]]]},"properties":{"id":"manila_2025-01-06_lgbm_86","region":"manila","date":"2025-01-06","area_m2":200.0,"mean_prob":0.9647,"max_prob":0.9804,"model":"lgbm","n_px":2,"px_area_m2":100.0,"confirmed":false,"confirmed_by":null,"lon":120.785686,"lat":14.506325}},{"type":"Feature","geometry":{"type":"Polygon","coordinates":[[[120.927629,14.50744],[120.92763,14.50735],[120.927537,14.507349],[120.927538,14.507259],[120.927724,14.50726],[120.927722,14.507441],[120.927629,14.50744]]]},"properties":{"id":"manila_2025-01-06_lgbm_87","region":"manila","date":"2025-01-06","area_m2":300.0,"mean_prob":0.9961,"max_prob":1.0,"model":"lgbm","n_px":3,"px_area_m2":100.0,"confirmed":false,"confirmed_by":null,"lon":120.927646,"lat":14.507335}},{"type":"Feature","geometry":{"type":"Polygon","coordinates":[[[120.923847,14.505238],[120.923848,14.505148],[120.924033,14.505149],[120.924032,14.50524],[120.923847,14.505238]]]},"properties":{"id":"manila_2025-01-06_lgbm_88","region":"manila","date":"2025-01-06","area_m2":200.0,"mean_prob":0.998,"max_prob":1.0,"model":"lgbm","n_px":2,"px_area_m2":100.0,"confirmed":false,"confirmed_by":null,"lon":120.92394,"lat":14.505194}},{"type":"Feature","geometry":{"type":"Polygon","coordinates":[[[120.921439,14.504855],[120.921441,14.504675],[120.921533,14.504675],[120.921532,14.504856],[120.921439,14.504855]]]},"properties":{"id":"manila_2025-01-06_lgbm_89","region":"manila","date":"2025-01-06","area_m2":200.0,"mean_prob":0.6804,"max_prob":0.6902,"model":"lgbm","n_px":2,"px_area_m2":100.0,"confirmed":false,"confirmed_by":null,"lon":120.921486,"lat":14.504765}},{"type":"Feature","geometry":{"type":"Polygon","coordinates":[[[120.778664,14.498939],[120.778666,14.498759],[120.778759,14.49876],[120.778757,14.49894],[120.778664,14.498939]]]},"properties":{"id":"manila_2025-01-06_lgbm_90","region":"manila","date":"2025-01-06","area_m2":200.0,"mean_prob":0.8922,"max_prob":0.9137,"model":"lgbm","n_px":2,"px_area_m2":100.0,"confirmed":false,"confirmed_by":null,"lon":120.778712,"lat":14.498849}},{"type":"Feature","geometry":{"type":"Polygon","coordinates":[[[120.925424,14.495222],[120.925425,14.495131],[120.925611,14.495133],[120.92561,14.495223],[120.925424,14.495222]]]},"properties":{"id":"manila_2025-01-06_lgbm_91","region":"manila","date":"2025-01-06","area_m2":200.0,"mean_prob":0.8765,"max_prob":0.9961,"model":"lgbm","n_px":2,"px_area_m2":100.0,"confirmed":false,"confirmed_by":null,"lon":120.925517,"lat":14.495177}},{"type":"Feature","geometry":{"type":"Polygon","coordinates":[[[120.926641,14.494058],[120.926643,14.493877],[120.926735,14.493878],[120.926734,14.494058],[120.926641,14.494058]]]},"properties":{"id":"manila_2025-01-06_lgbm_92","region":"manila","date":"2025-01-06","area_m2":200.0,"mean_prob":0.998,"max_prob":1.0,"model":"lgbm","n_px":2,"px_area_m2":100.0,"confirmed":false,"confirmed_by":null,"lon":120.926688,"lat":14.493968}},{"type":"Feature","geometry":{"type":"Polygon","coordinates":[[[120.92332,14.492131],[120.923322,14.49195],[120.923414,14.491951],[120.923413,14.492132],[120.92332,14.492131]]]},"properties":{"id":"manila_2025-01-06_lgbm_93","region":"manila","date":"2025-01-06","area_m2":200.0,"mean_prob":1.0,"max_prob":1.0,"model":"lgbm","n_px":2,"px_area_m2":100.0,"confirmed":false,"confirmed_by":null,"lon":120.923367,"lat":14.492041}},{"type":"Feature","geometry":{"type":"Polygon","coordinates":[[[120.841532,14.49067],[120.841533,14.49058],[120.841441,14.490579],[120.841441,14.490489],[120.841627,14.490491],[120.841625,14.490671],[120.841532,14.49067]]]},"properties":{"id":"manila_2025-01-06_lgbm_94","region":"manila","date":"2025-01-06","area_m2":300.0,"mean_prob":0.8954,"max_prob":0.9922,"model":"lgbm","n_px":3,"px_area_m2":100.0,"confirmed":false,"confirmed_by":null,"lon":120.841549,"lat":14.490565}},{"type":"Feature","geometry":{"type":"Polygon","coordinates":[[[120.91119,14.489945],[120.911192,14.489764],[120.911378,14.489766],[120.911376,14.489946],[120.91119,14.489945]]]},"properties":{"id":"manila_2025-01-06_lgbm_95","region":"manila","date":"2025-01-06","area_m2":400.0,"mean_prob":0.9431,"max_prob":1.0,"model":"lgbm","n_px":4,"px_area_m2":100.0,"confirmed":false,"confirmed_by":null,"lon":120.911284,"lat":14.489855}}]}