{"type":"FeatureCollection","features":[{"type":"Feature","geometry":{"type":"Polygon","coordinates":[[[30.438652,31.597768],[30.438654,31.597678],[30.438865,31.597682],[30.438863,31.597772],[30.438652,31.597768]]]},"properties":{"id":"nile_2026-01-05_lgbm_0","region":"nile","date":"2026-01-05","area_m2":200.0,"mean_prob":0.9529,"max_prob":0.9961,"model":"lgbm","n_px":2,"px_area_m2":100.0,"confirmed":true,"confirmed_by":"mdd","lon":30.438758,"lat":31.597725}},{"type":"Feature","geometry":{"type":"Polygon","coordinates":[[[30.440374,31.59645],[30.440376,31.59636],[30.440482,31.596362],[30.440487,31.596182],[30.440592,31.596184],[30.440594,31.596094],[30.4407,31.596096],[30.440695,31.596276],[30.440589,31.596274],[30.440587,31.596364],[30.440482,31.596362],[30.440479,31.596452],[30.440374,31.59645]]]},"properties":{"id":"nile_2026-01-05_lgbm_1","region":"nile","date":"2026-01-05","area_m2":500.0,"mean_prob":0.9788,"max_prob":1.0,"model":"lgbm","n_px":5,"px_area_m2":100.0,"confirmed":true,"confirmed_by":"mdd","lon":30.440558,"lat":31.596264}},{"type":"Feature","geometry":{"type":"Polygon","coordinates":[[[30.443901,31.594627],[30.443906,31.594446],[30.444116,31.594451],[30.444114,31.594541],[30.444008,31.594539],[30.444006,31.594629],[30.443901,31.594627]]]},"properties":{"id":"nile_2026-01-05_lgbm_2","region":"nile","date":"2026-01-05","area_m2":300.0,"mean_prob":0.9412,"max_prob":0.9843,"model":"lgbm","n_px":3,"px_area_m2":100.0,"confirmed":true,"confirmed_by":"mdd","lon":30.443991,"lat":31.594523}},{"type":"Feature","geometry":{"type":"Polygon","coordinates":[[[30.477542,31.593492],[30.477544,31.593402],[30.477755,31.593406],[30.477752,31.593496],[30.477542,31.593492]]]},"properties":{"id":"nile_2026-01-05_lgbm_3","region":"nile","date":"2026-01-05","area_m2":200.0,"mean_prob":0.8824,"max_prob":0.9059,"model":"lgbm","n_px":2,"px_area_m2":100.0,"artifact":"ship","confirmed":false,"confirmed_by":null,"lon":30.477648,"lat":31.593449}},{"type":"Feature","geometry":{"type":"Polygon","coordinates":[[[30.450369,31.589255],[30.450379,31.588894],[30.450484,31.588896],[30.450474,31.589257],[30.450369,31.589255]]]},"properties":{"id":"nile_2026-01-05_lgbm_4","region":"nile","date":"2026-01-05","area_m2":400.0,"mean_prob":0.9324,"max_prob":1.0,"model":"lgbm","n_px":4,"px_area_m2":100.0,"confirmed":true,"confirmed_by":"mdd","lon":30.450426,"lat":31.589076}},{"type":"Feature","geometry":{"type":"Polygon","coordinates":[[[30.45081,31.588542],[30.450812,31.588452],[30.450917,31.588454],[30.45092,31.588364],[30.451025,31.588366],[30.45102,31.588546],[30.45081,31.588542]]]},"properties":{"id":"nile_2026-01-05_lgbm_5","region":"nile","date":"2026-01-05","area_m2":300.0,"mean_prob":0.9124,"max_prob":0.9725,"model":"lgbm","n_px":3,"px_area_m2":100.0,"confirmed":true,"confirmed_by":"mdd","lon":30.450934,"lat":31.588469}},{"type":"Feature","geometry":{"type":"Polygon","coordinates":[[[30.45352,31.58571],[30.453525,31.58553],[30.453631,31.585532],[30.453626,31.585712],[30.45352,31.58571]]]},"properties":{"id":"nile_2026-01-05_lgbm_6","region":"nile","date":"2026-01-05","area_m2":200.0,"mean_prob":0.9569,"max_prob":0.9843,"model":"lgbm","n_px":2,"px_area_m2":100.0,"confirmed":true,"confirmed_by":"mdd","lon":30.453576,"lat":31.585621}},{"type":"Feature","geometry":{"type":"Polygon","coordinates":[[[30.454086,31.584279],[30.454096,31.583918],[30.454307,31.583922],[30.454299,31.584193],[30.454194,31.584191],[30.454191,31.584281],[30.454086,31.584279]]]},"properties":{"id":"nile_2026-01-05_lgbm_7","region":"nile","date":"2026-01-05","area_m2":700.0,"mean_prob":0.9373,"max_prob":1.0,"model":"lgbm","n_px":7,"px_area_m2":100.0,"confirmed":true,"confirmed_by":"mdd","lon":30.454189,"lat":31.584081}},{"type":"Feature","geometry":{"type":"Polygon","coordinates":[[[30.457022,31.58091],[30.457025,31.58082],[30.456919,31.580818],[30.456922,31.580728],[30.457132,31.580732],[30.457127,31.580912],[30.457022,31.58091]]]},"properties":{"id":"nile_2026-01-05_lgbm_8","region":"nile","date":"2026-01-05","area_m2":300.0,"mean_prob":0.9922,"max_prob":1.0,"model":"lgbm","n_px":3,"px_area_m2":100.0,"confirmed":true,"confirmed_by":"mdd","lon":30.457043,"lat":31.580805}},{"type":"Feature","geometry":{"type":"Polygon","coordinates":[[[30.454424,31.579596],[30.454429,31.579416],[30.45464,31.57942],[30.454635,31.5796],[30.454424,31.579596]]]},"properties":{"id":"nile_2026-01-05_lgbm_9","region":"nile","date":"2026-01-05","area_m2":400.0,"mean_prob":0.9333,"max_prob":1.0,"model":"lgbm","n_px":4,"px_area_m2":100.0,"confirmed":false,"confirmed_by":null,"lon":30.454532,"lat":31.579508}},{"type":"Feature","geometry":{"type":"Polygon","coordinates":[[[30.382291,31.571104],[30.382293,31.571013],[30.382504,31.571018],[30.382501,31.571108],[30.382291,31.571104]]]},"properties":{"id":"nile_2026-01-05_lgbm_10","region":"nile","date":"2026-01-05","area_m2":200.0,"mean_prob":0.6961,"max_prob":0.698,"model":"lgbm","n_px":2,"px_area_m2":100.0,"confirmed":false,"confirmed_by":null,"lon":30.382397,"lat":31.571061}},{"type":"Feature","geometry":{"type":"Polygon","coordinates":[[[30.463696,31.571754],[30.463701,31.571574],[30.463807,31.571576],[30.463802,31.571756],[30.463696,31.571754]]]},"properties":{"id":"nile_2026-01-05_lgbm_11","region":"nile","date":"2026-01-05","area_m2":200.0,"mean_prob":0.7961,"max_prob":0.8824,"model":"lgbm","n_px":2,"px_area_m2":100.0,"confirmed":false,"confirmed_by":null,"lon":30.463751,"lat":31.571665}},{"type":"Feature","geometry":{"type":"Polygon","coordinates":[[[30.464972,31.571328],[30.464977,31.571148],[30.465082,31.57115],[30.465077,31.57133],[30.464972,31.571328]]]},"properties":{"id":"nile_2026-01-05_lgbm_12","region":"nile","date":"2026-01-05","area_m2":200.0,"mean_prob":0.9686,"max_prob":0.9804,"model":"lgbm","n_px":2,"px_area_m2":100.0,"confirmed":false,"confirmed_by":null,"lon":30.465027,"lat":31.571239}},{"type":"Feature","geometry":{"type":"Polygon","coordinates":[[[30.464073,31.569507],[30.464081,31.569236],[30.463975,31.569234],[30.46398,31.569054],[30.464191,31.569058],[30.464179,31.569509],[30.464073,31.569507]]]},"properties":{"id":"nile_2026-01-05_lgbm_13","region":"nile","date":"2026-01-05","area_m2":700.0,"mean_prob":0.9591,"max_prob":1.0,"model":"lgbm","n_px":7,"px_area_m2":100.0,"confirmed":false,"confirmed_by":null,"lon":30.464103,"lat":31.569243}},{"type":"Feature","geometry":{"type":"Polygon","coordinates":[[[30.464531,31.568163],[30.464533,31.568073],[30.464744,31.568077],[30.464742,31.568167],[30.464531,31.568163]]]},"properties":{"id":"nile_2026-01-05_lgbm_14","region":"nile","date":"2026-01-05","area_m2":200.0,"mean_prob":0.8843,"max_prob":0.949,"model":"lgbm","n_px":2,"px_area_m2":100.0,"confirmed":true,"confirmed_by":"mdd","lon":30.464637,"lat":31.56812}},{"type":"Feature","geometry":{"type":"Polygon","coordinates":[[[30.315382,31.564575],[30.315385,31.564485],[30.315595,31.564489],[30.315593,31.564579],[30.315382,31.564575]]]},"properties":{"id":"nile_2026-01-05_lgbm_15","region":"nile","date":"2026-01-05","area_m2":200.0,"mean_prob":0.7098,"max_prob":0.7765,"model":"lgbm","n_px":2,"px_area_m2":100.0,"artifact":"ship","confirmed":false,"confirmed_by":null,"lon":30.315489,"lat":31.564532}},{"type":"Feature","geometry":{"type":"Polygon","coordinates":[[[30.464651,31.567624],[30.464658,31.567354],[30.464763,31.567356],[30.464768,31.567176],[30.464874,31.567178],[30.464864,31.567538],[30.464759,31.567536],[30.464756,31.567627],[30.464651,31.567624]]]},"properties":{"id":"nile_2026-01-05_lgbm_16","region":"nile","date":"2026-01-05","area_m2":700.0,"mean_prob":0.9098,"max_prob":0.9961,"model":"lgbm","n_px":7,"px_area_m2":100.0,"confirmed":true,"confirmed_by":"mdd","lon":30.464769,"lat":31.567414}},{"type":"Feature","geometry":{"type":"Polygon","coordinates":[[[30.467285,31.563709],[30.467287,31.563618],[30.467392,31.563621],[30.467395,31.56353],[30.4675,31.563532],[30.467498,31.563623],[30.467392,31.563621],[30.46739,31.563711],[30.467285,31.563709]]]},"properties":{"id":"nile_2026-01-05_lgbm_17","region":"nile","date":"2026-01-05","area_m2":200.0,"mean_prob":0.7078,"max_prob":0.7451,"model":"lgbm","n_px":2,"px_area_m2":100.0,"confirmed":true,"confirmed_by":"mdd","lon":30.467392,"lat":31.563621}},{"type":"Feature","geometry":{"type":"Polygon","coordinates":[[[30.468408,31.561115],[30.468413,31.560935],[30.468518,31.560937],[30.468513,31.561118],[30.468408,31.561115]]]},"properties":{"id":"nile_2026-01-05_lgbm_18","region":"nile","date":"2026-01-05","area_m2":200.0,"mean_prob":0.7745,"max_prob":0.8118,"model":"lgbm","n_px":2,"px_area_m2":100.0,"confirmed":true,"confirmed_by":"mdd","lon":30.468463,"lat":31.561026}},{"type":"Feature","geometry":{"type":"Polygon","coordinates":[[[30.468415,31.560845],[30.468418,31.560755],[30.468523,31.560757],[30.468528,31.560577],[30.468633,31.560579],[30.468626,31.560849],[30.468415,31.560845]]]},"properties":{"id":"nile_2026-01-05_lgbm_19","region":"nile","date":"2026-01-05","area_m2":400.0,"mean_prob":0.9588,"max_prob":0.9961,"model":"lgbm","n_px":4,"px_area_m2":100.0,"confirmed":true,"confirmed_by":"mdd","lon":30.46855,"lat":31.560735}},{"type":"Feature","geometry":{"type":"Polygon","coordinates":[[[30.470319,31.556644],[30.470324,31.556464],[30.470535,31.556468],[30.47053,31.556648],[30.470319,31.556644]]]},"properties":{"id":"nile_2026-01-05_lgbm_20","region":"nile","date":"2026-01-05","area_m2":400.0,"mean_prob":0.952,"max_prob":0.9961,"model":"lgbm","n_px":4,"px_area_m2":100.0,"confirmed":true,"confirmed_by":"mdd","lon":30.470427,"lat":31.556556}},{"type":"Feature","geometry":{"type":"Polygon","coordinates":[[[30.471873,31.553699],[30.471876,31.553609],[30.471981,31.553611],[30.471988,31.55334],[30.472094,31.553342],[30.472096,31.553252],[30.472201,31.553254],[30.472194,31.553525],[30.472089,31.553523],[30.472086,31.553613],[30.471981,31.553611],[30.471979,31.553701],[30.471873,31.553699]]]},"properties":{"id":"nile_2026-01-05_lgbm_21","region":"nile","date":"2026-01-05","area_m2":700.0,"mean_prob":0.8359,"max_prob":0.9882,"model":"lgbm","n_px":7,"px_area_m2":100.0,"confirmed":true,"confirmed_by":"mdd","lon":30.472068,"lat":31.553464}},{"type":"Feature","geometry":{"type":"Polygon","coordinates":[[[30.472311,31.553076],[30.472316,31.552896],[30.472527,31.5529],[30.472524,31.55299],[30.472419,31.552988],[30.472417,31.553078],[30.472311,31.553076]]]},"properties":{"id":"nile_2026-01-05_lgbm_22","region":"nile","date":"2026-01-05","area_m2":300.0,"mean_prob":0.9699,"max_prob":0.9843,"model":"lgbm","n_px":3,"px_area_m2":100.0,"confirmed":true,"confirmed_by":"mdd","lon":30.472402,"lat":31.552973}},{"type":"Feature","geometry":{"type":"Polygon","coordinates":[[[30.346434,31.550344],[30.346439,31.550163],[30.346545,31.550166],[30.346542,31.550256],[30.346647,31.550258],[30.346645,31.550348],[30.346434,31.550344]]]},"properties":{"id":"nile_2026-01-05_lgbm_23","region":"nile","date":"2026-01-05","area_m2":300.0,"mean_prob":0.9085,"max_prob":0.9922,"model":"lgbm","n_px":3,"px_area_m2":100.0,"confirmed":true,"confirmed_by":"mdd","lon":30.346524,"lat":31.55027}},{"type":"Feature","geometry":{"type":"Polygon","coordinates":[[[30.473721,31.551571],[30.473724,31.551481],[30.473829,31.551483],[30.473831,31.551393],[30.473936,31.551395],[30.473934,31.551485],[30.473829,31.551483],[30.473826,31.551573],[30.473721,31.551571]]]},"properties":{"id":"nile_2026-01-05_lgbm_24","region":"nile","date":"2026-01-05","area_m2":200.0,"mean_prob":0.9961,"max_prob":0.9961,"model":"lgbm","n_px":2,"px_area_m2":100.0,"confirmed":true,"confirmed_by":"mdd","lon":30.473829,"lat":31.551483}},{"type":"Feature","geometry":{"type":"Polygon","coordinates":[[[30.475165,31.548804],[30.47517,31.548623],[30.475275,31.548626],[30.47527,31.548806],[30.475165,31.548804]]]},"properties":{"id":"nile_2026-01-05_lgbm_25","region":"nile","date":"2026-01-05","area_m2":200.0,"mean_prob":0.9275,"max_prob":0.9451,"model":"lgbm","n_px":2,"px_area_m2":100.0,"confirmed":true,"confirmed_by":"mdd","lon":30.47522,"lat":31.548715}},{"type":"Feature","geometry":{"type":"Polygon","coordinates":[[[30.475182,31.548173],[30.475187,31.547993],[30.475292,31.547995],[30.475287,31.548175],[30.475182,31.548173]]]},"properties":{"id":"nile_2026-01-05_lgbm_26","region":"nile","date":"2026-01-05","area_m2":200.0,"mean_prob":0.7941,"max_prob":0.8196,"model":"lgbm","n_px":2,"px_area_m2":100.0,"confirmed":true,"confirmed_by":"mdd","lon":30.475237,"lat":31.548084}},{"type":"Feature","geometry":{"type":"Polygon","coordinates":[[[30.475199,31.547542],[30.475204,31.547362],[30.475414,31.547366],[30.475412,31.547456],[30.475306,31.547454],[30.475304,31.547544],[30.475199,31.547542]]]},"properties":{"id":"nile_2026-01-05_lgbm_27","region":"nile","date":"2026-01-05","area_m2":300.0,"mean_prob":0.9386,"max_prob":1.0,"model":"lgbm","n_px":3,"px_area_m2":100.0,"confirmed":true,"confirmed_by":"mdd","lon":30.475289,"lat":31.547438}},{"type":"Feature","geometry":{"type":"Polygon","coordinates":[[[30.435967,31.545769],[30.435972,31.545588],[30.436077,31.545591],[30.436072,31.545771],[30.435967,31.545769]]]},"properties":{"id":"nile_2026-01-05_lgbm_28","region":"nile","date":"2026-01-05","area_m2":200.0,"mean_prob":0.9373,"max_prob":0.9882,"model":"lgbm","n_px":2,"px_area_m2":100.0,"confirmed":false,"confirmed_by":null,"lon":30.436022,"lat":31.54568}},{"type":"Feature","geometry":{"type":"Polygon","coordinates":[[[30.476889,31.543427],[30.476894,31.543246],[30.476999,31.543249],[30.476994,31.543429],[30.476889,31.543427]]]},"properties":{"id":"nile_2026-01-05_lgbm_29","region":"nile","date":"2026-01-05","area_m2":200.0,"mean_prob":0.7706,"max_prob":0.8941,"model":"lgbm","n_px":2,"px_area_m2":100.0,"confirmed":true,"confirmed_by":"mdd","lon":30.476944,"lat":31.543338}},{"type":"Feature","geometry":{"type":"Polygon","coordinates":[[[30.476904,31.542886],[30.476913,31.542525],[30.477019,31.542527],[30.477009,31.542888],[30.476904,31.542886]]]},"properties":{"id":"nile_2026-01-05_lgbm_30","region":"nile","date":"2026-01-05","area_m2":400.0,"mean_prob":0.9441,"max_prob":0.9922,"model":"lgbm","n_px":4,"px_area_m2":100.0,"confirmed":true,"confirmed_by":"mdd","lon":30.476961,"lat":31.542707}},{"type":"Feature","geometry":{"type":"Polygon","coordinates":[[[30.477471,31.541364],[30.477474,31.541274],[30.477579,31.541276],[30.477586,31.541005],[30.477797,31.54101],[30.477794,31.5411],[30.477689,31.541098],[30.477682,31.541368],[30.477471,31.541364]]]},"properties":{"id":"nile_2026-01-05_lgbm_31","region":"nile","date":"2026-01-05","area_m2":600.0,"mean_prob":0.8908,"max_prob":0.9922,"model":"lgbm","n_px":6,"px_area_m2":100.0,"confirmed":true,"confirmed_by":"mdd","lon":30.477634,"lat":31.541187}},{"type":"Feature","geometry":{"type":"Polygon","coordinates":[[[30.494218,31.541242],[30.494222,31.541062],[30.494328,31.541064],[30.494323,31.541245],[30.494218,31.541242]]]},"properties":{"id":"nile_2026-01-05_lgbm_32","region":"nile","date":"2026-01-05","area_m2":200.0,"mean_prob":0.9569,"max_prob":0.9804,"model":"lgbm","n_px":2,"px_area_m2":100.0,"confirmed":false,"confirmed_by":null,"lon":30.494273,"lat":31.541153}},{"type":"Feature","geometry":{"type":"Polygon","coordinates":[[[30.477814,31.540379],[30.477821,31.540108],[30.477926,31.54011],[30.477929,31.54002],[30.478034,31.540022],[30.478029,31.540203],[30.477924,31.5402],[30.477919,31.540381],[30.477814,31.540379]]]},"properties":{"id":"nile_2026-01-05_lgbm_33","region":"nile","date":"2026-01-05","area_m2":500.0,"mean_prob":0.8627,"max_prob":0.9922,"model":"lgbm","n_px":5,"px_area_m2":100.0,"confirmed":true,"confirmed_by":"mdd","lon":30.477913,"lat":31.540191}},{"type":"Feature","geometry":{"type":"Polygon","coordinates":[[[30.47797,31.538488],[30.477975,31.538308],[30.47808,31.53831],[30.478075,31.53849],[30.47797,31.538488]]]},"properties":{"id":"nile_2026-01-05_lgbm_34","region":"nile","date":"2026-01-05","area_m2":200.0,"mean_prob":0.9765,"max_prob":0.9961,"model":"lgbm","n_px":2,"px_area_m2":100.0,"confirmed":false,"confirmed_by":null,"lon":30.478025,"lat":31.538399}},{"type":"Feature","geometry":{"type":"Polygon","coordinates":[[[30.477989,31.537767],[30.477994,31.537587],[30.478099,31.537589],[30.478094,31.537769],[30.477989,31.537767]]]},"properties":{"id":"nile_2026-01-05_lgbm_35","region":"nile","date":"2026-01-05","area_m2":200.0,"mean_prob":0.9608,"max_prob":0.9961,"model":"lgbm","n_px":2,"px_area_m2":100.0,"confirmed":false,"confirmed_by":null,"lon":30.478044,"lat":31.537678}},{"type":"Feature","geometry":{"type":"Polygon","coordinates":[[[30.477908,31.536863],[30.477911,31.536773],[30.478121,31.536777],[30.478119,31.536867],[30.477908,31.536863]]]},"properties":{"id":"nile_2026-01-05_lgbm_36","region":"nile","date":"2026-01-05","area_m2":200.0,"mean_prob":0.9922,"max_prob":1.0,"model":"lgbm","n_px":2,"px_area_m2":100.0,"confirmed":false,"confirmed_by":null,"lon":30.478015,"lat":31.53682}},{"type":"Feature","geometry":{"type":"Polygon","coordinates":[[[30.478026,31.536415],[30.47803,31.536234],[30.478136,31.536237],[30.478131,31.536417],[30.478026,31.536415]]]},"properties":{"id":"nile_2026-01-05_lgbm_37","region":"nile","date":"2026-01-05","area_m2":200.0,"mean_prob":0.9353,"max_prob":1.0,"model":"lgbm","n_px":2,"px_area_m2":100.0,"confirmed":false,"confirmed_by":null,"lon":30.478081,"lat":31.536326}},{"type":"Feature","geometry":{"type":"Polygon","coordinates":[[[30.478263,31.535427],[30.478268,31.535247],[30.478373,31.535249],[30.47837,31.535339],[30.478476,31.535341],[30.478473,31.535432],[30.478263,31.535427]]]},"properties":{"id":"nile_2026-01-05_lgbm_38","region":"nile","date":"2026-01-05","area_m2":300.0,"mean_prob":0.7778,"max_prob":0.9686,"model":"lgbm","n_px":3,"px_area_m2":100.0,"confirmed":false,"confirmed_by":null,"lon":30.478352,"lat":31.535354}},{"type":"Feature","geometry":{"type":"Polygon","coordinates":[[[30.47828,31.534796],[30.478287,31.534526],[30.478392,31.534528],[30.478385,31.534798],[30.47828,31.534796]]]},"properties":{"id":"nile_2026-01-05_lgbm_39","region":"nile","date":"2026-01-05","area_m2":300.0,"mean_prob":0.8941,"max_prob":0.9961,"model":"lgbm","n_px":3,"px_area_m2":100.0,"confirmed":false,"confirmed_by":null,"lon":30.478336,"lat":31.534662}},{"type":"Feature","geometry":{"type":"Polygon","coordinates":[[[30.478108,31.53335],[30.47811,31.53326],[30.478216,31.533262],[30.478218,31.533172],[30.478323,31.533174],[30.478318,31.533354],[30.478108,31.53335]]]},"properties":{"id":"nile_2026-01-05_lgbm_40","region":"nile","date":"2026-01-05","area_m2":300.0,"mean_prob":0.8641,"max_prob":0.902,"model":"lgbm","n_px":3,"px_area_m2":100.0,"confirmed":false,"confirmed_by":null,"lon":30.478233,"lat":31.533277}},{"type":"Feature","geometry":{"type":"Polygon","coordinates":[[[30.478242,31.53227],[30.47825,31.532],[30.478355,31.532002],[30.478357,31.531912],[30.478462,31.531914],[30.478458,31.532094],[30.478352,31.532092],[30.478348,31.532273],[30.478242,31.53227]]]},"properties":{"id":"nile_2026-01-05_lgbm_41","region":"nile","date":"2026-01-05","area_m2":500.0,"mean_prob":0.989,"max_prob":1.0,"model":"lgbm","n_px":5,"px_area_m2":100.0,"confirmed":false,"confirmed_by":null,"lon":30.478342,"lat":31.532083}},{"type":"Feature","geometry":{"type":"Polygon","coordinates":[[[30.478582,31.531375],[30.478587,31.531195],[30.478692,31.531197],[30.478687,31.531377],[30.478582,31.531375]]]},"properties":{"id":"nile_2026-01-05_lgbm_42","region":"nile","date":"2026-01-05","area_m2":200.0,"mean_prob":0.9725,"max_prob":0.9843,"model":"lgbm","n_px":2,"px_area_m2":100.0,"confirmed":false,"confirmed_by":null,"lon":30.478637,"lat":31.531286}},{"type":"Feature","geometry":{"type":"Polygon","coordinates":[[[30.478709,31.530566],[30.478714,31.530386],[30.478819,31.530388],[30.478814,31.530568],[30.478709,31.530566]]]},"properties":{"id":"nile_2026-01-05_lgbm_43","region":"nile","date":"2026-01-05","area_m2":200.0,"mean_prob":0.9196,"max_prob":0.9922,"model":"lgbm","n_px":2,"px_area_m2":100.0,"confirmed":false,"confirmed_by":null,"lon":30.478764,"lat":31.530477}},{"type":"Feature","geometry":{"type":"Polygon","coordinates":[[[30.495131,31.530709],[30.495136,31.530528],[30.495346,31.530533],[30.495344,31.530623],[30.495238,31.530621],[30.495236,31.530711],[30.495131,31.530709]]]},"properties":{"id":"nile_2026-01-05_lgbm_44","region":"nile","date":"2026-01-05","area_m2":300.0,"mean_prob":0.9085,"max_prob":0.9765,"model":"lgbm","n_px":3,"px_area_m2":100.0,"confirmed":false,"confirmed_by":null,"lon":30.495221,"lat":31.530605}},{"type":"Feature","geometry":{"type":"Polygon","coordinates":[[[30.478978,31.528407],[30.478983,31.528227],[30.479088,31.528229],[30.47909,31.528139],[30.479301,31.528143],[30.479298,31.528233],[30.479193,31.528231],[30.479188,31.528411],[30.478978,31.528407]]]},"properties":{"id":"nile_2026-01-05_lgbm_45","region":"nile","date":"2026-01-05","area_m2":600.0,"mean_prob":0.9954,"max_prob":1.0,"model":"lgbm","n_px":6,"px_area_m2":100.0,"confirmed":true,"confirmed_by":"mdd","lon":30.479122,"lat":31.528275}},{"type":"Feature","geometry":{"type":"Polygon","coordinates":[[[30.398283,31.526249],[30.398288,31.526069],[30.398393,31.526071],[30.398388,31.526251],[30.398283,31.526249]]]},"properties":{"id":"nile_2026-01-05_lgbm_46","region":"nile","date":"2026-01-05","area_m2":200.0,"mean_prob":0.8627,"max_prob":0.8706,"model":"lgbm","n_px":2,"px_area_m2":100.0,"confirmed":false,"confirmed_by":null,"lon":30.398338,"lat":31.52616}},{"type":"Feature","geometry":{"type":"Polygon","coordinates":[[[30.479868,31.526621],[30.479873,31.526441],[30.479978,31.526443],[30.479973,31.526623],[30.479868,31.526621]]]},"properties":{"id":"nile_2026-01-05_lgbm_47","region":"nile","date":"2026-01-05","area_m2":200.0,"mean_prob":0.9941,"max_prob":0.9961,"model":"lgbm","n_px":2,"px_area_m2":100.0,"confirmed":true,"confirmed_by":"mdd","lon":30.479923,"lat":31.526532}},{"type":"Feature","geometry":{"type":"Polygon","coordinates":[[[30.479878,31.52626],[30.479883,31.52608],[30.479988,31.526082],[30.47999,31.525992],[30.480096,31.525994],[30.480091,31.526174],[30.479986,31.526172],[30.479983,31.526262],[30.479878,31.52626]]]},"properties":{"id":"nile_2026-01-05_lgbm_48","region":"nile","date":"2026-01-05","area_m2":400.0,"mean_prob":0.9529,"max_prob":1.0,"model":"lgbm","n_px":4,"px_area_m2":100.0,"confirmed":true,"confirmed_by":"mdd","lon":30.479987,"lat":31.526127}},{"type":"Feature","geometry":{"type":"Polygon","coordinates":[[[30.479353,31.522282],[30.479355,31.522192],[30.479566,31.522196],[30.479564,31.522286],[30.479353,31.522282]]]},"properties":{"id":"nile_2026-01-05_lgbm_49","region":"nile","date":"2026-01-05","area_m2":200.0,"mean_prob":0.7863,"max_prob":0.8314,"model":"lgbm","n_px":2,"px_area_m2":100.0,"confirmed":true,"confirmed_by":"mdd","lon":30.479459,"lat":31.522239}},{"type":"Feature","geometry":{"type":"Polygon","coordinates":[[[30.478765,31.520647],[30.47877,31.520467],[30.478875,31.520469],[30.478871,31.520649],[30.478765,31.520647]]]},"properties":{"id":"nile_2026-01-05_lgbm_50","region":"nile","date":"2026-01-05","area_m2":200.0,"mean_prob":0.9078,"max_prob":0.9216,"model":"lgbm","n_px":2,"px_area_m2":100.0,"confirmed":true,"confirmed_by":"mdd","lon":30.47882,"lat":31.520558}},{"type":"Feature","geometry":{"type":"Polygon","coordinates":[[[30.426745,31.517266],[30.426748,31.517176],[30.426958,31.51718],[30.426956,31.51727],[30.426745,31.517266]]]},"properties":{"id":"nile_2026-01-05_lgbm_51","region":"nile","date":"2026-01-05","area_m2":200.0,"mean_prob":0.9549,"max_prob":0.9647,"model":"lgbm","n_px":2,"px_area_m2":100.0,"confirmed":false,"confirmed_by":null,"lon":30.426852,"lat":31.517223}},{"type":"Feature","geometry":{"type":"Polygon","coordinates":[[[30.489575,31.517974],[30.489578,31.517884],[30.489788,31.517888],[30.489786,31.517978],[30.489575,31.517974]]]},"properties":{"id":"nile_2026-01-05_lgbm_52","region":"nile","date":"2026-01-05","area_m2":200.0,"mean_prob":0.949,"max_prob":0.9922,"model":"lgbm","n_px":2,"px_area_m2":100.0,"confirmed":false,"confirmed_by":null,"lon":30.489682,"lat":31.517931}},{"type":"Feature","geometry":{"type":"Polygon","coordinates":[[[30.330011,31.509511],[30.330013,31.509421],[30.329908,31.509418],[30.329911,31.509328],[30.330016,31.50933],[30.330013,31.509421],[30.330118,31.509423],[30.330116,31.509513],[30.330011,31.509511]]]},"properties":{"id":"nile_2026-01-05_lgbm_53","region":"nile","date":"2026-01-05","area_m2":200.0,"mean_prob":0.7588,"max_prob":0.8314,"model":"lgbm","n_px":2,"px_area_m2":100.0,"confirmed":true,"confirmed_by":"mdd","lon":30.330013,"lat":31.509421}},{"type":"Feature","geometry":{"type":"Polygon","coordinates":[[[30.473553,31.510894],[30.473558,31.510714],[30.473663,31.510716],[30.473659,31.510896],[30.473553,31.510894]]]},"properties":{"id":"nile_2026-01-05_lgbm_54","region":"nile","date":"2026-01-05","area_m2":200.0,"mean_prob":0.9824,"max_prob":0.9882,"model":"lgbm","n_px":2,"px_area_m2":100.0,"confirmed":true,"confirmed_by":"mdd","lon":30.473608,"lat":31.510805}},{"type":"Feature","geometry":{"type":"Polygon","coordinates":[[[30.461567,31.510386],[30.461571,31.510206],[30.461677,31.510208],[30.461674,31.510298],[30.461779,31.5103],[30.461777,31.510391],[30.461567,31.510386]]]},"properties":{"id":"nile_2026-01-05_lgbm_55","region":"nile","date":"2026-01-05","area_m2":300.0,"mean_prob":0.8693,"max_prob":0.9255,"model":"lgbm","n_px":3,"px_area_m2":100.0,"artifact":"ship","confirmed":false,"confirmed_by":null,"lon":30.461656,"lat":31.510313}},{"type":"Feature","geometry":{"type":"Polygon","coordinates":[[[30.472844,31.509888],[30.472846,31.509798],[30.472951,31.5098],[30.472954,31.50971],[30.473059,31.509712],[30.473054,31.509892],[30.472844,31.509888]]]},"properties":{"id":"nile_2026-01-05_lgbm_56","region":"nile","date":"2026-01-05","area_m2":300.0,"mean_prob":0.9373,"max_prob":0.9882,"model":"lgbm","n_px":3,"px_area_m2":100.0,"confirmed":true,"confirmed_by":"mdd","lon":30.472968,"lat":31.509816}},{"type":"Feature","geometry":{"type":"Polygon","coordinates":[[[30.472063,31.507618],[30.472065,31.507528],[30.47196,31.507526],[30.471962,31.507436],[30.472067,31.507438],[30.47207,31.507348],[30.472175,31.50735],[30.472168,31.50762],[30.472063,31.507618]]]},"properties":{"id":"nile_2026-01-05_lgbm_57","region":"nile","date":"2026-01-05","area_m2":400.0,"mean_prob":0.9382,"max_prob":0.9961,"model":"lgbm","n_px":4,"px_area_m2":100.0,"confirmed":true,"confirmed_by":"mdd","lon":30.472093,"lat":31.507483}},{"type":"Feature","geometry":{"type":"Polygon","coordinates":[[[30.449705,31.50528],[30.44971,31.5051],[30.449815,31.505102],[30.44981,31.505282],[30.449705,31.50528]]]},"properties":{"id":"nile_2026-01-05_lgbm_58","region":"nile","date":"2026-01-05","area_m2":200.0,"mean_prob":0.9902,"max_prob":0.9961,"model":"lgbm","n_px":2,"px_area_m2":100.0,"confirmed":false,"confirmed_by":null,"lon":30.44976,"lat":31.505191}},{"type":"Feature","geometry":{"type":"Polygon","coordinates":[[[30.496359,31.504399],[30.496362,31.504308],[30.496257,31.504306],[30.496259,31.504216],[30.496364,31.504218],[30.496367,31.504128],[30.496472,31.50413],[30.496469,31.50422],[30.496575,31.504222],[30.496572,31.504313],[30.496467,31.50431],[30.496465,31.504401],[30.496359,31.504399]]]},"properties":{"id":"nile_2026-01-05_lgbm_59","region":"nile","date":"2026-01-05","area_m2":500.0,"mean_prob":0.982,"max_prob":1.0,"model":"lgbm","n_px":5,"px_area_m2":100.0,"confirmed":false,"confirmed_by":null,"lon":30.496416,"lat":31.504264}},{"type":"Feature","geometry":{"type":"Polygon","coordinates":[[[30.295281,31.49832],[30.295287,31.49814],[30.295392,31.498142],[30.295389,31.498232],[30.295494,31.498234],[30.295492,31.498324],[30.295281,31.49832]]]},"properties":{"id":"nile_2026-01-05_lgbm_60","region":"nile","date":"2026-01-05","area_m2":300.0,"mean_prob":0.9582,"max_prob":1.0,"model":"lgbm","n_px":3,"px_area_m2":100.0,"confirmed":false,"confirmed_by":null,"lon":30.295371,"lat":31.498247}},{"type":"Feature","geometry":{"type":"Polygon","coordinates":[[[30.293948,31.497119],[30.29395,31.497029],[30.293845,31.497027],[30.293848,31.496937],[30.294058,31.496941],[30.294056,31.497032],[30.294161,31.497034],[30.294158,31.497124],[30.293948,31.497119]]]},"properties":{"id":"nile_2026-01-05_lgbm_61","region":"nile","date":"2026-01-05","area_m2":400.0,"mean_prob":0.9127,"max_prob":0.9882,"model":"lgbm","n_px":4,"px_area_m2":100.0,"artifact":"ship","confirmed":false,"confirmed_by":null,"lon":30.294003,"lat":31.49703}},{"type":"Feature","geometry":{"type":"Polygon","coordinates":[[[30.339841,31.49691],[30.339844,31.49682],[30.340054,31.496824],[30.340052,31.496914],[30.339841,31.49691]]]},"properties":{"id":"nile_2026-01-05_lgbm_62","region":"nile","date":"2026-01-05","area_m2":200.0,"mean_prob":0.8392,"max_prob":0.8667,"model":"lgbm","n_px":2,"px_area_m2":100.0,"confirmed":false,"confirmed_by":null,"lon":30.339948,"lat":31.496867}},{"type":"Feature","geometry":{"type":"Polygon","coordinates":[[[30.503107,31.500021],[30.503114,31.499751],[30.50322,31.499753],[30.503213,31.500023],[30.503107,31.500021]]]},"properties":{"id":"nile_2026-01-05_lgbm_63","region":"nile","date":"2026-01-05","area_m2":300.0,"mean_prob":0.8549,"max_prob":0.9451,"model":"lgbm","n_px":3,"px_area_m2":100.0,"artifact":"ship","confirmed":false,"confirmed_by":null,"lon":30.503163,"lat":31.499887}},{"type":"Feature","geometry":{"type":"Polygon","coordinates":[[[30.499014,31.49958],[30.499016,31.49949],[30.498911,31.499488],[30.498914,31.499398],[30.499124,31.499402],[30.499119,31.499582],[30.499014,31.49958]]]},"properties":{"id":"nile_2026-01-05_lgbm_64","region":"nile","date":"2026-01-05","area_m2":300.0,"mean_prob":0.9556,"max_prob":0.9725,"model":"lgbm","n_px":3,"px_area_m2":100.0,"artifact":"ship","confirmed":true,"confirmed_by":"mdd","lon":30.499034,"lat":31.499476}},{"type":"Feature","geometry":{"type":"Polygon","coordinates":[[[30.427512,31.49699],[30.427514,31.4969],[30.427409,31.496898],[30.427411,31.496807],[30.427727,31.496814],[30.427724,31.496904],[30.427619,31.496902],[30.427617,31.496992],[30.427512,31.49699]]]},"properties":{"id":"nile_2026-01-05_lgbm_65","region":"nile","date":"2026-01-05","area_m2":400.0,"mean_prob":0.9284,"max_prob":0.9922,"model":"lgbm","n_px":4,"px_area_m2":100.0,"confirmed":false,"confirmed_by":null,"lon":30.427567,"lat":31.496878}},{"type":"Feature","geometry":{"type":"Polygon","coordinates":[[[30.465266,31.494226],[30.465271,31.494046],[30.465376,31.494048],[30.465379,31.493958],[30.465484,31.49396],[30.465477,31.494231],[30.465266,31.494226]]]},"properties":{"id":"nile_2026-01-05_lgbm_66","region":"nile","date":"2026-01-05","area_m2":500.0,"mean_prob":0.9898,"max_prob":1.0,"model":"lgbm","n_px":5,"px_area_m2":100.0,"confirmed":true,"confirmed_by":"mdd","lon":30.465385,"lat":31.494112}},{"type":"Feature","geometry":{"type":"Polygon","coordinates":[[[30.402378,31.492424],[30.40238,31.492334],[30.402591,31.492338],[30.402588,31.492428],[30.402378,31.492424]]]},"properties":{"id":"nile_2026-01-05_lgbm_67","region":"nile","date":"2026-01-05","area_m2":200.0,"mean_prob":0.8471,"max_prob":0.9608,"model":"lgbm","n_px":2,"px_area_m2":100.0,"confirmed":false,"confirmed_by":null,"lon":30.402484,"lat":31.492381}},{"type":"Feature","geometry":{"type":"Polygon","coordinates":[[[30.465401,31.493147],[30.465408,31.492876],[30.465513,31.492879],[30.465506,31.493149],[30.465401,31.493147]]]},"properties":{"id":"nile_2026-01-05_lgbm_68","region":"nile","date":"2026-01-05","area_m2":300.0,"mean_prob":0.9948,"max_prob":1.0,"model":"lgbm","n_px":3,"px_area_m2":100.0,"confirmed":true,"confirmed_by":"mdd","lon":30.465457,"lat":31.493013}},{"type":"Feature","geometry":{"type":"Polygon","coordinates":[[[30.40105,31.490954],[30.401053,31.490864],[30.400948,31.490862],[30.40095,31.490771],[30.401055,31.490774],[30.401053,31.490864],[30.401158,31.490866],[30.401155,31.490956],[30.40105,31.490954]]]},"properties":{"id":"nile_2026-01-05_lgbm_69","region":"nile","date":"2026-01-05","area_m2":200.0,"mean_prob":0.9686,"max_prob":0.9725,"model":"lgbm","n_px":2,"px_area_m2":100.0,"artifact":"ship","confirmed":false,"confirmed_by":null,"lon":30.401053,"lat":31.490864}},{"type":"Feature","geometry":{"type":"Polygon","coordinates":[[[30.368176,31.488568],[30.368179,31.488478],[30.368074,31.488476],[30.368076,31.488386],[30.368392,31.488392],[30.368389,31.488482],[30.368284,31.48848],[30.368281,31.48857],[30.368176,31.488568]]]},"properties":{"id":"nile_2026-01-05_lgbm_70","region":"nile","date":"2026-01-05","area_m2":400.0,"mean_prob":0.8931,"max_prob":0.9882,"model":"lgbm","n_px":4,"px_area_m2":100.0,"artifact":"ship","confirmed":false,"confirmed_by":null,"lon":30.368232,"lat":31.488457}},{"type":"Feature","geometry":{"type":"Polygon","coordinates":[[[30.389741,31.48892],[30.389743,31.48883],[30.389848,31.488832],[30.389851,31.488742],[30.389956,31.488744],[30.389951,31.488924],[30.389741,31.48892]]]},"properties":{"id":"nile_2026-01-05_lgbm_71","region":"nile","date":"2026-01-05","area_m2":300.0,"mean_prob":0.817,"max_prob":0.9843,"model":"lgbm","n_px":3,"px_area_m2":100.0,"artifact":"ship","confirmed":false,"confirmed_by":null,"lon":30.389865,"lat":31.488847}},{"type":"Feature","geometry":{"type":"Polygon","coordinates":[[[30.405435,31.488427],[30.40544,31.488247],[30.40565,31.488251],[30.405645,31.488432],[30.405435,31.488427]]]},"properties":{"id":"nile_2026-01-05_lgbm_72","region":"nile","date":"2026-01-05","area_m2":400.0,"mean_prob":0.9451,"max_prob":0.9882,"model":"lgbm","n_px":4,"px_area_m2":100.0,"confirmed":false,"confirmed_by":null,"lon":30.405543,"lat":31.488339}},{"type":"Feature","geometry":{"type":"Polygon","coordinates":[[[30.284418,31.484563],[30.28442,31.484473],[30.284631,31.484477],[30.284628,31.484567],[30.284418,31.484563]]]},"properties":{"id":"nile_2026-01-05_lgbm_73","region":"nile","date":"2026-01-05","area_m2":200.0,"mean_prob":0.7627,"max_prob":0.8039,"model":"lgbm","n_px":2,"px_area_m2":100.0,"artifact":"ship","confirmed":false,"confirmed_by":null,"lon":30.284524,"lat":31.48452}},{"type":"Feature","geometry":{"type":"Polygon","coordinates":[[[30.352163,31.485442],[30.352165,31.485352],[30.352376,31.485356],[30.352373,31.485446],[30.352163,31.485442]]]},"properties":{"id":"nile_2026-01-05_lgbm_74","region":"nile","date":"2026-01-05","area_m2":200.0,"mean_prob":0.9843,"max_prob":1.0,"model":"lgbm","n_px":2,"px_area_m2":100.0,"confirmed":false,"confirmed_by":null,"lon":30.352269,"lat":31.485399}},{"type":"Feature","geometry":{"type":"Polygon","coordinates":[[[30.509756,31.487435],[30.509759,31.487344],[30.509864,31.487346],[30.509866,31.487256],[30.509972,31.487258],[30.509967,31.487439],[30.509756,31.487435]]]},"properties":{"id":"nile_2026-01-05_lgbm_75","region":"nile","date":"2026-01-05","area_m2":300.0,"mean_prob":0.8915,"max_prob":1.0,"model":"lgbm","n_px":3,"px_area_m2":100.0,"confirmed":false,"confirmed_by":null,"lon":30.509881,"lat":31.487362}},{"type":"Feature","geometry":{"type":"Polygon","coordinates":[[[30.425428,31.484683],[30.425433,31.484503],[30.425643,31.484507],[30.425639,31.484687],[30.425428,31.484683]]]},"properties":{"id":"nile_2026-01-05_lgbm_76","region":"nile","date":"2026-01-05","area_m2":400.0,"mean_prob":0.9853,"max_prob":1.0,"model":"lgbm","n_px":4,"px_area_m2":100.0,"confirmed":false,"confirmed_by":null,"lon":30.425536,"lat":31.484595}},{"type":"Feature","geometry":{"type":"Polygon","coordinates":[[[30.446254,31.4851],[30.446256,31.48501],[30.446151,31.485008],[30.446154,31.484918],[30.446259,31.48492],[30.446256,31.48501],[30.446361,31.485012],[30.446359,31.485102],[30.446254,31.4851]]]},"properties":{"id":"nile_2026-01-05_lgbm_77","region":"nile","date":"2026-01-05","area_m2":200.0,"mean_prob":0.7784,"max_prob":0.7804,"model":"lgbm","n_px":2,"px_area_m2":100.0,"confirmed":true,"confirmed_by":"mdd","lon":30.446256,"lat":31.48501}},{"type":"Feature","geometry":{"type":"Polygon","coordinates":[[[30.36201,31.483301],[30.362012,31.483211],[30.361907,31.483208],[30.36191,31.483118],[30.362015,31.483121],[30.362012,31.483211],[30.362118,31.483213],[30.362115,31.483303],[30.36201,31.483301]]]},"properties":{"id":"nile_2026-01-05_lgbm_78","region":"nile","date":"2026-01-05","area_m2":200.0,"mean_prob":0.7039,"max_prob":0.7412,"model":"lgbm","n_px":2,"px_area_m2":100.0,"artifact":"ship","confirmed":false,"confirmed_by":null,"lon":30.362012,"lat":31.483211}},{"type":"Feature","geometry":{"type":"Polygon","coordinates":[[[30.450706,31.483927],[30.450708,31.483836],[30.450603,31.483834],[30.450605,31.483744],[30.450816,31.483748],[30.450813,31.483839],[30.450918,31.483841],[30.450916,31.483931],[30.450706,31.483927]]]},"properties":{"id":"nile_2026-01-05_lgbm_79","region":"nile","date":"2026-01-05","area_m2":400.0,"mean_prob":0.8833,"max_prob":0.9765,"model":"lgbm","n_px":4,"px_area_m2":100.0,"confirmed":false,"confirmed_by":null,"lon":30.450761,"lat":31.483838}},{"type":"Feature","geometry":{"type":"Polygon","coordinates":[[[30.441651,31.480229],[30.441653,31.480139],[30.441864,31.480143],[30.441861,31.480233],[30.441651,31.480229]]]},"properties":{"id":"nile_2026-01-05_lgbm_80","region":"nile","date":"2026-01-05","area_m2":200.0,"mean_prob":0.9941,"max_prob":0.9961,"model":"lgbm","n_px":2,"px_area_m2":100.0,"confirmed":false,"confirmed_by":null,"lon":30.441757,"lat":31.480186}},{"type":"Feature","geometry":{"type":"Polygon","coordinates":[[[30.449228,31.476322],[30.449231,31.476232],[30.449441,31.476236],[30.449439,31.476326],[30.449228,31.476322]]]},"properties":{"id":"nile_2026-01-05_lgbm_81","region":"nile","date":"2026-01-05","area_m2":200.0,"mean_prob":0.8706,"max_prob":0.9922,"model":"lgbm","n_px":2,"px_area_m2":100.0,"confirmed":false,"confirmed_by":null,"lon":30.449335,"lat":31.476279}},{"type":"Feature","geometry":{"type":"Polygon","coordinates":[[[30.443226,31.472594],[30.443231,31.472414],[30.443442,31.472418],[30.443437,31.472599],[30.443226,31.472594]]]},"properties":{"id":"nile_2026-01-05_lgbm_82","region":"nile","date":"2026-01-05","area_m2":400.0,"mean_prob":0.9833,"max_prob":1.0,"model":"lgbm","n_px":4,"px_area_m2":100.0,"confirmed":false,"confirmed_by":null,"lon":30.443334,"lat":31.472506}},{"type":"Feature","geometry":{"type":"Polygon","coordinates":[[[30.43968,31.471441],[30.439683,31.471351],[30.439893,31.471355],[30.439891,31.471446],[30.43968,31.471441]]]},"properties":{"id":"nile_2026-01-05_lgbm_83","region":"nile","date":"2026-01-05","area_m2":200.0,"mean_prob":0.7392,"max_prob":0.7569,"model":"lgbm","n_px":2,"px_area_m2":100.0,"artifact":"ship","confirmed":false,"confirmed_by":null,"lon":30.439787,"lat":31.471398}},{"type":"Feature","geometry":{"type":"Polygon","coordinates":[[[30.353905,31.468434],[30.353907,31.468344],[30.353802,31.468341],[30.353805,31.468251],[30.354015,31.468256],[30.35401,31.468436],[30.353905,31.468434]]]},"properties":{"id":"nile_2026-01-05_lgbm_84","region":"nile","date":"2026-01-05","area_m2":300.0,"mean_prob":0.8797,"max_prob":0.898,"model":"lgbm","n_px":3,"px_area_m2":100.0,"artifact":"ship","confirmed":false,"confirmed_by":null,"lon":30.353925,"lat":31.468329}},{"type":"Feature","geometry":{"type":"Polygon","coordinates":[[[30.349932,31.46754],[30.349937,31.46736],[30.350042,31.467362],[30.350037,31.467542],[30.349932,31.46754]]]},"properties":{"id":"nile_2026-01-05_lgbm_85","region":"nile","date":"2026-01-05","area_m2":200.0,"mean_prob":0.9902,"max_prob":0.9961,"model":"lgbm","n_px":2,"px_area_m2":100.0,"confirmed":false,"confirmed_by":null,"lon":30.349987,"lat":31.467451}},{"type":"Feature","geometry":{"type":"Polygon","coordinates":[[[30.443425,31.465294],[30.443427,31.465203],[30.443533,31.465205],[30.443535,31.465115],[30.44364,31.465117],[30.443635,31.465298],[30.443425,31.465294]]]},"properties":{"id":"nile_2026-01-05_lgbm_86","region":"nile","date":"2026-01-05","area_m2":300.0,"mean_prob":0.8941,"max_prob":0.9451,"model":"lgbm","n_px":3,"px_area_m2":100.0,"confirmed":false,"confirmed_by":null,"lon":30.44355,"lat":31.465221}},{"type":"Feature","geometry":{"type":"Polygon","coordinates":[[[30.298755,31.46169],[30.298758,31.4616],[30.298968,31.461605],[30.298966,31.461695],[30.298755,31.46169]]]},"properties":{"id":"nile_2026-01-05_lgbm_87","region":"nile","date":"2026-01-05","area_m2":200.0,"mean_prob":0.898,"max_prob":0.9647,"model":"lgbm","n_px":2,"px_area_m2":100.0,"confirmed":false,"confirmed_by":null,"lon":30.298862,"lat":31.461648}},{"type":"Feature","geometry":{"type":"Polygon","coordinates":[[[30.257285,31.458734],[30.257288,31.458644],[30.257393,31.458646],[30.257399,31.458466],[30.257504,31.458468],[30.257498,31.458649],[30.257393,31.458646],[30.257391,31.458736],[30.257285,31.458734]]]},"properties":{"id":"nile_2026-01-05_lgbm_88","region":"nile","date":"2026-01-05","area_m2":300.0,"mean_prob":0.7242,"max_prob":0.8078,"model":"lgbm","n_px":3,"px_area_m2":100.0,"artifact":"ship","confirmed":false,"confirmed_by":null,"lon":30.257412,"lat":31.458602}},{"type":"Feature","geometry":{"type":"Polygon","coordinates":[[[30.441921,31.462558],[30.441926,31.462378],[30.442031,31.46238],[30.442026,31.46256],[30.441921,31.462558]]]},"properties":{"id":"nile_2026-01-05_lgbm_89","region":"nile","date":"2026-01-05","area_m2":200.0,"mean_prob":0.7961,"max_prob":0.8039,"model":"lgbm","n_px":2,"px_area_m2":100.0,"confirmed":false,"confirmed_by":null,"lon":30.441976,"lat":31.462469}},{"type":"Feature","geometry":{"type":"Polygon","coordinates":[[[30.340059,31.459489],[30.340064,31.459309],[30.340169,31.459311],[30.340164,31.459492],[30.340059,31.459489]]]},"properties":{"id":"nile_2026-01-05_lgbm_90","region":"nile","date":"2026-01-05","area_m2":200.0,"mean_prob":1.0,"max_prob":1.0,"model":"lgbm","n_px":2,"px_area_m2":100.0,"artifact":"ship","confirmed":false,"confirmed_by":null,"lon":30.340114,"lat":31.4594}},{"type":"Feature","geometry":{"type":"Polygon","coordinates":[[[30.454892,31.461464],[30.454894,31.461374],[30.455105,31.461378],[30.455102,31.461468],[30.454892,31.461464]]]},"properties":{"id":"nile_2026-01-05_lgbm_91","region":"nile","date":"2026-01-05","area_m2":200.0,"mean_prob":0.9922,"max_prob":0.9961,"model":"lgbm","n_px":2,"px_area_m2":100.0,"confirmed":false,"confirmed_by":null,"lon":30.454998,"lat":31.461421}},{"type":"Feature","geometry":{"type":"Polygon","coordinates":[[[30.452806,31.460791],[30.452811,31.460611],[30.452916,31.460613],[30.452911,31.460793],[30.452806,31.460791]]]},"properties":{"id":"nile_2026-01-05_lgbm_92","region":"nile","date":"2026-01-05","area_m2":200.0,"mean_prob":0.8706,"max_prob":0.9843,"model":"lgbm","n_px":2,"px_area_m2":100.0,"confirmed":false,"confirmed_by":null,"lon":30.452861,"lat":31.460702}},{"type":"Feature","geometry":{"type":"Polygon","coordinates":[[[30.353022,31.458676],[30.353027,31.458496],[30.353132,31.458498],[30.353127,31.458678],[30.353022,31.458676]]]},"properties":{"id":"nile_2026-01-05_lgbm_93","region":"nile","date":"2026-01-05","area_m2":200.0,"mean_prob":0.9941,"max_prob":0.9961,"model":"lgbm","n_px":2,"px_area_m2":100.0,"confirmed":false,"confirmed_by":null,"lon":30.353077,"lat":31.458587}},{"type":"Feature","geometry":{"type":"Polygon","coordinates":[[[30.454701,31.460738],[30.454704,31.460648],[30.454599,31.460646],[30.454601,31.460556],[30.454811,31.46056],[30.454806,31.460741],[30.454701,31.460738]]]},"properties":{"id":"nile_2026-01-05_lgbm_94","region":"nile","date":"2026-01-05","area_m2":300.0,"mean_prob":0.8954,"max_prob":1.0,"model":"lgbm","n_px":3,"px_area_m2":100.0,"confirmed":false,"confirmed_by":null,"lon":30.454722,"lat":31.460634}},{"type":"Feature","geometry":{"type":"Polygon","coordinates":[[[30.452515,31.459883],[30.45252,31.459703],[30.452625,31.459705],[30.45262,31.459885],[30.452515,31.459883]]]},"properties":{"id":"nile_2026-01-05_lgbm_95","region":"nile","date":"2026-01-05","area_m2":200.0,"mean_prob":0.9647,"max_prob":1.0,"model":"lgbm","n_px":2,"px_area_m2":100.0,"confirmed":false,"confirmed_by":null,"lon":30.45257,"lat":31.459794}},{"type":"Feature","geometry":{"type":"Polygon","coordinates":[[[30.456626,31.459604],[30.456628,31.459514],[30.456733,31.459516],[30.456736,31.459426],[30.456841,31.459428],[30.456836,31.459609],[30.456626,31.459604]]]},"properties":{"id":"nile_2026-01-05_lgbm_96","region":"nile","date":"2026-01-05","area_m2":300.0,"mean_prob":0.9752,"max_prob":0.9922,"model":"lgbm","n_px":3,"px_area_m2":100.0,"confirmed":false,"confirmed_by":null,"lon":30.45675,"lat":31.459532}},{"type":"Feature","geometry":{"type":"Polygon","coordinates":[[[30.496905,31.460218],[30.49691,31.460038],[30.49712,31.460042],[30.497118,31.460132],[30.497013,31.46013],[30.49701,31.46022],[30.496905,31.460218]]]},"properties":{"id":"nile_2026-01-05_lgbm_97","region":"nile","date":"2026-01-05","area_m2":300.0,"mean_prob":0.8497,"max_prob":0.9137,"model":"lgbm","n_px":3,"px_area_m2":100.0,"artifact":"ship","confirmed":false,"confirmed_by":null,"lon":30.496995,"lat":31.460115}},{"type":"Feature","geometry":{"type":"Polygon","coordinates":[[[30.456643,31.458973],[30.456648,31.458793],[30.456753,31.458795],[30.456748,31.458975],[30.456643,31.458973]]]},"properties":{"id":"nile_2026-01-05_lgbm_98","region":"nile","date":"2026-01-05","area_m2":200.0,"mean_prob":0.9765,"max_prob":0.9843,"model":"lgbm","n_px":2,"px_area_m2":100.0,"confirmed":false,"confirmed_by":null,"lon":30.456698,"lat":31.458884}},{"type":"Feature","geometry":{"type":"Polygon","coordinates":[[[30.458536,31.459011],[30.45854,31.458831],[30.458751,31.458835],[30.458746,31.459015],[30.458536,31.459011]]]},"properties":{"id":"nile_2026-01-05_lgbm_99","region":"nile","date":"2026-01-05","area_m2":400.0,"mean_prob":0.9765,"max_prob":0.9961,"model":"lgbm","n_px":4,"px_area_m2":100.0,"confirmed":false,"confirmed_by":null,"lon":30.458643,"lat":31.458923}},{"type":"Feature","geometry":{"type":"Polygon","coordinates":[[[30.455841,31.457514],[30.455845,31.457334],[30.456056,31.457338],[30.456058,31.457248],[30.456163,31.45725],[30.456158,31.457431],[30.455948,31.457426],[30.455946,31.457517],[30.455841,31.457514]]]},"properties":{"id":"nile_2026-01-05_lgbm_100","region":"nile","date":"2026-01-05","area_m2":500.0,"mean_prob":0.8251,"max_prob":0.8667,"model":"lgbm","n_px":5,"px_area_m2":100.0,"artifact":"ship","confirmed":false,"confirmed_by":null,"lon":30.456002,"lat":31.457382}},{"type":"Feature","geometry":{"type":"Polygon","coordinates":[[[30.4591,31.457579],[30.459105,31.457399],[30.45921,31.457401],[30.459205,31.457581],[30.4591,31.457579]]]},"properties":{"id":"nile_2026-01-05_lgbm_101","region":"nile","date":"2026-01-05","area_m2":200.0,"mean_prob":0.7294,"max_prob":0.7373,"model":"lgbm","n_px":2,"px_area_m2":100.0,"artifact":"ship","confirmed":false,"confirmed_by":null,"lon":30.459155,"lat":31.45749}},{"type":"Feature","geometry":{"type":"Polygon","coordinates":[[[30.466779,31.457641],[30.466781,31.457551],[30.466886,31.457553],[30.466889,31.457463],[30.466994,31.457465],[30.466989,31.457645],[30.466779,31.457641]]]},"properties":{"id":"nile_2026-01-05_lgbm_102","region":"nile","date":"2026-01-05","area_m2":300.0,"mean_prob":0.9647,"max_prob":0.9882,"model":"lgbm","n_px":3,"px_area_m2":100.0,"artifact":"ship","confirmed":false,"confirmed_by":null,"lon":30.466903,"lat":31.457569}},{"type":"Feature","geometry":{"type":"Polygon","coordinates":[[[30.470266,31.457079],[30.470268,31.456989],[30.470584,31.456995],[30.470581,31.457085],[30.470266,31.457079]]]},"properties":{"id":"nile_2026-01-05_lgbm_103","region":"nile","date":"2026-01-05","area_m2":300.0,"mean_prob":0.7229,"max_prob":0.749,"model":"lgbm","n_px":3,"px_area_m2":100.0,"confirmed":false,"confirmed_by":null,"lon":30.470425,"lat":31.457037}},{"type":"Feature","geometry":{"type":"Polygon","coordinates":[[[30.50886,31.457746],[30.508862,31.457656],[30.509283,31.457664],[30.50928,31.457754],[30.50886,31.457746]]]},"properties":{"id":"nile_2026-01-05_lgbm_104","region":"nile","date":"2026-01-05","area_m2":400.0,"mean_prob":0.849,"max_prob":0.9608,"model":"lgbm","n_px":4,"px_area_m2":100.0,"artifact":"ship","confirmed":false,"confirmed_by":null,"lon":30.509071,"lat":31.457705}},{"type":"Feature","geometry":{"type":"Polygon","coordinates":[[[30.486804,31.456322],[30.486806,31.456232],[30.487016,31.456236],[30.487014,31.456327],[30.486804,31.456322]]]},"properties":{"id":"nile_2026-01-05_lgbm_105","region":"nile","date":"2026-01-05","area_m2":200.0,"mean_prob":0.902,"max_prob":0.9412,"model":"lgbm","n_px":2,"px_area_m2":100.0,"artifact":"ship","confirmed":false,"confirmed_by":null,"lon":30.48691,"lat":31.456279}},{"type":"Feature","geometry":{"type":"Polygon","coordinates":[[[30.450375,31.453438],[30.45038,31.453257],[30.450275,31.453255],[30.450277,31.453165],[30.450382,31.453167],[30.45038,31.453257],[30.450485,31.453259],[30.45048,31.45344],[30.450375,31.453438]]]},"properties":{"id":"nile_2026-01-05_lgbm_106","region":"nile","date":"2026-01-05","area_m2":300.0,"mean_prob":0.9673,"max_prob":0.9765,"model":"lgbm","n_px":3,"px_area_m2":100.0,"artifact":"ship","confirmed":false,"confirmed_by":null,"lon":30.450396,"lat":31.453303}},{"type":"Feature","geometry":{"type":"Polygon","coordinates":[[[30.277196,31.446895],[30.277204,31.446625],[30.277309,31.446627],[30.277306,31.446717],[30.277411,31.446719],[30.277409,31.446809],[30.277303,31.446807],[30.277301,31.446897],[30.277196,31.446895]]]},"properties":{"id":"nile_2026-01-05_lgbm_107","region":"nile","date":"2026-01-05","area_m2":400.0,"mean_prob":0.9098,"max_prob":1.0,"model":"lgbm","n_px":4,"px_area_m2":100.0,"artifact":"ship","confirmed":false,"confirmed_by":null,"lon":30.277278,"lat":31.446761}},{"type":"Feature","geometry":{"type":"Polygon","coordinates":[[[30.28344,31.445585],[30.283448,31.445314],[30.283553,31.445317],[30.283545,31.445587],[30.28344,31.445585]]]},"properties":{"id":"nile_2026-01-05_lgbm_108","region":"nile","date":"2026-01-05","area_m2":300.0,"mean_prob":0.9464,"max_prob":0.9882,"model":"lgbm","n_px":3,"px_area_m2":100.0,"artifact":"ship","confirmed":true,"confirmed_by":"mdd","lon":30.283496,"lat":31.445451}},{"type":"Feature","geometry":{"type":"Polygon","coordinates":[[[30.276078,31.441911],[30.276086,31.441641],[30.276191,31.441643],[30.276183,31.441914],[30.276078,31.441911]]]},"properties":{"id":"nile_2026-01-05_lgbm_109","region":"nile","date":"2026-01-05","area_m2":300.0,"mean_prob":0.9974,"max_prob":1.0,"model":"lgbm","n_px":3,"px_area_m2":100.0,"artifact":"ship","confirmed":false,"confirmed_by":null,"lon":30.276134,"lat":31.441777}},{"type":"Feature","geometry":{"type":"Polygon","coordinates":[[[30.283341,31.441705],[30.283344,31.441615],[30.283449,31.441617],[30.283452,31.441527],[30.283557,31.441529],[30.283554,31.441619],[30.283449,31.441617],[30.283446,31.441707],[30.283341,31.441705]]]},"properties":{"id":"nile_2026-01-05_lgbm_110","region":"nile","date":"2026-01-05","area_m2":200.0,"mean_prob":0.898,"max_prob":0.9647,"model":"lgbm","n_px":2,"px_area_m2":100.0,"artifact":"ship","confirmed":false,"confirmed_by":null,"lon":30.283449,"lat":31.441617}},{"type":"Feature","geometry":{"type":"Polygon","coordinates":[[[30.282926,31.441516],[30.282929,31.441426],[30.282824,31.441423],[30.282829,31.441243],[30.282934,31.441245],[30.282931,31.441336],[30.283036,31.441338],[30.283031,31.441518],[30.282926,31.441516]]]},"properties":{"id":"nile_2026-01-05_lgbm_111","region":"nile","date":"2026-01-05","area_m2":400.0,"mean_prob":0.8853,"max_prob":0.9922,"model":"lgbm","n_px":4,"px_area_m2":100.0,"artifact":"ship","confirmed":false,"confirmed_by":null,"lon":30.28293,"lat":31.441381}},{"type":"Feature","geometry":{"type":"Polygon","coordinates":[[[30.279568,31.441264],[30.279573,31.441084],[30.279678,31.441086],[30.27968,31.440996],[30.279786,31.440998],[30.279783,31.441088],[30.279678,31.441086],[30.279673,31.441266],[30.279568,31.441264]]]},"properties":{"id":"nile_2026-01-05_lgbm_112","region":"nile","date":"2026-01-05","area_m2":300.0,"mean_prob":0.749,"max_prob":0.9333,"model":"lgbm","n_px":3,"px_area_m2":100.0,"artifact":"ship","confirmed":false,"confirmed_by":null,"lon":30.279659,"lat":31.441131}},{"type":"Feature","geometry":{"type":"Polygon","coordinates":[[[30.28516,31.440661],[30.285167,31.440391],[30.285378,31.440395],[30.285372,31.440576],[30.285267,31.440573],[30.285265,31.440664],[30.28516,31.440661]]]},"properties":{"id":"nile_2026-01-05_lgbm_113","region":"nile","date":"2026-01-05","area_m2":500.0,"mean_prob":0.9318,"max_prob":1.0,"model":"lgbm","n_px":5,"px_area_m2":100.0,"artifact":"ship","confirmed":false,"confirmed_by":null,"lon":30.285259,"lat":31.44051}},{"type":"Feature","geometry":{"type":"Polygon","coordinates":[[[30.287278,31.440165],[30.28728,31.440075],[30.287385,31.440077],[30.287388,31.439987],[30.287493,31.439989],[30.287488,31.44017],[30.287278,31.440165]]]},"properties":{"id":"nile_2026-01-05_lgbm_114","region":"nile","date":"2026-01-05","area_m2":300.0,"mean_prob":0.9582,"max_prob":0.9922,"model":"lgbm","n_px":3,"px_area_m2":100.0,"artifact":"ship","confirmed":false,"confirmed_by":null,"lon":30.287402,"lat":31.440093}},{"type":"Feature","geometry":{"type":"Polygon","coordinates":[[[30.295692,31.440163],[30.295697,31.439983],[30.295802,31.439985],[30.295797,31.440165],[30.295692,31.440163]]]},"properties":{"id":"nile_2026-01-05_lgbm_115","region":"nile","date":"2026-01-05","area_m2":200.0,"mean_prob":0.9118,"max_prob":0.9922,"model":"lgbm","n_px":2,"px_area_m2":100.0,"confirmed":false,"confirmed_by":null,"lon":30.295747,"lat":31.440074}},{"type":"Feature","geometry":{"type":"Polygon","coordinates":[[[30.406303,31.44173],[30.406308,31.44155],[30.406413,31.441552],[30.406408,31.441732],[30.406303,31.44173]]]},"properties":{"id":"nile_2026-01-05_lgbm_116","region":"nile","date":"2026-01-05","area_m2":200.0,"mean_prob":0.9627,"max_prob":0.9882,"model":"lgbm","n_px":2,"px_area_m2":100.0,"confirmed":false,"confirmed_by":null,"lon":30.406358,"lat":31.441641}},{"type":"Feature","geometry":{"type":"Polygon","coordinates":[[[30.282802,31.438537],[30.282807,31.438357],[30.282912,31.438359],[30.282915,31.438269],[30.28302,31.438271],[30.283015,31.438452],[30.282909,31.438449],[30.282907,31.438539],[30.282802,31.438537]]]},"properties":{"id":"nile_2026-01-05_lgbm_117","region":"nile","date":"2026-01-05","area_m2":400.0,"mean_prob":0.9902,"max_prob":1.0,"model":"lgbm","n_px":4,"px_area_m2":100.0,"artifact":"ship","confirmed":false,"confirmed_by":null,"lon":30.282911,"lat":31.438404}},{"type":"Feature","geometry":{"type":"Polygon","coordinates":[[[30.285114,31.438586],[30.285117,31.438496],[30.285222,31.438498],[30.285225,31.438408],[30.28533,31.43841],[30.285327,31.438501],[30.285432,31.438503],[30.28543,31.438593],[30.285114,31.438586]]]},"properties":{"id":"nile_2026-01-05_lgbm_118","region":"nile","date":"2026-01-05","area_m2":400.0,"mean_prob":0.9755,"max_prob":1.0,"model":"lgbm","n_px":4,"px_area_m2":100.0,"artifact":"ship","confirmed":false,"confirmed_by":null,"lon":30.285274,"lat":31.438522}},{"type":"Feature","geometry":{"type":"Polygon","coordinates":[[[30.280833,31.437503],[30.280838,31.437323],[30.280943,31.437325],[30.280938,31.437506],[30.280833,31.437503]]]},"properties":{"id":"nile_2026-01-05_lgbm_119","region":"nile","date":"2026-01-05","area_m2":200.0,"mean_prob":0.8784,"max_prob":0.9961,"model":"lgbm","n_px":2,"px_area_m2":100.0,"confirmed":false,"confirmed_by":null,"lon":30.280888,"lat":31.437414}},{"type":"Feature","geometry":{"type":"Polygon","coordinates":[[[30.281908,31.436715],[30.281913,31.436534],[30.282018,31.436537],[30.282013,31.436717],[30.281908,31.436715]]]},"properties":{"id":"nile_2026-01-05_lgbm_120","region":"nile","date":"2026-01-05","area_m2":200.0,"mean_prob":0.8686,"max_prob":0.9098,"model":"lgbm","n_px":2,"px_area_m2":100.0,"artifact":"ship","confirmed":false,"confirmed_by":null,"lon":30.281963,"lat":31.436626}},{"type":"Feature","geometry":{"type":"Polygon","coordinates":[[[30.323592,31.435519],[30.323597,31.435338],[30.323808,31.435343],[30.323803,31.435523],[30.323592,31.435519]]]},"properties":{"id":"nile_2026-01-05_lgbm_121","region":"nile","date":"2026-01-05","area_m2":400.0,"mean_prob":0.9853,"max_prob":1.0,"model":"lgbm","n_px":4,"px_area_m2":100.0,"confirmed":false,"confirmed_by":null,"lon":30.3237,"lat":31.435431}},{"type":"Feature","geometry":{"type":"Polygon","coordinates":[[[30.283337,31.434581],[30.283339,31.434491],[30.283444,31.434493],[30.283447,31.434403],[30.283552,31.434405],[30.283549,31.434495],[30.283444,31.434493],[30.283442,31.434583],[30.283337,31.434581]]]},"properties":{"id":"nile_2026-01-05_lgbm_122","region":"nile","date":"2026-01-05","area_m2":200.0,"mean_prob":0.8667,"max_prob":0.9882,"model":"lgbm","n_px":2,"px_area_m2":100.0,"artifact":"ship","confirmed":false,"confirmed_by":null,"lon":30.283444,"lat":31.434493}},{"type":"Feature","geometry":{"type":"Polygon","coordinates":[[[30.281868,31.434459],[30.281873,31.434279],[30.281978,31.434281],[30.281973,31.434462],[30.281868,31.434459]]]},"properties":{"id":"nile_2026-01-05_lgbm_123","region":"nile","date":"2026-01-05","area_m2":200.0,"mean_prob":0.8549,"max_prob":0.898,"model":"lgbm","n_px":2,"px_area_m2":100.0,"confirmed":false,"confirmed_by":null,"lon":30.281923,"lat":31.43437}},{"type":"Feature","geometry":{"type":"Polygon","coordinates":[[[30.285021,31.434526],[30.285026,31.434346],[30.285131,31.434348],[30.285126,31.434528],[30.285021,31.434526]]]},"properties":{"id":"nile_2026-01-05_lgbm_124","region":"nile","date":"2026-01-05","area_m2":200.0,"mean_prob":0.9961,"max_prob":1.0,"model":"lgbm","n_px":2,"px_area_m2":100.0,"confirmed":false,"confirmed_by":null,"lon":30.285076,"lat":31.434437}},{"type":"Feature","geometry":{"type":"Polygon","coordinates":[[[30.276528,31.433624],[30.276531,31.433534],[30.27632,31.43353],[30.276326,31.43335],[30.276641,31.433356],[30.276633,31.433627],[30.276528,31.433624]]]},"properties":{"id":"nile_2026-01-05_lgbm_125","region":"nile","date":"2026-01-05","area_m2":700.0,"mean_prob":0.9479,"max_prob":0.9961,"model":"lgbm","n_px":7,"px_area_m2":100.0,"artifact":"ship","confirmed":false,"confirmed_by":null,"lon":30.276495,"lat":31.433463}},{"type":"Feature","geometry":{"type":"Polygon","coordinates":[[[30.27853,31.433487],[30.278533,31.433396],[30.278323,31.433392],[30.278328,31.433212],[30.278643,31.433218],[30.278635,31.433489],[30.27853,31.433487]]]},"properties":{"id":"nile_2026-01-05_lgbm_126","region":"nile","date":"2026-01-05","area_m2":700.0,"mean_prob":0.9966,"max_prob":1.0,"model":"lgbm","n_px":7,"px_area_m2":100.0,"artifact":"ship","confirmed":false,"confirmed_by":null,"lon":30.278497,"lat":31.433325}},{"type":"Feature","geometry":{"type":"Polygon","coordinates":[[[30.286334,31.43275],[30.286337,31.43266],[30.286232,31.432658],[30.286234,31.432568],[30.28655,31.432575],[30.286545,31.432755],[30.286334,31.43275]]]},"properties":{"id":"nile_2026-01-05_lgbm_127","region":"nile","date":"2026-01-05","area_m2":500.0,"mean_prob":0.9255,"max_prob":1.0,"model":"lgbm","n_px":5,"px_area_m2":100.0,"artifact":"ship","confirmed":false,"confirmed_by":null,"lon":30.286411,"lat":31.432653}},{"type":"Feature","geometry":{"type":"Polygon","coordinates":[[[30.294569,31.431662],[30.294577,31.431392],[30.294787,31.431396],[30.294785,31.431486],[30.29489,31.431489],[30.294887,31.431579],[30.294782,31.431577],[30.294779,31.431667],[30.294569,31.431662]]]},"properties":{"id":"nile_2026-01-05_lgbm_128","region":"nile","date":"2026-01-05","area_m2":700.0,"mean_prob":0.9524,"max_prob":1.0,"model":"lgbm","n_px":7,"px_area_m2":100.0,"artifact":"ship","confirmed":false,"confirmed_by":null,"lon":30.294701,"lat":31.43153}},{"type":"Feature","geometry":{"type":"Polygon","coordinates":[[[30.275024,31.431067],[30.275032,31.430797],[30.275137,31.430799],[30.275129,31.43107],[30.275024,31.431067]]]},"properties":{"id":"nile_2026-01-05_lgbm_129","region":"nile","date":"2026-01-05","area_m2":300.0,"mean_prob":0.9843,"max_prob":1.0,"model":"lgbm","n_px":3,"px_area_m2":100.0,"confirmed":false,"confirmed_by":null,"lon":30.275081,"lat":31.430933}},{"type":"Feature","geometry":{"type":"Polygon","coordinates":[[[30.351978,31.432231],[30.35198,31.432141],[30.352085,31.432143],[30.352088,31.432053],[30.352193,31.432055],[30.352188,31.432235],[30.351978,31.432231]]]},"properties":{"id":"nile_2026-01-05_lgbm_130","region":"nile","date":"2026-01-05","area_m2":300.0,"mean_prob":0.8013,"max_prob":0.9922,"model":"lgbm","n_px":3,"px_area_m2":100.0,"confirmed":false,"confirmed_by":null,"lon":30.352103,"lat":31.432159}},{"type":"Feature","geometry":{"type":"Polygon","coordinates":[[[30.289776,31.430118],[30.289778,31.430028],[30.289568,31.430023],[30.289571,31.429933],[30.289886,31.42994],[30.289881,31.43012],[30.289776,31.430118]]]},"properties":{"id":"nile_2026-01-05_lgbm_131","region":"nile","date":"2026-01-05","area_m2":400.0,"mean_prob":0.9059,"max_prob":1.0,"model":"lgbm","n_px":4,"px_area_m2":100.0,"confirmed":true,"confirmed_by":"mdd","lon":30.289753,"lat":31.430005}},{"type":"Feature","geometry":{"type":"Polygon","coordinates":[[[30.31097,31.424523],[30.310977,31.424252],[30.311188,31.424257],[30.311182,31.424437],[30.311077,31.424435],[30.311075,31.424525],[30.31097,31.424523]]]},"properties":{"id":"nile_2026-01-05_lgbm_132","region":"nile","date":"2026-01-05","area_m2":500.0,"mean_prob":0.9122,"max_prob":0.9686,"model":"lgbm","n_px":5,"px_area_m2":100.0,"artifact":"ship","confirmed":true,"confirmed_by":"mdd","lon":30.311069,"lat":31.424371}},{"type":"Feature","geometry":{"type":"Polygon","coordinates":[[[30.326107,31.424749],[30.326112,31.424569],[30.326322,31.424574],[30.326317,31.424754],[30.326107,31.424749]]]},"properties":{"id":"nile_2026-01-05_lgbm_133","region":"nile","date":"2026-01-05","area_m2":400.0,"mean_prob":0.8902,"max_prob":0.9882,"model":"lgbm","n_px":4,"px_area_m2":100.0,"artifact":"ship","confirmed":false,"confirmed_by":null,"lon":30.326215,"lat":31.424662}},{"type":"Feature","geometry":{"type":"Polygon","coordinates":[[[30.318519,31.417917],[30.318524,31.417737],[30.318629,31.417739],[30.318624,31.41792],[30.318519,31.417917]]]},"properties":{"id":"nile_2026-01-05_lgbm_134","region":"nile","date":"2026-01-05","area_m2":200.0,"mean_prob":0.9176,"max_prob":0.9686,"model":"lgbm","n_px":2,"px_area_m2":100.0,"artifact":"ship","confirmed":false,"confirmed_by":null,"lon":30.318574,"lat":31.417828}},{"type":"Feature","geometry":{"type":"Polygon","coordinates":[[[30.333581,31.41706],[30.333586,31.416879],[30.333691,31.416881],[30.333686,31.417062],[30.333581,31.41706]]]},"properties":{"id":"nile_2026-01-05_lgbm_135","region":"nile","date":"2026-01-05","area_m2":200.0,"mean_prob":0.9471,"max_prob":0.9725,"model":"lgbm","n_px":2,"px_area_m2":100.0,"artifact":"ship","confirmed":false,"confirmed_by":null,"lon":30.333636,"lat":31.416971}},{"type":"Feature","geometry":{"type":"Polygon","coordinates":[[[30.324779,31.412277],[30.324781,31.412187],[30.324676,31.412184],[30.324679,31.412094],[30.324889,31.412099],[30.324884,31.412279],[30.324779,31.412277]]]},"properties":{"id":"nile_2026-01-05_lgbm_136","region":"nile","date":"2026-01-05","area_m2":300.0,"mean_prob":0.983,"max_prob":0.9961,"model":"lgbm","n_px":3,"px_area_m2":100.0,"artifact":"ship","confirmed":true,"confirmed_by":"mdd","lon":30.324799,"lat":31.412172}},{"type":"Feature","geometry":{"type":"Polygon","coordinates":[[[30.331975,31.406926],[30.331978,31.406836],[30.332188,31.40684],[30.332185,31.40693],[30.331975,31.406926]]]},"properties":{"id":"nile_2026-01-05_lgbm_137","region":"nile","date":"2026-01-05","area_m2":200.0,"mean_prob":0.9627,"max_prob":0.9882,"model":"lgbm","n_px":2,"px_area_m2":100.0,"confirmed":false,"confirmed_by":null,"lon":30.332082,"lat":31.406883}},{"type":"Feature","geometry":{"type":"Polygon","coordinates":[[[30.324104,31.391611],[30.324109,31.391431],[30.324214,31.391433],[30.324209,31.391613],[30.324104,31.391611]]]},"properties":{"id":"nile_2026-01-05_lgbm_138","region":"nile","date":"2026-01-05","area_m2":200.0,"mean_prob":0.9961,"max_prob":1.0,"model":"lgbm","n_px":2,"px_area_m2":100.0,"confirmed":false,"confirmed_by":null,"lon":30.324159,"lat":31.391522}},{"type":"Feature","geometry":{"type":"Polygon","coordinates":[[[30.315486,31.387824],[30.315488,31.387733],[30.315698,31.387738],[30.315696,31.387828],[30.315486,31.387824]]]},"properties":{"id":"nile_2026-01-05_lgbm_139","region":"nile","date":"2026-01-05","area_m2":200.0,"mean_prob":0.8843,"max_prob":0.9843,"model":"lgbm","n_px":2,"px_area_m2":100.0,"confirmed":false,"confirmed_by":null,"lon":30.315592,"lat":31.387781}},{"type":"Feature","geometry":{"type":"Polygon","coordinates":[[[30.292076,31.383002],[30.292079,31.382912],[30.292289,31.382917],[30.292287,31.383007],[30.292076,31.383002]]]},"properties":{"id":"nile_2026-01-05_lgbm_140","region":"nile","date":"2026-01-05","area_m2":200.0,"mean_prob":0.9843,"max_prob":0.9882,"model":"lgbm","n_px":2,"px_area_m2":100.0,"artifact":"ship","confirmed":false,"confirmed_by":null,"lon":30.292183,"lat":31.38296}},{"type":"Feature","geometry":{"type":"Polygon","coordinates":[[[30.317933,31.383095],[30.317938,31.382915],[30.318043,31.382917],[30.318038,31.383097],[30.317933,31.383095]]]},"properties":{"id":"nile_2026-01-05_lgbm_141","region":"nile","date":"2026-01-05","area_m2":200.0,"mean_prob":0.9902,"max_prob":0.9922,"model":"lgbm","n_px":2,"px_area_m2":100.0,"confirmed":false,"confirmed_by":null,"lon":30.317988,"lat":31.383006}},{"type":"Feature","geometry":{"type":"Polygon","coordinates":[[[30.294267,31.372588],[30.29427,31.372498],[30.294165,31.372495],[30.294167,31.372405],[30.294272,31.372407],[30.294275,31.372317],[30.29438,31.37232],[30.294372,31.37259],[30.294267,31.372588]]]},"properties":{"id":"nile_2026-01-05_lgbm_142","region":"nile","date":"2026-01-05","area_m2":400.0,"mean_prob":0.9971,"max_prob":1.0,"model":"lgbm","n_px":4,"px_area_m2":100.0,"artifact":"ship","confirmed":false,"confirmed_by":null,"lon":30.294297,"lat":31.372453}}]}