{"type": "FeatureCollection", "features": [{"type": "Feature", "id": "SZ-drift-karachi-2026-01-17-001", "geometry": {"type": "Polygon", "coordinates": [[[66.968356, 24.837193], [66.967178, 24.836636], [66.966899, 24.835549], [66.966496, 24.835995], [66.965601, 24.836253], [66.964618, 24.835879], [66.963824, 24.836048], [66.962938, 24.835766], [66.962362, 24.834674], [66.962674, 24.833776], [66.96387, 24.833251], [66.964853, 24.833625], [66.96614, 24.833552], [66.96663, 24.83383], [66.966643, 24.833017], [66.967148, 24.832392], [66.968043, 24.832134], [66.969126, 24.832419], [66.96961, 24.833058], [66.969593, 24.834141], [66.97018, 24.83451], [66.970462, 24.835417], [66.970152, 24.836225], [66.969349, 24.836936], [66.968356, 24.837193]], [[66.966902, 24.835368], [66.966999, 24.83546], [66.967, 24.83537], [66.966902, 24.835368]]]}, "properties": {"kind": "detection_zone", "layer_kind": "scene_zone", "zone_id": "SZ-drift-karachi-2026-01-17-001", "scene_key": "drift-karachi-2026-01-17", "scene_kind": "drift", "scene_id": "S2B_MSIL2A_20260117T060059_R091_T42RTN_20260117T075632", "region": "karachi", "title": "Карачи (порт, устье Лиари) · зона 1", "mission": "Sentinel-2", "datetime": "2026-01-17T06:00:59.024000Z", "detection_status": "insufficient_data", "status": "insufficient_data", "concentration_status": "unavailable", "quantity": {"status": "not_confirmed", "label": "концентрация по снимку не подтверждена", "detail": "перевод площади в штуки не показываем: нет калибровочных пар (см. docs/QUANTITY.md)"}, "verification": "false_alarm_signs", "training_scene": null, "flags": ["ship", "coast", "shallow", "seam", "foam"], "n_cozar_filaments": 0, "crop_file": "crops/SZ-drift-karachi-2026-01-17-001.jpg", "wind_high": false, "measured": {"zone_area_km2": 0.2716, "suspicious_area_m2": 1100, "n_pixels": 11, "n_objects": 6, "water_km2": 0.2735, "lwd_m2_km2": 4021.9, "lwd_note": null, "quality": {"valid_water_fraction": 0.997, "cloud_fraction": 0.0, "glint_fraction": 0.0}, "model": {"weights": "weights/lgbm", "file": "weights/lgbm/model.txt", "sha256": "0eeebf43fcccd8c7c07f053b7ec723229d1a3c9b92d12eec1bdb269258c51470", "sha256_short": "0eeebf43fccc", "trained_at": "2026-09-25T01:35:55Z", "threshold": 0.63, "harmonize": "none", "class": "MARIDA Marine Debris (любой плавающий мусор, не только пластик)"}}, "probable": {"prob_max": 0.996, "prob_mean": 0.901, "signs": {"foam": {"flag": true, "white_ratio_b2_b8": 0.886, "wind10m_ms": 2.26, "rule": "прирост B2 над водой ≥ 0.8 прироста B8 («белый» спектр) или ветер ≥ 7.0 м/с"}, "glint": {"flag": false, "b11_water_median": 0.0099, "glint_share": 0.0, "rule": "медиана B11 воды зоны > 0.01 или ≥ 20 % пикселей зоны — блик (маска качества)"}, "ship": {"flag": true, "share": 0, "bright_target_px_within_500m": 845, "rule": "≥ 30 % пикселей — у яркой цели или кильватера (reports/artifacts.md) или яркая цель с откликом в SWIR (судно, лодка: B11 ≥ 0,015) ближе 500 м, или малый яркий объект (≤ 40 пикс.) с B11 ≥ 0,01 ближе 500 м (лодка с кильватером)"}, "coast": {"flag": true, "land_px_within_300m": 615, "rule": "суша (маска качества) ближе 300 м — прибой, кромка берега"}, "shallow": {"flag": true, "b3_water_zone": 0.0306, "b3_ratio_to_scene_water": 2.27, "rule": "медиана B3 воды зоны ≥ 2× медианы воды снимка и ≥ 0,03, или B4 воды зоны ≥ 0,02 и (≥ 2× воды снимка или B8 ≥ 0,013) — мелководье, яркое дно, илистая банка"}, "seam": {"flag": true, "share": 0.727, "rule": "≥ 30 % пикселей — прямая линия вдоль трека/границы яркости (шов)"}, "cloud": {"flag": false, "cloud_fraction": 0.0, "rule": "облака или тени облаков (маска качества) ≥ 20 % зоны"}, "diag": {"dist_land_m": 166, "dist_bright_m": 50, "n_bright_px_500m": 495, "b11_bright_max_500m": 0.175, "b4_water_zone": 0.034, "b8_water_zone": 0.0189, "b11_det_median": 0.0121, "b8_det_median": 0.0337, "water_scene_b3": 0.0135, "water_scene_b4": 0.0054, "n_det_px": 11, "n_obj": 6}, "note": "эвристики, не классификатор; на размеченных данных не проверены"}, "n_cozar_filaments": 0}, "field_nearby": {"items": [{"source": "ADIS (4TU.ResearchData, судовая камера)", "segment_id": 335769, "ship": "Dallaporta", "date": "2023-04-09", "days_from_scene": -1014, "distance_km": 5172.1, "lon": 18.55051, "lat": 40.01099, "n_items": 1, "area_km2": 0.1613, "size_class": "> 5 см", "c_items_km2": 6.2, "ci95_lo": 0.16, "ci95_hi": 34.53, "ci95_method": "точный интервал Пуассона для N, делённый на A", "raw_10cm_items_km2": 6.2, "authors_cal_10cm_items_km2": 22.44, "authors_cal_10cm_lo95": null, "authors_cal_10cm_hi95": null}, {"source": "ADIS (4TU.ResearchData, судовая камера)", "segment_id": 335770, "ship": "Dallaporta", "date": "2023-04-09", "days_from_scene": -1014, "distance_km": 5172.6, "lon": 18.56195, "lat": 40.05698, "n_items": 0, "area_km2": 0.2555, "size_class": "> 5 см", "c_items_km2": 0.0, "ci95_lo": 0.0, "ci95_hi": 14.44, "ci95_method": "точный интервал Пуассона для N, делённый на A", "raw_10cm_items_km2": 0.0, "authors_cal_10cm_items_km2": 0.0, "authors_cal_10cm_lo95": null, "authors_cal_10cm_hi95": null}, {"source": "ADIS (4TU.ResearchData, судовая камера)", "segment_id": 335768, "ship": "Dallaporta", "date": "2023-04-09", "days_from_scene": -1014, "distance_km": 5172.7, "lon": 18.52174, "lat": 39.95216, "n_items": 4, "area_km2": 0.3999, "size_class": "> 5 см", "c_items_km2": 10.0, "ci95_lo": 2.73, "ci95_hi": 25.61, "ci95_method": "точный интервал Пуассона для N, делённый на A", "raw_10cm_items_km2": 10.0, "authors_cal_10cm_items_km2": 35.18, "authors_cal_10cm_lo95": null, "authors_cal_10cm_hi95": null}], "nearest_organizer_sample": {"sample_id": "MPL-0922", "source_id": "S4_BLACK_SEA_DOORS3", "distance_km": 3168.2}, "note": "Измерение ≠ оценка: это независимые полевые счёты C = N/A в другое время и в другом месте; со сценой они не связаны и не калибруют её. Ближайший отрезок ADIS — за 5172 км: только для порядка величин."}}}]}