{"type": "FeatureCollection", "features": [{"type": "Feature", "id": "D-SZ-fresh-honduras-2026-09-17-001-15", "geometry": {"type": "Polygon", "coordinates": [[[-88.284404, 15.838662], [-88.2844028, 15.8384812], [-88.2843095, 15.8384817], [-88.2843106, 15.8386625], [-88.284404, 15.838662]]]}, "properties": {"kind": "detection", "det_id": "D-SZ-fresh-honduras-2026-09-17-001-15", "zone_id": "SZ-fresh-honduras-2026-09-17-001", "scene_id": "S2B_MSIL2A_20260917T160859_R140_T16PCC_20260917T195052", "datetime": "2026-09-17T16:08:59.024000Z", "n_pixels": 2, "area_m2": 200, "prob_max": 0.9725, "prob_mean": 0.8431, "threshold": 0.63, "in_strip": true, "artifact": null}}, {"type": "Feature", "id": "D-SZ-fresh-honduras-2026-09-17-001-16", "geometry": {"type": "Polygon", "coordinates": [[[-88.2841995, 15.8358612], [-88.284199, 15.8357708], [-88.2841056, 15.8357714], [-88.2841062, 15.8358618], [-88.2841995, 15.8358612]]]}, "properties": {"kind": "detection", "det_id": "D-SZ-fresh-honduras-2026-09-17-001-16", "zone_id": "SZ-fresh-honduras-2026-09-17-001", "scene_id": "S2B_MSIL2A_20260917T160859_R140_T16PCC_20260917T195052", "datetime": "2026-09-17T16:08:59.024000Z", "n_pixels": 1, "area_m2": 100, "prob_max": 0.6392, "prob_mean": 0.6392, "threshold": 0.63, "in_strip": true, "artifact": null}}, {"type": "Feature", "id": "D-SZ-fresh-honduras-2026-09-17-001-17", "geometry": {"type": "Polygon", "coordinates": [[[-88.2841984, 15.8356804], [-88.2841973, 15.8354997], [-88.2841039, 15.8355002], [-88.284105, 15.835681], [-88.2841984, 15.8356804]]]}, "properties": {"kind": "detection", "det_id": "D-SZ-fresh-honduras-2026-09-17-001-17", "zone_id": "SZ-fresh-honduras-2026-09-17-001", "scene_id": "S2B_MSIL2A_20260917T160859_R140_T16PCC_20260917T195052", "datetime": "2026-09-17T16:08:59.024000Z", "n_pixels": 2, "area_m2": 200, "prob_max": 0.9961, "prob_mean": 0.9922, "threshold": 0.63, "in_strip": true, "artifact": null}}, {"type": "Feature", "id": "D-SZ-fresh-honduras-2026-09-17-001-20", "geometry": {"type": "Polygon", "coordinates": [[[-88.2841898, 15.8343247], [-88.2841893, 15.8342343], [-88.2840959, 15.8342349], [-88.2840965, 15.8343253], [-88.2841898, 15.8343247]]]}, "properties": {"kind": "detection", "det_id": "D-SZ-fresh-honduras-2026-09-17-001-20", "zone_id": "SZ-fresh-honduras-2026-09-17-001", "scene_id": "S2B_MSIL2A_20260917T160859_R140_T16PCC_20260917T195052", "datetime": "2026-09-17T16:08:59.024000Z", "n_pixels": 1, "area_m2": 100, "prob_max": 0.9608, "prob_mean": 0.9608, "threshold": 0.63, "in_strip": true, "artifact": null}}, {"type": "Feature", "id": "D-SZ-fresh-honduras-2026-09-17-001-21", "geometry": {"type": "Polygon", "coordinates": [[[-88.2843697, 15.833239], [-88.2843691, 15.8331486], [-88.2842758, 15.8331492], [-88.2842763, 15.8332396], [-88.2843697, 15.833239]]]}, "properties": {"kind": "detection", "det_id": "D-SZ-fresh-honduras-2026-09-17-001-21", "zone_id": "SZ-fresh-honduras-2026-09-17-001", "scene_id": "S2B_MSIL2A_20260917T160859_R140_T16PCC_20260917T195052", "datetime": "2026-09-17T16:08:59.024000Z", "n_pixels": 1, "area_m2": 100, "prob_max": 0.9608, "prob_mean": 0.9608, "threshold": 0.63, "in_strip": true, "artifact": null}}, {"type": "Feature", "id": "D-SZ-fresh-honduras-2026-09-17-001-22", "geometry": {"type": "Polygon", "coordinates": [[[-88.2849207, 15.8317896], [-88.284919, 15.8315184], [-88.2848257, 15.831519], [-88.2848262, 15.8316093], [-88.2847329, 15.8316099], [-88.284734, 15.8317907], [-88.2849207, 15.8317896]]]}, "properties": {"kind": "detection", "det_id": "D-SZ-fresh-honduras-2026-09-17-001-22", "zone_id": "SZ-fresh-honduras-2026-09-17-001", "scene_id": "S2B_MSIL2A_20260917T160859_R140_T16PCC_20260917T195052", "datetime": "2026-09-17T16:08:59.024000Z", "n_pixels": 5, "area_m2": 500, "prob_max": 0.9961, "prob_mean": 0.9812, "threshold": 0.63, "in_strip": true, "artifact": null}}, {"type": "Feature", "id": "D-SZ-fresh-honduras-2026-09-17-001-24", "geometry": {"type": "Polygon", "coordinates": [[[-88.2851951, 15.8308841], [-88.2851934, 15.8306129], [-88.2850067, 15.830614], [-88.2850073, 15.8307044], [-88.2851006, 15.8307039], [-88.2851018, 15.8308846], [-88.2851951, 15.8308841]]]}, "properties": {"kind": "detection", "det_id": "D-SZ-fresh-honduras-2026-09-17-001-24", "zone_id": "SZ-fresh-honduras-2026-09-17-001", "scene_id": "S2B_MSIL2A_20260917T160859_R140_T16PCC_20260917T195052", "datetime": "2026-09-17T16:08:59.024000Z", "n_pixels": 4, "area_m2": 400, "prob_max": 0.9137, "prob_mean": 0.8049, "threshold": 0.63, "in_strip": true, "artifact": null}}, {"type": "Feature", "id": "D-SZ-fresh-honduras-2026-09-17-001-25", "geometry": {"type": "Polygon", "coordinates": [[[-88.2848182, 15.830344], [-88.284816, 15.8299825], [-88.2847226, 15.829983], [-88.2847249, 15.8303445], [-88.2848182, 15.830344]]]}, "properties": {"kind": "detection", "det_id": "D-SZ-fresh-honduras-2026-09-17-001-25", "zone_id": "SZ-fresh-honduras-2026-09-17-001", "scene_id": "S2B_MSIL2A_20260917T160859_R140_T16PCC_20260917T195052", "datetime": "2026-09-17T16:08:59.024000Z", "n_pixels": 4, "area_m2": 400, "prob_max": 0.9922, "prob_mean": 0.898, "threshold": 0.63, "in_strip": true, "artifact": null}}, {"type": "Feature", "id": "D-SZ-fresh-honduras-2026-09-17-001-26", "geometry": {"type": "Polygon", "coordinates": [[[-88.2844391, 15.8294424], [-88.2844379, 15.8292616], [-88.2843446, 15.8292622], [-88.2843457, 15.8294429], [-88.2844391, 15.8294424]]]}, "properties": {"kind": "detection", "det_id": "D-SZ-fresh-honduras-2026-09-17-001-26", "zone_id": "SZ-fresh-honduras-2026-09-17-001", "scene_id": "S2B_MSIL2A_20260917T160859_R140_T16PCC_20260917T195052", "datetime": "2026-09-17T16:08:59.024000Z", "n_pixels": 2, "area_m2": 200, "prob_max": 0.9216, "prob_mean": 0.8922, "threshold": 0.63, "in_strip": true, "artifact": null}}, {"type": "Feature", "id": "D-SZ-fresh-honduras-2026-09-17-001-29", "geometry": {"type": "Polygon", "coordinates": [[[-88.2841544, 15.828721], [-88.2841539, 15.8286306], [-88.2840605, 15.8286311], [-88.2840611, 15.8287215], [-88.2841544, 15.828721]]]}, "properties": {"kind": "detection", "det_id": "D-SZ-fresh-honduras-2026-09-17-001-29", "zone_id": "SZ-fresh-honduras-2026-09-17-001", "scene_id": "S2B_MSIL2A_20260917T160859_R140_T16PCC_20260917T195052", "datetime": "2026-09-17T16:08:59.024000Z", "n_pixels": 1, "area_m2": 100, "prob_max": 0.8157, "prob_mean": 0.8157, "threshold": 0.63, "in_strip": true, "artifact": null}}, {"type": "Feature", "id": "D-SZ-fresh-honduras-2026-09-17-002-35", "geometry": {"type": "Polygon", "coordinates": [[[-88.2655983, 15.8175317], [-88.2655971, 15.8173509], [-88.2655038, 15.8173515], [-88.2655049, 15.8175322], [-88.2655983, 15.8175317]]]}, "properties": {"kind": "detection", "det_id": "D-SZ-fresh-honduras-2026-09-17-002-35", "zone_id": "SZ-fresh-honduras-2026-09-17-002", "scene_id": "S2B_MSIL2A_20260917T160859_R140_T16PCC_20260917T195052", "datetime": "2026-09-17T16:08:59.024000Z", "n_pixels": 2, "area_m2": 200, "prob_max": 0.9843, "prob_mean": 0.9765, "threshold": 0.63, "in_strip": true, "artifact": null}}, {"type": "Feature", "id": "D-SZ-fresh-honduras-2026-09-17-002-36", "geometry": {"type": "Polygon", "coordinates": [[[-88.2657844, 15.8174402], [-88.2657839, 15.8173498], [-88.2656905, 15.8173504], [-88.2656911, 15.8174408], [-88.2657844, 15.8174402]]]}, "properties": {"kind": "detection", "det_id": "D-SZ-fresh-honduras-2026-09-17-002-36", "zone_id": "SZ-fresh-honduras-2026-09-17-002", "scene_id": "S2B_MSIL2A_20260917T160859_R140_T16PCC_20260917T195052", "datetime": "2026-09-17T16:08:59.024000Z", "n_pixels": 1, "area_m2": 100, "prob_max": 0.7333, "prob_mean": 0.7333, "threshold": 0.63, "in_strip": true, "artifact": null}}, {"type": "Feature", "id": "D-SZ-fresh-honduras-2026-09-17-002-37", "geometry": {"type": "Polygon", "coordinates": [[[-88.2659678, 15.8168968], [-88.2659672, 15.8168064], [-88.2660606, 15.8168059], [-88.26606, 15.8167155], [-88.2658733, 15.8167166], [-88.2658744, 15.8168974], [-88.2659678, 15.8168968]]]}, "properties": {"kind": "detection", "det_id": "D-SZ-fresh-honduras-2026-09-17-002-37", "zone_id": "SZ-fresh-honduras-2026-09-17-002", "scene_id": "S2B_MSIL2A_20260917T160859_R140_T16PCC_20260917T195052", "datetime": "2026-09-17T16:08:59.024000Z", "n_pixels": 3, "area_m2": 300, "prob_max": 0.902, "prob_mean": 0.8706, "threshold": 0.63, "in_strip": true, "artifact": null}}, {"type": "Feature", "id": "D-SZ-fresh-honduras-2026-09-17-002-38", "geometry": {"type": "Polygon", "coordinates": [[[-88.2657782, 15.816446], [-88.2657771, 15.8162652], [-88.2655904, 15.8162663], [-88.2655915, 15.8164471], [-88.2657782, 15.816446]]]}, "properties": {"kind": "detection", "det_id": "D-SZ-fresh-honduras-2026-09-17-002-38", "zone_id": "SZ-fresh-honduras-2026-09-17-002", "scene_id": "S2B_MSIL2A_20260917T160859_R140_T16PCC_20260917T195052", "datetime": "2026-09-17T16:08:59.024000Z", "n_pixels": 4, "area_m2": 400, "prob_max": 1.0, "prob_mean": 0.9794, "threshold": 0.63, "in_strip": true, "artifact": null}}, {"type": "Feature", "id": "D-SZ-fresh-honduras-2026-09-17-003-40", "geometry": {"type": "Polygon", "coordinates": [[[-88.2900459, 15.8007567], [-88.2900448, 15.800576], [-88.2899514, 15.8005765], [-88.2899526, 15.8007573], [-88.2900459, 15.8007567]]]}, "properties": {"kind": "detection", "det_id": "D-SZ-fresh-honduras-2026-09-17-003-40", "zone_id": "SZ-fresh-honduras-2026-09-17-003", "scene_id": "S2B_MSIL2A_20260917T160859_R140_T16PCC_20260917T195052", "datetime": "2026-09-17T16:08:59.024000Z", "n_pixels": 2, "area_m2": 200, "prob_max": 0.8431, "prob_mean": 0.8118, "threshold": 0.63, "in_strip": true, "artifact": null}}, {"type": "Feature", "id": "D-SZ-fresh-honduras-2026-09-17-003-41", "geometry": {"type": "Polygon", "coordinates": [[[-88.289298, 15.8005804], [-88.2892969, 15.8003996], [-88.2892035, 15.8004002], [-88.2892041, 15.8004906], [-88.2891107, 15.8004911], [-88.2891113, 15.8005815], [-88.289298, 15.8005804]]]}, "properties": {"kind": "detection", "det_id": "D-SZ-fresh-honduras-2026-09-17-003-41", "zone_id": "SZ-fresh-honduras-2026-09-17-003", "scene_id": "S2B_MSIL2A_20260917T160859_R140_T16PCC_20260917T195052", "datetime": "2026-09-17T16:08:59.024000Z", "n_pixels": 3, "area_m2": 300, "prob_max": 0.9412, "prob_mean": 0.8261, "threshold": 0.63, "in_strip": true, "artifact": null}}, {"type": "Feature", "id": "D-SZ-fresh-honduras-2026-09-17-003-42", "geometry": {"type": "Polygon", "coordinates": [[[-88.2883576, 15.7995013], [-88.2883571, 15.799411], [-88.2882637, 15.7994115], [-88.2882643, 15.7995019], [-88.2883576, 15.7995013]]]}, "properties": {"kind": "detection", "det_id": "D-SZ-fresh-honduras-2026-09-17-003-42", "zone_id": "SZ-fresh-honduras-2026-09-17-003", "scene_id": "S2B_MSIL2A_20260917T160859_R140_T16PCC_20260917T195052", "datetime": "2026-09-17T16:08:59.024000Z", "n_pixels": 1, "area_m2": 100, "prob_max": 0.8392, "prob_mean": 0.8392, "threshold": 0.63, "in_strip": true, "artifact": null}}, {"type": "Feature", "id": "D-SZ-fresh-honduras-2026-09-17-003-44", "geometry": {"type": "Polygon", "coordinates": [[[-88.2868595, 15.7987871], [-88.2868583, 15.7986064], [-88.286765, 15.7986069], [-88.2867661, 15.7987877], [-88.2868595, 15.7987871]]]}, "properties": {"kind": "detection", "det_id": "D-SZ-fresh-honduras-2026-09-17-003-44", "zone_id": "SZ-fresh-honduras-2026-09-17-003", "scene_id": "S2B_MSIL2A_20260917T160859_R140_T16PCC_20260917T195052", "datetime": "2026-09-17T16:08:59.024000Z", "n_pixels": 2, "area_m2": 200, "prob_max": 0.902, "prob_mean": 0.898, "threshold": 0.63, "in_strip": true, "artifact": null}}, {"type": "Feature", "id": "D-SZ-fresh-honduras-2026-09-17-004-47", "geometry": {"type": "Polygon", "coordinates": [[[-88.2097812, 15.7883833], [-88.2097806, 15.7882929], [-88.2096873, 15.7882934], [-88.2096878, 15.7883838], [-88.2097812, 15.7883833]]]}, "properties": {"kind": "detection", "det_id": "D-SZ-fresh-honduras-2026-09-17-004-47", "zone_id": "SZ-fresh-honduras-2026-09-17-004", "scene_id": "S2B_MSIL2A_20260917T160859_R140_T16PCC_20260917T195052", "datetime": "2026-09-17T16:08:59.024000Z", "n_pixels": 1, "area_m2": 100, "prob_max": 0.6392, "prob_mean": 0.6392, "threshold": 0.63, "in_strip": true, "artifact": null}}, {"type": "Feature", "id": "D-SZ-fresh-honduras-2026-09-17-004-51", "geometry": {"type": "Polygon", "coordinates": [[[-88.2101535, 15.7882004], [-88.2101529, 15.78811], [-88.2100596, 15.7881106], [-88.2100601, 15.7882009], [-88.2101535, 15.7882004]]]}, "properties": {"kind": "detection", "det_id": "D-SZ-fresh-honduras-2026-09-17-004-51", "zone_id": "SZ-fresh-honduras-2026-09-17-004", "scene_id": "S2B_MSIL2A_20260917T160859_R140_T16PCC_20260917T195052", "datetime": "2026-09-17T16:08:59.024000Z", "n_pixels": 1, "area_m2": 100, "prob_max": 0.6941, "prob_mean": 0.6941, "threshold": 0.63, "in_strip": true, "artifact": null}}, {"type": "Feature", "id": "D-SZ-fresh-honduras-2026-09-17-004-52", "geometry": {"type": "Polygon", "coordinates": [[[-88.2122066, 15.7880986], [-88.212206, 15.7880082], [-88.2120193, 15.7880093], [-88.2120199, 15.7880996], [-88.2122066, 15.7880986]]]}, "properties": {"kind": "detection", "det_id": "D-SZ-fresh-honduras-2026-09-17-004-52", "zone_id": "SZ-fresh-honduras-2026-09-17-004", "scene_id": "S2B_MSIL2A_20260917T160859_R140_T16PCC_20260917T195052", "datetime": "2026-09-17T16:08:59.024000Z", "n_pixels": 2, "area_m2": 200, "prob_max": 0.9569, "prob_mean": 0.8608, "threshold": 0.63, "in_strip": true, "artifact": null}}, {"type": "Feature", "id": "D-SZ-fresh-honduras-2026-09-17-004-53", "geometry": {"type": "Polygon", "coordinates": [[[-88.2119265, 15.7881002], [-88.211926, 15.7880098], [-88.2117393, 15.7880108], [-88.2117398, 15.7881012], [-88.2119265, 15.7881002]]]}, "properties": {"kind": "detection", "det_id": "D-SZ-fresh-honduras-2026-09-17-004-53", "zone_id": "SZ-fresh-honduras-2026-09-17-004", "scene_id": "S2B_MSIL2A_20260917T160859_R140_T16PCC_20260917T195052", "datetime": "2026-09-17T16:08:59.024000Z", "n_pixels": 2, "area_m2": 200, "prob_max": 0.8588, "prob_mean": 0.7451, "threshold": 0.63, "in_strip": true, "artifact": null}}, {"type": "Feature", "id": "D-SZ-fresh-honduras-2026-09-17-005-48", "geometry": {"type": "Polygon", "coordinates": [[[-88.2738156, 15.7879272], [-88.2738151, 15.7878368], [-88.273535, 15.7878385], [-88.2735356, 15.7879288], [-88.2738156, 15.7879272]]]}, "properties": {"kind": "detection", "det_id": "D-SZ-fresh-honduras-2026-09-17-005-48", "zone_id": "SZ-fresh-honduras-2026-09-17-005", "scene_id": "S2B_MSIL2A_20260917T160859_R140_T16PCC_20260917T195052", "datetime": "2026-09-17T16:08:59.024000Z", "n_pixels": 3, "area_m2": 300, "prob_max": 0.9882, "prob_mean": 0.9059, "threshold": 0.63, "in_strip": true, "artifact": null}}, {"type": "Feature", "id": "D-SZ-fresh-honduras-2026-09-17-005-49", "geometry": {"type": "Polygon", "coordinates": [[[-88.2726955, 15.7879338], [-88.2726949, 15.7878434], [-88.2726016, 15.7878439], [-88.2726021, 15.7879343], [-88.2726955, 15.7879338]]]}, "properties": {"kind": "detection", "det_id": "D-SZ-fresh-honduras-2026-09-17-005-49", "zone_id": "SZ-fresh-honduras-2026-09-17-005", "scene_id": "S2B_MSIL2A_20260917T160859_R140_T16PCC_20260917T195052", "datetime": "2026-09-17T16:08:59.024000Z", "n_pixels": 1, "area_m2": 100, "prob_max": 0.9922, "prob_mean": 0.9922, "threshold": 0.63, "in_strip": true, "artifact": null}}, {"type": "Feature", "id": "D-SZ-fresh-honduras-2026-09-17-005-50", "geometry": {"type": "Polygon", "coordinates": [[[-88.2716681, 15.7878494], [-88.2716676, 15.787759], [-88.2715742, 15.7877595], [-88.2715748, 15.7878499], [-88.2716681, 15.7878494]]]}, "properties": {"kind": "detection", "det_id": "D-SZ-fresh-honduras-2026-09-17-005-50", "zone_id": "SZ-fresh-honduras-2026-09-17-005", "scene_id": "S2B_MSIL2A_20260917T160859_R140_T16PCC_20260917T195052", "datetime": "2026-09-17T16:08:59.024000Z", "n_pixels": 1, "area_m2": 100, "prob_max": 0.8745, "prob_mean": 0.8745, "threshold": 0.63, "in_strip": true, "artifact": null}}, {"type": "Feature", "id": "D-SZ-fresh-honduras-2026-09-17-005-56", "geometry": {"type": "Polygon", "coordinates": [[[-88.270079, 15.7874971], [-88.2700785, 15.7874067], [-88.2697051, 15.7874089], [-88.2697057, 15.7874993], [-88.270079, 15.7874971]]]}, "properties": {"kind": "detection", "det_id": "D-SZ-fresh-honduras-2026-09-17-005-56", "zone_id": "SZ-fresh-honduras-2026-09-17-005", "scene_id": "S2B_MSIL2A_20260917T160859_R140_T16PCC_20260917T195052", "datetime": "2026-09-17T16:08:59.024000Z", "n_pixels": 4, "area_m2": 400, "prob_max": 0.9922, "prob_mean": 0.9098, "threshold": 0.63, "in_strip": true, "artifact": null}}, {"type": "Feature", "id": "D-SZ-fresh-honduras-2026-09-17-005-58", "geometry": {"type": "Polygon", "coordinates": [[[-88.2637311, 15.7874437], [-88.2637299, 15.7872629], [-88.2636366, 15.7872635], [-88.2636377, 15.7874443], [-88.2637311, 15.7874437]]]}, "properties": {"kind": "detection", "det_id": "D-SZ-fresh-honduras-2026-09-17-005-58", "zone_id": "SZ-fresh-honduras-2026-09-17-005", "scene_id": "S2B_MSIL2A_20260917T160859_R140_T16PCC_20260917T195052", "datetime": "2026-09-17T16:08:59.024000Z", "n_pixels": 2, "area_m2": 200, "prob_max": 0.949, "prob_mean": 0.9078, "threshold": 0.63, "in_strip": true, "artifact": null}}, {"type": "Feature", "id": "D-SZ-fresh-honduras-2026-09-17-005-61", "geometry": {"type": "Polygon", "coordinates": [[[-88.2688639, 15.7872331], [-88.2688633, 15.7871427], [-88.26877, 15.7871432], [-88.2687705, 15.7872336], [-88.2688639, 15.7872331]]]}, "properties": {"kind": "detection", "det_id": "D-SZ-fresh-honduras-2026-09-17-005-61", "zone_id": "SZ-fresh-honduras-2026-09-17-005", "scene_id": "S2B_MSIL2A_20260917T160859_R140_T16PCC_20260917T195052", "datetime": "2026-09-17T16:08:59.024000Z", "n_pixels": 1, "area_m2": 100, "prob_max": 0.8667, "prob_mean": 0.8667, "threshold": 0.63, "in_strip": true, "artifact": null}}, {"type": "Feature", "id": "D-SZ-fresh-honduras-2026-09-17-005-63", "geometry": {"type": "Polygon", "coordinates": [[[-88.2665291, 15.7870659], [-88.2665286, 15.7869755], [-88.2667153, 15.7869744], [-88.2667147, 15.786884], [-88.266528, 15.7868851], [-88.2665286, 15.7869755], [-88.2664352, 15.786976], [-88.2664358, 15.7870664], [-88.2665291, 15.7870659]]]}, "properties": {"kind": "detection", "det_id": "D-SZ-fresh-honduras-2026-09-17-005-63", "zone_id": "SZ-fresh-honduras-2026-09-17-005", "scene_id": "S2B_MSIL2A_20260917T160859_R140_T16PCC_20260917T195052", "datetime": "2026-09-17T16:08:59.024000Z", "n_pixels": 3, "area_m2": 300, "prob_max": 0.9922, "prob_mean": 0.9072, "threshold": 0.63, "in_strip": true, "artifact": null}}, {"type": "Feature", "id": "D-SZ-fresh-honduras-2026-09-17-005-64", "geometry": {"type": "Polygon", "coordinates": [[[-88.2672753, 15.7869712], [-88.2672748, 15.7868808], [-88.2670881, 15.7868819], [-88.2670886, 15.7869722], [-88.2672753, 15.7869712]]]}, "properties": {"kind": "detection", "det_id": "D-SZ-fresh-honduras-2026-09-17-005-64", "zone_id": "SZ-fresh-honduras-2026-09-17-005", "scene_id": "S2B_MSIL2A_20260917T160859_R140_T16PCC_20260917T195052", "datetime": "2026-09-17T16:08:59.024000Z", "n_pixels": 2, "area_m2": 200, "prob_max": 0.9608, "prob_mean": 0.9314, "threshold": 0.63, "in_strip": true, "artifact": null}}, {"type": "Feature", "id": "D-SZ-fresh-honduras-2026-09-17-005-65", "geometry": {"type": "Polygon", "coordinates": [[[-88.2655018, 15.7869815], [-88.2655012, 15.7868911], [-88.2655946, 15.7868906], [-88.265594, 15.7868002], [-88.2654073, 15.7868013], [-88.2654084, 15.786982], [-88.2655018, 15.7869815]]]}, "properties": {"kind": "detection", "det_id": "D-SZ-fresh-honduras-2026-09-17-005-65", "zone_id": "SZ-fresh-honduras-2026-09-17-005", "scene_id": "S2B_MSIL2A_20260917T160859_R140_T16PCC_20260917T195052", "datetime": "2026-09-17T16:08:59.024000Z", "n_pixels": 3, "area_m2": 300, "prob_max": 0.9647, "prob_mean": 0.9124, "threshold": 0.63, "in_strip": true, "artifact": null}}, {"type": "Feature", "id": "D-SZ-fresh-honduras-2026-09-17-005-66", "geometry": {"type": "Polygon", "coordinates": [[[-88.2649417, 15.7869847], [-88.2649412, 15.7868944], [-88.2650345, 15.7868938], [-88.265034, 15.7868034], [-88.2649406, 15.786804], [-88.2649412, 15.7868944], [-88.2648478, 15.7868949], [-88.2648484, 15.7869853], [-88.2649417, 15.7869847]]]}, "properties": {"kind": "detection", "det_id": "D-SZ-fresh-honduras-2026-09-17-005-66", "zone_id": "SZ-fresh-honduras-2026-09-17-005", "scene_id": "S2B_MSIL2A_20260917T160859_R140_T16PCC_20260917T195052", "datetime": "2026-09-17T16:08:59.024000Z", "n_pixels": 2, "area_m2": 200, "prob_max": 0.9216, "prob_mean": 0.8255, "threshold": 0.63, "in_strip": true, "artifact": null}}, {"type": "Feature", "id": "D-SZ-fresh-honduras-2026-09-17-005-67", "geometry": {"type": "Polygon", "coordinates": [[[-88.2660613, 15.7868878], [-88.2660602, 15.7867071], [-88.2659668, 15.7867076], [-88.2659674, 15.786798], [-88.265874, 15.7867985], [-88.2658746, 15.7868889], [-88.2660613, 15.7868878]]]}, "properties": {"kind": "detection", "det_id": "D-SZ-fresh-honduras-2026-09-17-005-67", "zone_id": "SZ-fresh-honduras-2026-09-17-005", "scene_id": "S2B_MSIL2A_20260917T160859_R140_T16PCC_20260917T195052", "datetime": "2026-09-17T16:08:59.024000Z", "n_pixels": 3, "area_m2": 300, "prob_max": 0.9451, "prob_mean": 0.7882, "threshold": 0.63, "in_strip": true, "artifact": null}}, {"type": "Feature", "id": "D-SZ-fresh-honduras-2026-09-17-005-68", "geometry": {"type": "Polygon", "coordinates": [[[-88.2627943, 15.7869068], [-88.2627931, 15.7867261], [-88.2626998, 15.7867266], [-88.2626992, 15.7866362], [-88.2626059, 15.7866368], [-88.2626064, 15.7867272], [-88.2626998, 15.7867266], [-88.2627009, 15.7869074], [-88.2627943, 15.7869068]]]}, "properties": {"kind": "detection", "det_id": "D-SZ-fresh-honduras-2026-09-17-005-68", "zone_id": "SZ-fresh-honduras-2026-09-17-005", "scene_id": "S2B_MSIL2A_20260917T160859_R140_T16PCC_20260917T195052", "datetime": "2026-09-17T16:08:59.024000Z", "n_pixels": 3, "area_m2": 300, "prob_max": 0.9647, "prob_mean": 0.8889, "threshold": 0.63, "in_strip": true, "artifact": null}}, {"type": "Feature", "id": "D-SZ-fresh-honduras-2026-09-17-005-69", "geometry": {"type": "Polygon", "coordinates": [[[-88.2620469, 15.7868208], [-88.2620464, 15.7867304], [-88.261953, 15.7867309], [-88.2619536, 15.7868213], [-88.2620469, 15.7868208]]]}, "properties": {"kind": "detection", "det_id": "D-SZ-fresh-honduras-2026-09-17-005-69", "zone_id": "SZ-fresh-honduras-2026-09-17-005", "scene_id": "S2B_MSIL2A_20260917T160859_R140_T16PCC_20260917T195052", "datetime": "2026-09-17T16:08:59.024000Z", "n_pixels": 1, "area_m2": 100, "prob_max": 0.8, "prob_mean": 0.8, "threshold": 0.63, "in_strip": true, "artifact": null}}, {"type": "Feature", "id": "D-SZ-fresh-honduras-2026-09-17-005-70", "geometry": {"type": "Polygon", "coordinates": [[[-88.2617669, 15.7868224], [-88.2617663, 15.786732], [-88.2615797, 15.7867331], [-88.2615802, 15.7868235], [-88.2617669, 15.7868224]]]}, "properties": {"kind": "detection", "det_id": "D-SZ-fresh-honduras-2026-09-17-005-70", "zone_id": "SZ-fresh-honduras-2026-09-17-005", "scene_id": "S2B_MSIL2A_20260917T160859_R140_T16PCC_20260917T195052", "datetime": "2026-09-17T16:08:59.024000Z", "n_pixels": 2, "area_m2": 200, "prob_max": 0.9373, "prob_mean": 0.9137, "threshold": 0.63, "in_strip": true, "artifact": null}}, {"type": "Feature", "id": "D-SZ-fresh-honduras-2026-09-17-005-72", "geometry": {"type": "Polygon", "coordinates": [[[-88.2607396, 15.786738], [-88.260739, 15.7866476], [-88.260459, 15.7866492], [-88.2604595, 15.7867396], [-88.2607396, 15.786738]]]}, "properties": {"kind": "detection", "det_id": "D-SZ-fresh-honduras-2026-09-17-005-72", "zone_id": "SZ-fresh-honduras-2026-09-17-005", "scene_id": "S2B_MSIL2A_20260917T160859_R140_T16PCC_20260917T195052", "datetime": "2026-09-17T16:08:59.024000Z", "n_pixels": 3, "area_m2": 300, "prob_max": 0.9961, "prob_mean": 0.9935, "threshold": 0.63, "in_strip": true, "artifact": null}}, {"type": "Feature", "id": "D-SZ-fresh-honduras-2026-09-17-006-54", "geometry": {"type": "Polygon", "coordinates": [[[-88.2067919, 15.7880383], [-88.2067914, 15.7879479], [-88.2066047, 15.787949], [-88.2066052, 15.7880394], [-88.2067919, 15.7880383]]]}, "properties": {"kind": "detection", "det_id": "D-SZ-fresh-honduras-2026-09-17-006-54", "zone_id": "SZ-fresh-honduras-2026-09-17-006", "scene_id": "S2B_MSIL2A_20260917T160859_R140_T16PCC_20260917T195052", "datetime": "2026-09-17T16:08:59.024000Z", "n_pixels": 2, "area_m2": 200, "prob_max": 0.7725, "prob_mean": 0.7333, "threshold": 0.63, "in_strip": true, "artifact": null}}, {"type": "Feature", "id": "D-SZ-fresh-honduras-2026-09-17-006-55", "geometry": {"type": "Polygon", "coordinates": [[[-88.2063252, 15.7880409], [-88.2063246, 15.7879505], [-88.2062313, 15.787951], [-88.2062318, 15.7880414], [-88.2063252, 15.7880409]]]}, "properties": {"kind": "detection", "det_id": "D-SZ-fresh-honduras-2026-09-17-006-55", "zone_id": "SZ-fresh-honduras-2026-09-17-006", "scene_id": "S2B_MSIL2A_20260917T160859_R140_T16PCC_20260917T195052", "datetime": "2026-09-17T16:08:59.024000Z", "n_pixels": 1, "area_m2": 100, "prob_max": 0.9176, "prob_mean": 0.9176, "threshold": 0.63, "in_strip": true, "artifact": null}}, {"type": "Feature", "id": "D-SZ-fresh-honduras-2026-09-17-006-57", "geometry": {"type": "Polygon", "coordinates": [[[-88.2058574, 15.7878627], [-88.2058568, 15.7877723], [-88.2057635, 15.7877729], [-88.205764, 15.7878633], [-88.2058574, 15.7878627]]]}, "properties": {"kind": "detection", "det_id": "D-SZ-fresh-honduras-2026-09-17-006-57", "zone_id": "SZ-fresh-honduras-2026-09-17-006", "scene_id": "S2B_MSIL2A_20260917T160859_R140_T16PCC_20260917T195052", "datetime": "2026-09-17T16:08:59.024000Z", "n_pixels": 1, "area_m2": 100, "prob_max": 0.9529, "prob_mean": 0.9529, "threshold": 0.63, "in_strip": true, "artifact": null}}, {"type": "Feature", "id": "D-SZ-fresh-honduras-2026-09-17-006-62", "geometry": {"type": "Polygon", "coordinates": [[[-88.2050157, 15.7875962], [-88.2050151, 15.7875058], [-88.2048284, 15.7875069], [-88.204829, 15.7875973], [-88.2050157, 15.7875962]]]}, "properties": {"kind": "detection", "det_id": "D-SZ-fresh-honduras-2026-09-17-006-62", "zone_id": "SZ-fresh-honduras-2026-09-17-006", "scene_id": "S2B_MSIL2A_20260917T160859_R140_T16PCC_20260917T195052", "datetime": "2026-09-17T16:08:59.024000Z", "n_pixels": 2, "area_m2": 200, "prob_max": 0.9922, "prob_mean": 0.8686, "threshold": 0.63, "in_strip": true, "artifact": null}}, {"type": "Feature", "id": "D-SZ-fresh-honduras-2026-09-17-006-71", "geometry": {"type": "Polygon", "coordinates": [[[-88.2024926, 15.7871583], [-88.2024921, 15.7870679], [-88.2023988, 15.7870684], [-88.2023993, 15.7871588], [-88.2024926, 15.7871583]]]}, "properties": {"kind": "detection", "det_id": "D-SZ-fresh-honduras-2026-09-17-006-71", "zone_id": "SZ-fresh-honduras-2026-09-17-006", "scene_id": "S2B_MSIL2A_20260917T160859_R140_T16PCC_20260917T195052", "datetime": "2026-09-17T16:08:59.024000Z", "n_pixels": 1, "area_m2": 100, "prob_max": 0.8118, "prob_mean": 0.8118, "threshold": 0.63, "in_strip": true, "artifact": null}}, {"type": "Feature", "id": "D-SZ-fresh-honduras-2026-09-17-006-73", "geometry": {"type": "Polygon", "coordinates": [[[-88.2002518, 15.7870802], [-88.2002513, 15.7869899], [-88.2000646, 15.7869909], [-88.2000651, 15.7870813], [-88.2002518, 15.7870802]]]}, "properties": {"kind": "detection", "det_id": "D-SZ-fresh-honduras-2026-09-17-006-73", "zone_id": "SZ-fresh-honduras-2026-09-17-006", "scene_id": "S2B_MSIL2A_20260917T160859_R140_T16PCC_20260917T195052", "datetime": "2026-09-17T16:08:59.024000Z", "n_pixels": 2, "area_m2": 200, "prob_max": 0.7686, "prob_mean": 0.7569, "threshold": 0.63, "in_strip": true, "artifact": "ship"}}, {"type": "Feature", "id": "D-SZ-fresh-honduras-2026-09-17-006-75", "geometry": {"type": "Polygon", "coordinates": [[[-88.1988505, 15.7869072], [-88.19885, 15.7868168], [-88.1987566, 15.7868173], [-88.1987572, 15.7869077], [-88.1988505, 15.7869072]]]}, "properties": {"kind": "detection", "det_id": "D-SZ-fresh-honduras-2026-09-17-006-75", "zone_id": "SZ-fresh-honduras-2026-09-17-006", "scene_id": "S2B_MSIL2A_20260917T160859_R140_T16PCC_20260917T195052", "datetime": "2026-09-17T16:08:59.024000Z", "n_pixels": 1, "area_m2": 100, "prob_max": 0.9765, "prob_mean": 0.9765, "threshold": 0.63, "in_strip": true, "artifact": null}}, {"type": "Feature", "id": "D-SZ-fresh-honduras-2026-09-17-006-76", "geometry": {"type": "Polygon", "coordinates": [[[-88.197357, 15.7869154], [-88.1973565, 15.786825], [-88.1972631, 15.7868256], [-88.1972636, 15.7869159], [-88.197357, 15.7869154]]]}, "properties": {"kind": "detection", "det_id": "D-SZ-fresh-honduras-2026-09-17-006-76", "zone_id": "SZ-fresh-honduras-2026-09-17-006", "scene_id": "S2B_MSIL2A_20260917T160859_R140_T16PCC_20260917T195052", "datetime": "2026-09-17T16:08:59.024000Z", "n_pixels": 1, "area_m2": 100, "prob_max": 0.6588, "prob_mean": 0.6588, "threshold": 0.63, "in_strip": true, "artifact": null}}, {"type": "Feature", "id": "D-SZ-fresh-honduras-2026-09-17-006-79", "geometry": {"type": "Polygon", "coordinates": [[[-88.1966086, 15.7866484], [-88.1966081, 15.786558], [-88.1964214, 15.786559], [-88.1964219, 15.7866494], [-88.1966086, 15.7866484]]]}, "properties": {"kind": "detection", "det_id": "D-SZ-fresh-honduras-2026-09-17-006-79", "zone_id": "SZ-fresh-honduras-2026-09-17-006", "scene_id": "S2B_MSIL2A_20260917T160859_R140_T16PCC_20260917T195052", "datetime": "2026-09-17T16:08:59.024000Z", "n_pixels": 2, "area_m2": 200, "prob_max": 0.8078, "prob_mean": 0.7843, "threshold": 0.63, "in_strip": true, "artifact": null}}, {"type": "Feature", "id": "D-SZ-fresh-honduras-2026-09-17-006-86", "geometry": {"type": "Polygon", "coordinates": [[[-88.196048, 15.7865611], [-88.1960475, 15.7864707], [-88.1959541, 15.7864712], [-88.1959547, 15.7865616], [-88.196048, 15.7865611]]]}, "properties": {"kind": "detection", "det_id": "D-SZ-fresh-honduras-2026-09-17-006-86", "zone_id": "SZ-fresh-honduras-2026-09-17-006", "scene_id": "S2B_MSIL2A_20260917T160859_R140_T16PCC_20260917T195052", "datetime": "2026-09-17T16:08:59.024000Z", "n_pixels": 1, "area_m2": 100, "prob_max": 0.8314, "prob_mean": 0.8314, "threshold": 0.63, "in_strip": true, "artifact": null}}, {"type": "Feature", "id": "D-SZ-fresh-honduras-2026-09-17-006-90", "geometry": {"type": "Polygon", "coordinates": [[[-88.193805, 15.7861215], [-88.193804, 15.7859407], [-88.1937106, 15.7859412], [-88.1937117, 15.786122], [-88.193805, 15.7861215]]]}, "properties": {"kind": "detection", "det_id": "D-SZ-fresh-honduras-2026-09-17-006-90", "zone_id": "SZ-fresh-honduras-2026-09-17-006", "scene_id": "S2B_MSIL2A_20260917T160859_R140_T16PCC_20260917T195052", "datetime": "2026-09-17T16:08:59.024000Z", "n_pixels": 2, "area_m2": 200, "prob_max": 0.8353, "prob_mean": 0.7471, "threshold": 0.63, "in_strip": true, "artifact": null}}, {"type": "Feature", "id": "D-SZ-fresh-honduras-2026-09-17-006-91", "geometry": {"type": "Polygon", "coordinates": [[[-88.1936184, 15.7861225], [-88.1936178, 15.7860321], [-88.1935245, 15.7860326], [-88.193524, 15.7859422], [-88.1934306, 15.7859427], [-88.1934311, 15.7860331], [-88.1935245, 15.7860326], [-88.193525, 15.786123], [-88.1936184, 15.7861225]]]}, "properties": {"kind": "detection", "det_id": "D-SZ-fresh-honduras-2026-09-17-006-91", "zone_id": "SZ-fresh-honduras-2026-09-17-006", "scene_id": "S2B_MSIL2A_20260917T160859_R140_T16PCC_20260917T195052", "datetime": "2026-09-17T16:08:59.024000Z", "n_pixels": 2, "area_m2": 200, "prob_max": 0.9922, "prob_mean": 0.8706, "threshold": 0.63, "in_strip": true, "artifact": null}}, {"type": "Feature", "id": "D-SZ-fresh-honduras-2026-09-17-006-92", "geometry": {"type": "Polygon", "coordinates": [[[-88.1930578, 15.7860352], [-88.1930572, 15.7859448], [-88.1929639, 15.7859453], [-88.1929644, 15.7860357], [-88.1930578, 15.7860352]]]}, "properties": {"kind": "detection", "det_id": "D-SZ-fresh-honduras-2026-09-17-006-92", "zone_id": "SZ-fresh-honduras-2026-09-17-006", "scene_id": "S2B_MSIL2A_20260917T160859_R140_T16PCC_20260917T195052", "datetime": "2026-09-17T16:08:59.024000Z", "n_pixels": 1, "area_m2": 100, "prob_max": 0.9255, "prob_mean": 0.9255, "threshold": 0.63, "in_strip": true, "artifact": null}}, {"type": "Feature", "id": "D-SZ-fresh-honduras-2026-09-17-006-95", "geometry": {"type": "Polygon", "coordinates": [[[-88.1925873, 15.785405], [-88.1925868, 15.7853146], [-88.1924934, 15.7853151], [-88.192494, 15.7854055], [-88.1925873, 15.785405]]]}, "properties": {"kind": "detection", "det_id": "D-SZ-fresh-honduras-2026-09-17-006-95", "zone_id": "SZ-fresh-honduras-2026-09-17-006", "scene_id": "S2B_MSIL2A_20260917T160859_R140_T16PCC_20260917T195052", "datetime": "2026-09-17T16:08:59.024000Z", "n_pixels": 1, "area_m2": 100, "prob_max": 0.949, "prob_mean": 0.949, "threshold": 0.63, "in_strip": true, "artifact": null}}, {"type": "Feature", "id": "D-SZ-fresh-honduras-2026-09-17-007-78", "geometry": {"type": "Polygon", "coordinates": [[[-88.2303064, 15.7864603], [-88.2303059, 15.78637], [-88.2302126, 15.7863705], [-88.2302131, 15.7864609], [-88.2303064, 15.7864603]]]}, "properties": {"kind": "detection", "det_id": "D-SZ-fresh-honduras-2026-09-17-007-78", "zone_id": "SZ-fresh-honduras-2026-09-17-007", "scene_id": "S2B_MSIL2A_20260917T160859_R140_T16PCC_20260917T195052", "datetime": "2026-09-17T16:08:59.024000Z", "n_pixels": 1, "area_m2": 100, "prob_max": 0.9882, "prob_mean": 0.9882, "threshold": 0.63, "in_strip": true, "artifact": null}}, {"type": "Feature", "id": "D-SZ-fresh-honduras-2026-09-17-007-80", "geometry": {"type": "Polygon", "coordinates": [[[-88.2337597, 15.7863504], [-88.2337591, 15.78626], [-88.2335724, 15.7862611], [-88.233573, 15.7863515], [-88.2337597, 15.7863504]]]}, "properties": {"kind": "detection", "det_id": "D-SZ-fresh-honduras-2026-09-17-007-80", "zone_id": "SZ-fresh-honduras-2026-09-17-007", "scene_id": "S2B_MSIL2A_20260917T160859_R140_T16PCC_20260917T195052", "datetime": "2026-09-17T16:08:59.024000Z", "n_pixels": 2, "area_m2": 200, "prob_max": 0.7255, "prob_mean": 0.6824, "threshold": 0.63, "in_strip": true, "artifact": "seam"}}, {"type": "Feature", "id": "D-SZ-fresh-honduras-2026-09-17-007-81", "geometry": {"type": "Polygon", "coordinates": [[[-88.2332929, 15.786353], [-88.2332924, 15.7862627], [-88.2333857, 15.7862621], [-88.2333852, 15.7861717], [-88.2331052, 15.7861733], [-88.2331062, 15.7863541], [-88.2332929, 15.786353]]]}, "properties": {"kind": "detection", "det_id": "D-SZ-fresh-honduras-2026-09-17-007-81", "zone_id": "SZ-fresh-honduras-2026-09-17-007", "scene_id": "S2B_MSIL2A_20260917T160859_R140_T16PCC_20260917T195052", "datetime": "2026-09-17T16:08:59.024000Z", "n_pixels": 5, "area_m2": 500, "prob_max": 0.9647, "prob_mean": 0.8557, "threshold": 0.63, "in_strip": true, "artifact": "seam"}}, {"type": "Feature", "id": "D-SZ-fresh-honduras-2026-09-17-007-82", "geometry": {"type": "Polygon", "coordinates": [[[-88.2326395, 15.7863567], [-88.232639, 15.7862664], [-88.2325456, 15.7862669], [-88.2325462, 15.7863573], [-88.2326395, 15.7863567]]]}, "properties": {"kind": "detection", "det_id": "D-SZ-fresh-honduras-2026-09-17-007-82", "zone_id": "SZ-fresh-honduras-2026-09-17-007", "scene_id": "S2B_MSIL2A_20260917T160859_R140_T16PCC_20260917T195052", "datetime": "2026-09-17T16:08:59.024000Z", "n_pixels": 1, "area_m2": 100, "prob_max": 0.8549, "prob_mean": 0.8549, "threshold": 0.63, "in_strip": true, "artifact": null}}, {"type": "Feature", "id": "D-SZ-fresh-honduras-2026-09-17-007-83", "geometry": {"type": "Polygon", "coordinates": [[[-88.2312393, 15.7863647], [-88.2312388, 15.7862743], [-88.2313321, 15.7862738], [-88.2313316, 15.7861834], [-88.2312383, 15.7861839], [-88.2312388, 15.7862743], [-88.2310521, 15.7862754], [-88.2310527, 15.7863657], [-88.2312393, 15.7863647]]]}, "properties": {"kind": "detection", "det_id": "D-SZ-fresh-honduras-2026-09-17-007-83", "zone_id": "SZ-fresh-honduras-2026-09-17-007", "scene_id": "S2B_MSIL2A_20260917T160859_R140_T16PCC_20260917T195052", "datetime": "2026-09-17T16:08:59.024000Z", "n_pixels": 3, "area_m2": 300, "prob_max": 0.9725, "prob_mean": 0.8601, "threshold": 0.63, "in_strip": true, "artifact": "seam"}}, {"type": "Feature", "id": "D-SZ-fresh-honduras-2026-09-17-007-84", "geometry": {"type": "Polygon", "coordinates": [[[-88.2307726, 15.7863673], [-88.2307721, 15.7862769], [-88.2306787, 15.7862775], [-88.2306793, 15.7863678], [-88.2307726, 15.7863673]]]}, "properties": {"kind": "detection", "det_id": "D-SZ-fresh-honduras-2026-09-17-007-84", "zone_id": "SZ-fresh-honduras-2026-09-17-007", "scene_id": "S2B_MSIL2A_20260917T160859_R140_T16PCC_20260917T195052", "datetime": "2026-09-17T16:08:59.024000Z", "n_pixels": 1, "area_m2": 100, "prob_max": 0.6863, "prob_mean": 0.6863, "threshold": 0.63, "in_strip": true, "artifact": null}}, {"type": "Feature", "id": "D-SZ-fresh-honduras-2026-09-17-007-85", "geometry": {"type": "Polygon", "coordinates": [[[-88.2305859, 15.7863684], [-88.2305854, 15.786278], [-88.230492, 15.7862785], [-88.2304926, 15.7863689], [-88.2305859, 15.7863684]]]}, "properties": {"kind": "detection", "det_id": "D-SZ-fresh-honduras-2026-09-17-007-85", "zone_id": "SZ-fresh-honduras-2026-09-17-007", "scene_id": "S2B_MSIL2A_20260917T160859_R140_T16PCC_20260917T195052", "datetime": "2026-09-17T16:08:59.024000Z", "n_pixels": 1, "area_m2": 100, "prob_max": 0.7843, "prob_mean": 0.7843, "threshold": 0.63, "in_strip": true, "artifact": null}}, {"type": "Feature", "id": "D-SZ-fresh-honduras-2026-09-17-007-87", "geometry": {"type": "Polygon", "coordinates": [[[-88.2351593, 15.7862521], [-88.2351582, 15.7860713], [-88.2350648, 15.7860718], [-88.2350654, 15.7861622], [-88.2349721, 15.7861627], [-88.2349726, 15.7862531], [-88.2351593, 15.7862521]]]}, "properties": {"kind": "detection", "det_id": "D-SZ-fresh-honduras-2026-09-17-007-87", "zone_id": "SZ-fresh-honduras-2026-09-17-007", "scene_id": "S2B_MSIL2A_20260917T160859_R140_T16PCC_20260917T195052", "datetime": "2026-09-17T16:08:59.024000Z", "n_pixels": 3, "area_m2": 300, "prob_max": 0.8353, "prob_mean": 0.7712, "threshold": 0.63, "in_strip": true, "artifact": "seam"}}, {"type": "Feature", "id": "D-SZ-fresh-honduras-2026-09-17-007-88", "geometry": {"type": "Polygon", "coordinates": [[[-88.2319856, 15.7862701], [-88.231985, 15.7861797], [-88.2318917, 15.7861802], [-88.2318922, 15.7862706], [-88.2319856, 15.7862701]]]}, "properties": {"kind": "detection", "det_id": "D-SZ-fresh-honduras-2026-09-17-007-88", "zone_id": "SZ-fresh-honduras-2026-09-17-007", "scene_id": "S2B_MSIL2A_20260917T160859_R140_T16PCC_20260917T195052", "datetime": "2026-09-17T16:08:59.024000Z", "n_pixels": 1, "area_m2": 100, "prob_max": 0.9098, "prob_mean": 0.9098, "threshold": 0.63, "in_strip": true, "artifact": null}}, {"type": "Feature", "id": "D-SZ-fresh-honduras-2026-09-17-007-89", "geometry": {"type": "Polygon", "coordinates": [[[-88.2353443, 15.7859798], [-88.2353438, 15.7858895], [-88.2352504, 15.78589], [-88.235251, 15.7859804], [-88.2353443, 15.7859798]]]}, "properties": {"kind": "detection", "det_id": "D-SZ-fresh-honduras-2026-09-17-007-89", "zone_id": "SZ-fresh-honduras-2026-09-17-007", "scene_id": "S2B_MSIL2A_20260917T160859_R140_T16PCC_20260917T195052", "datetime": "2026-09-17T16:08:59.024000Z", "n_pixels": 1, "area_m2": 100, "prob_max": 0.7961, "prob_mean": 0.7961, "threshold": 0.63, "in_strip": true, "artifact": null}}, {"type": "Feature", "id": "D-SZ-fresh-honduras-2026-09-17-007-93", "geometry": {"type": "Polygon", "coordinates": [[[-88.2377697, 15.7856949], [-88.2377691, 15.7856045], [-88.2378624, 15.785604], [-88.2378619, 15.7855136], [-88.2375819, 15.7855152], [-88.237583, 15.785696], [-88.2377697, 15.7856949]]]}, "properties": {"kind": "detection", "det_id": "D-SZ-fresh-honduras-2026-09-17-007-93", "zone_id": "SZ-fresh-honduras-2026-09-17-007", "scene_id": "S2B_MSIL2A_20260917T160859_R140_T16PCC_20260917T195052", "datetime": "2026-09-17T16:08:59.024000Z", "n_pixels": 5, "area_m2": 500, "prob_max": 0.9569, "prob_mean": 0.8769, "threshold": 0.63, "in_strip": true, "artifact": "seam"}}, {"type": "Feature", "id": "D-SZ-fresh-honduras-2026-09-17-007-94", "geometry": {"type": "Polygon", "coordinates": [[[-88.2382358, 15.7856019], [-88.2382353, 15.7855115], [-88.2381419, 15.785512], [-88.2381425, 15.7856024], [-88.2382358, 15.7856019]]]}, "properties": {"kind": "detection", "det_id": "D-SZ-fresh-honduras-2026-09-17-007-94", "zone_id": "SZ-fresh-honduras-2026-09-17-007", "scene_id": "S2B_MSIL2A_20260917T160859_R140_T16PCC_20260917T195052", "datetime": "2026-09-17T16:08:59.024000Z", "n_pixels": 1, "area_m2": 100, "prob_max": 0.949, "prob_mean": 0.949, "threshold": 0.63, "in_strip": true, "artifact": null}}, {"type": "Feature", "id": "D-SZ-fresh-honduras-2026-09-17-007-96", "geometry": {"type": "Polygon", "coordinates": [[[-88.239446, 15.7850526], [-88.2394455, 15.7849622], [-88.2393521, 15.7849628], [-88.2393527, 15.7850532], [-88.239446, 15.7850526]]]}, "properties": {"kind": "detection", "det_id": "D-SZ-fresh-honduras-2026-09-17-007-96", "zone_id": "SZ-fresh-honduras-2026-09-17-007", "scene_id": "S2B_MSIL2A_20260917T160859_R140_T16PCC_20260917T195052", "datetime": "2026-09-17T16:08:59.024000Z", "n_pixels": 1, "area_m2": 100, "prob_max": 0.6314, "prob_mean": 0.6314, "threshold": 0.63, "in_strip": true, "artifact": null}}, {"type": "Feature", "id": "D-SZ-fresh-honduras-2026-09-17-007-98", "geometry": {"type": "Polygon", "coordinates": [[[-88.2413118, 15.7848612], [-88.2413112, 15.7847708], [-88.2411246, 15.7847719], [-88.2411251, 15.7848623], [-88.2413118, 15.7848612]]]}, "properties": {"kind": "detection", "det_id": "D-SZ-fresh-honduras-2026-09-17-007-98", "zone_id": "SZ-fresh-honduras-2026-09-17-007", "scene_id": "S2B_MSIL2A_20260917T160859_R140_T16PCC_20260917T195052", "datetime": "2026-09-17T16:08:59.024000Z", "n_pixels": 2, "area_m2": 200, "prob_max": 0.9137, "prob_mean": 0.9118, "threshold": 0.63, "in_strip": true, "artifact": null}}, {"type": "Feature", "id": "D-SZ-fresh-honduras-2026-09-17-007-102", "geometry": {"type": "Polygon", "coordinates": [[[-88.2414974, 15.7846794], [-88.2414968, 15.784589], [-88.2414035, 15.7845895], [-88.241404, 15.7846799], [-88.2414974, 15.7846794]]]}, "properties": {"kind": "detection", "det_id": "D-SZ-fresh-honduras-2026-09-17-007-102", "zone_id": "SZ-fresh-honduras-2026-09-17-007", "scene_id": "S2B_MSIL2A_20260917T160859_R140_T16PCC_20260917T195052", "datetime": "2026-09-17T16:08:59.024000Z", "n_pixels": 1, "area_m2": 100, "prob_max": 0.8196, "prob_mean": 0.8196, "threshold": 0.63, "in_strip": true, "artifact": null}}, {"type": "Feature", "id": "D-SZ-fresh-honduras-2026-09-17-007-103", "geometry": {"type": "Polygon", "coordinates": [[[-88.2419635, 15.7845863], [-88.241963, 15.7844959], [-88.2417763, 15.784497], [-88.2417769, 15.7845874], [-88.2419635, 15.7845863]]]}, "properties": {"kind": "detection", "det_id": "D-SZ-fresh-honduras-2026-09-17-007-103", "zone_id": "SZ-fresh-honduras-2026-09-17-007", "scene_id": "S2B_MSIL2A_20260917T160859_R140_T16PCC_20260917T195052", "datetime": "2026-09-17T16:08:59.024000Z", "n_pixels": 2, "area_m2": 200, "prob_max": 0.7216, "prob_mean": 0.7137, "threshold": 0.63, "in_strip": true, "artifact": null}}, {"type": "Feature", "id": "D-SZ-fresh-honduras-2026-09-17-007-105", "geometry": {"type": "Polygon", "coordinates": [[[-88.2430826, 15.7843992], [-88.243082, 15.7843088], [-88.2431754, 15.7843082], [-88.2431748, 15.7842179], [-88.2430815, 15.7842184], [-88.243082, 15.7843088], [-88.2429887, 15.7843093], [-88.2429892, 15.7843997], [-88.2430826, 15.7843992]]]}, "properties": {"kind": "detection", "det_id": "D-SZ-fresh-honduras-2026-09-17-007-105", "zone_id": "SZ-fresh-honduras-2026-09-17-007", "scene_id": "S2B_MSIL2A_20260917T160859_R140_T16PCC_20260917T195052", "datetime": "2026-09-17T16:08:59.024000Z", "n_pixels": 2, "area_m2": 200, "prob_max": 0.9137, "prob_mean": 0.8843, "threshold": 0.63, "in_strip": true, "artifact": null}}, {"type": "Feature", "id": "D-SZ-fresh-honduras-2026-09-17-008-97", "geometry": {"type": "Polygon", "coordinates": [[[-88.1882923, 15.7852478], [-88.1882918, 15.7851574], [-88.1881051, 15.7851584], [-88.1881057, 15.7852488], [-88.1882923, 15.7852478]]]}, "properties": {"kind": "detection", "det_id": "D-SZ-fresh-honduras-2026-09-17-008-97", "zone_id": "SZ-fresh-honduras-2026-09-17-008", "scene_id": "S2B_MSIL2A_20260917T160859_R140_T16PCC_20260917T195052", "datetime": "2026-09-17T16:08:59.024000Z", "n_pixels": 2, "area_m2": 200, "prob_max": 0.8118, "prob_mean": 0.7392, "threshold": 0.63, "in_strip": true, "artifact": null}}, {"type": "Feature", "id": "D-SZ-fresh-honduras-2026-09-17-008-99", "geometry": {"type": "Polygon", "coordinates": [[[-88.1891314, 15.7850624], [-88.1891304, 15.7848816], [-88.189037, 15.7848821], [-88.1890381, 15.7850629], [-88.1891314, 15.7850624]]]}, "properties": {"kind": "detection", "det_id": "D-SZ-fresh-honduras-2026-09-17-008-99", "zone_id": "SZ-fresh-honduras-2026-09-17-008", "scene_id": "S2B_MSIL2A_20260917T160859_R140_T16PCC_20260917T195052", "datetime": "2026-09-17T16:08:59.024000Z", "n_pixels": 2, "area_m2": 200, "prob_max": 0.9608, "prob_mean": 0.8, "threshold": 0.63, "in_strip": true, "artifact": "ship"}}, {"type": "Feature", "id": "D-SZ-fresh-honduras-2026-09-17-008-100", "geometry": {"type": "Polygon", "coordinates": [[[-88.1882913, 15.785067], [-88.1882908, 15.7849766], [-88.1881974, 15.7849771], [-88.1881979, 15.7850675], [-88.1882913, 15.785067]]]}, "properties": {"kind": "detection", "det_id": "D-SZ-fresh-honduras-2026-09-17-008-100", "zone_id": "SZ-fresh-honduras-2026-09-17-008", "scene_id": "S2B_MSIL2A_20260917T160859_R140_T16PCC_20260917T195052", "datetime": "2026-09-17T16:08:59.024000Z", "n_pixels": 1, "area_m2": 100, "prob_max": 0.9412, "prob_mean": 0.9412, "threshold": 0.63, "in_strip": true, "artifact": null}}, {"type": "Feature", "id": "D-SZ-fresh-honduras-2026-09-17-008-101", "geometry": {"type": "Polygon", "coordinates": [[[-88.1877312, 15.78507], [-88.1877302, 15.7848893], [-88.1874501, 15.7848908], [-88.1874512, 15.7850716], [-88.1877312, 15.78507]]]}, "properties": {"kind": "detection", "det_id": "D-SZ-fresh-honduras-2026-09-17-008-101", "zone_id": "SZ-fresh-honduras-2026-09-17-008", "scene_id": "S2B_MSIL2A_20260917T160859_R140_T16PCC_20260917T195052", "datetime": "2026-09-17T16:08:59.024000Z", "n_pixels": 6, "area_m2": 600, "prob_max": 0.9922, "prob_mean": 0.9641, "threshold": 0.63, "in_strip": true, "artifact": null}}, {"type": "Feature", "id": "D-SZ-fresh-honduras-2026-09-17-008-104", "geometry": {"type": "Polygon", "coordinates": [[[-88.1892232, 15.7847907], [-88.1892226, 15.7847003], [-88.1891293, 15.7847008], [-88.1891298, 15.7847912], [-88.1892232, 15.7847907]]]}, "properties": {"kind": "detection", "det_id": "D-SZ-fresh-honduras-2026-09-17-008-104", "zone_id": "SZ-fresh-honduras-2026-09-17-008", "scene_id": "S2B_MSIL2A_20260917T160859_R140_T16PCC_20260917T195052", "datetime": "2026-09-17T16:08:59.024000Z", "n_pixels": 1, "area_m2": 100, "prob_max": 0.9216, "prob_mean": 0.9216, "threshold": 0.63, "in_strip": true, "artifact": "ship"}}, {"type": "Feature", "id": "D-SZ-fresh-honduras-2026-09-17-008-106", "geometry": {"type": "Polygon", "coordinates": [[[-88.1867957, 15.7847136], [-88.1867951, 15.7846232], [-88.1867018, 15.7846237], [-88.1867023, 15.7847141], [-88.1867957, 15.7847136]]]}, "properties": {"kind": "detection", "det_id": "D-SZ-fresh-honduras-2026-09-17-008-106", "zone_id": "SZ-fresh-honduras-2026-09-17-008", "scene_id": "S2B_MSIL2A_20260917T160859_R140_T16PCC_20260917T195052", "datetime": "2026-09-17T16:08:59.024000Z", "n_pixels": 1, "area_m2": 100, "prob_max": 0.9725, "prob_mean": 0.9725, "threshold": 0.63, "in_strip": true, "artifact": null}}, {"type": "Feature", "id": "D-SZ-fresh-honduras-2026-09-17-008-107", "geometry": {"type": "Polygon", "coordinates": [[[-88.1893155, 15.7846094], [-88.1893149, 15.784519], [-88.1891282, 15.7845201], [-88.1891288, 15.7846105], [-88.1893155, 15.7846094]]]}, "properties": {"kind": "detection", "det_id": "D-SZ-fresh-honduras-2026-09-17-008-107", "zone_id": "SZ-fresh-honduras-2026-09-17-008", "scene_id": "S2B_MSIL2A_20260917T160859_R140_T16PCC_20260917T195052", "datetime": "2026-09-17T16:08:59.024000Z", "n_pixels": 2, "area_m2": 200, "prob_max": 0.7529, "prob_mean": 0.7098, "threshold": 0.63, "in_strip": true, "artifact": "ship"}}, {"type": "Feature", "id": "D-SZ-fresh-honduras-2026-09-17-008-108", "geometry": {"type": "Polygon", "coordinates": [[[-88.1863268, 15.7843546], [-88.1863263, 15.7842642], [-88.1864196, 15.7842637], [-88.1864191, 15.7841733], [-88.1862324, 15.7841743], [-88.1862335, 15.7843551], [-88.1863268, 15.7843546]]]}, "properties": {"kind": "detection", "det_id": "D-SZ-fresh-honduras-2026-09-17-008-108", "zone_id": "SZ-fresh-honduras-2026-09-17-008", "scene_id": "S2B_MSIL2A_20260917T160859_R140_T16PCC_20260917T195052", "datetime": "2026-09-17T16:08:59.024000Z", "n_pixels": 3, "area_m2": 300, "prob_max": 0.9961, "prob_mean": 0.8797, "threshold": 0.63, "in_strip": true, "artifact": null}}, {"type": "Feature", "id": "D-SZ-fresh-honduras-2026-09-17-008-109", "geometry": {"type": "Polygon", "coordinates": [[[-88.1852995, 15.7842698], [-88.185299, 15.7841794], [-88.1853923, 15.7841789], [-88.1853918, 15.7840885], [-88.1852051, 15.7840895], [-88.1852061, 15.7842703], [-88.1852995, 15.7842698]]]}, "properties": {"kind": "detection", "det_id": "D-SZ-fresh-honduras-2026-09-17-008-109", "zone_id": "SZ-fresh-honduras-2026-09-17-008", "scene_id": "S2B_MSIL2A_20260917T160859_R140_T16PCC_20260917T195052", "datetime": "2026-09-17T16:08:59.024000Z", "n_pixels": 3, "area_m2": 300, "prob_max": 0.9961, "prob_mean": 0.9752, "threshold": 0.63, "in_strip": true, "artifact": null}}, {"type": "Feature", "id": "D-SZ-fresh-honduras-2026-09-17-008-110", "geometry": {"type": "Polygon", "coordinates": [[[-88.1831489, 15.7836488], [-88.1831483, 15.7835584], [-88.183055, 15.7835589], [-88.1830555, 15.7836493], [-88.1831489, 15.7836488]]]}, "properties": {"kind": "detection", "det_id": "D-SZ-fresh-honduras-2026-09-17-008-110", "zone_id": "SZ-fresh-honduras-2026-09-17-008", "scene_id": "S2B_MSIL2A_20260917T160859_R140_T16PCC_20260917T195052", "datetime": "2026-09-17T16:08:59.024000Z", "n_pixels": 1, "area_m2": 100, "prob_max": 0.9412, "prob_mean": 0.9412, "threshold": 0.63, "in_strip": true, "artifact": "ship"}}, {"type": "Feature", "id": "D-SZ-fresh-honduras-2026-09-17-008-111", "geometry": {"type": "Polygon", "coordinates": [[[-88.1828683, 15.7835599], [-88.1828678, 15.7834695], [-88.1829611, 15.783469], [-88.1829606, 15.7833786], [-88.1828673, 15.7833791], [-88.1828667, 15.7832888], [-88.18268, 15.7832898], [-88.1826806, 15.7833802], [-88.1828673, 15.7833791], [-88.1828678, 15.7834695], [-88.1827744, 15.78347], [-88.182775, 15.7835604], [-88.1828683, 15.7835599]]]}, "properties": {"kind": "detection", "det_id": "D-SZ-fresh-honduras-2026-09-17-008-111", "zone_id": "SZ-fresh-honduras-2026-09-17-008", "scene_id": "S2B_MSIL2A_20260917T160859_R140_T16PCC_20260917T195052", "datetime": "2026-09-17T16:08:59.024000Z", "n_pixels": 4, "area_m2": 400, "prob_max": 0.9804, "prob_mean": 0.9029, "threshold": 0.63, "in_strip": true, "artifact": "ship"}}, {"type": "Feature", "id": "D-SZ-fresh-honduras-2026-09-17-008-112", "geometry": {"type": "Polygon", "coordinates": [[[-88.1822128, 15.7832019], [-88.1822123, 15.7831115], [-88.1821189, 15.783112], [-88.1821195, 15.7832024], [-88.1822128, 15.7832019]]]}, "properties": {"kind": "detection", "det_id": "D-SZ-fresh-honduras-2026-09-17-008-112", "zone_id": "SZ-fresh-honduras-2026-09-17-008", "scene_id": "S2B_MSIL2A_20260917T160859_R140_T16PCC_20260917T195052", "datetime": "2026-09-17T16:08:59.024000Z", "n_pixels": 1, "area_m2": 100, "prob_max": 0.8196, "prob_mean": 0.8196, "threshold": 0.63, "in_strip": true, "artifact": null}}, {"type": "Feature", "id": "D-SZ-fresh-honduras-2026-09-17-009-114", "geometry": {"type": "Polygon", "coordinates": [[[-88.178371, 15.7806919], [-88.17837, 15.7805111], [-88.1782766, 15.7805116], [-88.1782777, 15.7806924], [-88.178371, 15.7806919]]]}, "properties": {"kind": "detection", "det_id": "D-SZ-fresh-honduras-2026-09-17-009-114", "zone_id": "SZ-fresh-honduras-2026-09-17-009", "scene_id": "S2B_MSIL2A_20260917T160859_R140_T16PCC_20260917T195052", "datetime": "2026-09-17T16:08:59.024000Z", "n_pixels": 2, "area_m2": 200, "prob_max": 0.9961, "prob_mean": 0.949, "threshold": 0.63, "in_strip": true, "artifact": null}}, {"type": "Feature", "id": "D-SZ-fresh-honduras-2026-09-17-009-115", "geometry": {"type": "Polygon", "coordinates": [[[-88.1775309, 15.7806964], [-88.1775293, 15.7804253], [-88.177436, 15.7804258], [-88.1774376, 15.7806969], [-88.1775309, 15.7806964]]]}, "properties": {"kind": "detection", "det_id": "D-SZ-fresh-honduras-2026-09-17-009-115", "zone_id": "SZ-fresh-honduras-2026-09-17-009", "scene_id": "S2B_MSIL2A_20260917T160859_R140_T16PCC_20260917T195052", "datetime": "2026-09-17T16:08:59.024000Z", "n_pixels": 3, "area_m2": 300, "prob_max": 0.7255, "prob_mean": 0.6915, "threshold": 0.63, "in_strip": true, "artifact": null}}, {"type": "Feature", "id": "D-SZ-fresh-honduras-2026-09-17-009-116", "geometry": {"type": "Polygon", "coordinates": [[[-88.1769672, 15.7800667], [-88.1769667, 15.7799764], [-88.17678, 15.7799774], [-88.1767805, 15.7800677], [-88.1769672, 15.7800667]]]}, "properties": {"kind": "detection", "det_id": "D-SZ-fresh-honduras-2026-09-17-009-116", "zone_id": "SZ-fresh-honduras-2026-09-17-009", "scene_id": "S2B_MSIL2A_20260917T160859_R140_T16PCC_20260917T195052", "datetime": "2026-09-17T16:08:59.024000Z", "n_pixels": 2, "area_m2": 200, "prob_max": 0.9569, "prob_mean": 0.8255, "threshold": 0.63, "in_strip": true, "artifact": null}}, {"type": "Feature", "id": "D-SZ-fresh-honduras-2026-09-17-009-119", "geometry": {"type": "Polygon", "coordinates": [[[-88.1747223, 15.7792654], [-88.1747212, 15.7790846], [-88.1746279, 15.7790851], [-88.1746284, 15.7791755], [-88.174535, 15.779176], [-88.1745356, 15.7792664], [-88.1747223, 15.7792654]]]}, "properties": {"kind": "detection", "det_id": "D-SZ-fresh-honduras-2026-09-17-009-119", "zone_id": "SZ-fresh-honduras-2026-09-17-009", "scene_id": "S2B_MSIL2A_20260917T160859_R140_T16PCC_20260917T195052", "datetime": "2026-09-17T16:08:59.024000Z", "n_pixels": 3, "area_m2": 300, "prob_max": 0.8314, "prob_mean": 0.8144, "threshold": 0.63, "in_strip": true, "artifact": "seam"}}, {"type": "Feature", "id": "D-SZ-fresh-honduras-2026-09-17-010-123", "geometry": {"type": "Polygon", "coordinates": [[[-88.1620131, 15.7768027], [-88.1620125, 15.7767123], [-88.1621059, 15.7767118], [-88.1621054, 15.7766214], [-88.1619187, 15.7766224], [-88.1619197, 15.7768032], [-88.1620131, 15.7768027]]]}, "properties": {"kind": "detection", "det_id": "D-SZ-fresh-honduras-2026-09-17-010-123", "zone_id": "SZ-fresh-honduras-2026-09-17-010", "scene_id": "S2B_MSIL2A_20260917T160859_R140_T16PCC_20260917T195052", "datetime": "2026-09-17T16:08:59.024000Z", "n_pixels": 3, "area_m2": 300, "prob_max": 0.9255, "prob_mean": 0.8248, "threshold": 0.63, "in_strip": true, "artifact": null}}, {"type": "Feature", "id": "D-SZ-fresh-honduras-2026-09-17-010-124", "geometry": {"type": "Polygon", "coordinates": [[[-88.1616381, 15.7765335], [-88.1616376, 15.7764431], [-88.1615443, 15.7764436], [-88.1615448, 15.776534], [-88.1616381, 15.7765335]]]}, "properties": {"kind": "detection", "det_id": "D-SZ-fresh-honduras-2026-09-17-010-124", "zone_id": "SZ-fresh-honduras-2026-09-17-010", "scene_id": "S2B_MSIL2A_20260917T160859_R140_T16PCC_20260917T195052", "datetime": "2026-09-17T16:08:59.024000Z", "n_pixels": 1, "area_m2": 100, "prob_max": 0.7804, "prob_mean": 0.7804, "threshold": 0.63, "in_strip": true, "artifact": null}}, {"type": "Feature", "id": "D-SZ-fresh-honduras-2026-09-17-010-125", "geometry": {"type": "Polygon", "coordinates": [[[-88.1608893, 15.776176], [-88.1608883, 15.7759952], [-88.160795, 15.7759957], [-88.160796, 15.7761765], [-88.1608893, 15.776176]]]}, "properties": {"kind": "detection", "det_id": "D-SZ-fresh-honduras-2026-09-17-010-125", "zone_id": "SZ-fresh-honduras-2026-09-17-010", "scene_id": "S2B_MSIL2A_20260917T160859_R140_T16PCC_20260917T195052", "datetime": "2026-09-17T16:08:59.024000Z", "n_pixels": 2, "area_m2": 200, "prob_max": 0.9412, "prob_mean": 0.9314, "threshold": 0.63, "in_strip": true, "artifact": null}}, {"type": "Feature", "id": "D-SZ-fresh-honduras-2026-09-17-011-135", "geometry": {"type": "Polygon", "coordinates": [[[-88.2321289, 15.7326691], [-88.2321278, 15.7324883], [-88.2320345, 15.7324888], [-88.2320356, 15.7326696], [-88.2321289, 15.7326691]]]}, "properties": {"kind": "detection", "det_id": "D-SZ-fresh-honduras-2026-09-17-011-135", "zone_id": "SZ-fresh-honduras-2026-09-17-011", "scene_id": "S2B_MSIL2A_20260917T160859_R140_T16PCC_20260917T195052", "datetime": "2026-09-17T16:08:59.024000Z", "n_pixels": 2, "area_m2": 200, "prob_max": 0.9373, "prob_mean": 0.8902, "threshold": 0.63, "in_strip": true, "artifact": null}}, {"type": "Feature", "id": "D-SZ-fresh-honduras-2026-09-17-011-140", "geometry": {"type": "Polygon", "coordinates": [[[-88.2330589, 15.7321215], [-88.2330583, 15.7320311], [-88.232965, 15.7320316], [-88.2329656, 15.732122], [-88.2330589, 15.7321215]]]}, "properties": {"kind": "detection", "det_id": "D-SZ-fresh-honduras-2026-09-17-011-140", "zone_id": "SZ-fresh-honduras-2026-09-17-011", "scene_id": "S2B_MSIL2A_20260917T160859_R140_T16PCC_20260917T195052", "datetime": "2026-09-17T16:08:59.024000Z", "n_pixels": 1, "area_m2": 100, "prob_max": 0.9569, "prob_mean": 0.9569, "threshold": 0.63, "in_strip": true, "artifact": null}}, {"type": "Feature", "id": "D-SZ-fresh-honduras-2026-09-17-011-142", "geometry": {"type": "Polygon", "coordinates": [[[-88.2334316, 15.732029], [-88.2334311, 15.7319386], [-88.2333377, 15.7319391], [-88.2333383, 15.7320295], [-88.2334316, 15.732029]]]}, "properties": {"kind": "detection", "det_id": "D-SZ-fresh-honduras-2026-09-17-011-142", "zone_id": "SZ-fresh-honduras-2026-09-17-011", "scene_id": "S2B_MSIL2A_20260917T160859_R140_T16PCC_20260917T195052", "datetime": "2026-09-17T16:08:59.024000Z", "n_pixels": 1, "area_m2": 100, "prob_max": 0.9882, "prob_mean": 0.9882, "threshold": 0.63, "in_strip": true, "artifact": null}}, {"type": "Feature", "id": "D-SZ-fresh-honduras-2026-09-17-011-144", "geometry": {"type": "Polygon", "coordinates": [[[-88.2357635, 15.731835], [-88.235763, 15.7317446], [-88.2356697, 15.7317451], [-88.2356702, 15.7318355], [-88.2357635, 15.731835]]]}, "properties": {"kind": "detection", "det_id": "D-SZ-fresh-honduras-2026-09-17-011-144", "zone_id": "SZ-fresh-honduras-2026-09-17-011", "scene_id": "S2B_MSIL2A_20260917T160859_R140_T16PCC_20260917T195052", "datetime": "2026-09-17T16:08:59.024000Z", "n_pixels": 1, "area_m2": 100, "prob_max": 0.8941, "prob_mean": 0.8941, "threshold": 0.63, "in_strip": true, "artifact": null}}, {"type": "Feature", "id": "D-SZ-fresh-honduras-2026-09-17-011-149", "geometry": {"type": "Polygon", "coordinates": [[[-88.2376255, 15.7311013], [-88.237625, 15.731011], [-88.2375317, 15.7310115], [-88.2375322, 15.7311019], [-88.2376255, 15.7311013]]]}, "properties": {"kind": "detection", "det_id": "D-SZ-fresh-honduras-2026-09-17-011-149", "zone_id": "SZ-fresh-honduras-2026-09-17-011", "scene_id": "S2B_MSIL2A_20260917T160859_R140_T16PCC_20260917T195052", "datetime": "2026-09-17T16:08:59.024000Z", "n_pixels": 1, "area_m2": 100, "prob_max": 0.9843, "prob_mean": 0.9843, "threshold": 0.63, "in_strip": true, "artifact": null}}, {"type": "Feature", "id": "D-SZ-fresh-honduras-2026-09-17-011-150", "geometry": {"type": "Polygon", "coordinates": [[[-88.2392109, 15.7309116], [-88.2392098, 15.7307308], [-88.2391165, 15.7307313], [-88.2391176, 15.7309121], [-88.2392109, 15.7309116]]]}, "properties": {"kind": "detection", "det_id": "D-SZ-fresh-honduras-2026-09-17-011-150", "zone_id": "SZ-fresh-honduras-2026-09-17-011", "scene_id": "S2B_MSIL2A_20260917T160859_R140_T16PCC_20260917T195052", "datetime": "2026-09-17T16:08:59.024000Z", "n_pixels": 2, "area_m2": 200, "prob_max": 0.9569, "prob_mean": 0.8176, "threshold": 0.63, "in_strip": true, "artifact": null}}, {"type": "Feature", "id": "D-SZ-fresh-honduras-2026-09-17-012-137", "geometry": {"type": "Polygon", "coordinates": [[[-88.2276485, 15.7325135], [-88.2276479, 15.7324232], [-88.2275546, 15.7324237], [-88.2275551, 15.7325141], [-88.2276485, 15.7325135]]]}, "properties": {"kind": "detection", "det_id": "D-SZ-fresh-honduras-2026-09-17-012-137", "zone_id": "SZ-fresh-honduras-2026-09-17-012", "scene_id": "S2B_MSIL2A_20260917T160859_R140_T16PCC_20260917T195052", "datetime": "2026-09-17T16:08:59.024000Z", "n_pixels": 1, "area_m2": 100, "prob_max": 0.9216, "prob_mean": 0.9216, "threshold": 0.63, "in_strip": true, "artifact": null}}, {"type": "Feature", "id": "D-SZ-fresh-honduras-2026-09-17-012-138", "geometry": {"type": "Polygon", "coordinates": [[[-88.229141, 15.7324147], [-88.2291405, 15.7323244], [-88.2290472, 15.7323249], [-88.2290477, 15.7324153], [-88.229141, 15.7324147]]]}, "properties": {"kind": "detection", "det_id": "D-SZ-fresh-honduras-2026-09-17-012-138", "zone_id": "SZ-fresh-honduras-2026-09-17-012", "scene_id": "S2B_MSIL2A_20260917T160859_R140_T16PCC_20260917T195052", "datetime": "2026-09-17T16:08:59.024000Z", "n_pixels": 1, "area_m2": 100, "prob_max": 0.7412, "prob_mean": 0.7412, "threshold": 0.63, "in_strip": true, "artifact": null}}, {"type": "Feature", "id": "D-SZ-fresh-honduras-2026-09-17-012-139", "geometry": {"type": "Polygon", "coordinates": [[[-88.225221, 15.7323464], [-88.2252205, 15.732256], [-88.2253138, 15.7322555], [-88.2253133, 15.7321651], [-88.2250333, 15.7321667], [-88.2250339, 15.7322571], [-88.2251272, 15.7322566], [-88.2251277, 15.7323469], [-88.225221, 15.7323464]]]}, "properties": {"kind": "detection", "det_id": "D-SZ-fresh-honduras-2026-09-17-012-139", "zone_id": "SZ-fresh-honduras-2026-09-17-012", "scene_id": "S2B_MSIL2A_20260917T160859_R140_T16PCC_20260917T195052", "datetime": "2026-09-17T16:08:59.024000Z", "n_pixels": 4, "area_m2": 400, "prob_max": 0.9922, "prob_mean": 0.9049, "threshold": 0.63, "in_strip": true, "artifact": null}}, {"type": "Feature", "id": "D-SZ-fresh-honduras-2026-09-17-012-141", "geometry": {"type": "Polygon", "coordinates": [[[-88.2235402, 15.7321751], [-88.2235396, 15.7320847], [-88.2234463, 15.7320852], [-88.2234469, 15.7321756], [-88.2235402, 15.7321751]]]}, "properties": {"kind": "detection", "det_id": "D-SZ-fresh-honduras-2026-09-17-012-141", "zone_id": "SZ-fresh-honduras-2026-09-17-012", "scene_id": "S2B_MSIL2A_20260917T160859_R140_T16PCC_20260917T195052", "datetime": "2026-09-17T16:08:59.024000Z", "n_pixels": 1, "area_m2": 100, "prob_max": 0.8431, "prob_mean": 0.8431, "threshold": 0.63, "in_strip": true, "artifact": null}}, {"type": "Feature", "id": "D-SZ-fresh-honduras-2026-09-17-012-143", "geometry": {"type": "Polygon", "coordinates": [[[-88.2206462, 15.7320105], [-88.2206451, 15.7318297], [-88.2205518, 15.7318303], [-88.2205529, 15.732011], [-88.2206462, 15.7320105]]]}, "properties": {"kind": "detection", "det_id": "D-SZ-fresh-honduras-2026-09-17-012-143", "zone_id": "SZ-fresh-honduras-2026-09-17-012", "scene_id": "S2B_MSIL2A_20260917T160859_R140_T16PCC_20260917T195052", "datetime": "2026-09-17T16:08:59.024000Z", "n_pixels": 2, "area_m2": 200, "prob_max": 0.8706, "prob_mean": 0.8196, "threshold": 0.63, "in_strip": true, "artifact": null}}, {"type": "Feature", "id": "D-SZ-fresh-honduras-2026-09-17-012-145", "geometry": {"type": "Polygon", "coordinates": [[[-88.2207379, 15.7317388], [-88.2207373, 15.7316484], [-88.220644, 15.731649], [-88.2206446, 15.7317393], [-88.2207379, 15.7317388]]]}, "properties": {"kind": "detection", "det_id": "D-SZ-fresh-honduras-2026-09-17-012-145", "zone_id": "SZ-fresh-honduras-2026-09-17-012", "scene_id": "S2B_MSIL2A_20260917T160859_R140_T16PCC_20260917T195052", "datetime": "2026-09-17T16:08:59.024000Z", "n_pixels": 1, "area_m2": 100, "prob_max": 0.7098, "prob_mean": 0.7098, "threshold": 0.63, "in_strip": true, "artifact": null}}, {"type": "Feature", "id": "D-SZ-fresh-honduras-2026-09-17-013-155", "geometry": {"type": "Polygon", "coordinates": [[[-88.1288016, 15.729703], [-88.1288011, 15.7296126], [-88.1287078, 15.7296131], [-88.1287083, 15.7297035], [-88.1288016, 15.729703]]]}, "properties": {"kind": "detection", "det_id": "D-SZ-fresh-honduras-2026-09-17-013-155", "zone_id": "SZ-fresh-honduras-2026-09-17-013", "scene_id": "S2B_MSIL2A_20260917T160859_R140_T16PCC_20260917T195052", "datetime": "2026-09-17T16:08:59.024000Z", "n_pixels": 1, "area_m2": 100, "prob_max": 0.6314, "prob_mean": 0.6314, "threshold": 0.63, "in_strip": true, "artifact": null}}, {"type": "Feature", "id": "D-SZ-fresh-honduras-2026-09-17-013-156", "geometry": {"type": "Polygon", "coordinates": [[[-88.1291719, 15.7291587], [-88.1291709, 15.7289779], [-88.1290776, 15.7289784], [-88.1290786, 15.7291592], [-88.1291719, 15.7291587]]]}, "properties": {"kind": "detection", "det_id": "D-SZ-fresh-honduras-2026-09-17-013-156", "zone_id": "SZ-fresh-honduras-2026-09-17-013", "scene_id": "S2B_MSIL2A_20260917T160859_R140_T16PCC_20260917T195052", "datetime": "2026-09-17T16:08:59.024000Z", "n_pixels": 2, "area_m2": 200, "prob_max": 0.9255, "prob_mean": 0.8078, "threshold": 0.63, "in_strip": true, "artifact": null}}, {"type": "Feature", "id": "D-SZ-fresh-honduras-2026-09-17-013-157", "geometry": {"type": "Polygon", "coordinates": [[[-88.1300053, 15.7279793], [-88.1300048, 15.7278889], [-88.1299115, 15.7278894], [-88.129912, 15.7279798], [-88.1300053, 15.7279793]]]}, "properties": {"kind": "detection", "det_id": "D-SZ-fresh-honduras-2026-09-17-013-157", "zone_id": "SZ-fresh-honduras-2026-09-17-013", "scene_id": "S2B_MSIL2A_20260917T160859_R140_T16PCC_20260917T195052", "datetime": "2026-09-17T16:08:59.024000Z", "n_pixels": 1, "area_m2": 100, "prob_max": 0.9137, "prob_mean": 0.9137, "threshold": 0.63, "in_strip": true, "artifact": null}}, {"type": "Feature", "id": "D-SZ-fresh-honduras-2026-09-17-013-158", "geometry": {"type": "Polygon", "coordinates": [[[-88.1298187, 15.7279803], [-88.1298182, 15.7278899], [-88.1297248, 15.7278904], [-88.1297253, 15.7279808], [-88.1298187, 15.7279803]]]}, "properties": {"kind": "detection", "det_id": "D-SZ-fresh-honduras-2026-09-17-013-158", "zone_id": "SZ-fresh-honduras-2026-09-17-013", "scene_id": "S2B_MSIL2A_20260917T160859_R140_T16PCC_20260917T195052", "datetime": "2026-09-17T16:08:59.024000Z", "n_pixels": 1, "area_m2": 100, "prob_max": 0.9137, "prob_mean": 0.9137, "threshold": 0.63, "in_strip": true, "artifact": null}}, {"type": "Feature", "id": "D-SZ-fresh-honduras-2026-09-17-014-159", "geometry": {"type": "Polygon", "coordinates": [[[-88.2152041, 15.7270695], [-88.2152035, 15.7269791], [-88.2151102, 15.7269796], [-88.2151107, 15.72707], [-88.2152041, 15.7270695]]]}, "properties": {"kind": "detection", "det_id": "D-SZ-fresh-honduras-2026-09-17-014-159", "zone_id": "SZ-fresh-honduras-2026-09-17-014", "scene_id": "S2B_MSIL2A_20260917T160859_R140_T16PCC_20260917T195052", "datetime": "2026-09-17T16:08:59.024000Z", "n_pixels": 1, "area_m2": 100, "prob_max": 0.6784, "prob_mean": 0.6784, "threshold": 0.63, "in_strip": true, "artifact": null}}, {"type": "Feature", "id": "D-SZ-fresh-honduras-2026-09-17-014-165", "geometry": {"type": "Polygon", "coordinates": [[[-88.2179966, 15.7258789], [-88.2179961, 15.7257885], [-88.2179028, 15.725789], [-88.2179033, 15.7258794], [-88.2179966, 15.7258789]]]}, "properties": {"kind": "detection", "det_id": "D-SZ-fresh-honduras-2026-09-17-014-165", "zone_id": "SZ-fresh-honduras-2026-09-17-014", "scene_id": "S2B_MSIL2A_20260917T160859_R140_T16PCC_20260917T195052", "datetime": "2026-09-17T16:08:59.024000Z", "n_pixels": 1, "area_m2": 100, "prob_max": 0.7569, "prob_mean": 0.7569, "threshold": 0.63, "in_strip": true, "artifact": null}}, {"type": "Feature", "id": "D-SZ-fresh-honduras-2026-09-17-014-170", "geometry": {"type": "Polygon", "coordinates": [[[-88.2161217, 15.7244431], [-88.2161211, 15.7243527], [-88.2160278, 15.7243532], [-88.2160284, 15.7244436], [-88.2161217, 15.7244431]]]}, "properties": {"kind": "detection", "det_id": "D-SZ-fresh-honduras-2026-09-17-014-170", "zone_id": "SZ-fresh-honduras-2026-09-17-014", "scene_id": "S2B_MSIL2A_20260917T160859_R140_T16PCC_20260917T195052", "datetime": "2026-09-17T16:08:59.024000Z", "n_pixels": 1, "area_m2": 100, "prob_max": 0.6588, "prob_mean": 0.6588, "threshold": 0.63, "in_strip": true, "artifact": null}}, {"type": "Feature", "id": "D-SZ-fresh-honduras-2026-09-17-014-172", "geometry": {"type": "Polygon", "coordinates": [[[-88.2169594, 15.7240769], [-88.2169588, 15.7239865], [-88.2167722, 15.7239875], [-88.2167727, 15.7240779], [-88.2169594, 15.7240769]]]}, "properties": {"kind": "detection", "det_id": "D-SZ-fresh-honduras-2026-09-17-014-172", "zone_id": "SZ-fresh-honduras-2026-09-17-014", "scene_id": "S2B_MSIL2A_20260917T160859_R140_T16PCC_20260917T195052", "datetime": "2026-09-17T16:08:59.024000Z", "n_pixels": 2, "area_m2": 200, "prob_max": 0.6784, "prob_mean": 0.6647, "threshold": 0.63, "in_strip": true, "artifact": null}}, {"type": "Feature", "id": "D-SZ-fresh-honduras-2026-09-17-015-160", "geometry": {"type": "Polygon", "coordinates": [[[-88.1431606, 15.7273684], [-88.1431601, 15.727278], [-88.1430668, 15.7272785], [-88.1430673, 15.7273689], [-88.1431606, 15.7273684]]]}, "properties": {"kind": "detection", "det_id": "D-SZ-fresh-honduras-2026-09-17-015-160", "zone_id": "SZ-fresh-honduras-2026-09-17-015", "scene_id": "S2B_MSIL2A_20260917T160859_R140_T16PCC_20260917T195052", "datetime": "2026-09-17T16:08:59.024000Z", "n_pixels": 1, "area_m2": 100, "prob_max": 0.7255, "prob_mean": 0.7255, "threshold": 0.63, "in_strip": true, "artifact": null}}, {"type": "Feature", "id": "D-SZ-fresh-honduras-2026-09-17-015-161", "geometry": {"type": "Polygon", "coordinates": [[[-88.142694, 15.7273709], [-88.142693, 15.7271901], [-88.142413, 15.7271916], [-88.1424125, 15.7271012], [-88.1422259, 15.7271022], [-88.1422254, 15.7270118], [-88.1419454, 15.7270132], [-88.1419459, 15.7271036], [-88.1421326, 15.7271026], [-88.1421331, 15.727193], [-88.142413, 15.7271916], [-88.1424135, 15.727282], [-88.1425069, 15.7272815], [-88.1425074, 15.7273719], [-88.142694, 15.7273709]]]}, "properties": {"kind": "detection", "det_id": "D-SZ-fresh-honduras-2026-09-17-015-161", "zone_id": "SZ-fresh-honduras-2026-09-17-015", "scene_id": "S2B_MSIL2A_20260917T160859_R140_T16PCC_20260917T195052", "datetime": "2026-09-17T16:08:59.024000Z", "n_pixels": 11, "area_m2": 1100, "prob_max": 0.9961, "prob_mean": 0.8938, "threshold": 0.63, "in_strip": true, "artifact": null}}, {"type": "Feature", "id": "D-SZ-fresh-honduras-2026-09-17-015-162", "geometry": {"type": "Polygon", "coordinates": [[[-88.1356919, 15.7268651], [-88.1356914, 15.7267747], [-88.1355981, 15.7267752], [-88.1355986, 15.7268656], [-88.1356919, 15.7268651]]]}, "properties": {"kind": "detection", "det_id": "D-SZ-fresh-honduras-2026-09-17-015-162", "zone_id": "SZ-fresh-honduras-2026-09-17-015", "scene_id": "S2B_MSIL2A_20260917T160859_R140_T16PCC_20260917T195052", "datetime": "2026-09-17T16:08:59.024000Z", "n_pixels": 1, "area_m2": 100, "prob_max": 0.9451, "prob_mean": 0.9451, "threshold": 0.63, "in_strip": true, "artifact": null}}, {"type": "Feature", "id": "D-SZ-fresh-honduras-2026-09-17-015-163", "geometry": {"type": "Polygon", "coordinates": [[[-88.1373697, 15.7264948], [-88.1373692, 15.7264044], [-88.1372759, 15.7264049], [-88.1372754, 15.7263145], [-88.137182, 15.726315], [-88.1371825, 15.7264054], [-88.1372759, 15.7264049], [-88.1372764, 15.7264953], [-88.1373697, 15.7264948]]]}, "properties": {"kind": "detection", "det_id": "D-SZ-fresh-honduras-2026-09-17-015-163", "zone_id": "SZ-fresh-honduras-2026-09-17-015", "scene_id": "S2B_MSIL2A_20260917T160859_R140_T16PCC_20260917T195052", "datetime": "2026-09-17T16:08:59.024000Z", "n_pixels": 2, "area_m2": 200, "prob_max": 0.9059, "prob_mean": 0.8451, "threshold": 0.63, "in_strip": true, "artifact": null}}, {"type": "Feature", "id": "D-SZ-fresh-honduras-2026-09-17-015-164", "geometry": {"type": "Polygon", "coordinates": [[[-88.1375558, 15.7264034], [-88.1375553, 15.726313], [-88.137462, 15.7263135], [-88.1374625, 15.7264039], [-88.1375558, 15.7264034]]]}, "properties": {"kind": "detection", "det_id": "D-SZ-fresh-honduras-2026-09-17-015-164", "zone_id": "SZ-fresh-honduras-2026-09-17-015", "scene_id": "S2B_MSIL2A_20260917T160859_R140_T16PCC_20260917T195052", "datetime": "2026-09-17T16:08:59.024000Z", "n_pixels": 1, "area_m2": 100, "prob_max": 0.8431, "prob_mean": 0.8431, "threshold": 0.63, "in_strip": true, "artifact": null}}, {"type": "Feature", "id": "D-SZ-fresh-honduras-2026-09-17-015-166", "geometry": {"type": "Polygon", "coordinates": [[[-88.139795, 15.7263013], [-88.1397945, 15.726211], [-88.1395146, 15.7262124], [-88.1395151, 15.7263028], [-88.139795, 15.7263013]]]}, "properties": {"kind": "detection", "det_id": "D-SZ-fresh-honduras-2026-09-17-015-166", "zone_id": "SZ-fresh-honduras-2026-09-17-015", "scene_id": "S2B_MSIL2A_20260917T160859_R140_T16PCC_20260917T195052", "datetime": "2026-09-17T16:08:59.024000Z", "n_pixels": 3, "area_m2": 300, "prob_max": 0.902, "prob_mean": 0.7908, "threshold": 0.63, "in_strip": true, "artifact": null}}, {"type": "Feature", "id": "D-SZ-fresh-honduras-2026-09-17-015-167", "geometry": {"type": "Polygon", "coordinates": [[[-88.1384885, 15.7263082], [-88.138488, 15.7262178], [-88.1383947, 15.7262183], [-88.1383952, 15.7263087], [-88.1384885, 15.7263082]]]}, "properties": {"kind": "detection", "det_id": "D-SZ-fresh-honduras-2026-09-17-015-167", "zone_id": "SZ-fresh-honduras-2026-09-17-015", "scene_id": "S2B_MSIL2A_20260917T160859_R140_T16PCC_20260917T195052", "datetime": "2026-09-17T16:08:59.024000Z", "n_pixels": 1, "area_m2": 100, "prob_max": 0.9647, "prob_mean": 0.9647, "threshold": 0.63, "in_strip": true, "artifact": null}}]}