{"type": "FeatureCollection", "features": [{"type": "Feature", "id": "SZ-fresh-jakarta-2026-07-17-000", "geometry": {"type": "Polygon", "coordinates": [[[106.613614, -6.003809], [106.613614, -5.776395], [106.386508, -5.776395], [106.386508, -6.003809], [106.613614, -6.003809]]]}, "properties": {"kind": "detection_zone", "layer_kind": "scene_zone", "zone_id": "SZ-fresh-jakarta-2026-07-17-000", "scene_key": "fresh-jakarta-2026-07-17", "scene_kind": "fresh_s2", "scene_id": "S2C_MSIL2A_20260717T025531_R032_T48MXU_20260717T073109", "region": "jakarta", "title": "Джакартский залив · вся вырезка", "mission": "Sentinel-2", "datetime": "2026-07-17T02:55:31.025000Z", "detection_status": "insufficient_data", "status": "insufficient_data", "concentration_status": "unavailable", "wind_high": true, "quantity": {"status": "not_confirmed", "label": "концентрация по снимку не подтверждена", "detail": "перевод площади в штуки не показываем: нет калибровочных пар (см. docs/QUANTITY.md)"}, "flags": ["wind"], "n_cozar_filaments": 0, "verification": "wind", "measured": {"zone_area_km2": 632.461, "suspicious_area_m2": 0, "n_pixels": 0, "n_objects": 0, "water_km2": 621.956, "lwd_m2_km2": null, "lwd_note": "ветер > 5 м/с: по правилу Cózar 2024 эта вода не входит в знаменатель «обследовано» — LWD не считается", "quality": {"valid_water_fraction": 0.989, "cloud_fraction": 0.004, "glint_fraction": 0.0}, "model": {"weights": "weights/lgbm", "file": "weights/lgbm/model.txt", "sha256": "0eeebf43fcccd8c7c07f053b7ec723229d1a3c9b92d12eec1bdb269258c51470", "sha256_short": "0eeebf43fccc", "trained_at": "2026-09-25T01:36:30Z", "threshold": 0.63, "harmonize": "none", "class": "MARIDA Marine Debris (любой плавающий мусор, не только пластик)"}}, "probable": {"prob_max": 0.616, "prob_mean": null, "signs": null, "n_cozar_filaments": 0}, "field_nearby": {"items": [{"source": "ADIS (4TU.ResearchData, судовая камера)", "segment_id": 299932, "ship": "Antsiva", "date": "2022-02-05", "days_from_scene": -1623, "distance_km": 5584.9, "lon": 61.51495, "lat": -28.72991, "n_items": 0, "area_km2": 0.1999, "size_class": "> 5 см", "c_items_km2": 0.0, "ci95_lo": 0.0, "ci95_hi": 18.45, "ci95_method": "точный интервал Пуассона для N, делённый на A", "raw_10cm_items_km2": 0.0, "authors_cal_10cm_items_km2": 0.0, "authors_cal_10cm_lo95": null, "authors_cal_10cm_hi95": null}, {"source": "ADIS (4TU.ResearchData, судовая камера)", "segment_id": 299754, "ship": "Antsiva", "date": "2022-02-03", "days_from_scene": -1625, "distance_km": 5588.4, "lon": 63.022, "lat": -31.55208, "n_items": 0, "area_km2": 0.0769, "size_class": "> 5 см", "c_items_km2": 0.0, "ci95_lo": 0.0, "ci95_hi": 47.95, "ci95_method": "точный интервал Пуассона для N, делённый на A", "raw_10cm_items_km2": 0.0, "authors_cal_10cm_items_km2": 0.0, "authors_cal_10cm_lo95": null, "authors_cal_10cm_hi95": null}, {"source": "ADIS (4TU.ResearchData, судовая камера)", "segment_id": 299753, "ship": "Antsiva", "date": "2022-02-03", "days_from_scene": -1625, "distance_km": 5589.2, "lon": 63.01827, "lat": -31.56061, "n_items": 0, "area_km2": 0.0094, "size_class": "> 5 см", "c_items_km2": 0.0, "ci95_lo": 0.0, "ci95_hi": 390.52, "ci95_method": "точный интервал Пуассона для N, делённый на A", "raw_10cm_items_km2": 0.0, "authors_cal_10cm_items_km2": 0.0, "authors_cal_10cm_lo95": null, "authors_cal_10cm_hi95": null}], "nearest_organizer_sample": {"sample_id": "MPL-0922", "source_id": "S4_BLACK_SEA_DOORS3", "distance_km": 8904.8}, "note": "Измерение ≠ оценка: это независимые полевые счёты C = N/A в другое время и в другом месте; со сценой они не связаны и не калибруют её. Ближайший отрезок ADIS — за 5585 км: только для порядка величин."}}}]}