{"type": "FeatureCollection", "features": [{"type": "Feature", "id": "D-SZ-live-haiti-2021-01-03-001-2", "geometry": {"type": "Polygon", "coordinates": [[[-72.5937713, 18.7705114], [-72.5937726, 18.7704211], [-72.5936778, 18.7704199], [-72.5936765, 18.7705102], [-72.5937713, 18.7705114]]]}, "properties": {"kind": "detection", "det_id": "D-SZ-live-haiti-2021-01-03-001-2", "zone_id": "SZ-live-haiti-2021-01-03-001", "scene_id": "S2A_18QYF_20210103_0_L2A", "datetime": "2021-01-03T15:28:00.932000Z", "n_pixels": 1, "area_m2": 100, "prob_max": 0.8863, "prob_mean": 0.8863, "threshold": 0.63, "in_strip": true, "artifact": null}}, {"type": "Feature", "id": "D-SZ-live-haiti-2021-01-03-001-3", "geometry": {"type": "Polygon", "coordinates": [[[-72.5940608, 18.7701538], [-72.5940634, 18.7699732], [-72.5939686, 18.769972], [-72.5939699, 18.7698817], [-72.5938751, 18.7698805], [-72.5938725, 18.7700611], [-72.5939673, 18.7700623], [-72.593966, 18.7701526], [-72.5940608, 18.7701538]]]}, "properties": {"kind": "detection", "det_id": "D-SZ-live-haiti-2021-01-03-001-3", "zone_id": "SZ-live-haiti-2021-01-03-001", "scene_id": "S2A_18QYF_20210103_0_L2A", "datetime": "2021-01-03T15:28:00.932000Z", "n_pixels": 4, "area_m2": 400, "prob_max": 0.902, "prob_mean": 0.8176, "threshold": 0.63, "in_strip": true, "artifact": null}}, {"type": "Feature", "id": "D-SZ-live-haiti-2021-01-03-002-4", "geometry": {"type": "Polygon", "coordinates": [[[-72.5731311, 18.7485689], [-72.5731324, 18.7484786], [-72.5730376, 18.7484774], [-72.5730389, 18.7483871], [-72.5728493, 18.7483846], [-72.5728506, 18.7482943], [-72.5727558, 18.7482931], [-72.5727545, 18.7483834], [-72.5728493, 18.7483846], [-72.5728467, 18.7485652], [-72.5731311, 18.7485689]]]}, "properties": {"kind": "detection", "det_id": "D-SZ-live-haiti-2021-01-03-002-4", "zone_id": "SZ-live-haiti-2021-01-03-002", "scene_id": "S2A_18QYF_20210103_0_L2A", "datetime": "2021-01-03T15:28:00.932000Z", "n_pixels": 6, "area_m2": 600, "prob_max": 0.9804, "prob_mean": 0.8542, "threshold": 0.63, "in_strip": true, "artifact": null}}, {"type": "Feature", "id": "D-SZ-live-haiti-2021-01-03-002-5", "geometry": {"type": "Polygon", "coordinates": [[[-72.5722871, 18.7479258], [-72.5722884, 18.7478355], [-72.5721936, 18.7478342], [-72.5721923, 18.7479245], [-72.5722871, 18.7479258]]]}, "properties": {"kind": "detection", "det_id": "D-SZ-live-haiti-2021-01-03-002-5", "zone_id": "SZ-live-haiti-2021-01-03-002", "scene_id": "S2A_18QYF_20210103_0_L2A", "datetime": "2021-01-03T15:28:00.932000Z", "n_pixels": 1, "area_m2": 100, "prob_max": 0.6784, "prob_mean": 0.6784, "threshold": 0.63, "in_strip": true, "artifact": null}}, {"type": "Feature", "id": "D-SZ-live-haiti-2021-01-03-003-6", "geometry": {"type": "Polygon", "coordinates": [[[-72.5691851, 18.7460792], [-72.5691864, 18.7459889], [-72.5690916, 18.7459877], [-72.5690929, 18.7458974], [-72.5689981, 18.7458961], [-72.5689968, 18.7459864], [-72.568902, 18.7459852], [-72.5689007, 18.7460755], [-72.5691851, 18.7460792]]]}, "properties": {"kind": "detection", "det_id": "D-SZ-live-haiti-2021-01-03-003-6", "zone_id": "SZ-live-haiti-2021-01-03-003", "scene_id": "S2A_18QYF_20210103_0_L2A", "datetime": "2021-01-03T15:28:00.932000Z", "n_pixels": 4, "area_m2": 400, "prob_max": 1.0, "prob_mean": 0.9598, "threshold": 0.63, "in_strip": true, "artifact": null}}, {"type": "Feature", "id": "D-SZ-live-haiti-2021-01-03-003-7", "geometry": {"type": "Polygon", "coordinates": [[[-72.5682411, 18.745796], [-72.5682437, 18.7456154], [-72.5679593, 18.7456117], [-72.5679581, 18.745702], [-72.5680528, 18.7457032], [-72.5680515, 18.7457935], [-72.5682411, 18.745796]]]}, "properties": {"kind": "detection", "det_id": "D-SZ-live-haiti-2021-01-03-003-7", "zone_id": "SZ-live-haiti-2021-01-03-003", "scene_id": "S2A_18QYF_20210103_0_L2A", "datetime": "2021-01-03T15:28:00.932000Z", "n_pixels": 5, "area_m2": 500, "prob_max": 0.9922, "prob_mean": 0.8204, "threshold": 0.63, "in_strip": true, "artifact": null}}]}