{"type": "FeatureCollection", "features": [{"type": "Feature", "id": "SZ-live-haiti-2021-01-03-001", "geometry": {"type": "Polygon", "coordinates": [[[-72.593752, 18.771866], [-72.594897, 18.771339], [-72.595483, 18.770172], [-72.595212, 18.769175], [-72.594838, 18.768809], [-72.593989, 18.768527], [-72.593419, 18.76861], [-72.592749, 18.769053], [-72.592256, 18.770402], [-72.592527, 18.771308], [-72.593185, 18.771768], [-72.593752, 18.771866]]]}, "properties": {"kind": "detection_zone", "layer_kind": "scene_zone", "zone_id": "SZ-live-haiti-2021-01-03-001", "scene_key": "live-haiti-2021-01-03", "scene_kind": "live", "scene_id": "S2A_18QYF_20210103_0_L2A", "region": "haiti", "title": "Залив Порт-о-Пренс (Гаити) · зона 1", "mission": "Sentinel-2", "datetime": "2021-01-03T15:28:00.932000Z", "detection_status": "detected", "status": "detected", "concentration_status": "unavailable", "quantity": {"status": "not_confirmed", "label": "концентрация по снимку не подтверждена", "detail": "перевод площади в штуки не показываем: нет калибровочных пар (см. docs/QUANTITY.md)"}, "verification": "unverified", "training_scene": "MARIDA (train:5)", "flags": [], "n_cozar_filaments": 0, "crop_file": "crops/SZ-live-haiti-2021-01-03-001.jpg", "wind_high": false, "measured": {"zone_area_km2": 0.092, "suspicious_area_m2": 500, "n_pixels": 5, "n_objects": 2, "water_km2": 0.0921, "lwd_m2_km2": 5428.9, "lwd_note": null, "quality": {"valid_water_fraction": 1.0, "cloud_fraction": 0.0, "glint_fraction": 0.0}, "model": {"weights": "weights/lgbm", "file": "weights/lgbm/model.txt", "sha256": "0eeebf43fcccd8c7c07f053b7ec723229d1a3c9b92d12eec1bdb269258c51470", "sha256_short": "0eeebf43fccc", "trained_at": "2026-09-25T01:35:55Z", "threshold": 0.63, "harmonize": "none", "class": "MARIDA Marine Debris (любой плавающий мусор, не только пластик)"}}, "probable": {"prob_max": 0.902, "prob_mean": 0.831, "signs": {"foam": {"flag": false, "white_ratio_b2_b8": 0.795, "wind10m_ms": 2.28, "rule": "прирост B2 над водой ≥ 0.8 прироста B8 («белый» спектр) или ветер ≥ 7.0 м/с"}, "glint": {"flag": false, "b11_water_median": 0.0007, "glint_share": 0.0, "rule": "медиана B11 воды зоны > 0.01 или ≥ 20 % пикселей зоны — блик (маска качества)"}, "ship": {"flag": false, "share": 0, "bright_target_px_within_500m": 0, "rule": "≥ 30 % пикселей — у яркой цели или кильватера (reports/artifacts.md) или яркая цель с откликом в SWIR (судно, лодка: B11 ≥ 0,015) ближе 500 м"}, "coast": {"flag": false, "land_px_within_300m": 0, "rule": "суша (маска качества) ближе 300 м — прибой, кромка берега"}, "shallow": {"flag": false, "b3_water_zone": 0.0137, "b3_ratio_to_scene_water": 1.38, "rule": "медиана B3 воды зоны ≥ 2× медианы воды снимка и ≥ 0,03 — мелководье или мутная вода"}, "seam": {"flag": false, "share": 0, "rule": "≥ 30 % пикселей — прямая линия вдоль трека/границы яркости (шов)"}, "cloud": {"flag": false, "cloud_fraction": 0.0, "rule": "облака или тени облаков (маска качества) ≥ 20 % зоны"}, "note": "эвристики, не классификатор; на размеченных данных не проверены"}, "n_cozar_filaments": 0}, "field_nearby": {"items": [{"source": "ADIS (4TU.ResearchData, судовая камера)", "segment_id": 416611, "ship": "RV Pelagia", "date": "2023-12-17", "days_from_scene": 1078, "distance_km": 777.4, "lon": -69.62766, "lat": 25.17519, "n_items": 0, "area_km2": 0.4738, "size_class": "> 5 см", "c_items_km2": 0.0, "ci95_lo": 0.0, "ci95_hi": 7.79, "ci95_method": "точный интервал Пуассона для N, делённый на A", "raw_10cm_items_km2": 0.0, "authors_cal_10cm_items_km2": 0.0, "authors_cal_10cm_lo95": null, "authors_cal_10cm_hi95": null}, {"source": "ADIS (4TU.ResearchData, судовая камера)", "segment_id": 416610, "ship": "RV Pelagia", "date": "2023-12-17", "days_from_scene": 1078, "distance_km": 780.5, "lon": -69.55526, "lat": 25.17532, "n_items": 0, "area_km2": 1.015, "size_class": "> 5 см", "c_items_km2": 0.0, "ci95_lo": 0.0, "ci95_hi": 3.63, "ci95_method": "точный интервал Пуассона для N, делённый на A", "raw_10cm_items_km2": 0.0, "authors_cal_10cm_items_km2": 0.0, "authors_cal_10cm_lo95": null, "authors_cal_10cm_hi95": null}, {"source": "ADIS (4TU.ResearchData, судовая камера)", "segment_id": 416609, "ship": "RV Pelagia", "date": "2023-12-17", "days_from_scene": 1078, "distance_km": 786.0, "lon": -69.45806, "lat": 25.18796, "n_items": 0, "area_km2": 1.0152, "size_class": "> 5 см", "c_items_km2": 0.0, "ci95_lo": 0.0, "ci95_hi": 3.63, "ci95_method": "точный интервал Пуассона для N, делённый на A", "raw_10cm_items_km2": 0.0, "authors_cal_10cm_items_km2": 0.0, "authors_cal_10cm_lo95": null, "authors_cal_10cm_hi95": null}], "nearest_organizer_sample": {"sample_id": "MPL-0239", "source_id": "S2_SARGASSO_MSM41", "distance_km": 668.8}, "note": "Измерение ≠ оценка: это независимые полевые счёты C = N/A в другое время и в другом месте; со сценой они не связаны и не калибруют её. Ближайший отрезок ADIS — за 777 км: только для порядка величин."}}}, {"type": "Feature", "id": "SZ-live-haiti-2021-01-03-002", "geometry": {"type": "Polygon", "coordinates": [[[-72.573112, 18.749923], [-72.574257, 18.749396], [-72.574553, 18.748587], [-72.574466, 18.748044], [-72.573157, 18.746763], [-72.572308, 18.746481], [-72.571738, 18.746564], [-72.570873, 18.747366], [-72.570859, 18.748359], [-72.571978, 18.749638], [-72.573112, 18.749923]]]}, "properties": {"kind": "detection_zone", "layer_kind": "scene_zone", "zone_id": "SZ-live-haiti-2021-01-03-002", "scene_key": "live-haiti-2021-01-03", "scene_kind": "live", "scene_id": "S2A_18QYF_20210103_0_L2A", "region": "haiti", "title": "Залив Порт-о-Пренс (Гаити) · зона 2", "mission": "Sentinel-2", "datetime": "2021-01-03T15:28:00.932000Z", "detection_status": "insufficient_data", "status": "insufficient_data", "concentration_status": "unavailable", "quantity": {"status": "not_confirmed", "label": "концентрация по снимку не подтверждена", "detail": "перевод площади в штуки не показываем: нет калибровочных пар (см. docs/QUANTITY.md)"}, "verification": "false_alarm_signs", "training_scene": "MARIDA (train:5)", "flags": ["foam"], "n_cozar_filaments": 0, "crop_file": "crops/SZ-live-haiti-2021-01-03-002.jpg", "wind_high": false, "measured": {"zone_area_km2": 0.105, "suspicious_area_m2": 700, "n_pixels": 7, "n_objects": 2, "water_km2": 0.1066, "lwd_m2_km2": 6566.6, "lwd_note": null, "quality": {"valid_water_fraction": 1.0, "cloud_fraction": 0.0, "glint_fraction": 0.0}, "model": {"weights": "weights/lgbm", "file": "weights/lgbm/model.txt", "sha256": "0eeebf43fcccd8c7c07f053b7ec723229d1a3c9b92d12eec1bdb269258c51470", "sha256_short": "0eeebf43fccc", "trained_at": "2026-09-25T01:35:55Z", "threshold": 0.63, "harmonize": "none", "class": "MARIDA Marine Debris (любой плавающий мусор, не только пластик)"}}, "probable": {"prob_max": 0.98, "prob_mean": 0.829, "signs": {"foam": {"flag": true, "white_ratio_b2_b8": 1.25, "wind10m_ms": 2.28, "rule": "прирост B2 над водой ≥ 0.8 прироста B8 («белый» спектр) или ветер ≥ 7.0 м/с"}, "glint": {"flag": false, "b11_water_median": 0.0008, "glint_share": 0.0, "rule": "медиана B11 воды зоны > 0.01 или ≥ 20 % пикселей зоны — блик (маска качества)"}, "ship": {"flag": false, "share": 0, "bright_target_px_within_500m": 0, "rule": "≥ 30 % пикселей — у яркой цели или кильватера (reports/artifacts.md) или яркая цель с откликом в SWIR (судно, лодка: B11 ≥ 0,015) ближе 500 м"}, "coast": {"flag": false, "land_px_within_300m": 0, "rule": "суша (маска качества) ближе 300 м — прибой, кромка берега"}, "shallow": {"flag": false, "b3_water_zone": 0.0135, "b3_ratio_to_scene_water": 1.36, "rule": "медиана B3 воды зоны ≥ 2× медианы воды снимка и ≥ 0,03 — мелководье или мутная вода"}, "seam": {"flag": false, "share": 0, "rule": "≥ 30 % пикселей — прямая линия вдоль трека/границы яркости (шов)"}, "cloud": {"flag": false, "cloud_fraction": 0.0, "rule": "облака или тени облаков (маска качества) ≥ 20 % зоны"}, "note": "эвристики, не классификатор; на размеченных данных не проверены"}, "n_cozar_filaments": 0}, "field_nearby": {"items": [{"source": "ADIS (4TU.ResearchData, судовая камера)", "segment_id": 416611, "ship": "RV Pelagia", "date": "2023-12-17", "days_from_scene": 1078, "distance_km": 777.4, "lon": -69.62766, "lat": 25.17519, "n_items": 0, "area_km2": 0.4738, "size_class": "> 5 см", "c_items_km2": 0.0, "ci95_lo": 0.0, "ci95_hi": 7.79, "ci95_method": "точный интервал Пуассона для N, делённый на A", "raw_10cm_items_km2": 0.0, "authors_cal_10cm_items_km2": 0.0, "authors_cal_10cm_lo95": null, "authors_cal_10cm_hi95": null}, {"source": "ADIS (4TU.ResearchData, судовая камера)", "segment_id": 416610, "ship": "RV Pelagia", "date": "2023-12-17", "days_from_scene": 1078, "distance_km": 780.5, "lon": -69.55526, "lat": 25.17532, "n_items": 0, "area_km2": 1.015, "size_class": "> 5 см", "c_items_km2": 0.0, "ci95_lo": 0.0, "ci95_hi": 3.63, "ci95_method": "точный интервал Пуассона для N, делённый на A", "raw_10cm_items_km2": 0.0, "authors_cal_10cm_items_km2": 0.0, "authors_cal_10cm_lo95": null, "authors_cal_10cm_hi95": null}, {"source": "ADIS (4TU.ResearchData, судовая камера)", "segment_id": 416609, "ship": "RV Pelagia", "date": "2023-12-17", "days_from_scene": 1078, "distance_km": 786.0, "lon": -69.45806, "lat": 25.18796, "n_items": 0, "area_km2": 1.0152, "size_class": "> 5 см", "c_items_km2": 0.0, "ci95_lo": 0.0, "ci95_hi": 3.63, "ci95_method": "точный интервал Пуассона для N, делённый на A", "raw_10cm_items_km2": 0.0, "authors_cal_10cm_items_km2": 0.0, "authors_cal_10cm_lo95": null, "authors_cal_10cm_hi95": null}], "nearest_organizer_sample": {"sample_id": "MPL-0239", "source_id": "S2_SARGASSO_MSM41", "distance_km": 668.8}, "note": "Измерение ≠ оценка: это независимые полевые счёты C = N/A в другое время и в другом месте; со сценой они не связаны и не калибруют её. Ближайший отрезок ADIS — за 777 км: только для порядка величин."}}}, {"type": "Feature", "id": "SZ-live-haiti-2021-01-03-003", "geometry": {"type": "Polygon", "coordinates": [[[-72.569166, 18.747434], [-72.570023, 18.747174], [-72.570506, 18.746548], [-72.570608, 18.746007], [-72.570335, 18.745191], [-72.569961, 18.744825], [-72.568736, 18.744357], [-72.567979, 18.744257], [-72.567122, 18.744517], [-72.566538, 18.745593], [-72.566809, 18.7465], [-72.56756, 18.747052], [-72.569166, 18.747434]]]}, "properties": {"kind": "detection_zone", "layer_kind": "scene_zone", "zone_id": "SZ-live-haiti-2021-01-03-003", "scene_key": "live-haiti-2021-01-03", "scene_kind": "live", "scene_id": "S2A_18QYF_20210103_0_L2A", "region": "haiti", "title": "Залив Порт-о-Пренс (Гаити) · зона 3", "mission": "Sentinel-2", "datetime": "2021-01-03T15:28:00.932000Z", "detection_status": "insufficient_data", "status": "insufficient_data", "concentration_status": "unavailable", "quantity": {"status": "not_confirmed", "label": "концентрация по снимку не подтверждена", "detail": "перевод площади в штуки не показываем: нет калибровочных пар (см. docs/QUANTITY.md)"}, "verification": "false_alarm_signs", "training_scene": "MARIDA (train:5)", "flags": ["foam"], "n_cozar_filaments": 0, "crop_file": "crops/SZ-live-haiti-2021-01-03-003.jpg", "wind_high": false, "measured": {"zone_area_km2": 0.1118, "suspicious_area_m2": 900, "n_pixels": 9, "n_objects": 2, "water_km2": 0.1107, "lwd_m2_km2": 8130.1, "lwd_note": null, "quality": {"valid_water_fraction": 1.0, "cloud_fraction": 0.0, "glint_fraction": 0.0}, "model": {"weights": "weights/lgbm", "file": "weights/lgbm/model.txt", "sha256": "0eeebf43fcccd8c7c07f053b7ec723229d1a3c9b92d12eec1bdb269258c51470", "sha256_short": "0eeebf43fccc", "trained_at": "2026-09-25T01:35:55Z", "threshold": 0.63, "harmonize": "none", "class": "MARIDA Marine Debris (любой плавающий мусор, не только пластик)"}}, "probable": {"prob_max": 1.0, "prob_mean": 0.882, "signs": {"foam": {"flag": true, "white_ratio_b2_b8": 1.532, "wind10m_ms": 2.28, "rule": "прирост B2 над водой ≥ 0.8 прироста B8 («белый» спектр) или ветер ≥ 7.0 м/с"}, "glint": {"flag": false, "b11_water_median": 0.001, "glint_share": 0.0, "rule": "медиана B11 воды зоны > 0.01 или ≥ 20 % пикселей зоны — блик (маска качества)"}, "ship": {"flag": false, "share": 0, "bright_target_px_within_500m": 0, "rule": "≥ 30 % пикселей — у яркой цели или кильватера (reports/artifacts.md) или яркая цель с откликом в SWIR (судно, лодка: B11 ≥ 0,015) ближе 500 м"}, "coast": {"flag": false, "land_px_within_300m": 0, "rule": "суша (маска качества) ближе 300 м — прибой, кромка берега"}, "shallow": {"flag": false, "b3_water_zone": 0.0137, "b3_ratio_to_scene_water": 1.38, "rule": "медиана B3 воды зоны ≥ 2× медианы воды снимка и ≥ 0,03 — мелководье или мутная вода"}, "seam": {"flag": false, "share": 0, "rule": "≥ 30 % пикселей — прямая линия вдоль трека/границы яркости (шов)"}, "cloud": {"flag": false, "cloud_fraction": 0.0, "rule": "облака или тени облаков (маска качества) ≥ 20 % зоны"}, "note": "эвристики, не классификатор; на размеченных данных не проверены"}, "n_cozar_filaments": 0}, "field_nearby": {"items": [{"source": "ADIS (4TU.ResearchData, судовая камера)", "segment_id": 416611, "ship": "RV Pelagia", "date": "2023-12-17", "days_from_scene": 1078, "distance_km": 777.4, "lon": -69.62766, "lat": 25.17519, "n_items": 0, "area_km2": 0.4738, "size_class": "> 5 см", "c_items_km2": 0.0, "ci95_lo": 0.0, "ci95_hi": 7.79, "ci95_method": "точный интервал Пуассона для N, делённый на A", "raw_10cm_items_km2": 0.0, "authors_cal_10cm_items_km2": 0.0, "authors_cal_10cm_lo95": null, "authors_cal_10cm_hi95": null}, {"source": "ADIS (4TU.ResearchData, судовая камера)", "segment_id": 416610, "ship": "RV Pelagia", "date": "2023-12-17", "days_from_scene": 1078, "distance_km": 780.5, "lon": -69.55526, "lat": 25.17532, "n_items": 0, "area_km2": 1.015, "size_class": "> 5 см", "c_items_km2": 0.0, "ci95_lo": 0.0, "ci95_hi": 3.63, "ci95_method": "точный интервал Пуассона для N, делённый на A", "raw_10cm_items_km2": 0.0, "authors_cal_10cm_items_km2": 0.0, "authors_cal_10cm_lo95": null, "authors_cal_10cm_hi95": null}, {"source": "ADIS (4TU.ResearchData, судовая камера)", "segment_id": 416609, "ship": "RV Pelagia", "date": "2023-12-17", "days_from_scene": 1078, "distance_km": 786.0, "lon": -69.45806, "lat": 25.18796, "n_items": 0, "area_km2": 1.0152, "size_class": "> 5 см", "c_items_km2": 0.0, "ci95_lo": 0.0, "ci95_hi": 3.63, "ci95_method": "точный интервал Пуассона для N, делённый на A", "raw_10cm_items_km2": 0.0, "authors_cal_10cm_items_km2": 0.0, "authors_cal_10cm_lo95": null, "authors_cal_10cm_hi95": null}], "nearest_organizer_sample": {"sample_id": "MPL-0239", "source_id": "S2_SARGASSO_MSM41", "distance_km": 668.8}, "note": "Измерение ≠ оценка: это независимые полевые счёты C = N/A в другое время и в другом месте; со сценой они не связаны и не калибруют её. Ближайший отрезок ADIS — за 777 км: только для порядка величин."}}}]}