{"type": "FeatureCollection", "features": [{"type": "Feature", "id": "D-SZ-fresh-durban-2026-09-01-001-6", "geometry": {"type": "Polygon", "coordinates": [[[31.1903493, -29.7311841], [31.1903476, -29.7312743], [31.190451, -29.7312757], [31.1904526, -29.7311855], [31.1903493, -29.7311841]]]}, "properties": {"kind": "detection", "det_id": "D-SZ-fresh-durban-2026-09-01-001-6", "zone_id": "SZ-fresh-durban-2026-09-01-001", "scene_id": "S2A_MSIL2A_20260901T074031_R092_T36JUN_20260901T142711", "datetime": "2026-09-01T07:40:31.024000Z", "n_pixels": 1, "area_m2": 100, "prob_max": 1.0, "prob_mean": 1.0, "threshold": 0.63, "in_strip": true, "artifact": null}}, {"type": "Feature", "id": "D-SZ-fresh-durban-2026-09-01-001-7", "geometry": {"type": "Polygon", "coordinates": [[[31.1884792, -29.7316999], [31.1884775, -29.7317901], [31.1885809, -29.7317915], [31.1885825, -29.7317013], [31.1884792, -29.7316999]]]}, "properties": {"kind": "detection", "det_id": "D-SZ-fresh-durban-2026-09-01-001-7", "zone_id": "SZ-fresh-durban-2026-09-01-001", "scene_id": "S2A_MSIL2A_20260901T074031_R092_T36JUN_20260901T142711", "datetime": "2026-09-01T07:40:31.024000Z", "n_pixels": 1, "area_m2": 100, "prob_max": 0.8314, "prob_mean": 0.8314, "threshold": 0.63, "in_strip": true, "artifact": null}}, {"type": "Feature", "id": "D-SZ-fresh-durban-2026-09-01-001-8", "geometry": {"type": "Polygon", "coordinates": [[[31.1884759, -29.7318803], [31.1884727, -29.7320607], [31.188576, -29.7320621], [31.1885793, -29.7318817], [31.1884759, -29.7318803]]]}, "properties": {"kind": "detection", "det_id": "D-SZ-fresh-durban-2026-09-01-001-8", "zone_id": "SZ-fresh-durban-2026-09-01-001", "scene_id": "S2A_MSIL2A_20260901T074031_R092_T36JUN_20260901T142711", "datetime": "2026-09-01T07:40:31.024000Z", "n_pixels": 2, "area_m2": 200, "prob_max": 0.8078, "prob_mean": 0.8, "threshold": 0.63, "in_strip": true, "artifact": null}}, {"type": "Feature", "id": "D-SZ-fresh-durban-2026-09-01-001-9", "geometry": {"type": "Polygon", "coordinates": [[[31.1850604, -29.7321042], [31.1850587, -29.7321944], [31.1851621, -29.7321958], [31.1851637, -29.7321056], [31.1850604, -29.7321042]]]}, "properties": {"kind": "detection", "det_id": "D-SZ-fresh-durban-2026-09-01-001-9", "zone_id": "SZ-fresh-durban-2026-09-01-001", "scene_id": "S2A_MSIL2A_20260901T074031_R092_T36JUN_20260901T142711", "datetime": "2026-09-01T07:40:31.024000Z", "n_pixels": 1, "area_m2": 100, "prob_max": 0.6784, "prob_mean": 0.6784, "threshold": 0.63, "in_strip": true, "artifact": null}}, {"type": "Feature", "id": "D-SZ-fresh-durban-2026-09-01-001-12", "geometry": {"type": "Polygon", "coordinates": [[[31.1865057, -29.7322142], [31.1865041, -29.7323044], [31.1866074, -29.7323058], [31.186609, -29.7322156], [31.1865057, -29.7322142]]]}, "properties": {"kind": "detection", "det_id": "D-SZ-fresh-durban-2026-09-01-001-12", "zone_id": "SZ-fresh-durban-2026-09-01-001", "scene_id": "S2A_MSIL2A_20260901T074031_R092_T36JUN_20260901T142711", "datetime": "2026-09-01T07:40:31.024000Z", "n_pixels": 1, "area_m2": 100, "prob_max": 0.8706, "prob_mean": 0.8706, "threshold": 0.63, "in_strip": true, "artifact": null}}, {"type": "Feature", "id": "D-SZ-fresh-durban-2026-09-01-001-13", "geometry": {"type": "Polygon", "coordinates": [[[31.1870176, -29.7324919], [31.187016, -29.7325821], [31.1871193, -29.7325835], [31.187121, -29.7324933], [31.1870176, -29.7324919]]]}, "properties": {"kind": "detection", "det_id": "D-SZ-fresh-durban-2026-09-01-001-13", "zone_id": "SZ-fresh-durban-2026-09-01-001", "scene_id": "S2A_MSIL2A_20260901T074031_R092_T36JUN_20260901T142711", "datetime": "2026-09-01T07:40:31.024000Z", "n_pixels": 1, "area_m2": 100, "prob_max": 0.8235, "prob_mean": 0.8235, "threshold": 0.63, "in_strip": true, "artifact": null}}, {"type": "Feature", "id": "D-SZ-fresh-durban-2026-09-01-001-15", "geometry": {"type": "Polygon", "coordinates": [[[31.1890798, -29.7327908], [31.1890782, -29.732881], [31.1891816, -29.7328825], [31.1891832, -29.7327922], [31.1890798, -29.7327908]]]}, "properties": {"kind": "detection", "det_id": "D-SZ-fresh-durban-2026-09-01-001-15", "zone_id": "SZ-fresh-durban-2026-09-01-001", "scene_id": "S2A_MSIL2A_20260901T074031_R092_T36JUN_20260901T142711", "datetime": "2026-09-01T07:40:31.024000Z", "n_pixels": 1, "area_m2": 100, "prob_max": 0.9725, "prob_mean": 0.9725, "threshold": 0.63, "in_strip": true, "artifact": null}}, {"type": "Feature", "id": "D-SZ-fresh-durban-2026-09-01-001-16", "geometry": {"type": "Polygon", "coordinates": [[[31.1861664, -29.7338336], [31.1861648, -29.7339239], [31.1862681, -29.7339253], [31.1862698, -29.7338351], [31.1861664, -29.7338336]]]}, "properties": {"kind": "detection", "det_id": "D-SZ-fresh-durban-2026-09-01-001-16", "zone_id": "SZ-fresh-durban-2026-09-01-001", "scene_id": "S2A_MSIL2A_20260901T074031_R092_T36JUN_20260901T142711", "datetime": "2026-09-01T07:40:31.024000Z", "n_pixels": 1, "area_m2": 100, "prob_max": 0.6667, "prob_mean": 0.6667, "threshold": 0.63, "in_strip": true, "artifact": null}}, {"type": "Feature", "id": "D-SZ-fresh-durban-2026-09-01-001-17", "geometry": {"type": "Polygon", "coordinates": [[[31.1847178, -29.733904], [31.1847146, -29.7340844], [31.1848179, -29.7340858], [31.1848212, -29.7339054], [31.1847178, -29.733904]]]}, "properties": {"kind": "detection", "det_id": "D-SZ-fresh-durban-2026-09-01-001-17", "zone_id": "SZ-fresh-durban-2026-09-01-001", "scene_id": "S2A_MSIL2A_20260901T074031_R092_T36JUN_20260901T142711", "datetime": "2026-09-01T07:40:31.024000Z", "n_pixels": 2, "area_m2": 200, "prob_max": 0.9765, "prob_mean": 0.8608, "threshold": 0.63, "in_strip": true, "artifact": null}}, {"type": "Feature", "id": "D-SZ-fresh-durban-2026-09-01-001-18", "geometry": {"type": "Polygon", "coordinates": [[[31.1863585, -29.7346483], [31.1863569, -29.7347385], [31.1864602, -29.7347399], [31.1864619, -29.7346497], [31.1863585, -29.7346483]]]}, "properties": {"kind": "detection", "det_id": "D-SZ-fresh-durban-2026-09-01-001-18", "zone_id": "SZ-fresh-durban-2026-09-01-001", "scene_id": "S2A_MSIL2A_20260901T074031_R092_T36JUN_20260901T142711", "datetime": "2026-09-01T07:40:31.024000Z", "n_pixels": 1, "area_m2": 100, "prob_max": 0.9765, "prob_mean": 0.9765, "threshold": 0.63, "in_strip": true, "artifact": null}}, {"type": "Feature", "id": "D-SZ-fresh-durban-2026-09-01-001-20", "geometry": {"type": "Polygon", "coordinates": [[[31.1855105, -29.7358096], [31.1855089, -29.7358998], [31.1856123, -29.7359013], [31.1856139, -29.7358111], [31.1855105, -29.7358096]]]}, "properties": {"kind": "detection", "det_id": "D-SZ-fresh-durban-2026-09-01-001-20", "zone_id": "SZ-fresh-durban-2026-09-01-001", "scene_id": "S2A_MSIL2A_20260901T074031_R092_T36JUN_20260901T142711", "datetime": "2026-09-01T07:40:31.024000Z", "n_pixels": 1, "area_m2": 100, "prob_max": 0.9373, "prob_mean": 0.9373, "threshold": 0.63, "in_strip": true, "artifact": null}}, {"type": "Feature", "id": "D-SZ-fresh-durban-2026-09-01-001-21", "geometry": {"type": "Polygon", "coordinates": [[[31.1872611, -29.7361945], [31.1872595, -29.7362847], [31.1873629, -29.7362862], [31.1873645, -29.736196], [31.1872611, -29.7361945]]]}, "properties": {"kind": "detection", "det_id": "D-SZ-fresh-durban-2026-09-01-001-21", "zone_id": "SZ-fresh-durban-2026-09-01-001", "scene_id": "S2A_MSIL2A_20260901T074031_R092_T36JUN_20260901T142711", "datetime": "2026-09-01T07:40:31.024000Z", "n_pixels": 1, "area_m2": 100, "prob_max": 0.9333, "prob_mean": 0.9333, "threshold": 0.63, "in_strip": true, "artifact": null}}, {"type": "Feature", "id": "D-SZ-fresh-durban-2026-09-01-001-24", "geometry": {"type": "Polygon", "coordinates": [[[31.1873483, -29.737098], [31.1873467, -29.7371882], [31.18745, -29.7371896], [31.1874516, -29.7370994], [31.1873483, -29.737098]]]}, "properties": {"kind": "detection", "det_id": "D-SZ-fresh-durban-2026-09-01-001-24", "zone_id": "SZ-fresh-durban-2026-09-01-001", "scene_id": "S2A_MSIL2A_20260901T074031_R092_T36JUN_20260901T142711", "datetime": "2026-09-01T07:40:31.024000Z", "n_pixels": 1, "area_m2": 100, "prob_max": 0.698, "prob_mean": 0.698, "threshold": 0.63, "in_strip": true, "artifact": null}}, {"type": "Feature", "id": "D-SZ-fresh-durban-2026-09-01-001-27", "geometry": {"type": "Polygon", "coordinates": [[[31.1862822, -29.7388879], [31.1862806, -29.7389781], [31.186384, -29.7389795], [31.1863856, -29.7388893], [31.1862822, -29.7388879]]]}, "properties": {"kind": "detection", "det_id": "D-SZ-fresh-durban-2026-09-01-001-27", "zone_id": "SZ-fresh-durban-2026-09-01-001", "scene_id": "S2A_MSIL2A_20260901T074031_R092_T36JUN_20260901T142711", "datetime": "2026-09-01T07:40:31.024000Z", "n_pixels": 1, "area_m2": 100, "prob_max": 1.0, "prob_mean": 1.0, "threshold": 0.63, "in_strip": true, "artifact": null}}, {"type": "Feature", "id": "D-SZ-fresh-durban-2026-09-01-002-38", "geometry": {"type": "Polygon", "coordinates": [[[31.1368711, -29.74966], [31.1368661, -29.7499306], [31.1369695, -29.749932], [31.1369745, -29.7496614], [31.1368711, -29.74966]]]}, "properties": {"kind": "detection", "det_id": "D-SZ-fresh-durban-2026-09-01-002-38", "zone_id": "SZ-fresh-durban-2026-09-01-002", "scene_id": "S2A_MSIL2A_20260901T074031_R092_T36JUN_20260901T142711", "datetime": "2026-09-01T07:40:31.024000Z", "n_pixels": 3, "area_m2": 300, "prob_max": 1.0, "prob_mean": 0.881, "threshold": 0.63, "in_strip": true, "artifact": null}}, {"type": "Feature", "id": "D-SZ-fresh-durban-2026-09-01-002-41", "geometry": {"type": "Polygon", "coordinates": [[[31.1399506, -29.7508762], [31.1399489, -29.7509664], [31.1400523, -29.7509679], [31.140054, -29.7508777], [31.1399506, -29.7508762]]]}, "properties": {"kind": "detection", "det_id": "D-SZ-fresh-durban-2026-09-01-002-41", "zone_id": "SZ-fresh-durban-2026-09-01-002", "scene_id": "S2A_MSIL2A_20260901T074031_R092_T36JUN_20260901T142711", "datetime": "2026-09-01T07:40:31.024000Z", "n_pixels": 1, "area_m2": 100, "prob_max": 0.7686, "prob_mean": 0.7686, "threshold": 0.63, "in_strip": true, "artifact": null}}, {"type": "Feature", "id": "D-SZ-fresh-durban-2026-09-01-002-43", "geometry": {"type": "Polygon", "coordinates": [[[31.1401507, -29.7512399], [31.140149, -29.7513301], [31.1402524, -29.7513316], [31.140254, -29.7512414], [31.1401507, -29.7512399]]]}, "properties": {"kind": "detection", "det_id": "D-SZ-fresh-durban-2026-09-01-002-43", "zone_id": "SZ-fresh-durban-2026-09-01-002", "scene_id": "S2A_MSIL2A_20260901T074031_R092_T36JUN_20260901T142711", "datetime": "2026-09-01T07:40:31.024000Z", "n_pixels": 1, "area_m2": 100, "prob_max": 0.6941, "prob_mean": 0.6941, "threshold": 0.63, "in_strip": true, "artifact": null}}, {"type": "Feature", "id": "D-SZ-fresh-durban-2026-09-01-002-46", "geometry": {"type": "Polygon", "coordinates": [[[31.1376631, -29.7515658], [31.1376614, -29.751656], [31.1377648, -29.7516575], [31.1377664, -29.7515673], [31.1376631, -29.7515658]]]}, "properties": {"kind": "detection", "det_id": "D-SZ-fresh-durban-2026-09-01-002-46", "zone_id": "SZ-fresh-durban-2026-09-01-002", "scene_id": "S2A_MSIL2A_20260901T074031_R092_T36JUN_20260901T142711", "datetime": "2026-09-01T07:40:31.024000Z", "n_pixels": 1, "area_m2": 100, "prob_max": 0.9373, "prob_mean": 0.9373, "threshold": 0.63, "in_strip": true, "artifact": null}}, {"type": "Feature", "id": "D-SZ-fresh-durban-2026-09-01-003-39", "geometry": {"type": "Polygon", "coordinates": [[[31.1496774, -29.7504713], [31.1496758, -29.7505615], [31.1498825, -29.7505644], [31.1498842, -29.7504742], [31.1496774, -29.7504713]]]}, "properties": {"kind": "detection", "det_id": "D-SZ-fresh-durban-2026-09-01-003-39", "zone_id": "SZ-fresh-durban-2026-09-01-003", "scene_id": "S2A_MSIL2A_20260901T074031_R092_T36JUN_20260901T142711", "datetime": "2026-09-01T07:40:31.024000Z", "n_pixels": 2, "area_m2": 200, "prob_max": 0.8353, "prob_mean": 0.7373, "threshold": 0.63, "in_strip": true, "artifact": null}}, {"type": "Feature", "id": "D-SZ-fresh-durban-2026-09-01-003-50", "geometry": {"type": "Polygon", "coordinates": [[[31.1492175, -29.7529912], [31.1492142, -29.7531716], [31.1493176, -29.753173], [31.1493209, -29.7529926], [31.1492175, -29.7529912]]]}, "properties": {"kind": "detection", "det_id": "D-SZ-fresh-durban-2026-09-01-003-50", "zone_id": "SZ-fresh-durban-2026-09-01-003", "scene_id": "S2A_MSIL2A_20260901T074031_R092_T36JUN_20260901T142711", "datetime": "2026-09-01T07:40:31.024000Z", "n_pixels": 2, "area_m2": 200, "prob_max": 0.9961, "prob_mean": 0.9863, "threshold": 0.63, "in_strip": true, "artifact": null}}, {"type": "Feature", "id": "D-SZ-fresh-durban-2026-09-01-003-53", "geometry": {"type": "Polygon", "coordinates": [[[31.1514785, -29.7537446], [31.1514769, -29.7538348], [31.1515802, -29.7538362], [31.1515819, -29.753746], [31.1514785, -29.7537446]]]}, "properties": {"kind": "detection", "det_id": "D-SZ-fresh-durban-2026-09-01-003-53", "zone_id": "SZ-fresh-durban-2026-09-01-003", "scene_id": "S2A_MSIL2A_20260901T074031_R092_T36JUN_20260901T142711", "datetime": "2026-09-01T07:40:31.024000Z", "n_pixels": 1, "area_m2": 100, "prob_max": 0.6667, "prob_mean": 0.6667, "threshold": 0.63, "in_strip": true, "artifact": null}}, {"type": "Feature", "id": "D-SZ-fresh-durban-2026-09-01-004-40", "geometry": {"type": "Polygon", "coordinates": [[[31.1911267, -29.7512251], [31.1911251, -29.7513153], [31.1913318, -29.7513181], [31.1913334, -29.7512279], [31.1911267, -29.7512251]]]}, "properties": {"kind": "detection", "det_id": "D-SZ-fresh-durban-2026-09-01-004-40", "zone_id": "SZ-fresh-durban-2026-09-01-004", "scene_id": "S2A_MSIL2A_20260901T074031_R092_T36JUN_20260901T142711", "datetime": "2026-09-01T07:40:31.024000Z", "n_pixels": 2, "area_m2": 200, "prob_max": 1.0, "prob_mean": 0.9549, "threshold": 0.63, "in_strip": true, "artifact": null}}, {"type": "Feature", "id": "D-SZ-fresh-durban-2026-09-01-004-42", "geometry": {"type": "Polygon", "coordinates": [[[31.1914271, -29.7517705], [31.1914255, -29.7518607], [31.1915288, -29.7518621], [31.1915305, -29.7517719], [31.1914271, -29.7517705]]]}, "properties": {"kind": "detection", "det_id": "D-SZ-fresh-durban-2026-09-01-004-42", "zone_id": "SZ-fresh-durban-2026-09-01-004", "scene_id": "S2A_MSIL2A_20260901T074031_R092_T36JUN_20260901T142711", "datetime": "2026-09-01T07:40:31.024000Z", "n_pixels": 1, "area_m2": 100, "prob_max": 0.9569, "prob_mean": 0.9569, "threshold": 0.63, "in_strip": true, "artifact": null}}, {"type": "Feature", "id": "D-SZ-fresh-durban-2026-09-01-004-45", "geometry": {"type": "Polygon", "coordinates": [[[31.1931764, -29.7522456], [31.1931747, -29.7523358], [31.1930714, -29.7523344], [31.1930698, -29.7524246], [31.1931731, -29.752426], [31.1931747, -29.7523358], [31.1932781, -29.7523372], [31.1932797, -29.752247], [31.1931764, -29.7522456]]]}, "properties": {"kind": "detection", "det_id": "D-SZ-fresh-durban-2026-09-01-004-45", "zone_id": "SZ-fresh-durban-2026-09-01-004", "scene_id": "S2A_MSIL2A_20260901T074031_R092_T36JUN_20260901T142711", "datetime": "2026-09-01T07:40:31.024000Z", "n_pixels": 2, "area_m2": 200, "prob_max": 0.9608, "prob_mean": 0.9039, "threshold": 0.63, "in_strip": true, "artifact": null}}, {"type": "Feature", "id": "D-SZ-fresh-durban-2026-09-01-004-47", "geometry": {"type": "Polygon", "coordinates": [[[31.1931699, -29.7526064], [31.1931683, -29.7526966], [31.1932716, -29.752698], [31.1932733, -29.7526078], [31.1931699, -29.7526064]]]}, "properties": {"kind": "detection", "det_id": "D-SZ-fresh-durban-2026-09-01-004-47", "zone_id": "SZ-fresh-durban-2026-09-01-004", "scene_id": "S2A_MSIL2A_20260901T074031_R092_T36JUN_20260901T142711", "datetime": "2026-09-01T07:40:31.024000Z", "n_pixels": 1, "area_m2": 100, "prob_max": 0.6627, "prob_mean": 0.6627, "threshold": 0.63, "in_strip": true, "artifact": null}}, {"type": "Feature", "id": "D-SZ-fresh-durban-2026-09-01-005-101", "geometry": {"type": "Polygon", "coordinates": [[[31.0738423, -29.8068609], [31.0738388, -29.8070412], [31.0739422, -29.8070428], [31.0739457, -29.8068624], [31.0738423, -29.8068609]]]}, "properties": {"kind": "detection", "det_id": "D-SZ-fresh-durban-2026-09-01-005-101", "zone_id": "SZ-fresh-durban-2026-09-01-005", "scene_id": "S2A_MSIL2A_20260901T074031_R092_T36JUN_20260901T142711", "datetime": "2026-09-01T07:40:31.024000Z", "n_pixels": 2, "area_m2": 200, "prob_max": 0.6784, "prob_mean": 0.6706, "threshold": 0.63, "in_strip": true, "artifact": null}}, {"type": "Feature", "id": "D-SZ-fresh-durban-2026-09-01-005-102", "geometry": {"type": "Polygon", "coordinates": [[[31.0710256, -29.8080829], [31.0710238, -29.8081731], [31.0711273, -29.8081746], [31.071129, -29.8080844], [31.0710256, -29.8080829]]]}, "properties": {"kind": "detection", "det_id": "D-SZ-fresh-durban-2026-09-01-005-102", "zone_id": "SZ-fresh-durban-2026-09-01-005", "scene_id": "S2A_MSIL2A_20260901T074031_R092_T36JUN_20260901T142711", "datetime": "2026-09-01T07:40:31.024000Z", "n_pixels": 1, "area_m2": 100, "prob_max": 0.9098, "prob_mean": 0.9098, "threshold": 0.63, "in_strip": true, "artifact": null}}, {"type": "Feature", "id": "D-SZ-fresh-durban-2026-09-01-005-103", "geometry": {"type": "Polygon", "coordinates": [[[31.0755711, -29.8084198], [31.0755694, -29.80851], [31.0756728, -29.8085115], [31.0756746, -29.8084213], [31.0755711, -29.8084198]]]}, "properties": {"kind": "detection", "det_id": "D-SZ-fresh-durban-2026-09-01-005-103", "zone_id": "SZ-fresh-durban-2026-09-01-005", "scene_id": "S2A_MSIL2A_20260901T074031_R092_T36JUN_20260901T142711", "datetime": "2026-09-01T07:40:31.024000Z", "n_pixels": 1, "area_m2": 100, "prob_max": 0.8275, "prob_mean": 0.8275, "threshold": 0.63, "in_strip": true, "artifact": null}}, {"type": "Feature", "id": "D-SZ-fresh-durban-2026-09-01-005-105", "geometry": {"type": "Polygon", "coordinates": [[[31.075971, -29.8091474], [31.0759693, -29.8092376], [31.0760727, -29.8092391], [31.0760744, -29.8091489], [31.075971, -29.8091474]]]}, "properties": {"kind": "detection", "det_id": "D-SZ-fresh-durban-2026-09-01-005-105", "zone_id": "SZ-fresh-durban-2026-09-01-005", "scene_id": "S2A_MSIL2A_20260901T074031_R092_T36JUN_20260901T142711", "datetime": "2026-09-01T07:40:31.024000Z", "n_pixels": 1, "area_m2": 100, "prob_max": 0.6588, "prob_mean": 0.6588, "threshold": 0.63, "in_strip": true, "artifact": null}}, {"type": "Feature", "id": "D-SZ-fresh-durban-2026-09-01-006-123", "geometry": {"type": "Polygon", "coordinates": [[[31.1617135, -29.8386989], [31.1617086, -29.8389695], [31.1619155, -29.8389724], [31.1619171, -29.8388822], [31.1618137, -29.8388808], [31.161817, -29.8387004], [31.1617135, -29.8386989]]]}, "properties": {"kind": "detection", "det_id": "D-SZ-fresh-durban-2026-09-01-006-123", "zone_id": "SZ-fresh-durban-2026-09-01-006", "scene_id": "S2A_MSIL2A_20260901T074031_R092_T36JUN_20260901T142711", "datetime": "2026-09-01T07:40:31.024000Z", "n_pixels": 4, "area_m2": 400, "prob_max": 0.9294, "prob_mean": 0.7922, "threshold": 0.63, "in_strip": true, "artifact": null}}, {"type": "Feature", "id": "D-SZ-fresh-durban-2026-09-01-006-124", "geometry": {"type": "Polygon", "coordinates": [[[31.1602551, -29.83922], [31.1602535, -29.8393102], [31.1604604, -29.8393131], [31.160462, -29.8392229], [31.1602551, -29.83922]]]}, "properties": {"kind": "detection", "det_id": "D-SZ-fresh-durban-2026-09-01-006-124", "zone_id": "SZ-fresh-durban-2026-09-01-006", "scene_id": "S2A_MSIL2A_20260901T074031_R092_T36JUN_20260901T142711", "datetime": "2026-09-01T07:40:31.024000Z", "n_pixels": 2, "area_m2": 200, "prob_max": 0.898, "prob_mean": 0.8686, "threshold": 0.63, "in_strip": true, "artifact": null}}, {"type": "Feature", "id": "D-SZ-fresh-durban-2026-09-01-006-125", "geometry": {"type": "Polygon", "coordinates": [[[31.1626298, -29.8395237], [31.1626282, -29.8396139], [31.1627316, -29.8396154], [31.1627333, -29.8395252], [31.1626298, -29.8395237]]]}, "properties": {"kind": "detection", "det_id": "D-SZ-fresh-durban-2026-09-01-006-125", "zone_id": "SZ-fresh-durban-2026-09-01-006", "scene_id": "S2A_MSIL2A_20260901T074031_R092_T36JUN_20260901T142711", "datetime": "2026-09-01T07:40:31.024000Z", "n_pixels": 1, "area_m2": 100, "prob_max": 0.8118, "prob_mean": 0.8118, "threshold": 0.63, "in_strip": true, "artifact": null}}, {"type": "Feature", "id": "D-SZ-fresh-durban-2026-09-01-006-126", "geometry": {"type": "Polygon", "coordinates": [[[31.160429, -29.8410269], [31.1604273, -29.8411171], [31.1606342, -29.84112], [31.1606359, -29.8410298], [31.160429, -29.8410269]]]}, "properties": {"kind": "detection", "det_id": "D-SZ-fresh-durban-2026-09-01-006-126", "zone_id": "SZ-fresh-durban-2026-09-01-006", "scene_id": "S2A_MSIL2A_20260901T074031_R092_T36JUN_20260901T142711", "datetime": "2026-09-01T07:40:31.024000Z", "n_pixels": 2, "area_m2": 200, "prob_max": 0.9529, "prob_mean": 0.9412, "threshold": 0.63, "in_strip": true, "artifact": null}}, {"type": "Feature", "id": "D-SZ-fresh-durban-2026-09-01-007-148", "geometry": {"type": "Polygon", "coordinates": [[[31.013974, -29.8732791], [31.0139722, -29.8733693], [31.0137652, -29.8733662], [31.0137634, -29.8734564], [31.0135565, -29.8734533], [31.0135529, -29.8736337], [31.0138634, -29.8736383], [31.0138651, -29.8735482], [31.0139686, -29.8735497], [31.0139704, -29.8734595], [31.0140739, -29.8734611], [31.0140775, -29.8732807], [31.013974, -29.8732791]]]}, "properties": {"kind": "detection", "det_id": "D-SZ-fresh-durban-2026-09-01-007-148", "zone_id": "SZ-fresh-durban-2026-09-01-007", "scene_id": "S2A_MSIL2A_20260901T074031_R092_T36JUN_20260901T142711", "datetime": "2026-09-01T07:40:31.024000Z", "n_pixels": 11, "area_m2": 1100, "prob_max": 0.9882, "prob_mean": 0.8592, "threshold": 0.63, "in_strip": true, "artifact": "seam"}}, {"type": "Feature", "id": "D-SZ-fresh-durban-2026-09-01-007-149", "geometry": {"type": "Polygon", "coordinates": [[[31.0131407, -29.8735372], [31.0131389, -29.8736274], [31.0132424, -29.873629], [31.0132442, -29.8735388], [31.0131407, -29.8735372]]]}, "properties": {"kind": "detection", "det_id": "D-SZ-fresh-durban-2026-09-01-007-149", "zone_id": "SZ-fresh-durban-2026-09-01-007", "scene_id": "S2A_MSIL2A_20260901T074031_R092_T36JUN_20260901T142711", "datetime": "2026-09-01T07:40:31.024000Z", "n_pixels": 1, "area_m2": 100, "prob_max": 0.7373, "prob_mean": 0.7373, "threshold": 0.63, "in_strip": true, "artifact": null}}, {"type": "Feature", "id": "D-SZ-fresh-durban-2026-09-01-007-150", "geometry": {"type": "Polygon", "coordinates": [[[31.0163453, -29.8737659], [31.0163435, -29.8738561], [31.016447, -29.8738577], [31.0164488, -29.8737675], [31.0163453, -29.8737659]]]}, "properties": {"kind": "detection", "det_id": "D-SZ-fresh-durban-2026-09-01-007-150", "zone_id": "SZ-fresh-durban-2026-09-01-007", "scene_id": "S2A_MSIL2A_20260901T074031_R092_T36JUN_20260901T142711", "datetime": "2026-09-01T07:40:31.024000Z", "n_pixels": 1, "area_m2": 100, "prob_max": 0.7137, "prob_mean": 0.7137, "threshold": 0.63, "in_strip": true, "artifact": null}}, {"type": "Feature", "id": "D-SZ-fresh-durban-2026-09-01-007-151", "geometry": {"type": "Polygon", "coordinates": [[[31.0162365, -29.8740349], [31.0162347, -29.8741251], [31.0163382, -29.8741267], [31.01634, -29.8740365], [31.0162365, -29.8740349]]]}, "properties": {"kind": "detection", "det_id": "D-SZ-fresh-durban-2026-09-01-007-151", "zone_id": "SZ-fresh-durban-2026-09-01-007", "scene_id": "S2A_MSIL2A_20260901T074031_R092_T36JUN_20260901T142711", "datetime": "2026-09-01T07:40:31.024000Z", "n_pixels": 1, "area_m2": 100, "prob_max": 0.698, "prob_mean": 0.698, "threshold": 0.63, "in_strip": true, "artifact": null}}, {"type": "Feature", "id": "D-SZ-fresh-durban-2026-09-01-007-153", "geometry": {"type": "Polygon", "coordinates": [[[31.0145699, -29.8745512], [31.0145663, -29.8747316], [31.0146698, -29.8747331], [31.014668, -29.8748233], [31.014875, -29.8748264], [31.0148768, -29.8747362], [31.0149803, -29.8747378], [31.0149821, -29.8746476], [31.0150856, -29.8746492], [31.0150874, -29.874559], [31.0149839, -29.8745574], [31.0149821, -29.8746476], [31.0148786, -29.8746461], [31.0148804, -29.8745559], [31.0145699, -29.8745512]]]}, "properties": {"kind": "detection", "det_id": "D-SZ-fresh-durban-2026-09-01-007-153", "zone_id": "SZ-fresh-durban-2026-09-01-007", "scene_id": "S2A_MSIL2A_20260901T074031_R092_T36JUN_20260901T142711", "datetime": "2026-09-01T07:40:31.024000Z", "n_pixels": 10, "area_m2": 1000, "prob_max": 0.9412, "prob_mean": 0.8635, "threshold": 0.63, "in_strip": true, "artifact": "seam"}}, {"type": "Feature", "id": "D-SZ-fresh-durban-2026-09-01-008-163", "geometry": {"type": "Polygon", "coordinates": [[[31.0083062, -29.8823961], [31.0083008, -29.8826667], [31.0084043, -29.8826683], [31.0084025, -29.8827585], [31.0086095, -29.8827616], [31.0086113, -29.8826714], [31.0087148, -29.882673], [31.0087166, -29.8825828], [31.0086131, -29.8825812], [31.0086149, -29.882491], [31.0085114, -29.8824895], [31.0085132, -29.8823993], [31.0083062, -29.8823961]]]}, "properties": {"kind": "detection", "det_id": "D-SZ-fresh-durban-2026-09-01-008-163", "zone_id": "SZ-fresh-durban-2026-09-01-008", "scene_id": "S2A_MSIL2A_20260901T074031_R092_T36JUN_20260901T142711", "datetime": "2026-09-01T07:40:31.024000Z", "n_pixels": 11, "area_m2": 1100, "prob_max": 0.9725, "prob_mean": 0.8246, "threshold": 0.63, "in_strip": true, "artifact": "seam"}}, {"type": "Feature", "id": "D-SZ-fresh-durban-2026-09-01-008-166", "geometry": {"type": "Polygon", "coordinates": [[[31.0080669, -29.8840165], [31.0080526, -29.884738], [31.0081561, -29.8847396], [31.0081525, -29.88492], [31.008256, -29.8849216], [31.0082614, -29.884651], [31.0081579, -29.8846494], [31.0081704, -29.8840181], [31.0080669, -29.8840165]]]}, "properties": {"kind": "detection", "det_id": "D-SZ-fresh-durban-2026-09-01-008-166", "zone_id": "SZ-fresh-durban-2026-09-01-008", "scene_id": "S2A_MSIL2A_20260901T074031_R092_T36JUN_20260901T142711", "datetime": "2026-09-01T07:40:31.024000Z", "n_pixels": 11, "area_m2": 1100, "prob_max": 0.9843, "prob_mean": 0.8795, "threshold": 0.63, "in_strip": true, "artifact": "ship"}}, {"type": "Feature", "id": "D-SZ-fresh-durban-2026-09-01-009-175", "geometry": {"type": "Polygon", "coordinates": [[[31.1594123, -29.8964104], [31.1594106, -29.8965006], [31.1596177, -29.8965035], [31.1596193, -29.8964133], [31.1594123, -29.8964104]]]}, "properties": {"kind": "detection", "det_id": "D-SZ-fresh-durban-2026-09-01-009-175", "zone_id": "SZ-fresh-durban-2026-09-01-009", "scene_id": "S2A_MSIL2A_20260901T074031_R092_T36JUN_20260901T142711", "datetime": "2026-09-01T07:40:31.024000Z", "n_pixels": 2, "area_m2": 200, "prob_max": 0.9961, "prob_mean": 0.9745, "threshold": 0.63, "in_strip": true, "artifact": null}}, {"type": "Feature", "id": "D-SZ-fresh-durban-2026-09-01-009-176", "geometry": {"type": "Polygon", "coordinates": [[[31.159616, -29.8965937], [31.1596143, -29.8966839], [31.1597179, -29.8966854], [31.1597195, -29.8965952], [31.159616, -29.8965937]]]}, "properties": {"kind": "detection", "det_id": "D-SZ-fresh-durban-2026-09-01-009-176", "zone_id": "SZ-fresh-durban-2026-09-01-009", "scene_id": "S2A_MSIL2A_20260901T074031_R092_T36JUN_20260901T142711", "datetime": "2026-09-01T07:40:31.024000Z", "n_pixels": 1, "area_m2": 100, "prob_max": 0.9255, "prob_mean": 0.9255, "threshold": 0.63, "in_strip": true, "artifact": null}}, {"type": "Feature", "id": "D-SZ-fresh-durban-2026-09-01-009-178", "geometry": {"type": "Polygon", "coordinates": [[[31.1627051, -29.897539], [31.1627035, -29.8976292], [31.162807, -29.8976307], [31.1628086, -29.8975405], [31.1627051, -29.897539]]]}, "properties": {"kind": "detection", "det_id": "D-SZ-fresh-durban-2026-09-01-009-178", "zone_id": "SZ-fresh-durban-2026-09-01-009", "scene_id": "S2A_MSIL2A_20260901T074031_R092_T36JUN_20260901T142711", "datetime": "2026-09-01T07:40:31.024000Z", "n_pixels": 1, "area_m2": 100, "prob_max": 0.6588, "prob_mean": 0.6588, "threshold": 0.63, "in_strip": true, "artifact": null}}, {"type": "Feature", "id": "D-SZ-fresh-durban-2026-09-01-009-179", "geometry": {"type": "Polygon", "coordinates": [[[31.1629122, -29.8975419], [31.1629105, -29.8976321], [31.163014, -29.8976336], [31.1630157, -29.8975434], [31.1629122, -29.8975419]]]}, "properties": {"kind": "detection", "det_id": "D-SZ-fresh-durban-2026-09-01-009-179", "zone_id": "SZ-fresh-durban-2026-09-01-009", "scene_id": "S2A_MSIL2A_20260901T074031_R092_T36JUN_20260901T142711", "datetime": "2026-09-01T07:40:31.024000Z", "n_pixels": 1, "area_m2": 100, "prob_max": 0.9176, "prob_mean": 0.9176, "threshold": 0.63, "in_strip": true, "artifact": null}}, {"type": "Feature", "id": "D-SZ-fresh-durban-2026-09-01-009-180", "geometry": {"type": "Polygon", "coordinates": [[[31.1616682, -29.8976148], [31.1616666, -29.897705], [31.1618736, -29.8977079], [31.1618753, -29.8976177], [31.1616682, -29.8976148]]]}, "properties": {"kind": "detection", "det_id": "D-SZ-fresh-durban-2026-09-01-009-180", "zone_id": "SZ-fresh-durban-2026-09-01-009", "scene_id": "S2A_MSIL2A_20260901T074031_R092_T36JUN_20260901T142711", "datetime": "2026-09-01T07:40:31.024000Z", "n_pixels": 2, "area_m2": 200, "prob_max": 0.8353, "prob_mean": 0.8039, "threshold": 0.63, "in_strip": true, "artifact": null}}, {"type": "Feature", "id": "D-SZ-fresh-durban-2026-09-01-009-181", "geometry": {"type": "Polygon", "coordinates": [[[31.1631143, -29.8978154], [31.1631126, -29.8979056], [31.1632161, -29.897907], [31.1632178, -29.8978168], [31.1631143, -29.8978154]]]}, "properties": {"kind": "detection", "det_id": "D-SZ-fresh-durban-2026-09-01-009-181", "zone_id": "SZ-fresh-durban-2026-09-01-009", "scene_id": "S2A_MSIL2A_20260901T074031_R092_T36JUN_20260901T142711", "datetime": "2026-09-01T07:40:31.024000Z", "n_pixels": 1, "area_m2": 100, "prob_max": 0.9176, "prob_mean": 0.9176, "threshold": 0.63, "in_strip": true, "artifact": null}}, {"type": "Feature", "id": "D-SZ-fresh-durban-2026-09-01-010-183", "geometry": {"type": "Polygon", "coordinates": [[[31.1666798, -29.9010229], [31.1666781, -29.9011131], [31.1667817, -29.9011145], [31.16678, -29.9012047], [31.1668835, -29.9012061], [31.1668868, -29.9010257], [31.1666798, -29.9010229]]]}, "properties": {"kind": "detection", "det_id": "D-SZ-fresh-durban-2026-09-01-010-183", "zone_id": "SZ-fresh-durban-2026-09-01-010", "scene_id": "S2A_MSIL2A_20260901T074031_R092_T36JUN_20260901T142711", "datetime": "2026-09-01T07:40:31.024000Z", "n_pixels": 3, "area_m2": 300, "prob_max": 0.9765, "prob_mean": 0.9046, "threshold": 0.63, "in_strip": true, "artifact": null}}, {"type": "Feature", "id": "D-SZ-fresh-durban-2026-09-01-010-185", "geometry": {"type": "Polygon", "coordinates": [[[31.1673962, -29.9014839], [31.1673929, -29.9016643], [31.1674964, -29.9016658], [31.1674997, -29.9014854], [31.1673962, -29.9014839]]]}, "properties": {"kind": "detection", "det_id": "D-SZ-fresh-durban-2026-09-01-010-185", "zone_id": "SZ-fresh-durban-2026-09-01-010", "scene_id": "S2A_MSIL2A_20260901T074031_R092_T36JUN_20260901T142711", "datetime": "2026-09-01T07:40:31.024000Z", "n_pixels": 2, "area_m2": 200, "prob_max": 0.8431, "prob_mean": 0.8373, "threshold": 0.63, "in_strip": true, "artifact": null}}]}