{"type": "FeatureCollection", "features": [{"type": "Feature", "id": "SZ-fresh-durban-2026-09-01-001", "geometry": {"type": "Polygon", "coordinates": [[[31.190374, -29.729831], [31.189439, -29.730089], [31.189122, -29.730446], [31.187985, -29.73043], [31.18725, -29.731051], [31.186633, -29.730863], [31.18601, -29.731034], [31.185188, -29.730753], [31.184566, -29.730834], [31.183622, -29.731633], [31.183508, -29.732173], [31.183805, -29.732899], [31.183279, -29.733433], [31.183259, -29.734516], [31.183765, -29.735154], [31.184177, -29.73525], [31.183959, -29.735879], [31.184254, -29.736695], [31.184969, -29.737156], [31.1859, -29.737168], [31.185892, -29.737619], [31.185056, -29.738059], [31.184732, -29.738867], [31.185026, -29.739773], [31.185741, -29.740234], [31.18636, -29.740333], [31.187295, -29.740075], [31.187823, -29.73945], [31.187841, -29.738458], [31.188361, -29.738285], [31.188889, -29.73766], [31.18882, -29.735765], [31.188314, -29.735126], [31.187902, -29.73503], [31.188012, -29.734671], [31.187718, -29.733765], [31.187927, -29.733677], [31.188129, -29.733951], [31.189054, -29.734234], [31.190092, -29.733978], [31.19062, -29.733353], [31.190635, -29.732541], [31.191362, -29.732371], [31.19189, -29.731747], [31.192003, -29.731207], [31.191707, -29.730391], [31.190992, -29.72993], [31.190374, -29.729831]]]}, "properties": {"kind": "detection_zone", "layer_kind": "scene_zone", "zone_id": "SZ-fresh-durban-2026-09-01-001", "scene_key": "fresh-durban-2026-09-01", "scene_kind": "fresh_s2", "scene_id": "S2A_MSIL2A_20260901T074031_R092_T36JUN_20260901T142711", "region": "durban", "title": "Дурбан · зона 1", "mission": "Sentinel-2", "datetime": "2026-09-01T07:40:31.024000Z", "detection_status": "insufficient_data", "status": "insufficient_data", "concentration_status": "unavailable", "quantity": {"status": "not_confirmed", "label": "концентрация по снимку не подтверждена", "detail": "перевод площади в штуки не показываем: нет калибровочных пар (см. docs/QUANTITY.md)"}, "verification": "false_alarm_signs", "training_scene": null, "flags": ["ship", "shallow", "glint"], "n_cozar_filaments": 0, "crop_file": "crops/SZ-fresh-durban-2026-09-01-001.jpg", "wind_high": false, "measured": {"zone_area_km2": 0.5321, "suspicious_area_m2": 1600, "n_pixels": 16, "n_objects": 14, "water_km2": 0.532, "lwd_m2_km2": 3007.5, "lwd_note": null, "quality": {"valid_water_fraction": 1.0, "cloud_fraction": 0.0, "glint_fraction": 0.0}, "model": {"weights": "weights/lgbm", "file": "weights/lgbm/model.txt", "sha256": "0eeebf43fcccd8c7c07f053b7ec723229d1a3c9b92d12eec1bdb269258c51470", "sha256_short": "0eeebf43fccc", "trained_at": "2026-09-25T01:36:30Z", "threshold": 0.63, "harmonize": "none", "class": "MARIDA Marine Debris (любой плавающий мусор, не только пластик)"}}, "probable": {"prob_max": 1.0, "prob_mean": 0.857, "signs": {"foam": {"flag": false, "white_ratio_b2_b8": 0.619, "wind10m_ms": 2.53, "rule": "прирост B2 над водой ≥ 0.8 прироста B8 («белый» спектр) или ветер ≥ 7.0 м/с"}, "glint": {"flag": true, "b11_water_median": 0.0176, "glint_share": 0.0, "rule": "медиана B11 воды зоны > 0.01 или ≥ 20 % пикселей зоны — блик (маска качества)"}, "ship": {"flag": true, "share": 0, "bright_target_px_within_500m": 205, "rule": "≥ 30 % пикселей — у яркой цели или кильватера (reports/artifacts.md) или яркая цель с откликом в SWIR (судно, лодка: B11 ≥ 0,015) ближе 500 м, или малый яркий объект (≤ 40 пикс.) с B11 ≥ 0,01 ближе 500 м (лодка с кильватером)"}, "coast": {"flag": false, "land_px_within_300m": 0, "rule": "суша (маска качества) ближе 300 м — прибой, кромка берега"}, "shallow": {"flag": true, "b3_water_zone": 0.0371, "b3_ratio_to_scene_water": 0.99, "rule": "медиана B3 воды зоны ≥ 2× медианы воды снимка и ≥ 0,03, или B4 воды зоны ≥ 0,02 и (≥ 2× воды снимка или B8 ≥ 0,013) — мелководье, яркое дно, илистая банка"}, "seam": {"flag": false, "share": 0, "rule": "≥ 30 % пикселей — прямая линия вдоль трека/границы яркости (шов)"}, "cloud": {"flag": false, "cloud_fraction": 0.0, "rule": "облака или тени облаков (маска качества) ≥ 20 % зоны"}, "diag": {"dist_land_m": null, "dist_bright_m": 160, "n_bright_px_500m": 50, "b11_bright_max_500m": 0.1332, "b4_water_zone": 0.0313, "b8_water_zone": 0.0261, "b11_det_median": 0.0241, "b8_det_median": 0.0446, "water_scene_b3": 0.0376, "water_scene_b4": 0.0304, "n_det_px": 16, "n_obj": 14}, "note": "эвристики, не классификатор; на размеченных данных не проверены"}, "n_cozar_filaments": 0}, "field_nearby": {"items": [{"source": "ADIS (4TU.ResearchData, судовая камера)", "segment_id": 279754, "ship": "Antsiva", "date": "2022-01-26", "days_from_scene": -1679, "distance_km": 1380.1, "lon": 45.33987, "lat": -30.76971, "n_items": 0, "area_km2": 0.2, "size_class": "> 5 см", "c_items_km2": 0.0, "ci95_lo": 0.0, "ci95_hi": 18.45, "ci95_method": "точный интервал Пуассона для N, делённый на A", "raw_10cm_items_km2": 0.0, "authors_cal_10cm_items_km2": 0.0, "authors_cal_10cm_lo95": null, "authors_cal_10cm_hi95": null}, {"source": "ADIS (4TU.ResearchData, судовая камера)", "segment_id": 299831, "ship": "Antsiva", "date": "2022-01-26", "days_from_scene": -1679, "distance_km": 1380.1, "lon": 45.33982, "lat": -30.77093, "n_items": 0, "area_km2": 0.2, "size_class": "> 5 см", "c_items_km2": 0.0, "ci95_lo": 0.0, "ci95_hi": 18.45, "ci95_method": "точный интервал Пуассона для N, делённый на A", "raw_10cm_items_km2": 0.0, "authors_cal_10cm_items_km2": 0.0, "authors_cal_10cm_lo95": null, "authors_cal_10cm_hi95": null}, {"source": "ADIS (4TU.ResearchData, судовая камера)", "segment_id": 299830, "ship": "Antsiva", "date": "2022-01-26", "days_from_scene": -1679, "distance_km": 1381.8, "lon": 45.36527, "lat": -30.68732, "n_items": 1, "area_km2": 0.1999, "size_class": "> 5 см", "c_items_km2": 5.0, "ci95_lo": 0.13, "ci95_hi": 27.87, "ci95_method": "точный интервал Пуассона для N, делённый на A", "raw_10cm_items_km2": 5.0, "authors_cal_10cm_items_km2": 12.32, "authors_cal_10cm_lo95": 2.17, "authors_cal_10cm_hi95": 70.04}], "nearest_organizer_sample": {"sample_id": "MPL-0922", "source_id": "S4_BLACK_SEA_DOORS3", "distance_km": 7961.8}, "note": "Измерение ≠ оценка: это независимые полевые счёты C = N/A в другое время и в другом месте; со сценой они не связаны и не калибруют её. Ближайший отрезок ADIS — за 1380 км: только для порядка величин."}, "acquired_at": "2026-09-01T07:40:31.024000Z", "acquisition_date": "2026-09-01", "processed_at": "2026-09-26T19:09:43Z", "human_checked": false, "auto_label": "автоматически, не проверено человеком"}}, {"type": "Feature", "id": "SZ-fresh-durban-2026-09-01-002", "geometry": {"type": "Polygon", "coordinates": [[[31.136896, -29.748307], [31.135961, -29.748564], [31.135321, -29.749638], [31.135611, -29.750725], [31.136224, -29.751094], [31.136111, -29.751634], [31.136406, -29.75245], [31.137121, -29.752912], [31.13774, -29.753011], [31.138675, -29.752753], [31.138994, -29.752306], [31.140124, -29.752683], [31.141163, -29.752427], [31.141803, -29.751353], [31.141309, -29.750083], [31.140594, -29.749622], [31.139976, -29.749523], [31.13904, -29.749781], [31.138615, -29.750406], [31.138408, -29.750403], [31.138525, -29.749683], [31.13823, -29.748867], [31.137515, -29.748406], [31.136896, -29.748307]]]}, "properties": {"kind": "detection_zone", "layer_kind": "scene_zone", "zone_id": "SZ-fresh-durban-2026-09-01-002", "scene_key": "fresh-durban-2026-09-01", "scene_kind": "fresh_s2", "scene_id": "S2A_MSIL2A_20260901T074031_R092_T36JUN_20260901T142711", "region": "durban", "title": "Дурбан · зона 2", "mission": "Sentinel-2", "datetime": "2026-09-01T07:40:31.024000Z", "detection_status": "insufficient_data", "status": "insufficient_data", "concentration_status": "unavailable", "quantity": {"status": "not_confirmed", "label": "концентрация по снимку не подтверждена", "detail": "перевод площади в штуки не показываем: нет калибровочных пар (см. docs/QUANTITY.md)"}, "verification": "false_alarm_signs", "training_scene": null, "flags": ["shallow", "glint", "foam"], "n_cozar_filaments": 0, "crop_file": "crops/SZ-fresh-durban-2026-09-01-002.jpg", "wind_high": false, "measured": {"zone_area_km2": 0.2087, "suspicious_area_m2": 600, "n_pixels": 6, "n_objects": 4, "water_km2": 0.209, "lwd_m2_km2": 2870.8, "lwd_note": null, "quality": {"valid_water_fraction": 1.0, "cloud_fraction": 0.0, "glint_fraction": 0.0}, "model": {"weights": "weights/lgbm", "file": "weights/lgbm/model.txt", "sha256": "0eeebf43fcccd8c7c07f053b7ec723229d1a3c9b92d12eec1bdb269258c51470", "sha256_short": "0eeebf43fccc", "trained_at": "2026-09-25T01:36:30Z", "threshold": 0.63, "harmonize": "none", "class": "MARIDA Marine Debris (любой плавающий мусор, не только пластик)"}}, "probable": {"prob_max": 1.0, "prob_mean": 0.841, "signs": {"foam": {"flag": true, "white_ratio_b2_b8": 0.815, "wind10m_ms": 2.53, "rule": "прирост B2 над водой ≥ 0.8 прироста B8 («белый» спектр) или ветер ≥ 7.0 м/с"}, "glint": {"flag": true, "b11_water_median": 0.0173, "glint_share": 0.0, "rule": "медиана B11 воды зоны > 0.01 или ≥ 20 % пикселей зоны — блик (маска качества)"}, "ship": {"flag": false, "share": 0, "bright_target_px_within_500m": 0, "rule": "≥ 30 % пикселей — у яркой цели или кильватера (reports/artifacts.md) или яркая цель с откликом в SWIR (судно, лодка: B11 ≥ 0,015) ближе 500 м, или малый яркий объект (≤ 40 пикс.) с B11 ≥ 0,01 ближе 500 м (лодка с кильватером)"}, "coast": {"flag": false, "land_px_within_300m": 0, "rule": "суша (маска качества) ближе 300 м — прибой, кромка берега"}, "shallow": {"flag": true, "b3_water_zone": 0.0402, "b3_ratio_to_scene_water": 1.07, "rule": "медиана B3 воды зоны ≥ 2× медианы воды снимка и ≥ 0,03, или B4 воды зоны ≥ 0,02 и (≥ 2× воды снимка или B8 ≥ 0,013) — мелководье, яркое дно, илистая банка"}, "seam": {"flag": false, "share": 0, "rule": "≥ 30 % пикселей — прямая линия вдоль трека/границы яркости (шов)"}, "cloud": {"flag": false, "cloud_fraction": 0.0, "rule": "облака или тени облаков (маска качества) ≥ 20 % зоны"}, "diag": {"dist_land_m": null, "dist_bright_m": 651, "n_bright_px_500m": 0, "b11_bright_max_500m": null, "b4_water_zone": 0.0338, "b8_water_zone": 0.0283, "b11_det_median": 0.0279, "b8_det_median": 0.0514, "water_scene_b3": 0.0376, "water_scene_b4": 0.0304, "n_det_px": 6, "n_obj": 4}, "note": "эвристики, не классификатор; на размеченных данных не проверены"}, "n_cozar_filaments": 0}, "field_nearby": {"items": [{"source": "ADIS (4TU.ResearchData, судовая камера)", "segment_id": 279754, "ship": "Antsiva", "date": "2022-01-26", "days_from_scene": -1679, "distance_km": 1380.1, "lon": 45.33987, "lat": -30.76971, "n_items": 0, "area_km2": 0.2, "size_class": "> 5 см", "c_items_km2": 0.0, "ci95_lo": 0.0, "ci95_hi": 18.45, "ci95_method": "точный интервал Пуассона для N, делённый на A", "raw_10cm_items_km2": 0.0, "authors_cal_10cm_items_km2": 0.0, "authors_cal_10cm_lo95": null, "authors_cal_10cm_hi95": null}, {"source": "ADIS (4TU.ResearchData, судовая камера)", "segment_id": 299831, "ship": "Antsiva", "date": "2022-01-26", "days_from_scene": -1679, "distance_km": 1380.1, "lon": 45.33982, "lat": -30.77093, "n_items": 0, "area_km2": 0.2, "size_class": "> 5 см", "c_items_km2": 0.0, "ci95_lo": 0.0, "ci95_hi": 18.45, "ci95_method": "точный интервал Пуассона для N, делённый на A", "raw_10cm_items_km2": 0.0, "authors_cal_10cm_items_km2": 0.0, "authors_cal_10cm_lo95": null, "authors_cal_10cm_hi95": null}, {"source": "ADIS (4TU.ResearchData, судовая камера)", "segment_id": 299830, "ship": "Antsiva", "date": "2022-01-26", "days_from_scene": -1679, "distance_km": 1381.8, "lon": 45.36527, "lat": -30.68732, "n_items": 1, "area_km2": 0.1999, "size_class": "> 5 см", "c_items_km2": 5.0, "ci95_lo": 0.13, "ci95_hi": 27.87, "ci95_method": "точный интервал Пуассона для N, делённый на A", "raw_10cm_items_km2": 5.0, "authors_cal_10cm_items_km2": 12.32, "authors_cal_10cm_lo95": 2.17, "authors_cal_10cm_hi95": 70.04}], "nearest_organizer_sample": {"sample_id": "MPL-0922", "source_id": "S4_BLACK_SEA_DOORS3", "distance_km": 7961.8}, "note": "Измерение ≠ оценка: это независимые полевые счёты C = N/A в другое время и в другом месте; со сценой они не связаны и не калибруют её. Ближайший отрезок ADIS — за 1380 км: только для порядка величин."}, "acquired_at": "2026-09-01T07:40:31.024000Z", "acquisition_date": "2026-09-01", "processed_at": "2026-09-26T19:09:43Z", "human_checked": false, "auto_label": "автоматически, не проверено человеком"}}, {"type": "Feature", "id": "SZ-fresh-durban-2026-09-01-003", "geometry": {"type": "Polygon", "coordinates": [[[31.149702, -29.749118], [31.148767, -29.749376], [31.148239, -29.75], [31.14822, -29.750992], [31.148931, -29.751724], [31.147992, -29.752162], [31.147667, -29.752969], [31.147759, -29.753602], [31.148674, -29.754427], [31.149293, -29.754526], [31.150125, -29.754267], [31.150221, -29.754629], [31.150937, -29.75509], [31.152074, -29.755106], [31.153019, -29.754307], [31.153037, -29.753315], [31.152532, -29.752677], [31.151607, -29.752393], [31.150673, -29.75256], [31.150576, -29.752198], [31.150064, -29.75192], [31.151108, -29.751394], [31.151435, -29.750496], [31.150834, -29.749405], [31.149702, -29.749118]]]}, "properties": {"kind": "detection_zone", "layer_kind": "scene_zone", "zone_id": "SZ-fresh-durban-2026-09-01-003", "scene_key": "fresh-durban-2026-09-01", "scene_kind": "fresh_s2", "scene_id": "S2A_MSIL2A_20260901T074031_R092_T36JUN_20260901T142711", "region": "durban", "title": "Дурбан · зона 3", "mission": "Sentinel-2", "datetime": "2026-09-01T07:40:31.024000Z", "detection_status": "insufficient_data", "status": "insufficient_data", "concentration_status": "unavailable", "quantity": {"status": "not_confirmed", "label": "концентрация по снимку не подтверждена", "detail": "перевод площади в штуки не показываем: нет калибровочных пар (см. docs/QUANTITY.md)"}, "verification": "false_alarm_signs", "training_scene": null, "flags": ["ship", "shallow", "glint", "foam"], "n_cozar_filaments": 0, "crop_file": "crops/SZ-fresh-durban-2026-09-01-003.jpg", "wind_high": false, "measured": {"zone_area_km2": 0.2063, "suspicious_area_m2": 500, "n_pixels": 5, "n_objects": 3, "water_km2": 0.2042, "lwd_m2_km2": 2448.6, "lwd_note": null, "quality": {"valid_water_fraction": 0.979, "cloud_fraction": 0.021, "glint_fraction": 0.0}, "model": {"weights": "weights/lgbm", "file": "weights/lgbm/model.txt", "sha256": "0eeebf43fcccd8c7c07f053b7ec723229d1a3c9b92d12eec1bdb269258c51470", "sha256_short": "0eeebf43fccc", "trained_at": "2026-09-25T01:36:30Z", "threshold": 0.63, "harmonize": "none", "class": "MARIDA Marine Debris (любой плавающий мусор, не только пластик)"}}, "probable": {"prob_max": 0.996, "prob_mean": 0.823, "signs": {"foam": {"flag": true, "white_ratio_b2_b8": 0.865, "wind10m_ms": 2.53, "rule": "прирост B2 над водой ≥ 0.8 прироста B8 («белый» спектр) или ветер ≥ 7.0 м/с"}, "glint": {"flag": true, "b11_water_median": 0.0189, "glint_share": 0.0, "rule": "медиана B11 воды зоны > 0.01 или ≥ 20 % пикселей зоны — блик (маска качества)"}, "ship": {"flag": true, "share": 0, "bright_target_px_within_500m": 254, "rule": "≥ 30 % пикселей — у яркой цели или кильватера (reports/artifacts.md) или яркая цель с откликом в SWIR (судно, лодка: B11 ≥ 0,015) ближе 500 м, или малый яркий объект (≤ 40 пикс.) с B11 ≥ 0,01 ближе 500 м (лодка с кильватером)"}, "coast": {"flag": false, "land_px_within_300m": 0, "rule": "суша (маска качества) ближе 300 м — прибой, кромка берега"}, "shallow": {"flag": true, "b3_water_zone": 0.0414, "b3_ratio_to_scene_water": 1.1, "rule": "медиана B3 воды зоны ≥ 2× медианы воды снимка и ≥ 0,03, или B4 воды зоны ≥ 0,02 и (≥ 2× воды снимка или B8 ≥ 0,013) — мелководье, яркое дно, илистая банка"}, "seam": {"flag": false, "share": 0, "rule": "≥ 30 % пикселей — прямая линия вдоль трека/границы яркости (шов)"}, "cloud": {"flag": false, "cloud_fraction": 0.021, "rule": "облака или тени облаков (маска качества) ≥ 20 % зоны"}, "diag": {"dist_land_m": null, "dist_bright_m": 205, "n_bright_px_500m": 7, "b11_bright_max_500m": 0.1008, "b4_water_zone": 0.0342, "b8_water_zone": 0.0287, "b11_det_median": 0.0263, "b8_det_median": 0.0449, "water_scene_b3": 0.0376, "water_scene_b4": 0.0304, "n_det_px": 5, "n_obj": 3}, "note": "эвристики, не классификатор; на размеченных данных не проверены"}, "n_cozar_filaments": 0}, "field_nearby": {"items": [{"source": "ADIS (4TU.ResearchData, судовая камера)", "segment_id": 279754, "ship": "Antsiva", "date": "2022-01-26", "days_from_scene": -1679, "distance_km": 1380.1, "lon": 45.33987, "lat": -30.76971, "n_items": 0, "area_km2": 0.2, "size_class": "> 5 см", "c_items_km2": 0.0, "ci95_lo": 0.0, "ci95_hi": 18.45, "ci95_method": "точный интервал Пуассона для N, делённый на A", "raw_10cm_items_km2": 0.0, "authors_cal_10cm_items_km2": 0.0, "authors_cal_10cm_lo95": null, "authors_cal_10cm_hi95": null}, {"source": "ADIS (4TU.ResearchData, судовая камера)", "segment_id": 299831, "ship": "Antsiva", "date": "2022-01-26", "days_from_scene": -1679, "distance_km": 1380.1, "lon": 45.33982, "lat": -30.77093, "n_items": 0, "area_km2": 0.2, "size_class": "> 5 см", "c_items_km2": 0.0, "ci95_lo": 0.0, "ci95_hi": 18.45, "ci95_method": "точный интервал Пуассона для N, делённый на A", "raw_10cm_items_km2": 0.0, "authors_cal_10cm_items_km2": 0.0, "authors_cal_10cm_lo95": null, "authors_cal_10cm_hi95": null}, {"source": "ADIS (4TU.ResearchData, судовая камера)", "segment_id": 299830, "ship": "Antsiva", "date": "2022-01-26", "days_from_scene": -1679, "distance_km": 1381.8, "lon": 45.36527, "lat": -30.68732, "n_items": 1, "area_km2": 0.1999, "size_class": "> 5 см", "c_items_km2": 5.0, "ci95_lo": 0.13, "ci95_hi": 27.87, "ci95_method": "точный интервал Пуассона для N, делённый на A", "raw_10cm_items_km2": 5.0, "authors_cal_10cm_items_km2": 12.32, "authors_cal_10cm_lo95": 2.17, "authors_cal_10cm_hi95": 70.04}], "nearest_organizer_sample": {"sample_id": "MPL-0922", "source_id": "S4_BLACK_SEA_DOORS3", "distance_km": 7961.8}, "note": "Измерение ≠ оценка: это независимые полевые счёты C = N/A в другое время и в другом месте; со сценой они не связаны и не калибруют её. Ближайший отрезок ADIS — за 1380 км: только для порядка величин."}, "acquired_at": "2026-09-01T07:40:31.024000Z", "acquisition_date": "2026-09-01", "processed_at": "2026-09-26T19:09:43Z", "human_checked": false, "auto_label": "автоматически, не проверено человеком"}}, {"type": "Feature", "id": "SZ-fresh-durban-2026-09-01-004", "geometry": {"type": "Polygon", "coordinates": [[[31.191151, -29.749872], [31.190216, -29.75013], [31.189688, -29.750754], [31.18967, -29.751746], [31.19017, -29.752656], [31.190886, -29.753117], [31.191816, -29.753129], [31.191913, -29.753491], [31.192629, -29.753952], [31.193247, -29.754051], [31.194183, -29.753793], [31.194822, -29.752719], [31.194535, -29.751452], [31.193819, -29.750991], [31.192786, -29.750977], [31.192283, -29.750158], [31.191151, -29.749872]]]}, "properties": {"kind": "detection_zone", "layer_kind": "scene_zone", "zone_id": "SZ-fresh-durban-2026-09-01-004", "scene_key": "fresh-durban-2026-09-01", "scene_kind": "fresh_s2", "scene_id": "S2A_MSIL2A_20260901T074031_R092_T36JUN_20260901T142711", "region": "durban", "title": "Дурбан · зона 4", "mission": "Sentinel-2", "datetime": "2026-09-01T07:40:31.024000Z", "detection_status": "insufficient_data", "status": "insufficient_data", "concentration_status": "unavailable", "quantity": {"status": "not_confirmed", "label": "концентрация по снимку не подтверждена", "detail": "перевод площади в штуки не показываем: нет калибровочных пар (см. docs/QUANTITY.md)"}, "verification": "false_alarm_signs", "training_scene": null, "flags": ["shallow", "glint"], "n_cozar_filaments": 0, "crop_file": "crops/SZ-fresh-durban-2026-09-01-004.jpg", "wind_high": false, "measured": {"zone_area_km2": 0.1526, "suspicious_area_m2": 600, "n_pixels": 6, "n_objects": 4, "water_km2": 0.1532, "lwd_m2_km2": 3916.4, "lwd_note": null, "quality": {"valid_water_fraction": 1.0, "cloud_fraction": 0.0, "glint_fraction": 0.0}, "model": {"weights": "weights/lgbm", "file": "weights/lgbm/model.txt", "sha256": "0eeebf43fcccd8c7c07f053b7ec723229d1a3c9b92d12eec1bdb269258c51470", "sha256_short": "0eeebf43fccc", "trained_at": "2026-09-25T01:36:30Z", "threshold": 0.63, "harmonize": "none", "class": "MARIDA Marine Debris (любой плавающий мусор, не только пластик)"}}, "probable": {"prob_max": 1.0, "prob_mean": 0.89, "signs": {"foam": {"flag": false, "white_ratio_b2_b8": 0.612, "wind10m_ms": 2.53, "rule": "прирост B2 над водой ≥ 0.8 прироста B8 («белый» спектр) или ветер ≥ 7.0 м/с"}, "glint": {"flag": true, "b11_water_median": 0.0156, "glint_share": 0.0, "rule": "медиана B11 воды зоны > 0.01 или ≥ 20 % пикселей зоны — блик (маска качества)"}, "ship": {"flag": false, "share": 0, "bright_target_px_within_500m": 0, "rule": "≥ 30 % пикселей — у яркой цели или кильватера (reports/artifacts.md) или яркая цель с откликом в SWIR (судно, лодка: B11 ≥ 0,015) ближе 500 м, или малый яркий объект (≤ 40 пикс.) с B11 ≥ 0,01 ближе 500 м (лодка с кильватером)"}, "coast": {"flag": false, "land_px_within_300m": 0, "rule": "суша (маска качества) ближе 300 м — прибой, кромка берега"}, "shallow": {"flag": true, "b3_water_zone": 0.0354, "b3_ratio_to_scene_water": 0.94, "rule": "медиана B3 воды зоны ≥ 2× медианы воды снимка и ≥ 0,03, или B4 воды зоны ≥ 0,02 и (≥ 2× воды снимка или B8 ≥ 0,013) — мелководье, яркое дно, илистая банка"}, "seam": {"flag": false, "share": 0, "rule": "≥ 30 % пикселей — прямая линия вдоль трека/границы яркости (шов)"}, "cloud": {"flag": false, "cloud_fraction": 0.0, "rule": "облака или тени облаков (маска качества) ≥ 20 % зоны"}, "diag": {"dist_land_m": null, "dist_bright_m": 1223, "n_bright_px_500m": 0, "b11_bright_max_500m": null, "b4_water_zone": 0.0303, "b8_water_zone": 0.0249, "b11_det_median": 0.022, "b8_det_median": 0.0407, "water_scene_b3": 0.0376, "water_scene_b4": 0.0304, "n_det_px": 6, "n_obj": 4}, "note": "эвристики, не классификатор; на размеченных данных не проверены"}, "n_cozar_filaments": 0}, "field_nearby": {"items": [{"source": "ADIS (4TU.ResearchData, судовая камера)", "segment_id": 279754, "ship": "Antsiva", "date": "2022-01-26", "days_from_scene": -1679, "distance_km": 1380.1, "lon": 45.33987, "lat": -30.76971, "n_items": 0, "area_km2": 0.2, "size_class": "> 5 см", "c_items_km2": 0.0, "ci95_lo": 0.0, "ci95_hi": 18.45, "ci95_method": "точный интервал Пуассона для N, делённый на A", "raw_10cm_items_km2": 0.0, "authors_cal_10cm_items_km2": 0.0, "authors_cal_10cm_lo95": null, "authors_cal_10cm_hi95": null}, {"source": "ADIS (4TU.ResearchData, судовая камера)", "segment_id": 299831, "ship": "Antsiva", "date": "2022-01-26", "days_from_scene": -1679, "distance_km": 1380.1, "lon": 45.33982, "lat": -30.77093, "n_items": 0, "area_km2": 0.2, "size_class": "> 5 см", "c_items_km2": 0.0, "ci95_lo": 0.0, "ci95_hi": 18.45, "ci95_method": "точный интервал Пуассона для N, делённый на A", "raw_10cm_items_km2": 0.0, "authors_cal_10cm_items_km2": 0.0, "authors_cal_10cm_lo95": null, "authors_cal_10cm_hi95": null}, {"source": "ADIS (4TU.ResearchData, судовая камера)", "segment_id": 299830, "ship": "Antsiva", "date": "2022-01-26", "days_from_scene": -1679, "distance_km": 1381.8, "lon": 45.36527, "lat": -30.68732, "n_items": 1, "area_km2": 0.1999, "size_class": "> 5 см", "c_items_km2": 5.0, "ci95_lo": 0.13, "ci95_hi": 27.87, "ci95_method": "точный интервал Пуассона для N, делённый на A", "raw_10cm_items_km2": 5.0, "authors_cal_10cm_items_km2": 12.32, "authors_cal_10cm_lo95": 2.17, "authors_cal_10cm_hi95": 70.04}], "nearest_organizer_sample": {"sample_id": "MPL-0922", "source_id": "S4_BLACK_SEA_DOORS3", "distance_km": 7961.8}, "note": "Измерение ≠ оценка: это независимые полевые счёты C = N/A в другое время и в другом месте; со сценой они не связаны и не калибруют её. Ближайший отрезок ADIS — за 1380 км: только для порядка величин."}, "acquired_at": "2026-09-01T07:40:31.024000Z", "acquisition_date": "2026-09-01", "processed_at": "2026-09-26T19:09:43Z", "human_checked": false, "auto_label": "автоматически, не проверено человеком"}}, {"type": "Feature", "id": "SZ-fresh-durban-2026-09-01-005", "geometry": {"type": "Polygon", "coordinates": [[[31.073868, -29.805508], [31.072617, -29.806031], [31.072291, -29.806838], [31.072386, -29.807291], [31.071155, -29.806731], [31.070116, -29.806987], [31.069474, -29.80806], [31.069767, -29.808967], [31.070482, -29.809428], [31.07162, -29.809445], [31.072353, -29.809004], [31.072686, -29.807836], [31.073297, -29.808296], [31.074125, -29.808309], [31.074113, -29.80894], [31.075018, -29.810306], [31.075943, -29.810591], [31.076983, -29.810335], [31.077512, -29.809711], [31.077626, -29.809172], [31.076931, -29.807628], [31.076216, -29.807166], [31.075388, -29.807154], [31.075202, -29.806069], [31.074487, -29.805607], [31.073868, -29.805508]]]}, "properties": {"kind": "detection_zone", "layer_kind": "scene_zone", "zone_id": "SZ-fresh-durban-2026-09-01-005", "scene_key": "fresh-durban-2026-09-01", "scene_kind": "fresh_s2", "scene_id": "S2A_MSIL2A_20260901T074031_R092_T36JUN_20260901T142711", "region": "durban", "title": "Дурбан · зона 5", "mission": "Sentinel-2", "datetime": "2026-09-01T07:40:31.024000Z", "detection_status": "insufficient_data", "status": "insufficient_data", "concentration_status": "unavailable", "quantity": {"status": "not_confirmed", "label": "концентрация по снимку не подтверждена", "detail": "перевод площади в штуки не показываем: нет калибровочных пар (см. docs/QUANTITY.md)"}, "verification": "false_alarm_signs", "training_scene": null, "flags": ["shallow", "glint", "foam"], "n_cozar_filaments": 0, "crop_file": "crops/SZ-fresh-durban-2026-09-01-005.jpg", "wind_high": false, "measured": {"zone_area_km2": 0.2312, "suspicious_area_m2": 500, "n_pixels": 5, "n_objects": 4, "water_km2": 0.2336, "lwd_m2_km2": 2140.4, "lwd_note": null, "quality": {"valid_water_fraction": 1.0, "cloud_fraction": 0.0, "glint_fraction": 0.0}, "model": {"weights": "weights/lgbm", "file": "weights/lgbm/model.txt", "sha256": "0eeebf43fcccd8c7c07f053b7ec723229d1a3c9b92d12eec1bdb269258c51470", "sha256_short": "0eeebf43fccc", "trained_at": "2026-09-25T01:36:30Z", "threshold": 0.63, "harmonize": "none", "class": "MARIDA Marine Debris (любой плавающий мусор, не только пластик)"}}, "probable": {"prob_max": 0.91, "prob_mean": 0.747, "signs": {"foam": {"flag": true, "white_ratio_b2_b8": 0.852, "wind10m_ms": 2.53, "rule": "прирост B2 над водой ≥ 0.8 прироста B8 («белый» спектр) или ветер ≥ 7.0 м/с"}, "glint": {"flag": true, "b11_water_median": 0.0178, "glint_share": 0.0, "rule": "медиана B11 воды зоны > 0.01 или ≥ 20 % пикселей зоны — блик (маска качества)"}, "ship": {"flag": false, "share": 0, "bright_target_px_within_500m": 0, "rule": "≥ 30 % пикселей — у яркой цели или кильватера (reports/artifacts.md) или яркая цель с откликом в SWIR (судно, лодка: B11 ≥ 0,015) ближе 500 м, или малый яркий объект (≤ 40 пикс.) с B11 ≥ 0,01 ближе 500 м (лодка с кильватером)"}, "coast": {"flag": false, "land_px_within_300m": 0, "rule": "суша (маска качества) ближе 300 м — прибой, кромка берега"}, "shallow": {"flag": true, "b3_water_zone": 0.0486, "b3_ratio_to_scene_water": 1.29, "rule": "медиана B3 воды зоны ≥ 2× медианы воды снимка и ≥ 0,03, или B4 воды зоны ≥ 0,02 и (≥ 2× воды снимка или B8 ≥ 0,013) — мелководье, яркое дно, илистая банка"}, "seam": {"flag": false, "share": 0, "rule": "≥ 30 % пикселей — прямая линия вдоль трека/границы яркости (шов)"}, "cloud": {"flag": false, "cloud_fraction": 0.0, "rule": "облака или тени облаков (маска качества) ≥ 20 % зоны"}, "diag": {"dist_land_m": null, "dist_bright_m": 932, "n_bright_px_500m": 0, "b11_bright_max_500m": null, "b4_water_zone": 0.0394, "b8_water_zone": 0.0336, "b11_det_median": 0.0229, "b8_det_median": 0.0478, "water_scene_b3": 0.0376, "water_scene_b4": 0.0304, "n_det_px": 5, "n_obj": 4}, "note": "эвристики, не классификатор; на размеченных данных не проверены"}, "n_cozar_filaments": 0}, "field_nearby": {"items": [{"source": "ADIS (4TU.ResearchData, судовая камера)", "segment_id": 279754, "ship": "Antsiva", "date": "2022-01-26", "days_from_scene": -1679, "distance_km": 1380.1, "lon": 45.33987, "lat": -30.76971, "n_items": 0, "area_km2": 0.2, "size_class": "> 5 см", "c_items_km2": 0.0, "ci95_lo": 0.0, "ci95_hi": 18.45, "ci95_method": "точный интервал Пуассона для N, делённый на A", "raw_10cm_items_km2": 0.0, "authors_cal_10cm_items_km2": 0.0, "authors_cal_10cm_lo95": null, "authors_cal_10cm_hi95": null}, {"source": "ADIS (4TU.ResearchData, судовая камера)", "segment_id": 299831, "ship": "Antsiva", "date": "2022-01-26", "days_from_scene": -1679, "distance_km": 1380.1, "lon": 45.33982, "lat": -30.77093, "n_items": 0, "area_km2": 0.2, "size_class": "> 5 см", "c_items_km2": 0.0, "ci95_lo": 0.0, "ci95_hi": 18.45, "ci95_method": "точный интервал Пуассона для N, делённый на A", "raw_10cm_items_km2": 0.0, "authors_cal_10cm_items_km2": 0.0, "authors_cal_10cm_lo95": null, "authors_cal_10cm_hi95": null}, {"source": "ADIS (4TU.ResearchData, судовая камера)", "segment_id": 299830, "ship": "Antsiva", "date": "2022-01-26", "days_from_scene": -1679, "distance_km": 1381.8, "lon": 45.36527, "lat": -30.68732, "n_items": 1, "area_km2": 0.1999, "size_class": "> 5 см", "c_items_km2": 5.0, "ci95_lo": 0.13, "ci95_hi": 27.87, "ci95_method": "точный интервал Пуассона для N, делённый на A", "raw_10cm_items_km2": 5.0, "authors_cal_10cm_items_km2": 12.32, "authors_cal_10cm_lo95": 2.17, "authors_cal_10cm_hi95": 70.04}], "nearest_organizer_sample": {"sample_id": "MPL-0922", "source_id": "S4_BLACK_SEA_DOORS3", "distance_km": 7961.8}, "note": "Измерение ≠ оценка: это независимые полевые счёты C = N/A в другое время и в другом месте; со сценой они не связаны и не калибруют её. Ближайший отрезок ADIS — за 1380 км: только для порядка величин."}, "acquired_at": "2026-09-01T07:40:31.024000Z", "acquisition_date": "2026-09-01", "processed_at": "2026-09-26T19:09:43Z", "human_checked": false, "auto_label": "автоматически, не проверено человеком"}}, {"type": "Feature", "id": "SZ-fresh-durban-2026-09-01-006", "geometry": {"type": "Polygon", "coordinates": [[[31.161738, -29.837346], [31.160802, -29.837604], [31.16059, -29.837871], [31.159344, -29.838125], [31.158815, -29.838749], [31.158797, -29.839741], [31.159202, -29.840198], [31.158877, -29.841005], [31.158971, -29.841548], [31.159887, -29.842373], [31.160609, -29.842473], [31.161546, -29.842215], [31.162074, -29.841591], [31.162088, -29.84087], [31.163226, -29.840885], [31.164172, -29.840087], [31.164285, -29.839547], [31.16399, -29.838731], [31.163272, -29.83836], [31.162768, -29.837631], [31.161738, -29.837346]]]}, "properties": {"kind": "detection_zone", "layer_kind": "scene_zone", "zone_id": "SZ-fresh-durban-2026-09-01-006", "scene_key": "fresh-durban-2026-09-01", "scene_kind": "fresh_s2", "scene_id": "S2A_MSIL2A_20260901T074031_R092_T36JUN_20260901T142711", "region": "durban", "title": "Дурбан · зона 6", "mission": "Sentinel-2", "datetime": "2026-09-01T07:40:31.024000Z", "detection_status": "insufficient_data", "status": "insufficient_data", "concentration_status": "unavailable", "quantity": {"status": "not_confirmed", "label": "концентрация по снимку не подтверждена", "detail": "перевод площади в штуки не показываем: нет калибровочных пар (см. docs/QUANTITY.md)"}, "verification": "false_alarm_signs", "training_scene": null, "flags": ["ship", "shallow", "glint", "foam"], "n_cozar_filaments": 0, "crop_file": "crops/SZ-fresh-durban-2026-09-01-006.jpg", "wind_high": false, "measured": {"zone_area_km2": 0.2056, "suspicious_area_m2": 900, "n_pixels": 9, "n_objects": 4, "water_km2": 0.2068, "lwd_m2_km2": 4352.0, "lwd_note": null, "quality": {"valid_water_fraction": 1.0, "cloud_fraction": 0.0, "glint_fraction": 0.0}, "model": {"weights": "weights/lgbm", "file": "weights/lgbm/model.txt", "sha256": "0eeebf43fcccd8c7c07f053b7ec723229d1a3c9b92d12eec1bdb269258c51470", "sha256_short": "0eeebf43fccc", "trained_at": "2026-09-25T01:36:30Z", "threshold": 0.63, "harmonize": "none", "class": "MARIDA Marine Debris (любой плавающий мусор, не только пластик)"}}, "probable": {"prob_max": 0.953, "prob_mean": 0.844, "signs": {"foam": {"flag": true, "white_ratio_b2_b8": 0.828, "wind10m_ms": 2.53, "rule": "прирост B2 над водой ≥ 0.8 прироста B8 («белый» спектр) или ветер ≥ 7.0 м/с"}, "glint": {"flag": true, "b11_water_median": 0.0157, "glint_share": 0.0, "rule": "медиана B11 воды зоны > 0.01 или ≥ 20 % пикселей зоны — блик (маска качества)"}, "ship": {"flag": true, "share": 0, "bright_target_px_within_500m": 141, "rule": "≥ 30 % пикселей — у яркой цели или кильватера (reports/artifacts.md) или яркая цель с откликом в SWIR (судно, лодка: B11 ≥ 0,015) ближе 500 м, или малый яркий объект (≤ 40 пикс.) с B11 ≥ 0,01 ближе 500 м (лодка с кильватером)"}, "coast": {"flag": false, "land_px_within_300m": 0, "rule": "суша (маска качества) ближе 300 м — прибой, кромка берега"}, "shallow": {"flag": true, "b3_water_zone": 0.0413, "b3_ratio_to_scene_water": 1.1, "rule": "медиана B3 воды зоны ≥ 2× медианы воды снимка и ≥ 0,03, или B4 воды зоны ≥ 0,02 и (≥ 2× воды снимка или B8 ≥ 0,013) — мелководье, яркое дно, илистая банка"}, "seam": {"flag": false, "share": 0, "rule": "≥ 30 % пикселей — прямая линия вдоль трека/границы яркости (шов)"}, "cloud": {"flag": false, "cloud_fraction": 0.0, "rule": "облака или тени облаков (маска качества) ≥ 20 % зоны"}, "diag": {"dist_land_m": null, "dist_bright_m": 1295, "n_bright_px_500m": 0, "b11_bright_max_500m": null, "b4_water_zone": 0.0338, "b8_water_zone": 0.0265, "b11_det_median": 0.0272, "b8_det_median": 0.0487, "water_scene_b3": 0.0376, "water_scene_b4": 0.0304, "n_det_px": 9, "n_obj": 4}, "note": "эвристики, не классификатор; на размеченных данных не проверены"}, "n_cozar_filaments": 0}, "field_nearby": {"items": [{"source": "ADIS (4TU.ResearchData, судовая камера)", "segment_id": 279754, "ship": "Antsiva", "date": "2022-01-26", "days_from_scene": -1679, "distance_km": 1380.1, "lon": 45.33987, "lat": -30.76971, "n_items": 0, "area_km2": 0.2, "size_class": "> 5 см", "c_items_km2": 0.0, "ci95_lo": 0.0, "ci95_hi": 18.45, "ci95_method": "точный интервал Пуассона для N, делённый на A", "raw_10cm_items_km2": 0.0, "authors_cal_10cm_items_km2": 0.0, "authors_cal_10cm_lo95": null, "authors_cal_10cm_hi95": null}, {"source": "ADIS (4TU.ResearchData, судовая камера)", "segment_id": 299831, "ship": "Antsiva", "date": "2022-01-26", "days_from_scene": -1679, "distance_km": 1380.1, "lon": 45.33982, "lat": -30.77093, "n_items": 0, "area_km2": 0.2, "size_class": "> 5 см", "c_items_km2": 0.0, "ci95_lo": 0.0, "ci95_hi": 18.45, "ci95_method": "точный интервал Пуассона для N, делённый на A", "raw_10cm_items_km2": 0.0, "authors_cal_10cm_items_km2": 0.0, "authors_cal_10cm_lo95": null, "authors_cal_10cm_hi95": null}, {"source": "ADIS (4TU.ResearchData, судовая камера)", "segment_id": 299830, "ship": "Antsiva", "date": "2022-01-26", "days_from_scene": -1679, "distance_km": 1381.8, "lon": 45.36527, "lat": -30.68732, "n_items": 1, "area_km2": 0.1999, "size_class": "> 5 см", "c_items_km2": 5.0, "ci95_lo": 0.13, "ci95_hi": 27.87, "ci95_method": "точный интервал Пуассона для N, делённый на A", "raw_10cm_items_km2": 5.0, "authors_cal_10cm_items_km2": 12.32, "authors_cal_10cm_lo95": 2.17, "authors_cal_10cm_hi95": 70.04}], "nearest_organizer_sample": {"sample_id": "MPL-0922", "source_id": "S4_BLACK_SEA_DOORS3", "distance_km": 7961.8}, "note": "Измерение ≠ оценка: это независимые полевые счёты C = N/A в другое время и в другом месте; со сценой они не связаны и не калибруют её. Ближайший отрезок ADIS — за 1380 км: только для порядка величин."}, "acquired_at": "2026-09-01T07:40:31.024000Z", "acquisition_date": "2026-09-01", "processed_at": "2026-09-26T19:09:43Z", "human_checked": false, "auto_label": "автоматически, не проверено человеком"}}, {"type": "Feature", "id": "SZ-fresh-durban-2026-09-01-007", "geometry": {"type": "Polygon", "coordinates": [[[31.014001, -29.871926], [31.012648, -29.872267], [31.011915, -29.872707], [31.011588, -29.873514], [31.011881, -29.87442], [31.012596, -29.874882], [31.013114, -29.87489], [31.013308, -29.875525], [31.013715, -29.875892], [31.014641, -29.876176], [31.015367, -29.876097], [31.016313, -29.875389], [31.017248, -29.875223], [31.017778, -29.874599], [31.017999, -29.873881], [31.017707, -29.872974], [31.016476, -29.872415], [31.015332, -29.872668], [31.01503, -29.872212], [31.014001, -29.871926]]]}, "properties": {"kind": "detection_zone", "layer_kind": "scene_zone", "zone_id": "SZ-fresh-durban-2026-09-01-007", "scene_key": "fresh-durban-2026-09-01", "scene_kind": "fresh_s2", "scene_id": "S2A_MSIL2A_20260901T074031_R092_T36JUN_20260901T142711", "region": "durban", "title": "Дурбан · зона 7", "mission": "Sentinel-2", "datetime": "2026-09-01T07:40:31.024000Z", "detection_status": "insufficient_data", "status": "insufficient_data", "concentration_status": "unavailable", "quantity": {"status": "not_confirmed", "label": "концентрация по снимку не подтверждена", "detail": "перевод площади в штуки не показываем: нет калибровочных пар (см. docs/QUANTITY.md)"}, "verification": "false_alarm_signs", "training_scene": null, "flags": ["ship", "shallow", "seam", "glint"], "n_cozar_filaments": 0, "crop_file": "crops/SZ-fresh-durban-2026-09-01-007.jpg", "wind_high": false, "measured": {"zone_area_km2": 0.1988, "suspicious_area_m2": 2400, "n_pixels": 24, "n_objects": 5, "water_km2": 0.1524, "lwd_m2_km2": 15748.0, "lwd_note": null, "quality": {"valid_water_fraction": 0.767, "cloud_fraction": 0.114, "glint_fraction": 0.0}, "model": {"weights": "weights/lgbm", "file": "weights/lgbm/model.txt", "sha256": "0eeebf43fcccd8c7c07f053b7ec723229d1a3c9b92d12eec1bdb269258c51470", "sha256_short": "0eeebf43fccc", "trained_at": "2026-09-25T01:36:30Z", "threshold": 0.63, "harmonize": "none", "class": "MARIDA Marine Debris (любой плавающий мусор, не только пластик)"}}, "probable": {"prob_max": 0.988, "prob_mean": 0.843, "signs": {"foam": {"flag": false, "white_ratio_b2_b8": 0.368, "wind10m_ms": 2.53, "rule": "прирост B2 над водой ≥ 0.8 прироста B8 («белый» спектр) или ветер ≥ 7.0 м/с"}, "glint": {"flag": true, "b11_water_median": 0.0128, "glint_share": 0.0, "rule": "медиана B11 воды зоны > 0.01 или ≥ 20 % пикселей зоны — блик (маска качества)"}, "ship": {"flag": true, "share": 0, "bright_target_px_within_500m": 2039, "rule": "≥ 30 % пикселей — у яркой цели или кильватера (reports/artifacts.md) или яркая цель с откликом в SWIR (судно, лодка: B11 ≥ 0,015) ближе 500 м, или малый яркий объект (≤ 40 пикс.) с B11 ≥ 0,01 ближе 500 м (лодка с кильватером)"}, "coast": {"flag": false, "land_px_within_300m": 0, "rule": "суша (маска качества) ближе 300 м — прибой, кромка берега"}, "shallow": {"flag": true, "b3_water_zone": 0.0667, "b3_ratio_to_scene_water": 1.78, "rule": "медиана B3 воды зоны ≥ 2× медианы воды снимка и ≥ 0,03, или B4 воды зоны ≥ 0,02 и (≥ 2× воды снимка или B8 ≥ 0,013) — мелководье, яркое дно, илистая банка"}, "seam": {"flag": true, "share": 0.875, "rule": "≥ 30 % пикселей — прямая линия вдоль трека/границы яркости (шов)"}, "cloud": {"flag": false, "cloud_fraction": 0.114, "rule": "облака или тени облаков (маска качества) ≥ 20 % зоны"}, "diag": {"dist_land_m": 396, "dist_bright_m": 409, "n_bright_px_500m": 34, "b11_bright_max_500m": 0.1049, "b4_water_zone": 0.0581, "b8_water_zone": 0.0366, "b11_det_median": 0.013, "b8_det_median": 0.0879, "water_scene_b3": 0.0376, "water_scene_b4": 0.0304, "n_det_px": 24, "n_obj": 5}, "note": "эвристики, не классификатор; на размеченных данных не проверены"}, "n_cozar_filaments": 0}, "field_nearby": {"items": [{"source": "ADIS (4TU.ResearchData, судовая камера)", "segment_id": 279754, "ship": "Antsiva", "date": "2022-01-26", "days_from_scene": -1679, "distance_km": 1380.1, "lon": 45.33987, "lat": -30.76971, "n_items": 0, "area_km2": 0.2, "size_class": "> 5 см", "c_items_km2": 0.0, "ci95_lo": 0.0, "ci95_hi": 18.45, "ci95_method": "точный интервал Пуассона для N, делённый на A", "raw_10cm_items_km2": 0.0, "authors_cal_10cm_items_km2": 0.0, "authors_cal_10cm_lo95": null, "authors_cal_10cm_hi95": null}, {"source": "ADIS (4TU.ResearchData, судовая камера)", "segment_id": 299831, "ship": "Antsiva", "date": "2022-01-26", "days_from_scene": -1679, "distance_km": 1380.1, "lon": 45.33982, "lat": -30.77093, "n_items": 0, "area_km2": 0.2, "size_class": "> 5 см", "c_items_km2": 0.0, "ci95_lo": 0.0, "ci95_hi": 18.45, "ci95_method": "точный интервал Пуассона для N, делённый на A", "raw_10cm_items_km2": 0.0, "authors_cal_10cm_items_km2": 0.0, "authors_cal_10cm_lo95": null, "authors_cal_10cm_hi95": null}, {"source": "ADIS (4TU.ResearchData, судовая камера)", "segment_id": 299830, "ship": "Antsiva", "date": "2022-01-26", "days_from_scene": -1679, "distance_km": 1381.8, "lon": 45.36527, "lat": -30.68732, "n_items": 1, "area_km2": 0.1999, "size_class": "> 5 см", "c_items_km2": 5.0, "ci95_lo": 0.13, "ci95_hi": 27.87, "ci95_method": "точный интервал Пуассона для N, делённый на A", "raw_10cm_items_km2": 5.0, "authors_cal_10cm_items_km2": 12.32, "authors_cal_10cm_lo95": 2.17, "authors_cal_10cm_hi95": 70.04}], "nearest_organizer_sample": {"sample_id": "MPL-0922", "source_id": "S4_BLACK_SEA_DOORS3", "distance_km": 7961.8}, "note": "Измерение ≠ оценка: это независимые полевые счёты C = N/A в другое время и в другом месте; со сценой они не связаны и не калибруют её. Ближайший отрезок ADIS — за 1380 км: только для порядка величин."}, "acquired_at": "2026-09-01T07:40:31.024000Z", "acquisition_date": "2026-09-01", "processed_at": "2026-09-26T19:09:43Z", "human_checked": false, "auto_label": "автоматически, не проверено человеком"}}, {"type": "Feature", "id": "SZ-fresh-durban-2026-09-01-008", "geometry": {"type": "Polygon", "coordinates": [[[31.008333, -29.881043], [31.00708, -29.881566], [31.006754, -29.882373], [31.006945, -29.883188], [31.006514, -29.883993], [31.006595, -29.885167], [31.006894, -29.885713], [31.008126, -29.886273], [31.008748, -29.886192], [31.009482, -29.885752], [31.009809, -29.884945], [31.009627, -29.883679], [31.009941, -29.883503], [31.010267, -29.882696], [31.009975, -29.88179], [31.009466, -29.881331], [31.008333, -29.881043]]]}, "properties": {"kind": "detection_zone", "layer_kind": "scene_zone", "zone_id": "SZ-fresh-durban-2026-09-01-008", "scene_key": "fresh-durban-2026-09-01", "scene_kind": "fresh_s2", "scene_id": "S2A_MSIL2A_20260901T074031_R092_T36JUN_20260901T142711", "region": "durban", "title": "Дурбан · зона 8", "mission": "Sentinel-2", "datetime": "2026-09-01T07:40:31.024000Z", "detection_status": "insufficient_data", "status": "insufficient_data", "concentration_status": "unavailable", "quantity": {"status": "not_confirmed", "label": "концентрация по снимку не подтверждена", "detail": "перевод площади в штуки не показываем: нет калибровочных пар (см. docs/QUANTITY.md)"}, "verification": "false_alarm_signs", "training_scene": null, "flags": ["coast", "shallow", "ship", "seam", "glint"], "n_cozar_filaments": 0, "crop_file": "crops/SZ-fresh-durban-2026-09-01-008.jpg", "wind_high": false, "measured": {"zone_area_km2": 0.1569, "suspicious_area_m2": 2200, "n_pixels": 22, "n_objects": 2, "water_km2": 0.1542, "lwd_m2_km2": 14267.2, "lwd_note": null, "quality": {"valid_water_fraction": 0.978, "cloud_fraction": 0.0, "glint_fraction": 0.0}, "model": {"weights": "weights/lgbm", "file": "weights/lgbm/model.txt", "sha256": "0eeebf43fcccd8c7c07f053b7ec723229d1a3c9b92d12eec1bdb269258c51470", "sha256_short": "0eeebf43fccc", "trained_at": "2026-09-25T01:36:30Z", "threshold": 0.63, "harmonize": "none", "class": "MARIDA Marine Debris (любой плавающий мусор, не только пластик)"}}, "probable": {"prob_max": 0.984, "prob_mean": 0.852, "signs": {"foam": {"flag": false, "white_ratio_b2_b8": 0.341, "wind10m_ms": 2.53, "rule": "прирост B2 над водой ≥ 0.8 прироста B8 («белый» спектр) или ветер ≥ 7.0 м/с"}, "glint": {"flag": true, "b11_water_median": 0.0133, "glint_share": 0.0, "rule": "медиана B11 воды зоны > 0.01 или ≥ 20 % пикселей зоны — блик (маска качества)"}, "ship": {"flag": true, "share": 0.5, "bright_target_px_within_500m": 1072, "rule": "≥ 30 % пикселей — у яркой цели или кильватера (reports/artifacts.md) или яркая цель с откликом в SWIR (судно, лодка: B11 ≥ 0,015) ближе 500 м, или малый яркий объект (≤ 40 пикс.) с B11 ≥ 0,01 ближе 500 м (лодка с кильватером)"}, "coast": {"flag": true, "land_px_within_300m": 527, "rule": "суша (маска качества) ближе 300 м — прибой, кромка берега"}, "shallow": {"flag": true, "b3_water_zone": 0.0624, "b3_ratio_to_scene_water": 1.66, "rule": "медиана B3 воды зоны ≥ 2× медианы воды снимка и ≥ 0,03, или B4 воды зоны ≥ 0,02 и (≥ 2× воды снимка или B8 ≥ 0,013) — мелководье, яркое дно, илистая банка"}, "seam": {"flag": true, "share": 0.5, "rule": "≥ 30 % пикселей — прямая линия вдоль трека/границы яркости (шов)"}, "cloud": {"flag": false, "cloud_fraction": 0.0, "rule": "облака или тени облаков (маска качества) ≥ 20 % зоны"}, "diag": {"dist_land_m": 150, "dist_bright_m": 10, "n_bright_px_500m": 169, "b11_bright_max_500m": 0.2839, "b4_water_zone": 0.058, "b8_water_zone": 0.0338, "b11_det_median": 0.0221, "b8_det_median": 0.082, "water_scene_b3": 0.0376, "water_scene_b4": 0.0304, "n_det_px": 22, "n_obj": 2}, "note": "эвристики, не классификатор; на размеченных данных не проверены"}, "n_cozar_filaments": 0}, "field_nearby": {"items": [{"source": "ADIS (4TU.ResearchData, судовая камера)", "segment_id": 279754, "ship": "Antsiva", "date": "2022-01-26", "days_from_scene": -1679, "distance_km": 1380.1, "lon": 45.33987, "lat": -30.76971, "n_items": 0, "area_km2": 0.2, "size_class": "> 5 см", "c_items_km2": 0.0, "ci95_lo": 0.0, "ci95_hi": 18.45, "ci95_method": "точный интервал Пуассона для N, делённый на A", "raw_10cm_items_km2": 0.0, "authors_cal_10cm_items_km2": 0.0, "authors_cal_10cm_lo95": null, "authors_cal_10cm_hi95": null}, {"source": "ADIS (4TU.ResearchData, судовая камера)", "segment_id": 299831, "ship": "Antsiva", "date": "2022-01-26", "days_from_scene": -1679, "distance_km": 1380.1, "lon": 45.33982, "lat": -30.77093, "n_items": 0, "area_km2": 0.2, "size_class": "> 5 см", "c_items_km2": 0.0, "ci95_lo": 0.0, "ci95_hi": 18.45, "ci95_method": "точный интервал Пуассона для N, делённый на A", "raw_10cm_items_km2": 0.0, "authors_cal_10cm_items_km2": 0.0, "authors_cal_10cm_lo95": null, "authors_cal_10cm_hi95": null}, {"source": "ADIS (4TU.ResearchData, судовая камера)", "segment_id": 299830, "ship": "Antsiva", "date": "2022-01-26", "days_from_scene": -1679, "distance_km": 1381.8, "lon": 45.36527, "lat": -30.68732, "n_items": 1, "area_km2": 0.1999, "size_class": "> 5 см", "c_items_km2": 5.0, "ci95_lo": 0.13, "ci95_hi": 27.87, "ci95_method": "точный интервал Пуассона для N, делённый на A", "raw_10cm_items_km2": 5.0, "authors_cal_10cm_items_km2": 12.32, "authors_cal_10cm_lo95": 2.17, "authors_cal_10cm_hi95": 70.04}], "nearest_organizer_sample": {"sample_id": "MPL-0922", "source_id": "S4_BLACK_SEA_DOORS3", "distance_km": 7961.8}, "note": "Измерение ≠ оценка: это независимые полевые счёты C = N/A в другое время и в другом месте; со сценой они не связаны и не калибруют её. Ближайший отрезок ADIS — за 1380 км: только для порядка величин."}, "acquired_at": "2026-09-01T07:40:31.024000Z", "acquisition_date": "2026-09-01", "processed_at": "2026-09-26T19:09:43Z", "human_checked": false, "auto_label": "автоматически, не проверено человеком"}}, {"type": "Feature", "id": "SZ-fresh-durban-2026-09-01-009", "geometry": {"type": "Polygon", "coordinates": [[[31.159437, -29.895057], [31.1585, -29.895315], [31.157971, -29.895939], [31.157953, -29.896931], [31.158663, -29.897753], [31.159589, -29.898037], [31.160212, -29.897955], [31.160715, -29.898774], [31.161642, -29.899058], [31.162368, -29.898978], [31.163191, -29.89926], [31.164444, -29.898736], [31.164771, -29.897838], [31.164475, -29.897022], [31.163967, -29.896474], [31.163041, -29.89619], [31.161174, -29.896345], [31.160571, -29.895344], [31.159437, -29.895057]]]}, "properties": {"kind": "detection_zone", "layer_kind": "scene_zone", "zone_id": "SZ-fresh-durban-2026-09-01-009", "scene_key": "fresh-durban-2026-09-01", "scene_kind": "fresh_s2", "scene_id": "S2A_MSIL2A_20260901T074031_R092_T36JUN_20260901T142711", "region": "durban", "title": "Дурбан · зона 9", "mission": "Sentinel-2", "datetime": "2026-09-01T07:40:31.024000Z", "detection_status": "insufficient_data", "status": "insufficient_data", "concentration_status": "unavailable", "quantity": {"status": "not_confirmed", "label": "концентрация по снимку не подтверждена", "detail": "перевод площади в штуки не показываем: нет калибровочных пар (см. docs/QUANTITY.md)"}, "verification": "false_alarm_signs", "training_scene": null, "flags": ["shallow", "glint", "foam"], "n_cozar_filaments": 0, "crop_file": "crops/SZ-fresh-durban-2026-09-01-009.jpg", "wind_high": false, "measured": {"zone_area_km2": 0.1868, "suspicious_area_m2": 800, "n_pixels": 8, "n_objects": 6, "water_km2": 0.1871, "lwd_m2_km2": 4275.8, "lwd_note": null, "quality": {"valid_water_fraction": 1.0, "cloud_fraction": 0.0, "glint_fraction": 0.0}, "model": {"weights": "weights/lgbm", "file": "weights/lgbm/model.txt", "sha256": "0eeebf43fcccd8c7c07f053b7ec723229d1a3c9b92d12eec1bdb269258c51470", "sha256_short": "0eeebf43fccc", "trained_at": "2026-09-25T01:36:30Z", "threshold": 0.63, "harmonize": "none", "class": "MARIDA Marine Debris (любой плавающий мусор, не только пластик)"}}, "probable": {"prob_max": 0.996, "prob_mean": 0.872, "signs": {"foam": {"flag": true, "white_ratio_b2_b8": 0.886, "wind10m_ms": 2.53, "rule": "прирост B2 над водой ≥ 0.8 прироста B8 («белый» спектр) или ветер ≥ 7.0 м/с"}, "glint": {"flag": true, "b11_water_median": 0.0172, "glint_share": 0.0, "rule": "медиана B11 воды зоны > 0.01 или ≥ 20 % пикселей зоны — блик (маска качества)"}, "ship": {"flag": false, "share": 0, "bright_target_px_within_500m": 0, "rule": "≥ 30 % пикселей — у яркой цели или кильватера (reports/artifacts.md) или яркая цель с откликом в SWIR (судно, лодка: B11 ≥ 0,015) ближе 500 м, или малый яркий объект (≤ 40 пикс.) с B11 ≥ 0,01 ближе 500 м (лодка с кильватером)"}, "coast": {"flag": false, "land_px_within_300m": 0, "rule": "суша (маска качества) ближе 300 м — прибой, кромка берега"}, "shallow": {"flag": true, "b3_water_zone": 0.0394, "b3_ratio_to_scene_water": 1.05, "rule": "медиана B3 воды зоны ≥ 2× медианы воды снимка и ≥ 0,03, или B4 воды зоны ≥ 0,02 и (≥ 2× воды снимка или B8 ≥ 0,013) — мелководье, яркое дно, илистая банка"}, "seam": {"flag": false, "share": 0, "rule": "≥ 30 % пикселей — прямая линия вдоль трека/границы яркости (шов)"}, "cloud": {"flag": false, "cloud_fraction": 0.0, "rule": "облака или тени облаков (маска качества) ≥ 20 % зоны"}, "diag": {"dist_land_m": null, "dist_bright_m": null, "n_bright_px_500m": 0, "b11_bright_max_500m": null, "b4_water_zone": 0.034, "b8_water_zone": 0.0271, "b11_det_median": 0.0241, "b8_det_median": 0.0451, "water_scene_b3": 0.0376, "water_scene_b4": 0.0304, "n_det_px": 8, "n_obj": 6}, "note": "эвристики, не классификатор; на размеченных данных не проверены"}, "n_cozar_filaments": 0}, "field_nearby": {"items": [{"source": "ADIS (4TU.ResearchData, судовая камера)", "segment_id": 279754, "ship": "Antsiva", "date": "2022-01-26", "days_from_scene": -1679, "distance_km": 1380.1, "lon": 45.33987, "lat": -30.76971, "n_items": 0, "area_km2": 0.2, "size_class": "> 5 см", "c_items_km2": 0.0, "ci95_lo": 0.0, "ci95_hi": 18.45, "ci95_method": "точный интервал Пуассона для N, делённый на A", "raw_10cm_items_km2": 0.0, "authors_cal_10cm_items_km2": 0.0, "authors_cal_10cm_lo95": null, "authors_cal_10cm_hi95": null}, {"source": "ADIS (4TU.ResearchData, судовая камера)", "segment_id": 299831, "ship": "Antsiva", "date": "2022-01-26", "days_from_scene": -1679, "distance_km": 1380.1, "lon": 45.33982, "lat": -30.77093, "n_items": 0, "area_km2": 0.2, "size_class": "> 5 см", "c_items_km2": 0.0, "ci95_lo": 0.0, "ci95_hi": 18.45, "ci95_method": "точный интервал Пуассона для N, делённый на A", "raw_10cm_items_km2": 0.0, "authors_cal_10cm_items_km2": 0.0, "authors_cal_10cm_lo95": null, "authors_cal_10cm_hi95": null}, {"source": "ADIS (4TU.ResearchData, судовая камера)", "segment_id": 299830, "ship": "Antsiva", "date": "2022-01-26", "days_from_scene": -1679, "distance_km": 1381.8, "lon": 45.36527, "lat": -30.68732, "n_items": 1, "area_km2": 0.1999, "size_class": "> 5 см", "c_items_km2": 5.0, "ci95_lo": 0.13, "ci95_hi": 27.87, "ci95_method": "точный интервал Пуассона для N, делённый на A", "raw_10cm_items_km2": 5.0, "authors_cal_10cm_items_km2": 12.32, "authors_cal_10cm_lo95": 2.17, "authors_cal_10cm_hi95": 70.04}], "nearest_organizer_sample": {"sample_id": "MPL-0922", "source_id": "S4_BLACK_SEA_DOORS3", "distance_km": 7961.8}, "note": "Измерение ≠ оценка: это независимые полевые счёты C = N/A в другое время и в другом месте; со сценой они не связаны и не калибруют её. Ближайший отрезок ADIS — за 1380 км: только для порядка величин."}, "acquired_at": "2026-09-01T07:40:31.024000Z", "acquisition_date": "2026-09-01", "processed_at": "2026-09-26T19:09:43Z", "human_checked": false, "auto_label": "автоматически, не проверено человеком"}}, {"type": "Feature", "id": "SZ-fresh-durban-2026-09-01-010", "geometry": {"type": "Polygon", "coordinates": [[[31.166705, -29.89967], [31.165452, -29.900194], [31.165127, -29.901001], [31.16522, -29.901544], [31.166441, -29.902734], [31.167368, -29.903017], [31.167991, -29.902936], [31.168938, -29.902137], [31.168957, -29.901055], [31.167838, -29.899956], [31.166705, -29.89967]]]}, "properties": {"kind": "detection_zone", "layer_kind": "scene_zone", "zone_id": "SZ-fresh-durban-2026-09-01-010", "scene_key": "fresh-durban-2026-09-01", "scene_kind": "fresh_s2", "scene_id": "S2A_MSIL2A_20260901T074031_R092_T36JUN_20260901T142711", "region": "durban", "title": "Дурбан · зона 10", "mission": "Sentinel-2", "datetime": "2026-09-01T07:40:31.024000Z", "detection_status": "insufficient_data", "status": "insufficient_data", "concentration_status": "unavailable", "quantity": {"status": "not_confirmed", "label": "концентрация по снимку не подтверждена", "detail": "перевод площади в штуки не показываем: нет калибровочных пар (см. docs/QUANTITY.md)"}, "verification": "false_alarm_signs", "training_scene": null, "flags": ["shallow", "glint"], "n_cozar_filaments": 0, "crop_file": "crops/SZ-fresh-durban-2026-09-01-010.jpg", "wind_high": false, "measured": {"zone_area_km2": 0.0987, "suspicious_area_m2": 500, "n_pixels": 5, "n_objects": 2, "water_km2": 0.1003, "lwd_m2_km2": 4985.0, "lwd_note": null, "quality": {"valid_water_fraction": 1.0, "cloud_fraction": 0.0, "glint_fraction": 0.0}, "model": {"weights": "weights/lgbm", "file": "weights/lgbm/model.txt", "sha256": "0eeebf43fcccd8c7c07f053b7ec723229d1a3c9b92d12eec1bdb269258c51470", "sha256_short": "0eeebf43fccc", "trained_at": "2026-09-25T01:36:30Z", "threshold": 0.63, "harmonize": "none", "class": "MARIDA Marine Debris (любой плавающий мусор, не только пластик)"}}, "probable": {"prob_max": 0.976, "prob_mean": 0.878, "signs": {"foam": {"flag": false, "white_ratio_b2_b8": 0.782, "wind10m_ms": 2.53, "rule": "прирост B2 над водой ≥ 0.8 прироста B8 («белый» спектр) или ветер ≥ 7.0 м/с"}, "glint": {"flag": true, "b11_water_median": 0.0152, "glint_share": 0.0, "rule": "медиана B11 воды зоны > 0.01 или ≥ 20 % пикселей зоны — блик (маска качества)"}, "ship": {"flag": false, "share": 0, "bright_target_px_within_500m": 0, "rule": "≥ 30 % пикселей — у яркой цели или кильватера (reports/artifacts.md) или яркая цель с откликом в SWIR (судно, лодка: B11 ≥ 0,015) ближе 500 м, или малый яркий объект (≤ 40 пикс.) с B11 ≥ 0,01 ближе 500 м (лодка с кильватером)"}, "coast": {"flag": false, "land_px_within_300m": 0, "rule": "суша (маска качества) ближе 300 м — прибой, кромка берега"}, "shallow": {"flag": true, "b3_water_zone": 0.0363, "b3_ratio_to_scene_water": 0.97, "rule": "медиана B3 воды зоны ≥ 2× медианы воды снимка и ≥ 0,03, или B4 воды зоны ≥ 0,02 и (≥ 2× воды снимка или B8 ≥ 0,013) — мелководье, яркое дно, илистая банка"}, "seam": {"flag": false, "share": 0, "rule": "≥ 30 % пикселей — прямая линия вдоль трека/границы яркости (шов)"}, "cloud": {"flag": false, "cloud_fraction": 0.0, "rule": "облака или тени облаков (маска качества) ≥ 20 % зоны"}, "diag": {"dist_land_m": null, "dist_bright_m": null, "n_bright_px_500m": 0, "b11_bright_max_500m": null, "b4_water_zone": 0.0311, "b8_water_zone": 0.0247, "b11_det_median": 0.0226, "b8_det_median": 0.0428, "water_scene_b3": 0.0376, "water_scene_b4": 0.0304, "n_det_px": 5, "n_obj": 2}, "note": "эвристики, не классификатор; на размеченных данных не проверены"}, "n_cozar_filaments": 0}, "field_nearby": {"items": [{"source": "ADIS (4TU.ResearchData, судовая камера)", "segment_id": 279754, "ship": "Antsiva", "date": "2022-01-26", "days_from_scene": -1679, "distance_km": 1380.1, "lon": 45.33987, "lat": -30.76971, "n_items": 0, "area_km2": 0.2, "size_class": "> 5 см", "c_items_km2": 0.0, "ci95_lo": 0.0, "ci95_hi": 18.45, "ci95_method": "точный интервал Пуассона для N, делённый на A", "raw_10cm_items_km2": 0.0, "authors_cal_10cm_items_km2": 0.0, "authors_cal_10cm_lo95": null, "authors_cal_10cm_hi95": null}, {"source": "ADIS (4TU.ResearchData, судовая камера)", "segment_id": 299831, "ship": "Antsiva", "date": "2022-01-26", "days_from_scene": -1679, "distance_km": 1380.1, "lon": 45.33982, "lat": -30.77093, "n_items": 0, "area_km2": 0.2, "size_class": "> 5 см", "c_items_km2": 0.0, "ci95_lo": 0.0, "ci95_hi": 18.45, "ci95_method": "точный интервал Пуассона для N, делённый на A", "raw_10cm_items_km2": 0.0, "authors_cal_10cm_items_km2": 0.0, "authors_cal_10cm_lo95": null, "authors_cal_10cm_hi95": null}, {"source": "ADIS (4TU.ResearchData, судовая камера)", "segment_id": 299830, "ship": "Antsiva", "date": "2022-01-26", "days_from_scene": -1679, "distance_km": 1381.8, "lon": 45.36527, "lat": -30.68732, "n_items": 1, "area_km2": 0.1999, "size_class": "> 5 см", "c_items_km2": 5.0, "ci95_lo": 0.13, "ci95_hi": 27.87, "ci95_method": "точный интервал Пуассона для N, делённый на A", "raw_10cm_items_km2": 5.0, "authors_cal_10cm_items_km2": 12.32, "authors_cal_10cm_lo95": 2.17, "authors_cal_10cm_hi95": 70.04}], "nearest_organizer_sample": {"sample_id": "MPL-0922", "source_id": "S4_BLACK_SEA_DOORS3", "distance_km": 7961.8}, "note": "Измерение ≠ оценка: это независимые полевые счёты C = N/A в другое время и в другом месте; со сценой они не связаны и не калибруют её. Ближайший отрезок ADIS — за 1380 км: только для порядка величин."}, "acquired_at": "2026-09-01T07:40:31.024000Z", "acquisition_date": "2026-09-01", "processed_at": "2026-09-26T19:09:43Z", "human_checked": false, "auto_label": "автоматически, не проверено человеком"}}]}