{"type": "FeatureCollection", "features": [{"type": "Feature", "id": "SZ-live-danang-2025-09-15-000", "geometry": {"type": "Polygon", "coordinates": [[[108.619028, 15.725242], [108.619028, 15.95479], [108.381347, 15.95479], [108.381347, 15.725242], [108.619028, 15.725242]]]}, "properties": {"kind": "detection_zone", "layer_kind": "scene_zone", "zone_id": "SZ-live-danang-2025-09-15-000", "scene_key": "live-danang-2025-09-15", "scene_kind": "live", "scene_id": "S2A_MSIL2A_20250915T031151_R075_T48PZC_20250915T062421", "region": "danang", "title": "Дананг (устье Тхубон, Хойан) · вся вырезка", "mission": "Sentinel-2", "datetime": "2025-09-15T03:11:51.024000Z", "detection_status": "not_detected", "status": "not_detected", "concentration_status": "unavailable", "flags": [], "n_cozar_filaments": 0, "measured": {"zone_area_km2": 646.717, "suspicious_area_m2": 1600, "n_pixels": 16, "n_objects": 12, "water_km2": 459.717, "lwd_m2_km2": 3.48, "quality": {"valid_water_fraction": 0.733, "cloud_fraction": 0.17, "glint_fraction": 0.0}, "model": {"weights": "weights/lgbm", "file": "weights/lgbm/model.txt", "sha256": "0eeebf43fcccd8c7c07f053b7ec723229d1a3c9b92d12eec1bdb269258c51470", "sha256_short": "0eeebf43fccc", "trained_at": "2026-09-25T01:35:55Z", "threshold": 0.63, "harmonize": "none", "class": "MARIDA Marine Debris (любой плавающий мусор, не только пластик)"}}, "probable": {"prob_max": 0.957, "prob_mean": null, "signs": null, "n_cozar_filaments": 0}, "field_nearby": {"items": [{"source": "ADIS (4TU.ResearchData, судовая камера)", "segment_id": 339924, "ship": "R/V Tinro", "date": "2022-02-07", "days_from_scene": -1316, "distance_km": 4332.4, "lon": 139.33376, "lat": 41.2048, "n_items": 0, "area_km2": 0.8103, "size_class": "> 5 см", "c_items_km2": 0.0, "ci95_lo": 0.0, "ci95_hi": 4.55, "ci95_method": "точный интервал Пуассона для N, делённый на A"}, {"source": "ADIS (4TU.ResearchData, судовая камера)", "segment_id": 339927, "ship": "R/V Tinro", "date": "2022-02-07", "days_from_scene": -1316, "distance_km": 4349.4, "lon": 139.59261, "lat": 41.14731, "n_items": 0, "area_km2": 0.8108, "size_class": "> 5 см", "c_items_km2": 0.0, "ci95_lo": 0.0, "ci95_hi": 4.55, "ci95_method": "точный интервал Пуассона для N, делённый на A"}, {"source": "ADIS (4TU.ResearchData, судовая камера)", "segment_id": 339928, "ship": "R/V Tinro", "date": "2022-02-07", "days_from_scene": -1316, "distance_km": 4357.1, "lon": 139.70705, "lat": 41.12296, "n_items": 0, "area_km2": 0.8112, "size_class": "> 5 см", "c_items_km2": 0.0, "ci95_lo": 0.0, "ci95_hi": 4.55, "ci95_method": "точный интервал Пуассона для N, делённый на A"}], "nearest_organizer_sample": {"sample_id": "MPL-0923", "source_id": "S4_BLACK_SEA_DOORS3", "distance_km": 7711.4}, "note": "Измерение ≠ оценка: это независимые полевые счёты C = N/A в другое время и в другом месте; со сценой они не связаны и не калибруют её. Ближайший отрезок ADIS — за 4332 км: только для порядка величин."}}}]}