{"type": "FeatureCollection", "features": [{"type": "Feature", "id": "D-SZ-live-honduras-2025-12-28-001-6", "geometry": {"type": "Polygon", "coordinates": [[[-88.1356207, 15.8314475], [-88.1356202, 15.8313571], [-88.1357136, 15.8313567], [-88.135713, 15.8312663], [-88.1358064, 15.8312658], [-88.1358059, 15.8311754], [-88.1359926, 15.8311744], [-88.1359921, 15.831084], [-88.1358054, 15.831085], [-88.1358059, 15.8311754], [-88.1356192, 15.8311764], [-88.1356197, 15.8312668], [-88.1355263, 15.8312672], [-88.1355273, 15.831448], [-88.1356207, 15.8314475]]]}, "properties": {"kind": "detection", "det_id": "D-SZ-live-honduras-2025-12-28-001-6", "zone_id": "SZ-live-honduras-2025-12-28-001", "scene_id": "S2A_MSIL2A_20251228T161721_R140_T16PCC_20251228T202011", "datetime": "2025-12-28T16:17:21.024000Z", "n_pixels": 7, "area_m2": 700, "prob_max": 0.9961, "prob_mean": 0.9059, "threshold": 0.63, "in_strip": true, "artifact": null}}, {"type": "Feature", "id": "D-SZ-live-honduras-2025-12-28-002-7", "geometry": {"type": "Polygon", "coordinates": [[[-88.1463571, 15.8312103], [-88.1463566, 15.8311199], [-88.1459831, 15.8311219], [-88.1459836, 15.8312123], [-88.1463571, 15.8312103]]]}, "properties": {"kind": "detection", "det_id": "D-SZ-live-honduras-2025-12-28-002-7", "zone_id": "SZ-live-honduras-2025-12-28-002", "scene_id": "S2A_MSIL2A_20251228T161721_R140_T16PCC_20251228T202011", "datetime": "2025-12-28T16:17:21.024000Z", "n_pixels": 4, "area_m2": 400, "prob_max": 0.9843, "prob_mean": 0.8265, "threshold": 0.63, "in_strip": true, "artifact": null}}, {"type": "Feature", "id": "D-SZ-live-honduras-2025-12-28-002-8", "geometry": {"type": "Polygon", "coordinates": [[[-88.1445831, 15.8312196], [-88.1445826, 15.8311293], [-88.1444892, 15.8311298], [-88.1444897, 15.8312201], [-88.1445831, 15.8312196]]]}, "properties": {"kind": "detection", "det_id": "D-SZ-live-honduras-2025-12-28-002-8", "zone_id": "SZ-live-honduras-2025-12-28-002", "scene_id": "S2A_MSIL2A_20251228T161721_R140_T16PCC_20251228T202011", "datetime": "2025-12-28T16:17:21.024000Z", "n_pixels": 1, "area_m2": 100, "prob_max": 0.9373, "prob_mean": 0.9373, "threshold": 0.63, "in_strip": true, "artifact": null}}, {"type": "Feature", "id": "D-SZ-live-honduras-2025-12-28-002-9", "geometry": {"type": "Polygon", "coordinates": [[[-88.1474765, 15.8310236], [-88.147476, 15.8309332], [-88.1472892, 15.8309342], [-88.1472897, 15.8310246], [-88.1474765, 15.8310236]]]}, "properties": {"kind": "detection", "det_id": "D-SZ-live-honduras-2025-12-28-002-9", "zone_id": "SZ-live-honduras-2025-12-28-002", "scene_id": "S2A_MSIL2A_20251228T161721_R140_T16PCC_20251228T202011", "datetime": "2025-12-28T16:17:21.024000Z", "n_pixels": 2, "area_m2": 200, "prob_max": 0.9882, "prob_mean": 0.9118, "threshold": 0.63, "in_strip": true, "artifact": null}}, {"type": "Feature", "id": "D-SZ-live-honduras-2025-12-28-002-10", "geometry": {"type": "Polygon", "coordinates": [[[-88.1427147, 15.8310487], [-88.1427142, 15.8309583], [-88.1425274, 15.8309593], [-88.1425279, 15.8310497], [-88.1427147, 15.8310487]]]}, "properties": {"kind": "detection", "det_id": "D-SZ-live-honduras-2025-12-28-002-10", "zone_id": "SZ-live-honduras-2025-12-28-002", "scene_id": "S2A_MSIL2A_20251228T161721_R140_T16PCC_20251228T202011", "datetime": "2025-12-28T16:17:21.024000Z", "n_pixels": 2, "area_m2": 200, "prob_max": 1.0, "prob_mean": 0.9157, "threshold": 0.63, "in_strip": true, "artifact": null}}, {"type": "Feature", "id": "D-SZ-live-honduras-2025-12-28-002-11", "geometry": {"type": "Polygon", "coordinates": [[[-88.1480362, 15.8309302], [-88.1480357, 15.8308398], [-88.1479423, 15.8308403], [-88.1479428, 15.8309307], [-88.1480362, 15.8309302]]]}, "properties": {"kind": "detection", "det_id": "D-SZ-live-honduras-2025-12-28-002-11", "zone_id": "SZ-live-honduras-2025-12-28-002", "scene_id": "S2A_MSIL2A_20251228T161721_R140_T16PCC_20251228T202011", "datetime": "2025-12-28T16:17:21.024000Z", "n_pixels": 1, "area_m2": 100, "prob_max": 0.8784, "prob_mean": 0.8784, "threshold": 0.63, "in_strip": true, "artifact": null}}, {"type": "Feature", "id": "D-SZ-live-honduras-2025-12-28-002-12", "geometry": {"type": "Polygon", "coordinates": [[[-88.1471025, 15.8309352], [-88.147102, 15.8308448], [-88.1470086, 15.8308453], [-88.1470091, 15.8309357], [-88.1471025, 15.8309352]]]}, "properties": {"kind": "detection", "det_id": "D-SZ-live-honduras-2025-12-28-002-12", "zone_id": "SZ-live-honduras-2025-12-28-002", "scene_id": "S2A_MSIL2A_20251228T161721_R140_T16PCC_20251228T202011", "datetime": "2025-12-28T16:17:21.024000Z", "n_pixels": 1, "area_m2": 100, "prob_max": 0.6863, "prob_mean": 0.6863, "threshold": 0.63, "in_strip": true, "artifact": null}}, {"type": "Feature", "id": "D-SZ-live-honduras-2025-12-28-002-13", "geometry": {"type": "Polygon", "coordinates": [[[-88.1489694, 15.8308349], [-88.1489683, 15.8306541], [-88.148875, 15.8306546], [-88.148876, 15.8308354], [-88.1489694, 15.8308349]]]}, "properties": {"kind": "detection", "det_id": "D-SZ-live-honduras-2025-12-28-002-13", "zone_id": "SZ-live-honduras-2025-12-28-002", "scene_id": "S2A_MSIL2A_20251228T161721_R140_T16PCC_20251228T202011", "datetime": "2025-12-28T16:17:21.024000Z", "n_pixels": 2, "area_m2": 200, "prob_max": 0.949, "prob_mean": 0.8784, "threshold": 0.63, "in_strip": true, "artifact": "ship"}}, {"type": "Feature", "id": "D-SZ-live-honduras-2025-12-28-002-14", "geometry": {"type": "Polygon", "coordinates": [[[-88.1492489, 15.830743], [-88.1492484, 15.8306526], [-88.1493418, 15.8306521], [-88.1493413, 15.8305618], [-88.1492479, 15.8305623], [-88.1492484, 15.8306526], [-88.1490617, 15.8306536], [-88.1490622, 15.830744], [-88.1492489, 15.830743]]]}, "properties": {"kind": "detection", "det_id": "D-SZ-live-honduras-2025-12-28-002-14", "zone_id": "SZ-live-honduras-2025-12-28-002", "scene_id": "S2A_MSIL2A_20251228T161721_R140_T16PCC_20251228T202011", "datetime": "2025-12-28T16:17:21.024000Z", "n_pixels": 3, "area_m2": 300, "prob_max": 0.9882, "prob_mean": 0.9556, "threshold": 0.63, "in_strip": true, "artifact": "ship"}}, {"type": "Feature", "id": "D-SZ-live-honduras-2025-12-28-002-15", "geometry": {"type": "Polygon", "coordinates": [[[-88.1511035, 15.8284734], [-88.151103, 15.8283831], [-88.1509163, 15.8283841], [-88.1509168, 15.8284744], [-88.1511035, 15.8284734]]]}, "properties": {"kind": "detection", "det_id": "D-SZ-live-honduras-2025-12-28-002-15", "zone_id": "SZ-live-honduras-2025-12-28-002", "scene_id": "S2A_MSIL2A_20251228T161721_R140_T16PCC_20251228T202011", "datetime": "2025-12-28T16:17:21.024000Z", "n_pixels": 2, "area_m2": 200, "prob_max": 1.0, "prob_mean": 1.0, "threshold": 0.63, "in_strip": true, "artifact": null}}, {"type": "Feature", "id": "D-SZ-live-honduras-2025-12-28-003-16", "geometry": {"type": "Polygon", "coordinates": [[[-88.2758106, 15.8232566], [-88.27581, 15.8231662], [-88.2757166, 15.8231668], [-88.2757172, 15.8232572], [-88.2758106, 15.8232566]]]}, "properties": {"kind": "detection", "det_id": "D-SZ-live-honduras-2025-12-28-003-16", "zone_id": "SZ-live-honduras-2025-12-28-003", "scene_id": "S2A_MSIL2A_20251228T161721_R140_T16PCC_20251228T202011", "datetime": "2025-12-28T16:17:21.024000Z", "n_pixels": 1, "area_m2": 100, "prob_max": 0.8157, "prob_mean": 0.8157, "threshold": 0.63, "in_strip": true, "artifact": null}}, {"type": "Feature", "id": "D-SZ-live-honduras-2025-12-28-003-17", "geometry": {"type": "Polygon", "coordinates": [[[-88.2731031, 15.8232725], [-88.2731025, 15.8231821], [-88.2730092, 15.8231827], [-88.2730097, 15.8232731], [-88.2731031, 15.8232725]]]}, "properties": {"kind": "detection", "det_id": "D-SZ-live-honduras-2025-12-28-003-17", "zone_id": "SZ-live-honduras-2025-12-28-003", "scene_id": "S2A_MSIL2A_20251228T161721_R140_T16PCC_20251228T202011", "datetime": "2025-12-28T16:17:21.024000Z", "n_pixels": 1, "area_m2": 100, "prob_max": 0.9922, "prob_mean": 0.9922, "threshold": 0.63, "in_strip": true, "artifact": null}}, {"type": "Feature", "id": "D-SZ-live-honduras-2025-12-28-003-18", "geometry": {"type": "Polygon", "coordinates": [[[-88.2718894, 15.8232796], [-88.2718888, 15.8231893], [-88.2717021, 15.8231904], [-88.2717027, 15.8232807], [-88.2718894, 15.8232796]]]}, "properties": {"kind": "detection", "det_id": "D-SZ-live-honduras-2025-12-28-003-18", "zone_id": "SZ-live-honduras-2025-12-28-003", "scene_id": "S2A_MSIL2A_20251228T161721_R140_T16PCC_20251228T202011", "datetime": "2025-12-28T16:17:21.024000Z", "n_pixels": 2, "area_m2": 200, "prob_max": 0.9647, "prob_mean": 0.8216, "threshold": 0.63, "in_strip": true, "artifact": null}}, {"type": "Feature", "id": "D-SZ-live-honduras-2025-12-28-003-19", "geometry": {"type": "Polygon", "coordinates": [[[-88.2750631, 15.8231706], [-88.2750625, 15.8230803], [-88.2749692, 15.8230808], [-88.2749697, 15.8231712], [-88.2750631, 15.8231706]]]}, "properties": {"kind": "detection", "det_id": "D-SZ-live-honduras-2025-12-28-003-19", "zone_id": "SZ-live-honduras-2025-12-28-003", "scene_id": "S2A_MSIL2A_20251228T161721_R140_T16PCC_20251228T202011", "datetime": "2025-12-28T16:17:21.024000Z", "n_pixels": 1, "area_m2": 100, "prob_max": 0.8314, "prob_mean": 0.8314, "threshold": 0.63, "in_strip": true, "artifact": null}}, {"type": "Feature", "id": "D-SZ-live-honduras-2025-12-28-003-20", "geometry": {"type": "Polygon", "coordinates": [[[-88.2741295, 15.8231761], [-88.2741289, 15.8230857], [-88.2739422, 15.8230868], [-88.2739428, 15.8231772], [-88.2741295, 15.8231761]]]}, "properties": {"kind": "detection", "det_id": "D-SZ-live-honduras-2025-12-28-003-20", "zone_id": "SZ-live-honduras-2025-12-28-003", "scene_id": "S2A_MSIL2A_20251228T161721_R140_T16PCC_20251228T202011", "datetime": "2025-12-28T16:17:21.024000Z", "n_pixels": 2, "area_m2": 200, "prob_max": 0.8118, "prob_mean": 0.7667, "threshold": 0.63, "in_strip": true, "artifact": null}}, {"type": "Feature", "id": "D-SZ-live-honduras-2025-12-28-003-21", "geometry": {"type": "Polygon", "coordinates": [[[-88.2735693, 15.8231794], [-88.2735688, 15.823089], [-88.2734754, 15.8230896], [-88.273476, 15.82318], [-88.2735693, 15.8231794]]]}, "properties": {"kind": "detection", "det_id": "D-SZ-live-honduras-2025-12-28-003-21", "zone_id": "SZ-live-honduras-2025-12-28-003", "scene_id": "S2A_MSIL2A_20251228T161721_R140_T16PCC_20251228T202011", "datetime": "2025-12-28T16:17:21.024000Z", "n_pixels": 1, "area_m2": 100, "prob_max": 0.898, "prob_mean": 0.898, "threshold": 0.63, "in_strip": true, "artifact": null}}, {"type": "Feature", "id": "D-SZ-live-honduras-2025-12-28-003-22", "geometry": {"type": "Polygon", "coordinates": [[[-88.2753426, 15.8230786], [-88.2753421, 15.8229882], [-88.2752487, 15.8229888], [-88.2752493, 15.8230792], [-88.2753426, 15.8230786]]]}, "properties": {"kind": "detection", "det_id": "D-SZ-live-honduras-2025-12-28-003-22", "zone_id": "SZ-live-honduras-2025-12-28-003", "scene_id": "S2A_MSIL2A_20251228T161721_R140_T16PCC_20251228T202011", "datetime": "2025-12-28T16:17:21.024000Z", "n_pixels": 1, "area_m2": 100, "prob_max": 0.8902, "prob_mean": 0.8902, "threshold": 0.63, "in_strip": true, "artifact": null}}, {"type": "Feature", "id": "D-SZ-live-honduras-2025-12-28-003-23", "geometry": {"type": "Polygon", "coordinates": [[[-88.274409, 15.8230841], [-88.2744084, 15.8229937], [-88.2743151, 15.8229943], [-88.2743157, 15.8230846], [-88.274409, 15.8230841]]]}, "properties": {"kind": "detection", "det_id": "D-SZ-live-honduras-2025-12-28-003-23", "zone_id": "SZ-live-honduras-2025-12-28-003", "scene_id": "S2A_MSIL2A_20251228T161721_R140_T16PCC_20251228T202011", "datetime": "2025-12-28T16:17:21.024000Z", "n_pixels": 1, "area_m2": 100, "prob_max": 0.8902, "prob_mean": 0.8902, "threshold": 0.63, "in_strip": true, "artifact": null}}, {"type": "Feature", "id": "D-SZ-live-honduras-2025-12-28-003-24", "geometry": {"type": "Polygon", "coordinates": [[[-88.2784229, 15.8229701], [-88.2784224, 15.8228797], [-88.2782356, 15.8228808], [-88.2782362, 15.8229712], [-88.2784229, 15.8229701]]]}, "properties": {"kind": "detection", "det_id": "D-SZ-live-honduras-2025-12-28-003-24", "zone_id": "SZ-live-honduras-2025-12-28-003", "scene_id": "S2A_MSIL2A_20251228T161721_R140_T16PCC_20251228T202011", "datetime": "2025-12-28T16:17:21.024000Z", "n_pixels": 2, "area_m2": 200, "prob_max": 0.949, "prob_mean": 0.9275, "threshold": 0.63, "in_strip": true, "artifact": null}}, {"type": "Feature", "id": "D-SZ-live-honduras-2025-12-28-003-25", "geometry": {"type": "Polygon", "coordinates": [[[-88.2779561, 15.8229728], [-88.2779556, 15.8228825], [-88.2777688, 15.8228836], [-88.2777694, 15.8229739], [-88.2779561, 15.8229728]]]}, "properties": {"kind": "detection", "det_id": "D-SZ-live-honduras-2025-12-28-003-25", "zone_id": "SZ-live-honduras-2025-12-28-003", "scene_id": "S2A_MSIL2A_20251228T161721_R140_T16PCC_20251228T202011", "datetime": "2025-12-28T16:17:21.024000Z", "n_pixels": 2, "area_m2": 200, "prob_max": 0.9608, "prob_mean": 0.9549, "threshold": 0.63, "in_strip": true, "artifact": null}}, {"type": "Feature", "id": "D-SZ-live-honduras-2025-12-28-003-26", "geometry": {"type": "Polygon", "coordinates": [[[-88.2695537, 15.8230222], [-88.2695531, 15.8229318], [-88.2694598, 15.8229323], [-88.2694603, 15.8230227], [-88.2695537, 15.8230222]]]}, "properties": {"kind": "detection", "det_id": "D-SZ-live-honduras-2025-12-28-003-26", "zone_id": "SZ-live-honduras-2025-12-28-003", "scene_id": "S2A_MSIL2A_20251228T161721_R140_T16PCC_20251228T202011", "datetime": "2025-12-28T16:17:21.024000Z", "n_pixels": 1, "area_m2": 100, "prob_max": 0.8, "prob_mean": 0.8, "threshold": 0.63, "in_strip": true, "artifact": null}}, {"type": "Feature", "id": "D-SZ-live-honduras-2025-12-28-003-27", "geometry": {"type": "Polygon", "coordinates": [[[-88.2794493, 15.8228737], [-88.2794488, 15.8227833], [-88.279262, 15.8227844], [-88.2792626, 15.8228748], [-88.2794493, 15.8228737]]]}, "properties": {"kind": "detection", "det_id": "D-SZ-live-honduras-2025-12-28-003-27", "zone_id": "SZ-live-honduras-2025-12-28-003", "scene_id": "S2A_MSIL2A_20251228T161721_R140_T16PCC_20251228T202011", "datetime": "2025-12-28T16:17:21.024000Z", "n_pixels": 2, "area_m2": 200, "prob_max": 0.9333, "prob_mean": 0.8725, "threshold": 0.63, "in_strip": true, "artifact": null}}, {"type": "Feature", "id": "D-SZ-live-honduras-2025-12-28-003-28", "geometry": {"type": "Polygon", "coordinates": [[[-88.2673097, 15.822493], [-88.2673091, 15.8224026], [-88.2672158, 15.8224031], [-88.2672163, 15.8224935], [-88.2673097, 15.822493]]]}, "properties": {"kind": "detection", "det_id": "D-SZ-live-honduras-2025-12-28-003-28", "zone_id": "SZ-live-honduras-2025-12-28-003", "scene_id": "S2A_MSIL2A_20251228T161721_R140_T16PCC_20251228T202011", "datetime": "2025-12-28T16:17:21.024000Z", "n_pixels": 1, "area_m2": 100, "prob_max": 0.898, "prob_mean": 0.898, "threshold": 0.63, "in_strip": true, "artifact": null}}, {"type": "Feature", "id": "D-SZ-live-honduras-2025-12-28-004-34", "geometry": {"type": "Polygon", "coordinates": [[[-88.1775694, 15.819654], [-88.1775689, 15.8195637], [-88.1773821, 15.8195647], [-88.1773827, 15.8196551], [-88.1775694, 15.819654]]]}, "properties": {"kind": "detection", "det_id": "D-SZ-live-honduras-2025-12-28-004-34", "zone_id": "SZ-live-honduras-2025-12-28-004", "scene_id": "S2A_MSIL2A_20251228T161721_R140_T16PCC_20251228T202011", "datetime": "2025-12-28T16:17:21.024000Z", "n_pixels": 2, "area_m2": 200, "prob_max": 0.9882, "prob_mean": 0.9686, "threshold": 0.63, "in_strip": true, "artifact": null}}, {"type": "Feature", "id": "D-SZ-live-honduras-2025-12-28-004-35", "geometry": {"type": "Polygon", "coordinates": [[[-88.1783142, 15.8192884], [-88.1783137, 15.8191981], [-88.1785004, 15.819197], [-88.1784999, 15.8191067], [-88.1783132, 15.8191077], [-88.1783137, 15.8191981], [-88.178127, 15.8191991], [-88.1781275, 15.8192895], [-88.1783142, 15.8192884]]]}, "properties": {"kind": "detection", "det_id": "D-SZ-live-honduras-2025-12-28-004-35", "zone_id": "SZ-live-honduras-2025-12-28-004", "scene_id": "S2A_MSIL2A_20251228T161721_R140_T16PCC_20251228T202011", "datetime": "2025-12-28T16:17:21.024000Z", "n_pixels": 4, "area_m2": 400, "prob_max": 0.7882, "prob_mean": 0.7225, "threshold": 0.63, "in_strip": true, "artifact": null}}, {"type": "Feature", "id": "D-SZ-live-honduras-2025-12-28-004-38", "geometry": {"type": "Polygon", "coordinates": [[[-88.1787789, 15.8189244], [-88.1787784, 15.818834], [-88.178685, 15.8188345], [-88.1786856, 15.8189249], [-88.1787789, 15.8189244]]]}, "properties": {"kind": "detection", "det_id": "D-SZ-live-honduras-2025-12-28-004-38", "zone_id": "SZ-live-honduras-2025-12-28-004", "scene_id": "S2A_MSIL2A_20251228T161721_R140_T16PCC_20251228T202011", "datetime": "2025-12-28T16:17:21.024000Z", "n_pixels": 1, "area_m2": 100, "prob_max": 0.8471, "prob_mean": 0.8471, "threshold": 0.63, "in_strip": true, "artifact": null}}, {"type": "Feature", "id": "D-SZ-live-honduras-2025-12-28-005-39", "geometry": {"type": "Polygon", "coordinates": [[[-88.1702762, 15.8177953], [-88.1702757, 15.8177049], [-88.1704624, 15.8177039], [-88.1704619, 15.8176135], [-88.1701818, 15.817615], [-88.1701829, 15.8177958], [-88.1702762, 15.8177953]]]}, "properties": {"kind": "detection", "det_id": "D-SZ-live-honduras-2025-12-28-005-39", "zone_id": "SZ-live-honduras-2025-12-28-005", "scene_id": "S2A_MSIL2A_20251228T161721_R140_T16PCC_20251228T202011", "datetime": "2025-12-28T16:17:21.024000Z", "n_pixels": 4, "area_m2": 400, "prob_max": 0.9922, "prob_mean": 0.95, "threshold": 0.63, "in_strip": true, "artifact": null}}, {"type": "Feature", "id": "D-SZ-live-honduras-2025-12-28-005-40", "geometry": {"type": "Polygon", "coordinates": [[[-88.170742, 15.817612], [-88.1707415, 15.8175216], [-88.1708348, 15.8175211], [-88.1708343, 15.8174307], [-88.1706476, 15.8174318], [-88.1706481, 15.8175221], [-88.1705547, 15.8175226], [-88.1705553, 15.817613], [-88.170742, 15.817612]]]}, "properties": {"kind": "detection", "det_id": "D-SZ-live-honduras-2025-12-28-005-40", "zone_id": "SZ-live-honduras-2025-12-28-005", "scene_id": "S2A_MSIL2A_20251228T161721_R140_T16PCC_20251228T202011", "datetime": "2025-12-28T16:17:21.024000Z", "n_pixels": 4, "area_m2": 400, "prob_max": 0.9882, "prob_mean": 0.8559, "threshold": 0.63, "in_strip": true, "artifact": null}}, {"type": "Feature", "id": "D-SZ-live-honduras-2025-12-28-005-41", "geometry": {"type": "Polygon", "coordinates": [[[-88.1716725, 15.8170647], [-88.171672, 15.8169743], [-88.1717653, 15.8169738], [-88.1717648, 15.8168834], [-88.1714847, 15.8168849], [-88.1714852, 15.8169753], [-88.1715786, 15.8169748], [-88.1715791, 15.8170652], [-88.1716725, 15.8170647]]]}, "properties": {"kind": "detection", "det_id": "D-SZ-live-honduras-2025-12-28-005-41", "zone_id": "SZ-live-honduras-2025-12-28-005", "scene_id": "S2A_MSIL2A_20251228T161721_R140_T16PCC_20251228T202011", "datetime": "2025-12-28T16:17:21.024000Z", "n_pixels": 4, "area_m2": 400, "prob_max": 0.9961, "prob_mean": 0.9108, "threshold": 0.63, "in_strip": true, "artifact": null}}, {"type": "Feature", "id": "D-SZ-live-honduras-2025-12-28-006-42", "geometry": {"type": "Polygon", "coordinates": [[[-88.1825952, 15.816915], [-88.1825947, 15.8168247], [-88.1825013, 15.8168252], [-88.1825018, 15.8169156], [-88.1825952, 15.816915]]]}, "properties": {"kind": "detection", "det_id": "D-SZ-live-honduras-2025-12-28-006-42", "zone_id": "SZ-live-honduras-2025-12-28-006", "scene_id": "S2A_MSIL2A_20251228T161721_R140_T16PCC_20251228T202011", "datetime": "2025-12-28T16:17:21.024000Z", "n_pixels": 1, "area_m2": 100, "prob_max": 0.9725, "prob_mean": 0.9725, "threshold": 0.63, "in_strip": true, "artifact": null}}, {"type": "Feature", "id": "D-SZ-live-honduras-2025-12-28-006-43", "geometry": {"type": "Polygon", "coordinates": [[[-88.1837124, 15.8163666], [-88.1837118, 15.8162762], [-88.1836185, 15.8162767], [-88.183619, 15.8163671], [-88.1837124, 15.8163666]]]}, "properties": {"kind": "detection", "det_id": "D-SZ-live-honduras-2025-12-28-006-43", "zone_id": "SZ-live-honduras-2025-12-28-006", "scene_id": "S2A_MSIL2A_20251228T161721_R140_T16PCC_20251228T202011", "datetime": "2025-12-28T16:17:21.024000Z", "n_pixels": 1, "area_m2": 100, "prob_max": 0.698, "prob_mean": 0.698, "threshold": 0.63, "in_strip": true, "artifact": null}}, {"type": "Feature", "id": "D-SZ-live-honduras-2025-12-28-006-48", "geometry": {"type": "Polygon", "coordinates": [[[-88.1852953, 15.8156349], [-88.1852942, 15.8154541], [-88.1853876, 15.8154536], [-88.1853871, 15.8153632], [-88.1852003, 15.8153642], [-88.1852009, 15.8154546], [-88.1851075, 15.8154551], [-88.185108, 15.8155455], [-88.1852014, 15.815545], [-88.1852019, 15.8156354], [-88.1852953, 15.8156349]]]}, "properties": {"kind": "detection", "det_id": "D-SZ-live-honduras-2025-12-28-006-48", "zone_id": "SZ-live-honduras-2025-12-28-006", "scene_id": "S2A_MSIL2A_20251228T161721_R140_T16PCC_20251228T202011", "datetime": "2025-12-28T16:17:21.024000Z", "n_pixels": 5, "area_m2": 500, "prob_max": 1.0, "prob_mean": 0.9678, "threshold": 0.63, "in_strip": true, "artifact": null}}, {"type": "Feature", "id": "D-SZ-live-honduras-2025-12-28-007-44", "geometry": {"type": "Polygon", "coordinates": [[[-88.1939809, 15.8161296], [-88.1939804, 15.8160392], [-88.193887, 15.8160397], [-88.1938865, 15.8159494], [-88.1936998, 15.8159504], [-88.1937003, 15.8160408], [-88.1937937, 15.8160403], [-88.1937942, 15.8161306], [-88.1939809, 15.8161296]]]}, "properties": {"kind": "detection", "det_id": "D-SZ-live-honduras-2025-12-28-007-44", "zone_id": "SZ-live-honduras-2025-12-28-007", "scene_id": "S2A_MSIL2A_20251228T161721_R140_T16PCC_20251228T202011", "datetime": "2025-12-28T16:17:21.024000Z", "n_pixels": 4, "area_m2": 400, "prob_max": 0.9922, "prob_mean": 0.9569, "threshold": 0.63, "in_strip": true, "artifact": null}}, {"type": "Feature", "id": "D-SZ-live-honduras-2025-12-28-007-45", "geometry": {"type": "Polygon", "coordinates": [[[-88.1933269, 15.8160428], [-88.1933264, 15.8159524], [-88.193233, 15.815953], [-88.1932335, 15.8160433], [-88.1933269, 15.8160428]]]}, "properties": {"kind": "detection", "det_id": "D-SZ-live-honduras-2025-12-28-007-45", "zone_id": "SZ-live-honduras-2025-12-28-007", "scene_id": "S2A_MSIL2A_20251228T161721_R140_T16PCC_20251228T202011", "datetime": "2025-12-28T16:17:21.024000Z", "n_pixels": 1, "area_m2": 100, "prob_max": 0.6549, "prob_mean": 0.6549, "threshold": 0.63, "in_strip": true, "artifact": null}}, {"type": "Feature", "id": "D-SZ-live-honduras-2025-12-28-007-46", "geometry": {"type": "Polygon", "coordinates": [[[-88.2005145, 15.8158224], [-88.200514, 15.815732], [-88.2004206, 15.8157326], [-88.2004212, 15.8158229], [-88.2005145, 15.8158224]]]}, "properties": {"kind": "detection", "det_id": "D-SZ-live-honduras-2025-12-28-007-46", "zone_id": "SZ-live-honduras-2025-12-28-007", "scene_id": "S2A_MSIL2A_20251228T161721_R140_T16PCC_20251228T202011", "datetime": "2025-12-28T16:17:21.024000Z", "n_pixels": 1, "area_m2": 100, "prob_max": 0.6745, "prob_mean": 0.6745, "threshold": 0.63, "in_strip": true, "artifact": null}}, {"type": "Feature", "id": "D-SZ-live-honduras-2025-12-28-007-47", "geometry": {"type": "Polygon", "coordinates": [[[-88.1979938, 15.8158363], [-88.1979927, 15.8156556], [-88.1978994, 15.8156561], [-88.1979005, 15.8158369], [-88.1979938, 15.8158363]]]}, "properties": {"kind": "detection", "det_id": "D-SZ-live-honduras-2025-12-28-007-47", "zone_id": "SZ-live-honduras-2025-12-28-007", "scene_id": "S2A_MSIL2A_20251228T161721_R140_T16PCC_20251228T202011", "datetime": "2025-12-28T16:17:21.024000Z", "n_pixels": 2, "area_m2": 200, "prob_max": 0.9216, "prob_mean": 0.9098, "threshold": 0.63, "in_strip": true, "artifact": null}}, {"type": "Feature", "id": "D-SZ-live-honduras-2025-12-28-007-49", "geometry": {"type": "Polygon", "coordinates": [[[-88.2031232, 15.8149041], [-88.2031227, 15.8148137], [-88.202936, 15.8148147], [-88.2029365, 15.8149051], [-88.2031232, 15.8149041]]]}, "properties": {"kind": "detection", "det_id": "D-SZ-live-honduras-2025-12-28-007-49", "zone_id": "SZ-live-honduras-2025-12-28-007", "scene_id": "S2A_MSIL2A_20251228T161721_R140_T16PCC_20251228T202011", "datetime": "2025-12-28T16:17:21.024000Z", "n_pixels": 2, "area_m2": 200, "prob_max": 0.9882, "prob_mean": 0.9647, "threshold": 0.63, "in_strip": true, "artifact": null}}, {"type": "Feature", "id": "D-SZ-live-honduras-2025-12-28-007-50", "geometry": {"type": "Polygon", "coordinates": [[[-88.196308, 15.8149418], [-88.1963075, 15.8148514], [-88.1962141, 15.8148519], [-88.1962147, 15.8149423], [-88.196308, 15.8149418]]]}, "properties": {"kind": "detection", "det_id": "D-SZ-live-honduras-2025-12-28-007-50", "zone_id": "SZ-live-honduras-2025-12-28-007", "scene_id": "S2A_MSIL2A_20251228T161721_R140_T16PCC_20251228T202011", "datetime": "2025-12-28T16:17:21.024000Z", "n_pixels": 1, "area_m2": 100, "prob_max": 0.8784, "prob_mean": 0.8784, "threshold": 0.63, "in_strip": true, "artifact": null}}, {"type": "Feature", "id": "D-SZ-live-honduras-2025-12-28-008-58", "geometry": {"type": "Polygon", "coordinates": [[[-88.2096945, 15.7580131], [-88.2096939, 15.7579228], [-88.2097873, 15.7579222], [-88.2097862, 15.7577415], [-88.2095995, 15.7577425], [-88.2096011, 15.7580137], [-88.2096945, 15.7580131]]]}, "properties": {"kind": "detection", "det_id": "D-SZ-live-honduras-2025-12-28-008-58", "zone_id": "SZ-live-honduras-2025-12-28-008", "scene_id": "S2A_MSIL2A_20251228T161721_R140_T16PCC_20251228T202011", "datetime": "2025-12-28T16:17:21.024000Z", "n_pixels": 5, "area_m2": 500, "prob_max": 1.0, "prob_mean": 0.9655, "threshold": 0.63, "in_strip": true, "artifact": null}}, {"type": "Feature", "id": "D-SZ-live-honduras-2025-12-28-009-59", "geometry": {"type": "Polygon", "coordinates": [[[-88.2132132, 15.7532934], [-88.2132121, 15.7531126], [-88.2131188, 15.7531131], [-88.2131199, 15.7532939], [-88.2132132, 15.7532934]]]}, "properties": {"kind": "detection", "det_id": "D-SZ-live-honduras-2025-12-28-009-59", "zone_id": "SZ-live-honduras-2025-12-28-009", "scene_id": "S2A_MSIL2A_20251228T161721_R140_T16PCC_20251228T202011", "datetime": "2025-12-28T16:17:21.024000Z", "n_pixels": 2, "area_m2": 200, "prob_max": 0.7804, "prob_mean": 0.7294, "threshold": 0.63, "in_strip": true, "artifact": null}}, {"type": "Feature", "id": "D-SZ-live-honduras-2025-12-28-009-60", "geometry": {"type": "Polygon", "coordinates": [[[-88.2141374, 15.7517516], [-88.2141368, 15.7516612], [-88.2140435, 15.7516617], [-88.214044, 15.7517521], [-88.2141374, 15.7517516]]]}, "properties": {"kind": "detection", "det_id": "D-SZ-live-honduras-2025-12-28-009-60", "zone_id": "SZ-live-honduras-2025-12-28-009", "scene_id": "S2A_MSIL2A_20251228T161721_R140_T16PCC_20251228T202011", "datetime": "2025-12-28T16:17:21.024000Z", "n_pixels": 1, "area_m2": 100, "prob_max": 0.6471, "prob_mean": 0.6471, "threshold": 0.63, "in_strip": true, "artifact": null}}, {"type": "Feature", "id": "D-SZ-live-honduras-2025-12-28-009-61", "geometry": {"type": "Polygon", "coordinates": [[[-88.215901, 15.7501148], [-88.2158999, 15.749934], [-88.2158066, 15.7499345], [-88.2158076, 15.7501153], [-88.215901, 15.7501148]]]}, "properties": {"kind": "detection", "det_id": "D-SZ-live-honduras-2025-12-28-009-61", "zone_id": "SZ-live-honduras-2025-12-28-009", "scene_id": "S2A_MSIL2A_20251228T161721_R140_T16PCC_20251228T202011", "datetime": "2025-12-28T16:17:21.024000Z", "n_pixels": 2, "area_m2": 200, "prob_max": 0.9098, "prob_mean": 0.8804, "threshold": 0.63, "in_strip": true, "artifact": null}}]}