{"type": "FeatureCollection", "features": [{"type": "Feature", "id": "SZ-live-honduras-2025-12-28-001", "geometry": {"type": "Polygon", "coordinates": [[[-88.135628, 15.832803], [-88.136839, 15.832255], [-88.137393, 15.831167], [-88.137108, 15.830265], [-88.135985, 15.829728], [-88.134773, 15.830096], [-88.134401, 15.83046], [-88.134126, 15.831275], [-88.134411, 15.832267], [-88.135068, 15.832716], [-88.135628, 15.832803]]]}, "properties": {"kind": "detection_zone", "layer_kind": "scene_zone", "zone_id": "SZ-live-honduras-2025-12-28-001", "scene_key": "live-honduras-2025-12-28", "scene_kind": "live", "scene_id": "S2A_MSIL2A_20251228T161721_R140_T16PCC_20251228T202011", "region": "honduras", "title": "Гондурасский залив (Омоа – Пуэрто-Кортес – устье Мотагуа) · зона 1", "mission": "Sentinel-2", "datetime": "2025-12-28T16:17:21.024000Z", "detection_status": "insufficient_data", "status": "insufficient_data", "concentration_status": "unavailable", "verification": "false_alarm_signs", "training_scene": null, "flags": ["foam"], "n_cozar_filaments": 0, "crop_file": "crops/SZ-live-honduras-2025-12-28-001.jpg", "measured": {"zone_area_km2": 0.0861, "suspicious_area_m2": 700, "n_pixels": 7, "n_objects": 1, "water_km2": 0.0874, "lwd_m2_km2": 8009.2, "quality": {"valid_water_fraction": 1.0, "cloud_fraction": 0.0, "glint_fraction": 0.0}, "model": {"weights": "weights/lgbm", "file": "weights/lgbm/model.txt", "sha256": "0eeebf43fcccd8c7c07f053b7ec723229d1a3c9b92d12eec1bdb269258c51470", "sha256_short": "0eeebf43fccc", "trained_at": "2026-09-25T01:35:55Z", "threshold": 0.63, "harmonize": "none", "class": "MARIDA Marine Debris (любой плавающий мусор, не только пластик)"}}, "probable": {"prob_max": 0.996, "prob_mean": 0.906, "signs": {"foam": {"flag": true, "white_ratio_b2_b8": 1.241, "wind10m_ms": 1.86, "rule": "прирост B2 над водой ≥ 0.8 прироста B8 («белый» спектр) или ветер ≥ 7.0 м/с"}, "glint": {"flag": false, "b11_water_median": 0.0021, "glint_share": 0.0, "rule": "медиана B11 воды зоны > 0.01 или ≥ 20 % пикселей зоны — блик (маска качества)"}, "ship": {"flag": false, "share": 0, "bright_target_px_within_500m": 0, "rule": "≥ 30 % пикселей — у яркой цели или кильватера (reports/artifacts.md) или яркая цель с откликом в SWIR (судно, лодка: B11 ≥ 0,015) ближе 500 м"}, "coast": {"flag": false, "land_px_within_300m": 0, "rule": "суша (маска качества) ближе 300 м — прибой, кромка берега"}, "shallow": {"flag": false, "b3_water_zone": 0.0132, "b3_ratio_to_scene_water": 0.91, "rule": "медиана B3 воды зоны ≥ 2× медианы воды снимка и ≥ 0,03 — мелководье или мутная вода"}, "seam": {"flag": false, "share": 0, "rule": "≥ 30 % пикселей — прямая линия вдоль трека/границы яркости (шов)"}, "note": "эвристики, не классификатор; на размеченных данных не проверены"}, "n_cozar_filaments": 0}, "field_nearby": {"items": [{"source": "ADIS (4TU.ResearchData, судовая камера)", "segment_id": 416634, "ship": "RV Pelagia", "date": "2023-12-19", "days_from_scene": -740, "distance_km": 1740.6, "lon": -75.79339, "lat": 25.94314, "n_items": 0, "area_km2": 0.9676, "size_class": "> 5 см", "c_items_km2": 0.0, "ci95_lo": 0.0, "ci95_hi": 3.81, "ci95_method": "точный интервал Пуассона для N, делённый на A"}, {"source": "ADIS (4TU.ResearchData, судовая камера)", "segment_id": 405468, "ship": "RV Pelagia", "date": "2023-12-19", "days_from_scene": -740, "distance_km": 1740.7, "lon": -75.79193, "lat": 25.94347, "n_items": 0, "area_km2": 0.72, "size_class": "> 5 см", "c_items_km2": 0.0, "ci95_lo": 0.0, "ci95_hi": 5.12, "ci95_method": "точный интервал Пуассона для N, делённый на A"}, {"source": "ADIS (4TU.ResearchData, судовая камера)", "segment_id": 416633, "ship": "RV Pelagia", "date": "2023-12-19", "days_from_scene": -740, "distance_km": 1750.1, "lon": -75.70128, "lat": 25.97146, "n_items": 0, "area_km2": 1.015, "size_class": "> 5 см", "c_items_km2": 0.0, "ci95_lo": 0.0, "ci95_hi": 3.63, "ci95_method": "точный интервал Пуассона для N, делённый на A"}], "nearest_organizer_sample": {"sample_id": "MPL-0239", "source_id": "S2_SARGASSO_MSM41", "distance_km": 2169.8}, "note": "Измерение ≠ оценка: это независимые полевые счёты C = N/A в другое время и в другом месте; со сценой они не связаны и не калибруют её. Ближайший отрезок ADIS — за 1741 км: только для порядка величин."}}}, {"type": "Feature", "id": "SZ-live-honduras-2025-12-28-002", "geometry": {"type": "Polygon", "coordinates": [[[-88.146365, 15.832566], [-88.147017, 15.832291], [-88.148977, 15.832191], [-88.150095, 15.831823], [-88.150467, 15.83146], [-88.150742, 15.830645], [-88.150457, 15.829742], [-88.151578, 15.829736], [-88.152413, 15.828918], [-88.152504, 15.828376], [-88.152219, 15.827564], [-88.151095, 15.827027], [-88.15007, 15.827304], [-88.149516, 15.828391], [-88.149801, 15.829294], [-88.14924, 15.829206], [-88.148215, 15.829573], [-88.147001, 15.829489], [-88.145323, 15.830041], [-88.144575, 15.829773], [-88.143643, 15.83005], [-88.143174, 15.82969], [-88.14252, 15.829604], [-88.141681, 15.829879], [-88.141218, 15.830514], [-88.141223, 15.831509], [-88.142068, 15.832318], [-88.142722, 15.832405], [-88.143561, 15.832129], [-88.144497, 15.832576], [-88.145243, 15.832301], [-88.146365, 15.832566]], [[-88.150457, 15.829652], [-88.150364, 15.829743], [-88.150363, 15.829652], [-88.150457, 15.829652]], [[-88.149894, 15.829293], [-88.149801, 15.829384], [-88.149801, 15.829294], [-88.149894, 15.829293]]]}, "properties": {"kind": "detection_zone", "layer_kind": "scene_zone", "zone_id": "SZ-live-honduras-2025-12-28-002", "scene_key": "live-honduras-2025-12-28", "scene_kind": "live", "scene_id": "S2A_MSIL2A_20251228T161721_R140_T16PCC_20251228T202011", "region": "honduras", "title": "Гондурасский залив (Омоа – Пуэрто-Кортес – устье Мотагуа) · зона 2", "mission": "Sentinel-2", "datetime": "2025-12-28T16:17:21.024000Z", "detection_status": "insufficient_data", "status": "insufficient_data", "concentration_status": "unavailable", "verification": "false_alarm_signs", "training_scene": null, "flags": ["foam"], "n_cozar_filaments": 0, "crop_file": "crops/SZ-live-honduras-2025-12-28-002.jpg", "measured": {"zone_area_km2": 0.354, "suspicious_area_m2": 1800, "n_pixels": 18, "n_objects": 9, "water_km2": 0.3568, "lwd_m2_km2": 5044.8, "quality": {"valid_water_fraction": 1.0, "cloud_fraction": 0.0, "glint_fraction": 0.0}, "model": {"weights": "weights/lgbm", "file": "weights/lgbm/model.txt", "sha256": "0eeebf43fcccd8c7c07f053b7ec723229d1a3c9b92d12eec1bdb269258c51470", "sha256_short": "0eeebf43fccc", "trained_at": "2026-09-25T01:35:55Z", "threshold": 0.63, "harmonize": "none", "class": "MARIDA Marine Debris (любой плавающий мусор, не только пластик)"}}, "probable": {"prob_max": 1.0, "prob_mean": 0.894, "signs": {"foam": {"flag": true, "white_ratio_b2_b8": 0.948, "wind10m_ms": 1.86, "rule": "прирост B2 над водой ≥ 0.8 прироста B8 («белый» спектр) или ветер ≥ 7.0 м/с"}, "glint": {"flag": false, "b11_water_median": 0.0021, "glint_share": 0.0, "rule": "медиана B11 воды зоны > 0.01 или ≥ 20 % пикселей зоны — блик (маска качества)"}, "ship": {"flag": false, "share": 0.278, "bright_target_px_within_500m": 0, "rule": "≥ 30 % пикселей — у яркой цели или кильватера (reports/artifacts.md) или яркая цель с откликом в SWIR (судно, лодка: B11 ≥ 0,015) ближе 500 м"}, "coast": {"flag": false, "land_px_within_300m": 0, "rule": "суша (маска качества) ближе 300 м — прибой, кромка берега"}, "shallow": {"flag": false, "b3_water_zone": 0.0145, "b3_ratio_to_scene_water": 1.0, "rule": "медиана B3 воды зоны ≥ 2× медианы воды снимка и ≥ 0,03 — мелководье или мутная вода"}, "seam": {"flag": false, "share": 0, "rule": "≥ 30 % пикселей — прямая линия вдоль трека/границы яркости (шов)"}, "note": "эвристики, не классификатор; на размеченных данных не проверены"}, "n_cozar_filaments": 0}, "field_nearby": {"items": [{"source": "ADIS (4TU.ResearchData, судовая камера)", "segment_id": 416634, "ship": "RV Pelagia", "date": "2023-12-19", "days_from_scene": -740, "distance_km": 1740.6, "lon": -75.79339, "lat": 25.94314, "n_items": 0, "area_km2": 0.9676, "size_class": "> 5 см", "c_items_km2": 0.0, "ci95_lo": 0.0, "ci95_hi": 3.81, "ci95_method": "точный интервал Пуассона для N, делённый на A"}, {"source": "ADIS (4TU.ResearchData, судовая камера)", "segment_id": 405468, "ship": "RV Pelagia", "date": "2023-12-19", "days_from_scene": -740, "distance_km": 1740.7, "lon": -75.79193, "lat": 25.94347, "n_items": 0, "area_km2": 0.72, "size_class": "> 5 см", "c_items_km2": 0.0, "ci95_lo": 0.0, "ci95_hi": 5.12, "ci95_method": "точный интервал Пуассона для N, делённый на A"}, {"source": "ADIS (4TU.ResearchData, судовая камера)", "segment_id": 416633, "ship": "RV Pelagia", "date": "2023-12-19", "days_from_scene": -740, "distance_km": 1750.1, "lon": -75.70128, "lat": 25.97146, "n_items": 0, "area_km2": 1.015, "size_class": "> 5 см", "c_items_km2": 0.0, "ci95_lo": 0.0, "ci95_hi": 3.63, "ci95_method": "точный интервал Пуассона для N, делённый на A"}], "nearest_organizer_sample": {"sample_id": "MPL-0239", "source_id": "S2_SARGASSO_MSM41", "distance_km": 2169.8}, "note": "Измерение ≠ оценка: это независимые полевые счёты C = N/A в другое время и в другом месте; со сценой они не связаны и не калибруют её. Ближайший отрезок ADIS — за 1741 км: только для порядка величин."}}}, {"type": "Feature", "id": "SZ-live-honduras-2025-12-28-003", "geometry": {"type": "Polygon", "coordinates": [[[-88.275819, 15.824612], [-88.276658, 15.824336], [-88.276843, 15.824064], [-88.278431, 15.824326], [-88.280296, 15.823953], [-88.28085, 15.822865], [-88.280564, 15.821963], [-88.279908, 15.821515], [-88.279254, 15.821429], [-88.278788, 15.821612], [-88.277294, 15.821621], [-88.276737, 15.822076], [-88.275334, 15.821632], [-88.274307, 15.821639], [-88.272535, 15.82201], [-88.271694, 15.821835], [-88.27067, 15.822293], [-88.270387, 15.821842], [-88.269545, 15.821576], [-88.26852, 15.821944], [-88.268143, 15.821313], [-88.267301, 15.821047], [-88.266369, 15.821323], [-88.265906, 15.821959], [-88.265912, 15.822953], [-88.266757, 15.823762], [-88.267318, 15.823849], [-88.268249, 15.823482], [-88.268627, 15.824112], [-88.269469, 15.824378], [-88.270586, 15.82392], [-88.270869, 15.82437], [-88.271711, 15.824636], [-88.272364, 15.824452], [-88.273018, 15.824629], [-88.275258, 15.824435], [-88.275819, 15.824612]]]}, "properties": {"kind": "detection_zone", "layer_kind": "scene_zone", "zone_id": "SZ-live-honduras-2025-12-28-003", "scene_key": "live-honduras-2025-12-28", "scene_kind": "live", "scene_id": "S2A_MSIL2A_20251228T161721_R140_T16PCC_20251228T202011", "region": "honduras", "title": "Гондурасский залив (Омоа – Пуэрто-Кортес – устье Мотагуа) · зона 3", "mission": "Sentinel-2", "datetime": "2025-12-28T16:17:21.024000Z", "detection_status": "detected", "status": "detected", "concentration_status": "unavailable", "verification": "unverified", "training_scene": null, "flags": [], "n_cozar_filaments": 0, "crop_file": "crops/SZ-live-honduras-2025-12-28-003.jpg", "measured": {"zone_area_km2": 0.4379, "suspicious_area_m2": 1800, "n_pixels": 18, "n_objects": 13, "water_km2": 0.4389, "lwd_m2_km2": 4101.2, "quality": {"valid_water_fraction": 1.0, "cloud_fraction": 0.0, "glint_fraction": 0.0}, "model": {"weights": "weights/lgbm", "file": "weights/lgbm/model.txt", "sha256": "0eeebf43fcccd8c7c07f053b7ec723229d1a3c9b92d12eec1bdb269258c51470", "sha256_short": "0eeebf43fccc", "trained_at": "2026-09-25T01:35:55Z", "threshold": 0.63, "harmonize": "none", "class": "MARIDA Marine Debris (любой плавающий мусор, не только пластик)"}}, "probable": {"prob_max": 0.992, "prob_mean": 0.872, "signs": {"foam": {"flag": false, "white_ratio_b2_b8": 0.777, "wind10m_ms": 1.86, "rule": "прирост B2 над водой ≥ 0.8 прироста B8 («белый» спектр) или ветер ≥ 7.0 м/с"}, "glint": {"flag": false, "b11_water_median": 0.0022, "glint_share": 0.0, "rule": "медиана B11 воды зоны > 0.01 или ≥ 20 % пикселей зоны — блик (маска качества)"}, "ship": {"flag": false, "share": 0, "bright_target_px_within_500m": 0, "rule": "≥ 30 % пикселей — у яркой цели или кильватера (reports/artifacts.md) или яркая цель с откликом в SWIR (судно, лодка: B11 ≥ 0,015) ближе 500 м"}, "coast": {"flag": false, "land_px_within_300m": 0, "rule": "суша (маска качества) ближе 300 м — прибой, кромка берега"}, "shallow": {"flag": false, "b3_water_zone": 0.0155, "b3_ratio_to_scene_water": 1.07, "rule": "медиана B3 воды зоны ≥ 2× медианы воды снимка и ≥ 0,03 — мелководье или мутная вода"}, "seam": {"flag": false, "share": 0, "rule": "≥ 30 % пикселей — прямая линия вдоль трека/границы яркости (шов)"}, "note": "эвристики, не классификатор; на размеченных данных не проверены"}, "n_cozar_filaments": 0}, "field_nearby": {"items": [{"source": "ADIS (4TU.ResearchData, судовая камера)", "segment_id": 416634, "ship": "RV Pelagia", "date": "2023-12-19", "days_from_scene": -740, "distance_km": 1740.6, "lon": -75.79339, "lat": 25.94314, "n_items": 0, "area_km2": 0.9676, "size_class": "> 5 см", "c_items_km2": 0.0, "ci95_lo": 0.0, "ci95_hi": 3.81, "ci95_method": "точный интервал Пуассона для N, делённый на A"}, {"source": "ADIS (4TU.ResearchData, судовая камера)", "segment_id": 405468, "ship": "RV Pelagia", "date": "2023-12-19", "days_from_scene": -740, "distance_km": 1740.7, "lon": -75.79193, "lat": 25.94347, "n_items": 0, "area_km2": 0.72, "size_class": "> 5 см", "c_items_km2": 0.0, "ci95_lo": 0.0, "ci95_hi": 5.12, "ci95_method": "точный интервал Пуассона для N, делённый на A"}, {"source": "ADIS (4TU.ResearchData, судовая камера)", "segment_id": 416633, "ship": "RV Pelagia", "date": "2023-12-19", "days_from_scene": -740, "distance_km": 1750.1, "lon": -75.70128, "lat": 25.97146, "n_items": 0, "area_km2": 1.015, "size_class": "> 5 см", "c_items_km2": 0.0, "ci95_lo": 0.0, "ci95_hi": 3.63, "ci95_method": "точный интервал Пуассона для N, делённый на A"}], "nearest_organizer_sample": {"sample_id": "MPL-0239", "source_id": "S2_SARGASSO_MSM41", "distance_km": 2169.8}, "note": "Измерение ≠ оценка: это независимые полевые счёты C = N/A в другое время и в другом месте; со сценой они не связаны и не калибруют её. Ближайший отрезок ADIS — за 1741 км: только для порядка величин."}}}, {"type": "Feature", "id": "SZ-live-honduras-2025-12-28-004", "geometry": {"type": "Polygon", "coordinates": [[[-88.177577, 15.82101], [-88.179347, 15.820277], [-88.179904, 15.819732], [-88.180179, 15.818826], [-88.179612, 15.817745], [-88.178771, 15.817478], [-88.178211, 15.817572], [-88.176257, 15.818757], [-88.175982, 15.819572], [-88.176267, 15.820475], [-88.176923, 15.820923], [-88.177577, 15.82101]]]}, "properties": {"kind": "detection_zone", "layer_kind": "scene_zone", "zone_id": "SZ-live-honduras-2025-12-28-004", "scene_key": "live-honduras-2025-12-28", "scene_kind": "live", "scene_id": "S2A_MSIL2A_20251228T161721_R140_T16PCC_20251228T202011", "region": "honduras", "title": "Гондурасский залив (Омоа – Пуэрто-Кортес – устье Мотагуа) · зона 4", "mission": "Sentinel-2", "datetime": "2025-12-28T16:17:21.024000Z", "detection_status": "insufficient_data", "status": "insufficient_data", "concentration_status": "unavailable", "verification": "false_alarm_signs", "training_scene": null, "flags": ["foam"], "n_cozar_filaments": 0, "crop_file": "crops/SZ-live-honduras-2025-12-28-004.jpg", "measured": {"zone_area_km2": 0.1212, "suspicious_area_m2": 700, "n_pixels": 7, "n_objects": 3, "water_km2": 0.1204, "lwd_m2_km2": 5814.0, "quality": {"valid_water_fraction": 1.0, "cloud_fraction": 0.0, "glint_fraction": 0.0}, "model": {"weights": "weights/lgbm", "file": "weights/lgbm/model.txt", "sha256": "0eeebf43fcccd8c7c07f053b7ec723229d1a3c9b92d12eec1bdb269258c51470", "sha256_short": "0eeebf43fccc", "trained_at": "2026-09-25T01:35:55Z", "threshold": 0.63, "harmonize": "none", "class": "MARIDA Marine Debris (любой плавающий мусор, не только пластик)"}}, "probable": {"prob_max": 0.988, "prob_mean": 0.811, "signs": {"foam": {"flag": true, "white_ratio_b2_b8": 0.852, "wind10m_ms": 1.86, "rule": "прирост B2 над водой ≥ 0.8 прироста B8 («белый» спектр) или ветер ≥ 7.0 м/с"}, "glint": {"flag": false, "b11_water_median": 0.0026, "glint_share": 0.0, "rule": "медиана B11 воды зоны > 0.01 или ≥ 20 % пикселей зоны — блик (маска качества)"}, "ship": {"flag": false, "share": 0, "bright_target_px_within_500m": 0, "rule": "≥ 30 % пикселей — у яркой цели или кильватера (reports/artifacts.md) или яркая цель с откликом в SWIR (судно, лодка: B11 ≥ 0,015) ближе 500 м"}, "coast": {"flag": false, "land_px_within_300m": 0, "rule": "суша (маска качества) ближе 300 м — прибой, кромка берега"}, "shallow": {"flag": false, "b3_water_zone": 0.0158, "b3_ratio_to_scene_water": 1.09, "rule": "медиана B3 воды зоны ≥ 2× медианы воды снимка и ≥ 0,03 — мелководье или мутная вода"}, "seam": {"flag": false, "share": 0, "rule": "≥ 30 % пикселей — прямая линия вдоль трека/границы яркости (шов)"}, "note": "эвристики, не классификатор; на размеченных данных не проверены"}, "n_cozar_filaments": 0}, "field_nearby": {"items": [{"source": "ADIS (4TU.ResearchData, судовая камера)", "segment_id": 416634, "ship": "RV Pelagia", "date": "2023-12-19", "days_from_scene": -740, "distance_km": 1740.6, "lon": -75.79339, "lat": 25.94314, "n_items": 0, "area_km2": 0.9676, "size_class": "> 5 см", "c_items_km2": 0.0, "ci95_lo": 0.0, "ci95_hi": 3.81, "ci95_method": "точный интервал Пуассона для N, делённый на A"}, {"source": "ADIS (4TU.ResearchData, судовая камера)", "segment_id": 405468, "ship": "RV Pelagia", "date": "2023-12-19", "days_from_scene": -740, "distance_km": 1740.7, "lon": -75.79193, "lat": 25.94347, "n_items": 0, "area_km2": 0.72, "size_class": "> 5 см", "c_items_km2": 0.0, "ci95_lo": 0.0, "ci95_hi": 5.12, "ci95_method": "точный интервал Пуассона для N, делённый на A"}, {"source": "ADIS (4TU.ResearchData, судовая камера)", "segment_id": 416633, "ship": "RV Pelagia", "date": "2023-12-19", "days_from_scene": -740, "distance_km": 1750.1, "lon": -75.70128, "lat": 25.97146, "n_items": 0, "area_km2": 1.015, "size_class": "> 5 см", "c_items_km2": 0.0, "ci95_lo": 0.0, "ci95_hi": 3.63, "ci95_method": "точный интервал Пуассона для N, делённый на A"}], "nearest_organizer_sample": {"sample_id": "MPL-0239", "source_id": "S2_SARGASSO_MSM41", "distance_km": 2169.8}, "note": "Измерение ≠ оценка: это независимые полевые счёты C = N/A в другое время и в другом месте; со сценой они не связаны и не калибруют её. Ближайший отрезок ADIS — за 1741 км: только для порядка величин."}}}, {"type": "Feature", "id": "SZ-live-honduras-2025-12-28-005", "geometry": {"type": "Polygon", "coordinates": [[[-88.170284, 15.819151], [-88.171588, 15.818692], [-88.171866, 15.818329], [-88.172519, 15.818145], [-88.17289, 15.817781], [-88.173165, 15.816876], [-88.172599, 15.815794], [-88.171757, 15.815528], [-88.171011, 15.815622], [-88.169057, 15.816808], [-88.168781, 15.817623], [-88.168878, 15.818255], [-88.169349, 15.818885], [-88.170284, 15.819151]]]}, "properties": {"kind": "detection_zone", "layer_kind": "scene_zone", "zone_id": "SZ-live-honduras-2025-12-28-005", "scene_key": "live-honduras-2025-12-28", "scene_kind": "live", "scene_id": "S2A_MSIL2A_20251228T161721_R140_T16PCC_20251228T202011", "region": "honduras", "title": "Гондурасский залив (Омоа – Пуэрто-Кортес – устье Мотагуа) · зона 5", "mission": "Sentinel-2", "datetime": "2025-12-28T16:17:21.024000Z", "detection_status": "detected", "status": "detected", "concentration_status": "unavailable", "verification": "unverified", "training_scene": null, "flags": [], "n_cozar_filaments": 0, "crop_file": "crops/SZ-live-honduras-2025-12-28-005.jpg", "measured": {"zone_area_km2": 0.1297, "suspicious_area_m2": 1200, "n_pixels": 12, "n_objects": 3, "water_km2": 0.1289, "lwd_m2_km2": 9309.5, "quality": {"valid_water_fraction": 1.0, "cloud_fraction": 0.0, "glint_fraction": 0.0}, "model": {"weights": "weights/lgbm", "file": "weights/lgbm/model.txt", "sha256": "0eeebf43fcccd8c7c07f053b7ec723229d1a3c9b92d12eec1bdb269258c51470", "sha256_short": "0eeebf43fccc", "trained_at": "2026-09-25T01:35:55Z", "threshold": 0.63, "harmonize": "none", "class": "MARIDA Marine Debris (любой плавающий мусор, не только пластик)"}}, "probable": {"prob_max": 0.996, "prob_mean": 0.906, "signs": {"foam": {"flag": false, "white_ratio_b2_b8": 0.66, "wind10m_ms": 1.86, "rule": "прирост B2 над водой ≥ 0.8 прироста B8 («белый» спектр) или ветер ≥ 7.0 м/с"}, "glint": {"flag": false, "b11_water_median": 0.0023, "glint_share": 0.0, "rule": "медиана B11 воды зоны > 0.01 или ≥ 20 % пикселей зоны — блик (маска качества)"}, "ship": {"flag": false, "share": 0, "bright_target_px_within_500m": 0, "rule": "≥ 30 % пикселей — у яркой цели или кильватера (reports/artifacts.md) или яркая цель с откликом в SWIR (судно, лодка: B11 ≥ 0,015) ближе 500 м"}, "coast": {"flag": false, "land_px_within_300m": 0, "rule": "суша (маска качества) ближе 300 м — прибой, кромка берега"}, "shallow": {"flag": false, "b3_water_zone": 0.0149, "b3_ratio_to_scene_water": 1.03, "rule": "медиана B3 воды зоны ≥ 2× медианы воды снимка и ≥ 0,03 — мелководье или мутная вода"}, "seam": {"flag": false, "share": 0, "rule": "≥ 30 % пикселей — прямая линия вдоль трека/границы яркости (шов)"}, "note": "эвристики, не классификатор; на размеченных данных не проверены"}, "n_cozar_filaments": 0}, "field_nearby": {"items": [{"source": "ADIS (4TU.ResearchData, судовая камера)", "segment_id": 416634, "ship": "RV Pelagia", "date": "2023-12-19", "days_from_scene": -740, "distance_km": 1740.6, "lon": -75.79339, "lat": 25.94314, "n_items": 0, "area_km2": 0.9676, "size_class": "> 5 см", "c_items_km2": 0.0, "ci95_lo": 0.0, "ci95_hi": 3.81, "ci95_method": "точный интервал Пуассона для N, делённый на A"}, {"source": "ADIS (4TU.ResearchData, судовая камера)", "segment_id": 405468, "ship": "RV Pelagia", "date": "2023-12-19", "days_from_scene": -740, "distance_km": 1740.7, "lon": -75.79193, "lat": 25.94347, "n_items": 0, "area_km2": 0.72, "size_class": "> 5 см", "c_items_km2": 0.0, "ci95_lo": 0.0, "ci95_hi": 5.12, "ci95_method": "точный интервал Пуассона для N, делённый на A"}, {"source": "ADIS (4TU.ResearchData, судовая камера)", "segment_id": 416633, "ship": "RV Pelagia", "date": "2023-12-19", "days_from_scene": -740, "distance_km": 1750.1, "lon": -75.70128, "lat": 25.97146, "n_items": 0, "area_km2": 1.015, "size_class": "> 5 см", "c_items_km2": 0.0, "ci95_lo": 0.0, "ci95_hi": 3.63, "ci95_method": "точный интервал Пуассона для N, делённый на A"}], "nearest_organizer_sample": {"sample_id": "MPL-0239", "source_id": "S2_SARGASSO_MSM41", "distance_km": 2169.8}, "note": "Измерение ≠ оценка: это независимые полевые счёты C = N/A в другое время и в другом месте; со сценой они не связаны и не калибруют её. Ближайший отрезок ADIS — за 1741 км: только для порядка величин."}}}, {"type": "Feature", "id": "SZ-live-honduras-2025-12-28-006", "geometry": {"type": "Polygon", "coordinates": [[[-88.182603, 15.818271], [-88.183442, 15.817995], [-88.18372, 15.817632], [-88.184559, 15.817447], [-88.184929, 15.816902], [-88.185769, 15.816898], [-88.18642, 15.816442], [-88.186787, 15.815356], [-88.186221, 15.814274], [-88.185379, 15.814007], [-88.184726, 15.814101], [-88.183982, 15.814648], [-88.183891, 15.81501], [-88.183144, 15.815014], [-88.182494, 15.81556], [-88.182027, 15.815562], [-88.181376, 15.816018], [-88.181101, 15.816833], [-88.181386, 15.817735], [-88.182042, 15.818184], [-88.182603, 15.818271]]]}, "properties": {"kind": "detection_zone", "layer_kind": "scene_zone", "zone_id": "SZ-live-honduras-2025-12-28-006", "scene_key": "live-honduras-2025-12-28", "scene_kind": "live", "scene_id": "S2A_MSIL2A_20251228T161721_R140_T16PCC_20251228T202011", "region": "honduras", "title": "Гондурасский залив (Омоа – Пуэрто-Кортес – устье Мотагуа) · зона 6", "mission": "Sentinel-2", "datetime": "2025-12-28T16:17:21.024000Z", "detection_status": "detected", "status": "detected", "concentration_status": "unavailable", "verification": "unverified", "training_scene": null, "flags": [], "n_cozar_filaments": 0, "crop_file": "crops/SZ-live-honduras-2025-12-28-006.jpg", "measured": {"zone_area_km2": 0.1698, "suspicious_area_m2": 700, "n_pixels": 7, "n_objects": 3, "water_km2": 0.1704, "lwd_m2_km2": 4108.0, "quality": {"valid_water_fraction": 1.0, "cloud_fraction": 0.0, "glint_fraction": 0.0}, "model": {"weights": "weights/lgbm", "file": "weights/lgbm/model.txt", "sha256": "0eeebf43fcccd8c7c07f053b7ec723229d1a3c9b92d12eec1bdb269258c51470", "sha256_short": "0eeebf43fccc", "trained_at": "2026-09-25T01:35:55Z", "threshold": 0.63, "harmonize": "none", "class": "MARIDA Marine Debris (любой плавающий мусор, не только пластик)"}}, "probable": {"prob_max": 1.0, "prob_mean": 0.93, "signs": {"foam": {"flag": false, "white_ratio_b2_b8": 0.793, "wind10m_ms": 1.86, "rule": "прирост B2 над водой ≥ 0.8 прироста B8 («белый» спектр) или ветер ≥ 7.0 м/с"}, "glint": {"flag": false, "b11_water_median": 0.0024, "glint_share": 0.0, "rule": "медиана B11 воды зоны > 0.01 или ≥ 20 % пикселей зоны — блик (маска качества)"}, "ship": {"flag": false, "share": 0, "bright_target_px_within_500m": 0, "rule": "≥ 30 % пикселей — у яркой цели или кильватера (reports/artifacts.md) или яркая цель с откликом в SWIR (судно, лодка: B11 ≥ 0,015) ближе 500 м"}, "coast": {"flag": false, "land_px_within_300m": 0, "rule": "суша (маска качества) ближе 300 м — прибой, кромка берега"}, "shallow": {"flag": false, "b3_water_zone": 0.0171, "b3_ratio_to_scene_water": 1.18, "rule": "медиана B3 воды зоны ≥ 2× медианы воды снимка и ≥ 0,03 — мелководье или мутная вода"}, "seam": {"flag": false, "share": 0, "rule": "≥ 30 % пикселей — прямая линия вдоль трека/границы яркости (шов)"}, "note": "эвристики, не классификатор; на размеченных данных не проверены"}, "n_cozar_filaments": 0}, "field_nearby": {"items": [{"source": "ADIS (4TU.ResearchData, судовая камера)", "segment_id": 416634, "ship": "RV Pelagia", "date": "2023-12-19", "days_from_scene": -740, "distance_km": 1740.6, "lon": -75.79339, "lat": 25.94314, "n_items": 0, "area_km2": 0.9676, "size_class": "> 5 см", "c_items_km2": 0.0, "ci95_lo": 0.0, "ci95_hi": 3.81, "ci95_method": "точный интервал Пуассона для N, делённый на A"}, {"source": "ADIS (4TU.ResearchData, судовая камера)", "segment_id": 405468, "ship": "RV Pelagia", "date": "2023-12-19", "days_from_scene": -740, "distance_km": 1740.7, "lon": -75.79193, "lat": 25.94347, "n_items": 0, "area_km2": 0.72, "size_class": "> 5 см", "c_items_km2": 0.0, "ci95_lo": 0.0, "ci95_hi": 5.12, "ci95_method": "точный интервал Пуассона для N, делённый на A"}, {"source": "ADIS (4TU.ResearchData, судовая камера)", "segment_id": 416633, "ship": "RV Pelagia", "date": "2023-12-19", "days_from_scene": -740, "distance_km": 1750.1, "lon": -75.70128, "lat": 25.97146, "n_items": 0, "area_km2": 1.015, "size_class": "> 5 см", "c_items_km2": 0.0, "ci95_lo": 0.0, "ci95_hi": 3.63, "ci95_method": "точный интервал Пуассона для N, делённый на A"}], "nearest_organizer_sample": {"sample_id": "MPL-0239", "source_id": "S2_SARGASSO_MSM41", "distance_km": 2169.8}, "note": "Измерение ≠ оценка: это независимые полевые счёты C = N/A в другое время и в другом месте; со сценой они не связаны и не калибруют её. Ближайший отрезок ADIS — за 1741 км: только для порядка величин."}}}, {"type": "Feature", "id": "SZ-live-honduras-2025-12-28-007", "geometry": {"type": "Polygon", "coordinates": [[[-88.193989, 15.817485], [-88.195106, 15.816937], [-88.195381, 15.816032], [-88.196223, 15.816298], [-88.196596, 15.816206], [-88.196785, 15.816657], [-88.197441, 15.817105], [-88.198468, 15.817099], [-88.199118, 15.816463], [-88.199962, 15.817091], [-88.200989, 15.817085], [-88.20164, 15.81663], [-88.201822, 15.815815], [-88.202945, 15.816261], [-88.20397, 15.815984], [-88.204433, 15.815349], [-88.204427, 15.814355], [-88.203957, 15.813724], [-88.202928, 15.813459], [-88.201811, 15.814007], [-88.201629, 15.814822], [-88.200413, 15.814377], [-88.199574, 15.814653], [-88.199203, 15.815107], [-88.198452, 15.814388], [-88.197519, 15.814393], [-88.197423, 15.814032], [-88.196767, 15.813583], [-88.19574, 15.813589], [-88.195089, 15.814045], [-88.194814, 15.81495], [-88.194346, 15.814681], [-88.193225, 15.814597], [-88.192386, 15.814873], [-88.191923, 15.815508], [-88.191833, 15.816051], [-88.192118, 15.816863], [-88.192774, 15.817311], [-88.193989, 15.817485]], [[-88.19538, 15.815941], [-88.195287, 15.816032], [-88.195287, 15.815942], [-88.19538, 15.815941]], [[-88.194908, 15.814949], [-88.194815, 15.81504], [-88.194814, 15.81495], [-88.194908, 15.814949]]]}, "properties": {"kind": "detection_zone", "layer_kind": "scene_zone", "zone_id": "SZ-live-honduras-2025-12-28-007", "scene_key": "live-honduras-2025-12-28", "scene_kind": "live", "scene_id": "S2A_MSIL2A_20251228T161721_R140_T16PCC_20251228T202011", "region": "honduras", "title": "Гондурасский залив (Омоа – Пуэрто-Кортес – устье Мотагуа) · зона 7", "mission": "Sentinel-2", "datetime": "2025-12-28T16:17:21.024000Z", "detection_status": "insufficient_data", "status": "insufficient_data", "concentration_status": "unavailable", "verification": "false_alarm_signs", "training_scene": null, "flags": ["ship"], "n_cozar_filaments": 0, "crop_file": "crops/SZ-live-honduras-2025-12-28-007.jpg", "measured": {"zone_area_km2": 0.3607, "suspicious_area_m2": 1100, "n_pixels": 11, "n_objects": 6, "water_km2": 0.3626, "lwd_m2_km2": 3033.6, "quality": {"valid_water_fraction": 1.0, "cloud_fraction": 0.0, "glint_fraction": 0.0}, "model": {"weights": "weights/lgbm", "file": "weights/lgbm/model.txt", "sha256": "0eeebf43fcccd8c7c07f053b7ec723229d1a3c9b92d12eec1bdb269258c51470", "sha256_short": "0eeebf43fccc", "trained_at": "2026-09-25T01:35:55Z", "threshold": 0.63, "harmonize": "none", "class": "MARIDA Marine Debris (любой плавающий мусор, не только пластик)"}}, "probable": {"prob_max": 0.992, "prob_mean": 0.889, "signs": {"foam": {"flag": false, "white_ratio_b2_b8": 0.636, "wind10m_ms": 1.86, "rule": "прирост B2 над водой ≥ 0.8 прироста B8 («белый» спектр) или ветер ≥ 7.0 м/с"}, "glint": {"flag": false, "b11_water_median": 0.0027, "glint_share": 0.0, "rule": "медиана B11 воды зоны > 0.01 или ≥ 20 % пикселей зоны — блик (маска качества)"}, "ship": {"flag": true, "share": 0, "bright_target_px_within_500m": 9, "rule": "≥ 30 % пикселей — у яркой цели или кильватера (reports/artifacts.md) или яркая цель с откликом в SWIR (судно, лодка: B11 ≥ 0,015) ближе 500 м"}, "coast": {"flag": false, "land_px_within_300m": 0, "rule": "суша (маска качества) ближе 300 м — прибой, кромка берега"}, "shallow": {"flag": false, "b3_water_zone": 0.0163, "b3_ratio_to_scene_water": 1.12, "rule": "медиана B3 воды зоны ≥ 2× медианы воды снимка и ≥ 0,03 — мелководье или мутная вода"}, "seam": {"flag": false, "share": 0, "rule": "≥ 30 % пикселей — прямая линия вдоль трека/границы яркости (шов)"}, "note": "эвристики, не классификатор; на размеченных данных не проверены"}, "n_cozar_filaments": 0}, "field_nearby": {"items": [{"source": "ADIS (4TU.ResearchData, судовая камера)", "segment_id": 416634, "ship": "RV Pelagia", "date": "2023-12-19", "days_from_scene": -740, "distance_km": 1740.6, "lon": -75.79339, "lat": 25.94314, "n_items": 0, "area_km2": 0.9676, "size_class": "> 5 см", "c_items_km2": 0.0, "ci95_lo": 0.0, "ci95_hi": 3.81, "ci95_method": "точный интервал Пуассона для N, делённый на A"}, {"source": "ADIS (4TU.ResearchData, судовая камера)", "segment_id": 405468, "ship": "RV Pelagia", "date": "2023-12-19", "days_from_scene": -740, "distance_km": 1740.7, "lon": -75.79193, "lat": 25.94347, "n_items": 0, "area_km2": 0.72, "size_class": "> 5 см", "c_items_km2": 0.0, "ci95_lo": 0.0, "ci95_hi": 5.12, "ci95_method": "точный интервал Пуассона для N, делённый на A"}, {"source": "ADIS (4TU.ResearchData, судовая камера)", "segment_id": 416633, "ship": "RV Pelagia", "date": "2023-12-19", "days_from_scene": -740, "distance_km": 1750.1, "lon": -75.70128, "lat": 25.97146, "n_items": 0, "area_km2": 1.015, "size_class": "> 5 см", "c_items_km2": 0.0, "ci95_lo": 0.0, "ci95_hi": 3.63, "ci95_method": "точный интервал Пуассона для N, делённый на A"}], "nearest_organizer_sample": {"sample_id": "MPL-0239", "source_id": "S2_SARGASSO_MSM41", "distance_km": 2169.8}, "note": "Измерение ≠ оценка: это независимые полевые счёты C = N/A в другое время и в другом месте; со сценой они не связаны и не калибруют её. Ближайший отрезок ADIS — за 1741 км: только для порядка величин."}}}, {"type": "Feature", "id": "SZ-live-honduras-2025-12-28-008", "geometry": {"type": "Polygon", "coordinates": [[[-88.209702, 15.759369], [-88.210541, 15.759093], [-88.210912, 15.758729], [-88.211187, 15.757914], [-88.210901, 15.756922], [-88.209778, 15.756386], [-88.208753, 15.756663], [-88.2082, 15.75775], [-88.208486, 15.758833], [-88.209142, 15.759282], [-88.209702, 15.759369]]]}, "properties": {"kind": "detection_zone", "layer_kind": "scene_zone", "zone_id": "SZ-live-honduras-2025-12-28-008", "scene_key": "live-honduras-2025-12-28", "scene_kind": "live", "scene_id": "S2A_MSIL2A_20251228T161721_R140_T16PCC_20251228T202011", "region": "honduras", "title": "Гондурасский залив (Омоа – Пуэрто-Кортес – устье Мотагуа) · зона 8", "mission": "Sentinel-2", "datetime": "2025-12-28T16:17:21.024000Z", "detection_status": "detected", "status": "detected", "concentration_status": "unavailable", "verification": "unverified", "training_scene": null, "flags": [], "n_cozar_filaments": 0, "crop_file": "crops/SZ-live-honduras-2025-12-28-008.jpg", "measured": {"zone_area_km2": 0.0784, "suspicious_area_m2": 500, "n_pixels": 5, "n_objects": 1, "water_km2": 0.0794, "lwd_m2_km2": 6297.2, "quality": {"valid_water_fraction": 1.0, "cloud_fraction": 0.0, "glint_fraction": 0.0}, "model": {"weights": "weights/lgbm", "file": "weights/lgbm/model.txt", "sha256": "0eeebf43fcccd8c7c07f053b7ec723229d1a3c9b92d12eec1bdb269258c51470", "sha256_short": "0eeebf43fccc", "trained_at": "2026-09-25T01:35:55Z", "threshold": 0.63, "harmonize": "none", "class": "MARIDA Marine Debris (любой плавающий мусор, не только пластик)"}}, "probable": {"prob_max": 1.0, "prob_mean": 0.965, "signs": {"foam": {"flag": false, "white_ratio_b2_b8": 0.524, "wind10m_ms": 1.86, "rule": "прирост B2 над водой ≥ 0.8 прироста B8 («белый» спектр) или ветер ≥ 7.0 м/с"}, "glint": {"flag": false, "b11_water_median": 0.0022, "glint_share": 0.0, "rule": "медиана B11 воды зоны > 0.01 или ≥ 20 % пикселей зоны — блик (маска качества)"}, "ship": {"flag": false, "share": 0, "bright_target_px_within_500m": 0, "rule": "≥ 30 % пикселей — у яркой цели или кильватера (reports/artifacts.md) или яркая цель с откликом в SWIR (судно, лодка: B11 ≥ 0,015) ближе 500 м"}, "coast": {"flag": false, "land_px_within_300m": 0, "rule": "суша (маска качества) ближе 300 м — прибой, кромка берега"}, "shallow": {"flag": false, "b3_water_zone": 0.0196, "b3_ratio_to_scene_water": 1.35, "rule": "медиана B3 воды зоны ≥ 2× медианы воды снимка и ≥ 0,03 — мелководье или мутная вода"}, "seam": {"flag": false, "share": 0, "rule": "≥ 30 % пикселей — прямая линия вдоль трека/границы яркости (шов)"}, "note": "эвристики, не классификатор; на размеченных данных не проверены"}, "n_cozar_filaments": 0}, "field_nearby": {"items": [{"source": "ADIS (4TU.ResearchData, судовая камера)", "segment_id": 416634, "ship": "RV Pelagia", "date": "2023-12-19", "days_from_scene": -740, "distance_km": 1740.6, "lon": -75.79339, "lat": 25.94314, "n_items": 0, "area_km2": 0.9676, "size_class": "> 5 см", "c_items_km2": 0.0, "ci95_lo": 0.0, "ci95_hi": 3.81, "ci95_method": "точный интервал Пуассона для N, делённый на A"}, {"source": "ADIS (4TU.ResearchData, судовая камера)", "segment_id": 405468, "ship": "RV Pelagia", "date": "2023-12-19", "days_from_scene": -740, "distance_km": 1740.7, "lon": -75.79193, "lat": 25.94347, "n_items": 0, "area_km2": 0.72, "size_class": "> 5 см", "c_items_km2": 0.0, "ci95_lo": 0.0, "ci95_hi": 5.12, "ci95_method": "точный интервал Пуассона для N, делённый на A"}, {"source": "ADIS (4TU.ResearchData, судовая камера)", "segment_id": 416633, "ship": "RV Pelagia", "date": "2023-12-19", "days_from_scene": -740, "distance_km": 1750.1, "lon": -75.70128, "lat": 25.97146, "n_items": 0, "area_km2": 1.015, "size_class": "> 5 см", "c_items_km2": 0.0, "ci95_lo": 0.0, "ci95_hi": 3.63, "ci95_method": "точный интервал Пуассона для N, делённый на A"}], "nearest_organizer_sample": {"sample_id": "MPL-0239", "source_id": "S2_SARGASSO_MSM41", "distance_km": 2169.8}, "note": "Измерение ≠ оценка: это независимые полевые счёты C = N/A в другое время и в другом месте; со сценой они не связаны и не калибруют её. Ближайший отрезок ADIS — за 1741 км: только для порядка величин."}}}, {"type": "Feature", "id": "SZ-live-honduras-2025-12-28-009", "geometry": {"type": "Polygon", "coordinates": [[[-88.213221, 15.754649], [-88.214338, 15.754101], [-88.214518, 15.753015], [-88.214984, 15.752832], [-88.215447, 15.752196], [-88.215442, 15.751383], [-88.216375, 15.751378], [-88.217026, 15.750922], [-88.2173, 15.749926], [-88.216733, 15.748845], [-88.215892, 15.748578], [-88.21496, 15.748855], [-88.214497, 15.74949], [-88.214503, 15.750394], [-88.214035, 15.750306], [-88.213197, 15.750582], [-88.212734, 15.751217], [-88.212738, 15.75185], [-88.211994, 15.752306], [-88.211719, 15.753121], [-88.211816, 15.753753], [-88.212286, 15.754383], [-88.213221, 15.754649]]]}, "properties": {"kind": "detection_zone", "layer_kind": "scene_zone", "zone_id": "SZ-live-honduras-2025-12-28-009", "scene_key": "live-honduras-2025-12-28", "scene_kind": "live", "scene_id": "S2A_MSIL2A_20251228T161721_R140_T16PCC_20251228T202011", "region": "honduras", "title": "Гондурасский залив (Омоа – Пуэрто-Кортес – устье Мотагуа) · зона 9", "mission": "Sentinel-2", "datetime": "2025-12-28T16:17:21.024000Z", "detection_status": "detected", "status": "detected", "concentration_status": "unavailable", "verification": "unverified", "training_scene": null, "flags": [], "n_cozar_filaments": 0, "crop_file": "crops/SZ-live-honduras-2025-12-28-009.jpg", "measured": {"zone_area_km2": 0.1949, "suspicious_area_m2": 500, "n_pixels": 5, "n_objects": 3, "water_km2": 0.1966, "lwd_m2_km2": 2543.2, "quality": {"valid_water_fraction": 1.0, "cloud_fraction": 0.0, "glint_fraction": 0.0}, "model": {"weights": "weights/lgbm", "file": "weights/lgbm/model.txt", "sha256": "0eeebf43fcccd8c7c07f053b7ec723229d1a3c9b92d12eec1bdb269258c51470", "sha256_short": "0eeebf43fccc", "trained_at": "2026-09-25T01:35:55Z", "threshold": 0.63, "harmonize": "none", "class": "MARIDA Marine Debris (любой плавающий мусор, не только пластик)"}}, "probable": {"prob_max": 0.91, "prob_mean": 0.773, "signs": {"foam": {"flag": false, "white_ratio_b2_b8": 0.402, "wind10m_ms": 1.86, "rule": "прирост B2 над водой ≥ 0.8 прироста B8 («белый» спектр) или ветер ≥ 7.0 м/с"}, "glint": {"flag": false, "b11_water_median": 0.0022, "glint_share": 0.0, "rule": "медиана B11 воды зоны > 0.01 или ≥ 20 % пикселей зоны — блик (маска качества)"}, "ship": {"flag": false, "share": 0, "bright_target_px_within_500m": 0, "rule": "≥ 30 % пикселей — у яркой цели или кильватера (reports/artifacts.md) или яркая цель с откликом в SWIR (судно, лодка: B11 ≥ 0,015) ближе 500 м"}, "coast": {"flag": false, "land_px_within_300m": 0, "rule": "суша (маска качества) ближе 300 м — прибой, кромка берега"}, "shallow": {"flag": false, "b3_water_zone": 0.0207, "b3_ratio_to_scene_water": 1.43, "rule": "медиана B3 воды зоны ≥ 2× медианы воды снимка и ≥ 0,03 — мелководье или мутная вода"}, "seam": {"flag": false, "share": 0, "rule": "≥ 30 % пикселей — прямая линия вдоль трека/границы яркости (шов)"}, "note": "эвристики, не классификатор; на размеченных данных не проверены"}, "n_cozar_filaments": 0}, "field_nearby": {"items": [{"source": "ADIS (4TU.ResearchData, судовая камера)", "segment_id": 416634, "ship": "RV Pelagia", "date": "2023-12-19", "days_from_scene": -740, "distance_km": 1740.6, "lon": -75.79339, "lat": 25.94314, "n_items": 0, "area_km2": 0.9676, "size_class": "> 5 см", "c_items_km2": 0.0, "ci95_lo": 0.0, "ci95_hi": 3.81, "ci95_method": "точный интервал Пуассона для N, делённый на A"}, {"source": "ADIS (4TU.ResearchData, судовая камера)", "segment_id": 405468, "ship": "RV Pelagia", "date": "2023-12-19", "days_from_scene": -740, "distance_km": 1740.7, "lon": -75.79193, "lat": 25.94347, "n_items": 0, "area_km2": 0.72, "size_class": "> 5 см", "c_items_km2": 0.0, "ci95_lo": 0.0, "ci95_hi": 5.12, "ci95_method": "точный интервал Пуассона для N, делённый на A"}, {"source": "ADIS (4TU.ResearchData, судовая камера)", "segment_id": 416633, "ship": "RV Pelagia", "date": "2023-12-19", "days_from_scene": -740, "distance_km": 1750.1, "lon": -75.70128, "lat": 25.97146, "n_items": 0, "area_km2": 1.015, "size_class": "> 5 см", "c_items_km2": 0.0, "ci95_lo": 0.0, "ci95_hi": 3.63, "ci95_method": "точный интервал Пуассона для N, делённый на A"}], "nearest_organizer_sample": {"sample_id": "MPL-0239", "source_id": "S2_SARGASSO_MSM41", "distance_km": 2169.8}, "note": "Измерение ≠ оценка: это независимые полевые счёты C = N/A в другое время и в другом месте; со сценой они не связаны и не калибруют её. Ближайший отрезок ADIS — за 1741 км: только для порядка величин."}}}]}