{"type": "FeatureCollection", "features": [{"type": "Feature", "id": "D-SZ-fresh-manila-2026-07-20-001-13", "geometry": {"type": "Polygon", "coordinates": [[[120.9264752, 14.6012276], [120.9264769, 14.6010469], [120.9263841, 14.6010461], [120.9263867, 14.600775], [120.9262939, 14.6007742], [120.9262947, 14.6006838], [120.9262019, 14.600683], [120.9262028, 14.6005926], [120.9262956, 14.6005935], [120.9262964, 14.6005031], [120.9265748, 14.6005056], [120.926568, 14.6012284], [120.9264752, 14.6012276]]]}, "properties": {"kind": "detection", "det_id": "D-SZ-fresh-manila-2026-07-20-001-13", "zone_id": "SZ-fresh-manila-2026-07-20-001", "scene_id": "S2B_MSIL2A_20260720T021529_R003_T51PTS_20260721T004116", "datetime": "2026-07-20T02:15:29.024000Z", "n_pixels": 18, "area_m2": 1800, "prob_max": 1.0, "prob_mean": 0.9534, "threshold": 0.63, "in_strip": true, "artifact": null}}, {"type": "Feature", "id": "D-SZ-fresh-manila-2026-07-20-001-14", "geometry": {"type": "Polygon", "coordinates": [[[120.9261151, 14.6000497], [120.9261168, 14.599869], [120.9263024, 14.5998706], [120.9263032, 14.5997803], [120.926396, 14.5997811], [120.9263968, 14.5996907], [120.9264896, 14.5996916], [120.9264905, 14.5996012], [120.9265832, 14.599602], [120.9265841, 14.5995117], [120.9266769, 14.5995125], [120.9266743, 14.5997836], [120.9265816, 14.5997827], [120.9265807, 14.5998731], [120.9264879, 14.5998723], [120.9264871, 14.5999626], [120.9263943, 14.5999618], [120.9263934, 14.6000522], [120.9261151, 14.6000497]]]}, "properties": {"kind": "detection", "det_id": "D-SZ-fresh-manila-2026-07-20-001-14", "zone_id": "SZ-fresh-manila-2026-07-20-001", "scene_id": "S2B_MSIL2A_20260720T021529_R003_T51PTS_20260721T004116", "datetime": "2026-07-20T02:15:29.024000Z", "n_pixels": 16, "area_m2": 1600, "prob_max": 1.0, "prob_mean": 0.9841, "threshold": 0.63, "in_strip": true, "artifact": null}}, {"type": "Feature", "id": "D-SZ-fresh-manila-2026-07-20-002-15", "geometry": {"type": "Polygon", "coordinates": [[[120.9112746, 14.5993751], [120.9112763, 14.5991944], [120.9113691, 14.5991952], [120.91137, 14.5991049], [120.9114628, 14.5991057], [120.9114611, 14.5992864], [120.9113683, 14.5992856], [120.9113674, 14.5993759], [120.9112746, 14.5993751]]]}, "properties": {"kind": "detection", "det_id": "D-SZ-fresh-manila-2026-07-20-002-15", "zone_id": "SZ-fresh-manila-2026-07-20-002", "scene_id": "S2B_MSIL2A_20260720T021529_R003_T51PTS_20260721T004116", "datetime": "2026-07-20T02:15:29.024000Z", "n_pixels": 4, "area_m2": 400, "prob_max": 0.9961, "prob_mean": 0.8961, "threshold": 0.63, "in_strip": true, "artifact": null}}, {"type": "Feature", "id": "D-SZ-fresh-manila-2026-07-20-002-16", "geometry": {"type": "Polygon", "coordinates": [[[120.9113708, 14.5990145], [120.9113717, 14.5989242], [120.9114645, 14.598925], [120.9114653, 14.5988346], [120.9115581, 14.5988355], [120.9115564, 14.5990162], [120.9113708, 14.5990145]]]}, "properties": {"kind": "detection", "det_id": "D-SZ-fresh-manila-2026-07-20-002-16", "zone_id": "SZ-fresh-manila-2026-07-20-002", "scene_id": "S2B_MSIL2A_20260720T021529_R003_T51PTS_20260721T004116", "datetime": "2026-07-20T02:15:29.024000Z", "n_pixels": 3, "area_m2": 300, "prob_max": 1.0, "prob_mean": 0.8732, "threshold": 0.63, "in_strip": true, "artifact": null}}, {"type": "Feature", "id": "D-SZ-fresh-manila-2026-07-20-002-17", "geometry": {"type": "Polygon", "coordinates": [[[120.9114687, 14.5984732], [120.9114696, 14.5983829], [120.9115624, 14.5983837], [120.9115632, 14.5982933], [120.911656, 14.5982942], [120.9116543, 14.5984749], [120.9114687, 14.5984732]]]}, "properties": {"kind": "detection", "det_id": "D-SZ-fresh-manila-2026-07-20-002-17", "zone_id": "SZ-fresh-manila-2026-07-20-002", "scene_id": "S2B_MSIL2A_20260720T021529_R003_T51PTS_20260721T004116", "datetime": "2026-07-20T02:15:29.024000Z", "n_pixels": 3, "area_m2": 300, "prob_max": 0.9765, "prob_mean": 0.9333, "threshold": 0.63, "in_strip": true, "artifact": "ship"}}, {"type": "Feature", "id": "D-SZ-fresh-manila-2026-07-20-002-18", "geometry": {"type": "Polygon", "coordinates": [[[120.916588, 14.5968021], [120.9165889, 14.5967117], [120.9164033, 14.5967101], [120.9164041, 14.5966197], [120.9164969, 14.5966206], [120.9164978, 14.5965302], [120.9166833, 14.5965319], [120.916685, 14.5963512], [120.9168706, 14.5963528], [120.9168715, 14.5962625], [120.917057, 14.5962641], [120.9170553, 14.5964448], [120.9169625, 14.596444], [120.9169608, 14.5966247], [120.9168681, 14.5966239], [120.9168689, 14.5965335], [120.9167761, 14.5965327], [120.9167736, 14.5968038], [120.916588, 14.5968021]]]}, "properties": {"kind": "detection", "det_id": "D-SZ-fresh-manila-2026-07-20-002-18", "zone_id": "SZ-fresh-manila-2026-07-20-002", "scene_id": "S2B_MSIL2A_20260720T021529_R003_T51PTS_20260721T004116", "datetime": "2026-07-20T02:15:29.024000Z", "n_pixels": 19, "area_m2": 1900, "prob_max": 1.0, "prob_mean": 0.9102, "threshold": 0.63, "in_strip": true, "artifact": "wake"}}, {"type": "Feature", "id": "D-SZ-fresh-manila-2026-07-20-002-19", "geometry": {"type": "Polygon", "coordinates": [[[120.9143629, 14.5966015], [120.9143638, 14.5965111], [120.9144565, 14.596512], [120.9144557, 14.5966023], [120.9143629, 14.5966015]]]}, "properties": {"kind": "detection", "det_id": "D-SZ-fresh-manila-2026-07-20-002-19", "zone_id": "SZ-fresh-manila-2026-07-20-002", "scene_id": "S2B_MSIL2A_20260720T021529_R003_T51PTS_20260721T004116", "datetime": "2026-07-20T02:15:29.024000Z", "n_pixels": 1, "area_m2": 100, "prob_max": 0.7686, "prob_mean": 0.7686, "threshold": 0.63, "in_strip": true, "artifact": null}}, {"type": "Feature", "id": "D-SZ-fresh-manila-2026-07-20-002-21", "geometry": {"type": "Polygon", "coordinates": [[[120.9171498, 14.5962649], [120.9171515, 14.5960842], [120.9172443, 14.5960851], [120.9172451, 14.5959947], [120.9173379, 14.5959955], [120.9173388, 14.5959052], [120.9174316, 14.595906], [120.9174307, 14.5959964], [120.9175235, 14.5959972], [120.9175226, 14.5960875], [120.9174299, 14.5960867], [120.917429, 14.5961771], [120.9173362, 14.5961762], [120.9173354, 14.5962666], [120.9171498, 14.5962649]]]}, "properties": {"kind": "detection", "det_id": "D-SZ-fresh-manila-2026-07-20-002-21", "zone_id": "SZ-fresh-manila-2026-07-20-002", "scene_id": "S2B_MSIL2A_20260720T021529_R003_T51PTS_20260721T004116", "datetime": "2026-07-20T02:15:29.024000Z", "n_pixels": 9, "area_m2": 900, "prob_max": 1.0, "prob_mean": 0.9447, "threshold": 0.63, "in_strip": true, "artifact": "wake"}}, {"type": "Feature", "id": "D-SZ-fresh-manila-2026-07-20-002-22", "geometry": {"type": "Polygon", "coordinates": [[[120.9125115, 14.5961331], [120.9125124, 14.5960428], [120.9126051, 14.5960436], [120.9126069, 14.5958629], [120.9126996, 14.5958637], [120.9126971, 14.5961348], [120.9125115, 14.5961331]]]}, "properties": {"kind": "detection", "det_id": "D-SZ-fresh-manila-2026-07-20-002-22", "zone_id": "SZ-fresh-manila-2026-07-20-002", "scene_id": "S2B_MSIL2A_20260720T021529_R003_T51PTS_20260721T004116", "datetime": "2026-07-20T02:15:29.024000Z", "n_pixels": 4, "area_m2": 400, "prob_max": 0.9882, "prob_mean": 0.8735, "threshold": 0.63, "in_strip": true, "artifact": "ship"}}, {"type": "Feature", "id": "D-SZ-fresh-manila-2026-07-20-002-23", "geometry": {"type": "Polygon", "coordinates": [[[120.9093578, 14.5960145], [120.9093586, 14.5959242], [120.9095442, 14.5959258], [120.9095433, 14.5960162], [120.9093578, 14.5960145]]]}, "properties": {"kind": "detection", "det_id": "D-SZ-fresh-manila-2026-07-20-002-23", "zone_id": "SZ-fresh-manila-2026-07-20-002", "scene_id": "S2B_MSIL2A_20260720T021529_R003_T51PTS_20260721T004116", "datetime": "2026-07-20T02:15:29.024000Z", "n_pixels": 2, "area_m2": 200, "prob_max": 0.9765, "prob_mean": 0.8765, "threshold": 0.63, "in_strip": true, "artifact": null}}, {"type": "Feature", "id": "D-SZ-fresh-manila-2026-07-20-002-24", "geometry": {"type": "Polygon", "coordinates": [[[120.9151111, 14.5959756], [120.915112, 14.5958853], [120.9152976, 14.5958869], [120.9152967, 14.5959773], [120.9151111, 14.5959756]]]}, "properties": {"kind": "detection", "det_id": "D-SZ-fresh-manila-2026-07-20-002-24", "zone_id": "SZ-fresh-manila-2026-07-20-002", "scene_id": "S2B_MSIL2A_20260720T021529_R003_T51PTS_20260721T004116", "datetime": "2026-07-20T02:15:29.024000Z", "n_pixels": 2, "area_m2": 200, "prob_max": 0.9882, "prob_mean": 0.9863, "threshold": 0.63, "in_strip": true, "artifact": null}}, {"type": "Feature", "id": "D-SZ-fresh-manila-2026-07-20-002-25", "geometry": {"type": "Polygon", "coordinates": [[[120.9176163, 14.595998], [120.9176188, 14.5957269], [120.9178044, 14.5957286], [120.9178061, 14.5955479], [120.9179917, 14.5955495], [120.91799, 14.5957303], [120.9178044, 14.5957286], [120.9178035, 14.595819], [120.9177108, 14.5958181], [120.9177091, 14.5959988], [120.9176163, 14.595998]]]}, "properties": {"kind": "detection", "det_id": "D-SZ-fresh-manila-2026-07-20-002-25", "zone_id": "SZ-fresh-manila-2026-07-20-002", "scene_id": "S2B_MSIL2A_20260720T021529_R003_T51PTS_20260721T004116", "datetime": "2026-07-20T02:15:29.024000Z", "n_pixels": 8, "area_m2": 800, "prob_max": 0.9961, "prob_mean": 0.9564, "threshold": 0.63, "in_strip": true, "artifact": "wake"}}, {"type": "Feature", "id": "D-SZ-fresh-manila-2026-07-20-002-26", "geometry": {"type": "Polygon", "coordinates": [[[120.9096378, 14.5958363], [120.9096387, 14.595746], [120.9097314, 14.5957468], [120.9097323, 14.5956564], [120.9098251, 14.5956573], [120.9098259, 14.5955669], [120.9097332, 14.5955661], [120.9097349, 14.5953854], [120.9100132, 14.5953879], [120.9100124, 14.5954782], [120.9099196, 14.5954774], [120.9099179, 14.5956581], [120.9098251, 14.5956573], [120.9098234, 14.595838], [120.9096378, 14.5958363]]]}, "properties": {"kind": "detection", "det_id": "D-SZ-fresh-manila-2026-07-20-002-26", "zone_id": "SZ-fresh-manila-2026-07-20-002", "scene_id": "S2B_MSIL2A_20260720T021529_R003_T51PTS_20260721T004116", "datetime": "2026-07-20T02:15:29.024000Z", "n_pixels": 9, "area_m2": 900, "prob_max": 0.9961, "prob_mean": 0.9224, "threshold": 0.63, "in_strip": true, "artifact": null}}, {"type": "Feature", "id": "D-SZ-fresh-manila-2026-07-20-002-30", "geometry": {"type": "Polygon", "coordinates": [[[120.9081567, 14.5954616], [120.9081576, 14.5953712], [120.9082503, 14.5953721], [120.9082495, 14.5954624], [120.9081567, 14.5954616]]]}, "properties": {"kind": "detection", "det_id": "D-SZ-fresh-manila-2026-07-20-002-30", "zone_id": "SZ-fresh-manila-2026-07-20-002", "scene_id": "S2B_MSIL2A_20260720T021529_R003_T51PTS_20260721T004116", "datetime": "2026-07-20T02:15:29.024000Z", "n_pixels": 1, "area_m2": 100, "prob_max": 0.8275, "prob_mean": 0.8275, "threshold": 0.63, "in_strip": true, "artifact": null}}, {"type": "Feature", "id": "D-SZ-fresh-manila-2026-07-20-002-31", "geometry": {"type": "Polygon", "coordinates": [[[120.9179925, 14.5954592], [120.9179934, 14.5953688], [120.9180861, 14.5953697], [120.9180853, 14.59546], [120.9179925, 14.5954592]]]}, "properties": {"kind": "detection", "det_id": "D-SZ-fresh-manila-2026-07-20-002-31", "zone_id": "SZ-fresh-manila-2026-07-20-002", "scene_id": "S2B_MSIL2A_20260720T021529_R003_T51PTS_20260721T004116", "datetime": "2026-07-20T02:15:29.024000Z", "n_pixels": 1, "area_m2": 100, "prob_max": 0.9216, "prob_mean": 0.9216, "threshold": 0.63, "in_strip": true, "artifact": "ship"}}, {"type": "Feature", "id": "D-SZ-fresh-manila-2026-07-20-002-32", "geometry": {"type": "Polygon", "coordinates": [[[120.9181798, 14.5952801], [120.9181823, 14.5950091], [120.9182751, 14.5950099], [120.918276, 14.5949195], [120.9184615, 14.5949212], [120.9184607, 14.5950116], [120.9185535, 14.5950124], [120.9185526, 14.5951027], [120.9184598, 14.5951019], [120.918459, 14.5951923], [120.9183662, 14.5951914], [120.9183653, 14.5952818], [120.9181798, 14.5952801]]]}, "properties": {"kind": "detection", "det_id": "D-SZ-fresh-manila-2026-07-20-002-32", "zone_id": "SZ-fresh-manila-2026-07-20-002", "scene_id": "S2B_MSIL2A_20260720T021529_R003_T51PTS_20260721T004116", "datetime": "2026-07-20T02:15:29.024000Z", "n_pixels": 11, "area_m2": 1100, "prob_max": 1.0, "prob_mean": 0.9683, "threshold": 0.63, "in_strip": true, "artifact": "ship"}}, {"type": "Feature", "id": "D-SZ-fresh-manila-2026-07-20-002-36", "geometry": {"type": "Polygon", "coordinates": [[[120.9102047, 14.594757], [120.9102056, 14.5946667], [120.9102984, 14.5946675], [120.9102975, 14.5947579], [120.9102047, 14.594757]]]}, "properties": {"kind": "detection", "det_id": "D-SZ-fresh-manila-2026-07-20-002-36", "zone_id": "SZ-fresh-manila-2026-07-20-002", "scene_id": "S2B_MSIL2A_20260720T021529_R003_T51PTS_20260721T004116", "datetime": "2026-07-20T02:15:29.024000Z", "n_pixels": 1, "area_m2": 100, "prob_max": 0.9373, "prob_mean": 0.9373, "threshold": 0.63, "in_strip": true, "artifact": null}}, {"type": "Feature", "id": "D-SZ-fresh-manila-2026-07-20-002-39", "geometry": {"type": "Polygon", "coordinates": [[[120.9181891, 14.5942862], [120.91819, 14.5941959], [120.9180044, 14.5941942], [120.9180053, 14.5941039], [120.9181908, 14.5941055], [120.91819, 14.5941959], [120.9182828, 14.5941967], [120.9182819, 14.5942871], [120.9181891, 14.5942862]]]}, "properties": {"kind": "detection", "det_id": "D-SZ-fresh-manila-2026-07-20-002-39", "zone_id": "SZ-fresh-manila-2026-07-20-002", "scene_id": "S2B_MSIL2A_20260720T021529_R003_T51PTS_20260721T004116", "datetime": "2026-07-20T02:15:29.024000Z", "n_pixels": 3, "area_m2": 300, "prob_max": 0.9843, "prob_mean": 0.9582, "threshold": 0.63, "in_strip": true, "artifact": null}}, {"type": "Feature", "id": "D-SZ-fresh-manila-2026-07-20-002-40", "geometry": {"type": "Polygon", "coordinates": [[[120.9183772, 14.5940168], [120.9183781, 14.5939265], [120.9184709, 14.5939273], [120.91847, 14.5940176], [120.9183772, 14.5940168]]]}, "properties": {"kind": "detection", "det_id": "D-SZ-fresh-manila-2026-07-20-002-40", "zone_id": "SZ-fresh-manila-2026-07-20-002", "scene_id": "S2B_MSIL2A_20260720T021529_R003_T51PTS_20260721T004116", "datetime": "2026-07-20T02:15:29.024000Z", "n_pixels": 1, "area_m2": 100, "prob_max": 0.6353, "prob_mean": 0.6353, "threshold": 0.63, "in_strip": true, "artifact": null}}, {"type": "Feature", "id": "D-SZ-fresh-manila-2026-07-20-003-20", "geometry": {"type": "Polygon", "coordinates": [[[120.9233655, 14.5964107], [120.9233663, 14.5963203], [120.9234591, 14.5963212], [120.9234582, 14.5964115], [120.9233655, 14.5964107]]]}, "properties": {"kind": "detection", "det_id": "D-SZ-fresh-manila-2026-07-20-003-20", "zone_id": "SZ-fresh-manila-2026-07-20-003", "scene_id": "S2B_MSIL2A_20260720T021529_R003_T51PTS_20260721T004116", "datetime": "2026-07-20T02:15:29.024000Z", "n_pixels": 1, "area_m2": 100, "prob_max": 0.898, "prob_mean": 0.898, "threshold": 0.63, "in_strip": true, "artifact": null}}, {"type": "Feature", "id": "D-SZ-fresh-manila-2026-07-20-003-28", "geometry": {"type": "Polygon", "coordinates": [[[120.9229066, 14.5958644], [120.9229083, 14.5956837], [120.9230011, 14.5956845], [120.9229994, 14.5958653], [120.9229066, 14.5958644]]]}, "properties": {"kind": "detection", "det_id": "D-SZ-fresh-manila-2026-07-20-003-28", "zone_id": "SZ-fresh-manila-2026-07-20-003", "scene_id": "S2B_MSIL2A_20260720T021529_R003_T51PTS_20260721T004116", "datetime": "2026-07-20T02:15:29.024000Z", "n_pixels": 2, "area_m2": 200, "prob_max": 0.9765, "prob_mean": 0.849, "threshold": 0.63, "in_strip": true, "artifact": null}}, {"type": "Feature", "id": "D-SZ-fresh-manila-2026-07-20-003-29", "geometry": {"type": "Polygon", "coordinates": [[[120.923465, 14.5956887], [120.9234667, 14.595508], [120.9237451, 14.5955104], [120.9237442, 14.5956008], [120.9236514, 14.5956], [120.9236506, 14.5956903], [120.923465, 14.5956887]]]}, "properties": {"kind": "detection", "det_id": "D-SZ-fresh-manila-2026-07-20-003-29", "zone_id": "SZ-fresh-manila-2026-07-20-003", "scene_id": "S2B_MSIL2A_20260720T021529_R003_T51PTS_20260721T004116", "datetime": "2026-07-20T02:15:29.024000Z", "n_pixels": 5, "area_m2": 500, "prob_max": 1.0, "prob_mean": 0.9922, "threshold": 0.63, "in_strip": true, "artifact": null}}, {"type": "Feature", "id": "D-SZ-fresh-manila-2026-07-20-003-33", "geometry": {"type": "Polygon", "coordinates": [[[120.9228189, 14.5953215], [120.9228198, 14.5952311], [120.922727, 14.5952303], [120.9227287, 14.5950496], [120.9228215, 14.5950504], [120.9228198, 14.5952311], [120.9229126, 14.5952319], [120.9229117, 14.5953223], [120.9228189, 14.5953215]]]}, "properties": {"kind": "detection", "det_id": "D-SZ-fresh-manila-2026-07-20-003-33", "zone_id": "SZ-fresh-manila-2026-07-20-003", "scene_id": "S2B_MSIL2A_20260720T021529_R003_T51PTS_20260721T004116", "datetime": "2026-07-20T02:15:29.024000Z", "n_pixels": 3, "area_m2": 300, "prob_max": 0.9686, "prob_mean": 0.8536, "threshold": 0.63, "in_strip": true, "artifact": null}}, {"type": "Feature", "id": "D-SZ-fresh-manila-2026-07-20-003-34", "geometry": {"type": "Polygon", "coordinates": [[[120.9225414, 14.5952286], [120.9225423, 14.5951383], [120.9226351, 14.5951391], [120.9226342, 14.5952295], [120.9225414, 14.5952286]]]}, "properties": {"kind": "detection", "det_id": "D-SZ-fresh-manila-2026-07-20-003-34", "zone_id": "SZ-fresh-manila-2026-07-20-003", "scene_id": "S2B_MSIL2A_20260720T021529_R003_T51PTS_20260721T004116", "datetime": "2026-07-20T02:15:29.024000Z", "n_pixels": 1, "area_m2": 100, "prob_max": 0.7569, "prob_mean": 0.7569, "threshold": 0.63, "in_strip": true, "artifact": null}}, {"type": "Feature", "id": "D-SZ-fresh-manila-2026-07-20-003-35", "geometry": {"type": "Polygon", "coordinates": [[[120.922544, 14.5949576], [120.9225448, 14.5948672], [120.922452, 14.5948664], [120.9224529, 14.594776], [120.9223601, 14.5947752], [120.9223609, 14.5946849], [120.9225465, 14.5946865], [120.9225457, 14.5947769], [120.9226384, 14.5947777], [120.9226376, 14.594868], [120.9227304, 14.5948689], [120.9227295, 14.5949592], [120.922544, 14.5949576]]]}, "properties": {"kind": "detection", "det_id": "D-SZ-fresh-manila-2026-07-20-003-35", "zone_id": "SZ-fresh-manila-2026-07-20-003", "scene_id": "S2B_MSIL2A_20260720T021529_R003_T51PTS_20260721T004116", "datetime": "2026-07-20T02:15:29.024000Z", "n_pixels": 6, "area_m2": 600, "prob_max": 1.0, "prob_mean": 0.8229, "threshold": 0.63, "in_strip": true, "artifact": null}}, {"type": "Feature", "id": "D-SZ-fresh-manila-2026-07-20-003-37", "geometry": {"type": "Polygon", "coordinates": [[[120.9221779, 14.5944121], [120.9221796, 14.5942314], [120.9220868, 14.5942306], [120.9220877, 14.5941402], [120.9222733, 14.5941419], [120.9222707, 14.594413], [120.9221779, 14.5944121]]]}, "properties": {"kind": "detection", "det_id": "D-SZ-fresh-manila-2026-07-20-003-37", "zone_id": "SZ-fresh-manila-2026-07-20-003", "scene_id": "S2B_MSIL2A_20260720T021529_R003_T51PTS_20260721T004116", "datetime": "2026-07-20T02:15:29.024000Z", "n_pixels": 4, "area_m2": 400, "prob_max": 0.9961, "prob_mean": 0.8853, "threshold": 0.63, "in_strip": true, "artifact": null}}, {"type": "Feature", "id": "D-SZ-fresh-manila-2026-07-20-003-38", "geometry": {"type": "Polygon", "coordinates": [[[120.9224563, 14.5944146], [120.9224571, 14.5943243], [120.9225499, 14.5943251], [120.9225491, 14.5944154], [120.9224563, 14.5944146]]]}, "properties": {"kind": "detection", "det_id": "D-SZ-fresh-manila-2026-07-20-003-38", "zone_id": "SZ-fresh-manila-2026-07-20-003", "scene_id": "S2B_MSIL2A_20260720T021529_R003_T51PTS_20260721T004116", "datetime": "2026-07-20T02:15:29.024000Z", "n_pixels": 1, "area_m2": 100, "prob_max": 0.7451, "prob_mean": 0.7451, "threshold": 0.63, "in_strip": true, "artifact": null}}, {"type": "Feature", "id": "D-SZ-fresh-manila-2026-07-20-004-27", "geometry": {"type": "Polygon", "coordinates": [[[120.8972986, 14.5956351], [120.8972995, 14.5955448], [120.8973923, 14.5955456], [120.8973914, 14.5956359], [120.8972986, 14.5956351]]]}, "properties": {"kind": "detection", "det_id": "D-SZ-fresh-manila-2026-07-20-004-27", "zone_id": "SZ-fresh-manila-2026-07-20-004", "scene_id": "S2B_MSIL2A_20260720T021529_R003_T51PTS_20260721T004116", "datetime": "2026-07-20T02:15:29.024000Z", "n_pixels": 1, "area_m2": 100, "prob_max": 0.7176, "prob_mean": 0.7176, "threshold": 0.63, "in_strip": true, "artifact": null}}, {"type": "Feature", "id": "D-SZ-fresh-manila-2026-07-20-004-41", "geometry": {"type": "Polygon", "coordinates": [[[120.8982453, 14.5936557], [120.898247, 14.593475], [120.8984326, 14.5934766], [120.8984309, 14.5936573], [120.8982453, 14.5936557]]]}, "properties": {"kind": "detection", "det_id": "D-SZ-fresh-manila-2026-07-20-004-41", "zone_id": "SZ-fresh-manila-2026-07-20-004", "scene_id": "S2B_MSIL2A_20260720T021529_R003_T51PTS_20260721T004116", "datetime": "2026-07-20T02:15:29.024000Z", "n_pixels": 4, "area_m2": 400, "prob_max": 1.0, "prob_mean": 0.9078, "threshold": 0.63, "in_strip": true, "artifact": null}}, {"type": "Feature", "id": "D-SZ-fresh-manila-2026-07-20-004-42", "geometry": {"type": "Polygon", "coordinates": [[[120.8954653, 14.5932692], [120.8954662, 14.5931788], [120.895559, 14.5931797], [120.8955581, 14.59327], [120.8954653, 14.5932692]]]}, "properties": {"kind": "detection", "det_id": "D-SZ-fresh-manila-2026-07-20-004-42", "zone_id": "SZ-fresh-manila-2026-07-20-004", "scene_id": "S2B_MSIL2A_20260720T021529_R003_T51PTS_20260721T004116", "datetime": "2026-07-20T02:15:29.024000Z", "n_pixels": 1, "area_m2": 100, "prob_max": 0.7765, "prob_mean": 0.7765, "threshold": 0.63, "in_strip": true, "artifact": null}}, {"type": "Feature", "id": "D-SZ-fresh-manila-2026-07-20-004-43", "geometry": {"type": "Polygon", "coordinates": [[[120.8983415, 14.5932951], [120.8983424, 14.5932047], [120.8986207, 14.5932072], [120.8986199, 14.5932976], [120.8983415, 14.5932951]]]}, "properties": {"kind": "detection", "det_id": "D-SZ-fresh-manila-2026-07-20-004-43", "zone_id": "SZ-fresh-manila-2026-07-20-004", "scene_id": "S2B_MSIL2A_20260720T021529_R003_T51PTS_20260721T004116", "datetime": "2026-07-20T02:15:29.024000Z", "n_pixels": 3, "area_m2": 300, "prob_max": 0.9882, "prob_mean": 0.9072, "threshold": 0.63, "in_strip": true, "artifact": null}}, {"type": "Feature", "id": "D-SZ-fresh-manila-2026-07-20-004-44", "geometry": {"type": "Polygon", "coordinates": [[[120.9006662, 14.5927738], [120.9006679, 14.5925931], [120.9007607, 14.592594], [120.9007616, 14.5925036], [120.9009471, 14.5925053], [120.9009463, 14.5925956], [120.9008535, 14.5925948], [120.9008526, 14.5926851], [120.9007598, 14.5926843], [120.900759, 14.5927747], [120.9006662, 14.5927738]]]}, "properties": {"kind": "detection", "det_id": "D-SZ-fresh-manila-2026-07-20-004-44", "zone_id": "SZ-fresh-manila-2026-07-20-004", "scene_id": "S2B_MSIL2A_20260720T021529_R003_T51PTS_20260721T004116", "datetime": "2026-07-20T02:15:29.024000Z", "n_pixels": 5, "area_m2": 500, "prob_max": 0.9961, "prob_mean": 0.9365, "threshold": 0.63, "in_strip": true, "artifact": null}}, {"type": "Feature", "id": "D-SZ-fresh-manila-2026-07-20-004-45", "geometry": {"type": "Polygon", "coordinates": [[[120.9011318, 14.5925973], [120.9011327, 14.5925069], [120.9013182, 14.5925086], [120.9013174, 14.592599], [120.9011318, 14.5925973]]]}, "properties": {"kind": "detection", "det_id": "D-SZ-fresh-manila-2026-07-20-004-45", "zone_id": "SZ-fresh-manila-2026-07-20-004", "scene_id": "S2B_MSIL2A_20260720T021529_R003_T51PTS_20260721T004116", "datetime": "2026-07-20T02:15:29.024000Z", "n_pixels": 2, "area_m2": 200, "prob_max": 0.9882, "prob_mean": 0.9882, "threshold": 0.63, "in_strip": true, "artifact": null}}, {"type": "Feature", "id": "D-SZ-fresh-manila-2026-07-20-004-46", "geometry": {"type": "Polygon", "coordinates": [[[120.9016894, 14.5925119], [120.9016911, 14.5923312], [120.9018766, 14.5923329], [120.9018749, 14.5925136], [120.9016894, 14.5925119]]]}, "properties": {"kind": "detection", "det_id": "D-SZ-fresh-manila-2026-07-20-004-46", "zone_id": "SZ-fresh-manila-2026-07-20-004", "scene_id": "S2B_MSIL2A_20260720T021529_R003_T51PTS_20260721T004116", "datetime": "2026-07-20T02:15:29.024000Z", "n_pixels": 4, "area_m2": 400, "prob_max": 1.0, "prob_mean": 0.8882, "threshold": 0.63, "in_strip": true, "artifact": null}}, {"type": "Feature", "id": "D-SZ-fresh-manila-2026-07-20-004-47", "geometry": {"type": "Polygon", "coordinates": [[[120.8992796, 14.5922192], [120.8992814, 14.5920385], [120.8994669, 14.5920401], [120.8994652, 14.5922209], [120.8992796, 14.5922192]]]}, "properties": {"kind": "detection", "det_id": "D-SZ-fresh-manila-2026-07-20-004-47", "zone_id": "SZ-fresh-manila-2026-07-20-004", "scene_id": "S2B_MSIL2A_20260720T021529_R003_T51PTS_20260721T004116", "datetime": "2026-07-20T02:15:29.024000Z", "n_pixels": 4, "area_m2": 400, "prob_max": 1.0, "prob_mean": 0.999, "threshold": 0.63, "in_strip": true, "artifact": null}}, {"type": "Feature", "id": "D-SZ-fresh-manila-2026-07-20-004-48", "geometry": {"type": "Polygon", "coordinates": [[[120.9023414, 14.5922467], [120.9023431, 14.592066], [120.9024359, 14.5920668], [120.9024367, 14.5919765], [120.9026223, 14.5919782], [120.9026206, 14.5921589], [120.9025278, 14.592158], [120.902527, 14.5922484], [120.9023414, 14.5922467]]]}, "properties": {"kind": "detection", "det_id": "D-SZ-fresh-manila-2026-07-20-004-48", "zone_id": "SZ-fresh-manila-2026-07-20-004", "scene_id": "S2B_MSIL2A_20260720T021529_R003_T51PTS_20260721T004116", "datetime": "2026-07-20T02:15:29.024000Z", "n_pixels": 7, "area_m2": 700, "prob_max": 1.0, "prob_mean": 0.9725, "threshold": 0.63, "in_strip": true, "artifact": "ship"}}, {"type": "Feature", "id": "D-SZ-fresh-manila-2026-07-20-004-49", "geometry": {"type": "Polygon", "coordinates": [[[120.903368, 14.5916234], [120.9033688, 14.5915331], [120.9034616, 14.5915339], [120.9034608, 14.5916242], [120.903368, 14.5916234]]]}, "properties": {"kind": "detection", "det_id": "D-SZ-fresh-manila-2026-07-20-004-49", "zone_id": "SZ-fresh-manila-2026-07-20-004", "scene_id": "S2B_MSIL2A_20260720T021529_R003_T51PTS_20260721T004116", "datetime": "2026-07-20T02:15:29.024000Z", "n_pixels": 1, "area_m2": 100, "prob_max": 0.8549, "prob_mean": 0.8549, "threshold": 0.63, "in_strip": true, "artifact": null}}, {"type": "Feature", "id": "D-SZ-fresh-manila-2026-07-20-004-53", "geometry": {"type": "Polygon", "coordinates": [[[120.9044907, 14.5906395], [120.9044925, 14.5904588], [120.9045852, 14.5904596], [120.9045861, 14.5903693], [120.9046789, 14.5903701], [120.9046797, 14.5902798], [120.9052364, 14.5902847], [120.9052356, 14.5903751], [120.9049572, 14.5903726], [120.9049564, 14.590463], [120.9045852, 14.5904596], [120.9045835, 14.5906403], [120.9044907, 14.5906395]]]}, "properties": {"kind": "detection", "det_id": "D-SZ-fresh-manila-2026-07-20-004-53", "zone_id": "SZ-fresh-manila-2026-07-20-004", "scene_id": "S2B_MSIL2A_20260720T021529_R003_T51PTS_20260721T004116", "datetime": "2026-07-20T02:15:29.024000Z", "n_pixels": 12, "area_m2": 1200, "prob_max": 0.9961, "prob_mean": 0.9042, "threshold": 0.63, "in_strip": true, "artifact": "ship"}}, {"type": "Feature", "id": "D-SZ-fresh-manila-2026-07-20-004-57", "geometry": {"type": "Polygon", "coordinates": [[[120.903958, 14.5881046], [120.9039597, 14.5879239], [120.9040525, 14.5879247], [120.9040508, 14.5881054], [120.903958, 14.5881046]]]}, "properties": {"kind": "detection", "det_id": "D-SZ-fresh-manila-2026-07-20-004-57", "zone_id": "SZ-fresh-manila-2026-07-20-004", "scene_id": "S2B_MSIL2A_20260720T021529_R003_T51PTS_20260721T004116", "datetime": "2026-07-20T02:15:29.024000Z", "n_pixels": 2, "area_m2": 200, "prob_max": 0.9843, "prob_mean": 0.8941, "threshold": 0.63, "in_strip": true, "artifact": null}}, {"type": "Feature", "id": "D-SZ-fresh-manila-2026-07-20-005-54", "geometry": {"type": "Polygon", "coordinates": [[[120.8887243, 14.5898649], [120.8887251, 14.5897746], [120.8888179, 14.5897754], [120.8888188, 14.589685], [120.8889115, 14.5896859], [120.8889107, 14.5897762], [120.8888179, 14.5897754], [120.888817, 14.5898658], [120.8887243, 14.5898649]]]}, "properties": {"kind": "detection", "det_id": "D-SZ-fresh-manila-2026-07-20-005-54", "zone_id": "SZ-fresh-manila-2026-07-20-005", "scene_id": "S2B_MSIL2A_20260720T021529_R003_T51PTS_20260721T004116", "datetime": "2026-07-20T02:15:29.024000Z", "n_pixels": 2, "area_m2": 200, "prob_max": 0.8941, "prob_mean": 0.8549, "threshold": 0.63, "in_strip": true, "artifact": "ship"}}, {"type": "Feature", "id": "D-SZ-fresh-manila-2026-07-20-005-55", "geometry": {"type": "Polygon", "coordinates": [[[120.8890103, 14.5890542], [120.8890112, 14.5889639], [120.889104, 14.5889647], [120.8891031, 14.5890551], [120.8890103, 14.5890542]]]}, "properties": {"kind": "detection", "det_id": "D-SZ-fresh-manila-2026-07-20-005-55", "zone_id": "SZ-fresh-manila-2026-07-20-005", "scene_id": "S2B_MSIL2A_20260720T021529_R003_T51PTS_20260721T004116", "datetime": "2026-07-20T02:15:29.024000Z", "n_pixels": 1, "area_m2": 100, "prob_max": 0.9804, "prob_mean": 0.9804, "threshold": 0.63, "in_strip": true, "artifact": null}}, {"type": "Feature", "id": "D-SZ-fresh-manila-2026-07-20-005-56", "geometry": {"type": "Polygon", "coordinates": [[[120.8868773, 14.5889446], [120.8868782, 14.5888542], [120.8869709, 14.5888551], [120.8869701, 14.5889454], [120.8868773, 14.5889446]]]}, "properties": {"kind": "detection", "det_id": "D-SZ-fresh-manila-2026-07-20-005-56", "zone_id": "SZ-fresh-manila-2026-07-20-005", "scene_id": "S2B_MSIL2A_20260720T021529_R003_T51PTS_20260721T004116", "datetime": "2026-07-20T02:15:29.024000Z", "n_pixels": 1, "area_m2": 100, "prob_max": 0.9059, "prob_mean": 0.9059, "threshold": 0.63, "in_strip": true, "artifact": "ship"}}, {"type": "Feature", "id": "D-SZ-fresh-manila-2026-07-20-005-58", "geometry": {"type": "Polygon", "coordinates": [[[120.8870749, 14.5876813], [120.8870758, 14.587591], [120.8871686, 14.5875918], [120.8871677, 14.5876822], [120.8870749, 14.5876813]]]}, "properties": {"kind": "detection", "det_id": "D-SZ-fresh-manila-2026-07-20-005-58", "zone_id": "SZ-fresh-manila-2026-07-20-005", "scene_id": "S2B_MSIL2A_20260720T021529_R003_T51PTS_20260721T004116", "datetime": "2026-07-20T02:15:29.024000Z", "n_pixels": 1, "area_m2": 100, "prob_max": 0.7882, "prob_mean": 0.7882, "threshold": 0.63, "in_strip": true, "artifact": null}}, {"type": "Feature", "id": "D-SZ-fresh-manila-2026-07-20-006-74", "geometry": {"type": "Polygon", "coordinates": [[[120.892097, 14.5571844], [120.8920979, 14.5570941], [120.8922834, 14.5570957], [120.8922825, 14.5571861], [120.892097, 14.5571844]]]}, "properties": {"kind": "detection", "det_id": "D-SZ-fresh-manila-2026-07-20-006-74", "zone_id": "SZ-fresh-manila-2026-07-20-006", "scene_id": "S2B_MSIL2A_20260720T021529_R003_T51PTS_20260721T004116", "datetime": "2026-07-20T02:15:29.024000Z", "n_pixels": 2, "area_m2": 200, "prob_max": 0.9961, "prob_mean": 0.9176, "threshold": 0.63, "in_strip": true, "artifact": null}}, {"type": "Feature", "id": "D-SZ-fresh-manila-2026-07-20-006-75", "geometry": {"type": "Polygon", "coordinates": [[[120.8930247, 14.5571928], [120.8930255, 14.5571024], [120.8931183, 14.5571032], [120.8931174, 14.5571936], [120.8930247, 14.5571928]]]}, "properties": {"kind": "detection", "det_id": "D-SZ-fresh-manila-2026-07-20-006-75", "zone_id": "SZ-fresh-manila-2026-07-20-006", "scene_id": "S2B_MSIL2A_20260720T021529_R003_T51PTS_20260721T004116", "datetime": "2026-07-20T02:15:29.024000Z", "n_pixels": 1, "area_m2": 100, "prob_max": 0.8314, "prob_mean": 0.8314, "threshold": 0.63, "in_strip": true, "artifact": null}}, {"type": "Feature", "id": "D-SZ-fresh-manila-2026-07-20-006-76", "geometry": {"type": "Polygon", "coordinates": [[[120.8926545, 14.5570991], [120.8926553, 14.5570087], [120.8927481, 14.5570096], [120.8927472, 14.5570999], [120.8926545, 14.5570991]]]}, "properties": {"kind": "detection", "det_id": "D-SZ-fresh-manila-2026-07-20-006-76", "zone_id": "SZ-fresh-manila-2026-07-20-006", "scene_id": "S2B_MSIL2A_20260720T021529_R003_T51PTS_20260721T004116", "datetime": "2026-07-20T02:15:29.024000Z", "n_pixels": 1, "area_m2": 100, "prob_max": 0.9765, "prob_mean": 0.9765, "threshold": 0.63, "in_strip": true, "artifact": null}}, {"type": "Feature", "id": "D-SZ-fresh-manila-2026-07-20-006-77", "geometry": {"type": "Polygon", "coordinates": [[[120.8913566, 14.556997], [120.8913575, 14.5569067], [120.8914502, 14.5569075], [120.8914494, 14.5569978], [120.8913566, 14.556997]]]}, "properties": {"kind": "detection", "det_id": "D-SZ-fresh-manila-2026-07-20-006-77", "zone_id": "SZ-fresh-manila-2026-07-20-006", "scene_id": "S2B_MSIL2A_20260720T021529_R003_T51PTS_20260721T004116", "datetime": "2026-07-20T02:15:29.024000Z", "n_pixels": 1, "area_m2": 100, "prob_max": 0.9961, "prob_mean": 0.9961, "threshold": 0.63, "in_strip": true, "artifact": null}}, {"type": "Feature", "id": "D-SZ-fresh-manila-2026-07-20-006-78", "geometry": {"type": "Polygon", "coordinates": [[[120.894326, 14.5569334], [120.8943277, 14.5567527], [120.8944204, 14.5567535], [120.8944187, 14.5569342], [120.894326, 14.5569334]]]}, "properties": {"kind": "detection", "det_id": "D-SZ-fresh-manila-2026-07-20-006-78", "zone_id": "SZ-fresh-manila-2026-07-20-006", "scene_id": "S2B_MSIL2A_20260720T021529_R003_T51PTS_20260721T004116", "datetime": "2026-07-20T02:15:29.024000Z", "n_pixels": 2, "area_m2": 200, "prob_max": 0.9373, "prob_mean": 0.8902, "threshold": 0.63, "in_strip": true, "artifact": null}}, {"type": "Feature", "id": "D-SZ-fresh-manila-2026-07-20-006-80", "geometry": {"type": "Polygon", "coordinates": [[[120.8952553, 14.556761], [120.8952562, 14.5566707], [120.8954417, 14.5566724], [120.8954409, 14.5567627], [120.8952553, 14.556761]]]}, "properties": {"kind": "detection", "det_id": "D-SZ-fresh-manila-2026-07-20-006-80", "zone_id": "SZ-fresh-manila-2026-07-20-006", "scene_id": "S2B_MSIL2A_20260720T021529_R003_T51PTS_20260721T004116", "datetime": "2026-07-20T02:15:29.024000Z", "n_pixels": 2, "area_m2": 200, "prob_max": 0.9961, "prob_mean": 0.9608, "threshold": 0.63, "in_strip": true, "artifact": null}}, {"type": "Feature", "id": "D-SZ-fresh-manila-2026-07-20-006-81", "geometry": {"type": "Polygon", "coordinates": [[[120.8959064, 14.5565862], [120.8959072, 14.5564958], [120.896, 14.5564966], [120.8959992, 14.556587], [120.8959064, 14.5565862]]]}, "properties": {"kind": "detection", "det_id": "D-SZ-fresh-manila-2026-07-20-006-81", "zone_id": "SZ-fresh-manila-2026-07-20-006", "scene_id": "S2B_MSIL2A_20260720T021529_R003_T51PTS_20260721T004116", "datetime": "2026-07-20T02:15:29.024000Z", "n_pixels": 1, "area_m2": 100, "prob_max": 0.7529, "prob_mean": 0.7529, "threshold": 0.63, "in_strip": true, "artifact": null}}, {"type": "Feature", "id": "D-SZ-fresh-manila-2026-07-20-006-82", "geometry": {"type": "Polygon", "coordinates": [[[120.8897856, 14.5563503], [120.8897865, 14.55626], [120.8898792, 14.5562608], [120.8898784, 14.5563512], [120.8897856, 14.5563503]]]}, "properties": {"kind": "detection", "det_id": "D-SZ-fresh-manila-2026-07-20-006-82", "zone_id": "SZ-fresh-manila-2026-07-20-006", "scene_id": "S2B_MSIL2A_20260720T021529_R003_T51PTS_20260721T004116", "datetime": "2026-07-20T02:15:29.024000Z", "n_pixels": 1, "area_m2": 100, "prob_max": 0.9373, "prob_mean": 0.9373, "threshold": 0.63, "in_strip": true, "artifact": null}}, {"type": "Feature", "id": "D-SZ-fresh-manila-2026-07-20-006-83", "geometry": {"type": "Polygon", "coordinates": [[[120.8965575, 14.5564113], [120.8965583, 14.5563209], [120.8967438, 14.5563226], [120.896743, 14.556413], [120.8965575, 14.5564113]]]}, "properties": {"kind": "detection", "det_id": "D-SZ-fresh-manila-2026-07-20-006-83", "zone_id": "SZ-fresh-manila-2026-07-20-006", "scene_id": "S2B_MSIL2A_20260720T021529_R003_T51PTS_20260721T004116", "datetime": "2026-07-20T02:15:29.024000Z", "n_pixels": 2, "area_m2": 200, "prob_max": 0.9725, "prob_mean": 0.9176, "threshold": 0.63, "in_strip": true, "artifact": null}}, {"type": "Feature", "id": "D-SZ-fresh-manila-2026-07-20-006-84", "geometry": {"type": "Polygon", "coordinates": [[[120.8968358, 14.5564138], [120.8968366, 14.5563234], [120.8969294, 14.5563243], [120.8969285, 14.5564146], [120.8968358, 14.5564138]]]}, "properties": {"kind": "detection", "det_id": "D-SZ-fresh-manila-2026-07-20-006-84", "zone_id": "SZ-fresh-manila-2026-07-20-006", "scene_id": "S2B_MSIL2A_20260720T021529_R003_T51PTS_20260721T004116", "datetime": "2026-07-20T02:15:29.024000Z", "n_pixels": 1, "area_m2": 100, "prob_max": 0.7961, "prob_mean": 0.7961, "threshold": 0.63, "in_strip": true, "artifact": null}}, {"type": "Feature", "id": "D-SZ-fresh-manila-2026-07-20-006-85", "geometry": {"type": "Polygon", "coordinates": [[[120.8971141, 14.5564163], [120.8971149, 14.5563259], [120.8973004, 14.5563276], [120.8972996, 14.556418], [120.8971141, 14.5564163]]]}, "properties": {"kind": "detection", "det_id": "D-SZ-fresh-manila-2026-07-20-006-85", "zone_id": "SZ-fresh-manila-2026-07-20-006", "scene_id": "S2B_MSIL2A_20260720T021529_R003_T51PTS_20260721T004116", "datetime": "2026-07-20T02:15:29.024000Z", "n_pixels": 2, "area_m2": 200, "prob_max": 0.9765, "prob_mean": 0.8882, "threshold": 0.63, "in_strip": true, "artifact": null}}, {"type": "Feature", "id": "D-SZ-fresh-manila-2026-07-20-006-86", "geometry": {"type": "Polygon", "coordinates": [[[120.8977634, 14.5564221], [120.8977643, 14.5563318], [120.897857, 14.5563326], [120.8978562, 14.556423], [120.8977634, 14.5564221]]]}, "properties": {"kind": "detection", "det_id": "D-SZ-fresh-manila-2026-07-20-006-86", "zone_id": "SZ-fresh-manila-2026-07-20-006", "scene_id": "S2B_MSIL2A_20260720T021529_R003_T51PTS_20260721T004116", "datetime": "2026-07-20T02:15:29.024000Z", "n_pixels": 1, "area_m2": 100, "prob_max": 0.8392, "prob_mean": 0.8392, "threshold": 0.63, "in_strip": true, "artifact": null}}, {"type": "Feature", "id": "D-SZ-fresh-manila-2026-07-20-006-87", "geometry": {"type": "Polygon", "coordinates": [[[120.8993404, 14.5564363], [120.8993413, 14.556346], [120.8995268, 14.5563476], [120.899526, 14.556438], [120.8993404, 14.5564363]]]}, "properties": {"kind": "detection", "det_id": "D-SZ-fresh-manila-2026-07-20-006-87", "zone_id": "SZ-fresh-manila-2026-07-20-006", "scene_id": "S2B_MSIL2A_20260720T021529_R003_T51PTS_20260721T004116", "datetime": "2026-07-20T02:15:29.024000Z", "n_pixels": 2, "area_m2": 200, "prob_max": 0.9922, "prob_mean": 0.9706, "threshold": 0.63, "in_strip": true, "artifact": null}}, {"type": "Feature", "id": "D-SZ-fresh-manila-2026-07-20-006-88", "geometry": {"type": "Polygon", "coordinates": [[[120.899806, 14.5562598], [120.8998068, 14.5561694], [120.8998996, 14.5561702], [120.8998987, 14.5562606], [120.899806, 14.5562598]]]}, "properties": {"kind": "detection", "det_id": "D-SZ-fresh-manila-2026-07-20-006-88", "zone_id": "SZ-fresh-manila-2026-07-20-006", "scene_id": "S2B_MSIL2A_20260720T021529_R003_T51PTS_20260721T004116", "datetime": "2026-07-20T02:15:29.024000Z", "n_pixels": 1, "area_m2": 100, "prob_max": 0.9529, "prob_mean": 0.9529, "threshold": 0.63, "in_strip": true, "artifact": null}}, {"type": "Feature", "id": "D-SZ-fresh-manila-2026-07-20-006-89", "geometry": {"type": "Polygon", "coordinates": [[[120.8999923, 14.5561711], [120.8999932, 14.5560807], [120.900086, 14.5560815], [120.9000868, 14.5559912], [120.9001796, 14.555992], [120.9001787, 14.5560824], [120.900086, 14.5560815], [120.9000851, 14.5561719], [120.8999923, 14.5561711]]]}, "properties": {"kind": "detection", "det_id": "D-SZ-fresh-manila-2026-07-20-006-89", "zone_id": "SZ-fresh-manila-2026-07-20-006", "scene_id": "S2B_MSIL2A_20260720T021529_R003_T51PTS_20260721T004116", "datetime": "2026-07-20T02:15:29.024000Z", "n_pixels": 2, "area_m2": 200, "prob_max": 0.9804, "prob_mean": 0.949, "threshold": 0.63, "in_strip": true, "artifact": null}}, {"type": "Feature", "id": "D-SZ-fresh-manila-2026-07-20-006-90", "geometry": {"type": "Polygon", "coordinates": [[[120.8890478, 14.5558918], [120.8890486, 14.5558015], [120.8888631, 14.5557998], [120.888864, 14.5557095], [120.8887712, 14.5557086], [120.8887721, 14.5556183], [120.8886793, 14.5556174], [120.8886802, 14.5555271], [120.8885874, 14.5555262], [120.8885883, 14.5554359], [120.888681, 14.5554367], [120.8886802, 14.5555271], [120.8887729, 14.5555279], [120.8887721, 14.5556183], [120.8888648, 14.5556191], [120.888864, 14.5557095], [120.8890495, 14.5557111], [120.8890486, 14.5558015], [120.8891414, 14.5558023], [120.8891406, 14.5558927], [120.8890478, 14.5558918]]]}, "properties": {"kind": "detection", "det_id": "D-SZ-fresh-manila-2026-07-20-006-90", "zone_id": "SZ-fresh-manila-2026-07-20-006", "scene_id": "S2B_MSIL2A_20260720T021529_R003_T51PTS_20260721T004116", "datetime": "2026-07-20T02:15:29.024000Z", "n_pixels": 6, "area_m2": 600, "prob_max": 1.0, "prob_mean": 0.9458, "threshold": 0.63, "in_strip": true, "artifact": null}}, {"type": "Feature", "id": "D-SZ-fresh-manila-2026-07-20-006-91", "geometry": {"type": "Polygon", "coordinates": [[[120.9012945, 14.5558213], [120.9012953, 14.555731], [120.9013881, 14.5557318], [120.9013872, 14.5558221], [120.9012945, 14.5558213]]]}, "properties": {"kind": "detection", "det_id": "D-SZ-fresh-manila-2026-07-20-006-91", "zone_id": "SZ-fresh-manila-2026-07-20-006", "scene_id": "S2B_MSIL2A_20260720T021529_R003_T51PTS_20260721T004116", "datetime": "2026-07-20T02:15:29.024000Z", "n_pixels": 1, "area_m2": 100, "prob_max": 0.9804, "prob_mean": 0.9804, "threshold": 0.63, "in_strip": true, "artifact": null}}, {"type": "Feature", "id": "D-SZ-fresh-manila-2026-07-20-006-92", "geometry": {"type": "Polygon", "coordinates": [[[120.9018519, 14.5557359], [120.9018528, 14.5556456], [120.9019455, 14.5556464], [120.9019447, 14.5557368], [120.9018519, 14.5557359]]]}, "properties": {"kind": "detection", "det_id": "D-SZ-fresh-manila-2026-07-20-006-92", "zone_id": "SZ-fresh-manila-2026-07-20-006", "scene_id": "S2B_MSIL2A_20260720T021529_R003_T51PTS_20260721T004116", "datetime": "2026-07-20T02:15:29.024000Z", "n_pixels": 1, "area_m2": 100, "prob_max": 0.9412, "prob_mean": 0.9412, "threshold": 0.63, "in_strip": true, "artifact": null}}, {"type": "Feature", "id": "D-SZ-fresh-manila-2026-07-20-006-93", "geometry": {"type": "Polygon", "coordinates": [[[120.9035234, 14.5555702], [120.9035243, 14.5554798], [120.903617, 14.5554807], [120.9036162, 14.555571], [120.9035234, 14.5555702]]]}, "properties": {"kind": "detection", "det_id": "D-SZ-fresh-manila-2026-07-20-006-93", "zone_id": "SZ-fresh-manila-2026-07-20-006", "scene_id": "S2B_MSIL2A_20260720T021529_R003_T51PTS_20260721T004116", "datetime": "2026-07-20T02:15:29.024000Z", "n_pixels": 1, "area_m2": 100, "prob_max": 0.9373, "prob_mean": 0.9373, "threshold": 0.63, "in_strip": true, "artifact": null}}, {"type": "Feature", "id": "D-SZ-fresh-manila-2026-07-20-006-94", "geometry": {"type": "Polygon", "coordinates": [[[120.9037089, 14.5555719], [120.9037098, 14.5554815], [120.9038026, 14.5554823], [120.9038017, 14.5555727], [120.9037089, 14.5555719]]]}, "properties": {"kind": "detection", "det_id": "D-SZ-fresh-manila-2026-07-20-006-94", "zone_id": "SZ-fresh-manila-2026-07-20-006", "scene_id": "S2B_MSIL2A_20260720T021529_R003_T51PTS_20260721T004116", "datetime": "2026-07-20T02:15:29.024000Z", "n_pixels": 1, "area_m2": 100, "prob_max": 0.9804, "prob_mean": 0.9804, "threshold": 0.63, "in_strip": true, "artifact": null}}, {"type": "Feature", "id": "D-SZ-fresh-manila-2026-07-20-006-95", "geometry": {"type": "Polygon", "coordinates": [[[120.9044536, 14.5553074], [120.9044545, 14.5552171], [120.9045472, 14.5552179], [120.9045464, 14.5553083], [120.9044536, 14.5553074]]]}, "properties": {"kind": "detection", "det_id": "D-SZ-fresh-manila-2026-07-20-006-95", "zone_id": "SZ-fresh-manila-2026-07-20-006", "scene_id": "S2B_MSIL2A_20260720T021529_R003_T51PTS_20260721T004116", "datetime": "2026-07-20T02:15:29.024000Z", "n_pixels": 1, "area_m2": 100, "prob_max": 0.7373, "prob_mean": 0.7373, "threshold": 0.63, "in_strip": true, "artifact": null}}, {"type": "Feature", "id": "D-SZ-fresh-manila-2026-07-20-006-96", "geometry": {"type": "Polygon", "coordinates": [[[120.9050128, 14.5550414], [120.9050136, 14.554951], [120.9051992, 14.5549527], [120.9051983, 14.555043], [120.9050128, 14.5550414]]]}, "properties": {"kind": "detection", "det_id": "D-SZ-fresh-manila-2026-07-20-006-96", "zone_id": "SZ-fresh-manila-2026-07-20-006", "scene_id": "S2B_MSIL2A_20260720T021529_R003_T51PTS_20260721T004116", "datetime": "2026-07-20T02:15:29.024000Z", "n_pixels": 2, "area_m2": 200, "prob_max": 0.8627, "prob_mean": 0.851, "threshold": 0.63, "in_strip": true, "artifact": "ship"}}, {"type": "Feature", "id": "D-SZ-fresh-manila-2026-07-20-006-97", "geometry": {"type": "Polygon", "coordinates": [[[120.9058511, 14.5546874], [120.9058519, 14.5545971], [120.9059447, 14.5545979], [120.9059438, 14.5546883], [120.9058511, 14.5546874]]]}, "properties": {"kind": "detection", "det_id": "D-SZ-fresh-manila-2026-07-20-006-97", "zone_id": "SZ-fresh-manila-2026-07-20-006", "scene_id": "S2B_MSIL2A_20260720T021529_R003_T51PTS_20260721T004116", "datetime": "2026-07-20T02:15:29.024000Z", "n_pixels": 1, "area_m2": 100, "prob_max": 0.6784, "prob_mean": 0.6784, "threshold": 0.63, "in_strip": true, "artifact": null}}, {"type": "Feature", "id": "D-SZ-fresh-manila-2026-07-20-006-98", "geometry": {"type": "Polygon", "coordinates": [[[120.9060366, 14.5546891], [120.9060375, 14.5545987], [120.9061302, 14.5545996], [120.9061294, 14.5546899], [120.9060366, 14.5546891]]]}, "properties": {"kind": "detection", "det_id": "D-SZ-fresh-manila-2026-07-20-006-98", "zone_id": "SZ-fresh-manila-2026-07-20-006", "scene_id": "S2B_MSIL2A_20260720T021529_R003_T51PTS_20260721T004116", "datetime": "2026-07-20T02:15:29.024000Z", "n_pixels": 1, "area_m2": 100, "prob_max": 0.8667, "prob_mean": 0.8667, "threshold": 0.63, "in_strip": true, "artifact": null}}, {"type": "Feature", "id": "D-SZ-fresh-manila-2026-07-20-006-99", "geometry": {"type": "Polygon", "coordinates": [[[120.907154, 14.5542473], [120.9071549, 14.5541569], [120.9072477, 14.5541577], [120.9072468, 14.5542481], [120.907154, 14.5542473]]]}, "properties": {"kind": "detection", "det_id": "D-SZ-fresh-manila-2026-07-20-006-99", "zone_id": "SZ-fresh-manila-2026-07-20-006", "scene_id": "S2B_MSIL2A_20260720T021529_R003_T51PTS_20260721T004116", "datetime": "2026-07-20T02:15:29.024000Z", "n_pixels": 1, "area_m2": 100, "prob_max": 0.8, "prob_mean": 0.8, "threshold": 0.63, "in_strip": true, "artifact": "ship"}}, {"type": "Feature", "id": "D-SZ-fresh-manila-2026-07-20-006-100", "geometry": {"type": "Polygon", "coordinates": [[[120.9079889, 14.5542547], [120.9079898, 14.5541644], [120.9080825, 14.5541652], [120.9080817, 14.5542556], [120.9079889, 14.5542547]]]}, "properties": {"kind": "detection", "det_id": "D-SZ-fresh-manila-2026-07-20-006-100", "zone_id": "SZ-fresh-manila-2026-07-20-006", "scene_id": "S2B_MSIL2A_20260720T021529_R003_T51PTS_20260721T004116", "datetime": "2026-07-20T02:15:29.024000Z", "n_pixels": 1, "area_m2": 100, "prob_max": 0.9961, "prob_mean": 0.9961, "threshold": 0.63, "in_strip": true, "artifact": null}}, {"type": "Feature", "id": "D-SZ-fresh-manila-2026-07-20-006-101", "geometry": {"type": "Polygon", "coordinates": [[[120.9084528, 14.5542589], [120.9084536, 14.5541685], [120.9085464, 14.5541694], [120.9085472, 14.554079], [120.90864, 14.5540798], [120.9086391, 14.5541702], [120.9085464, 14.5541694], [120.9085455, 14.5542597], [120.9084528, 14.5542589]]]}, "properties": {"kind": "detection", "det_id": "D-SZ-fresh-manila-2026-07-20-006-101", "zone_id": "SZ-fresh-manila-2026-07-20-006", "scene_id": "S2B_MSIL2A_20260720T021529_R003_T51PTS_20260721T004116", "datetime": "2026-07-20T02:15:29.024000Z", "n_pixels": 2, "area_m2": 200, "prob_max": 0.7333, "prob_mean": 0.7059, "threshold": 0.63, "in_strip": true, "artifact": "ship"}}, {"type": "Feature", "id": "D-SZ-fresh-manila-2026-07-20-006-102", "geometry": {"type": "Polygon", "coordinates": [[[120.907526, 14.5541602], [120.9075268, 14.5540699], [120.9077123, 14.5540715], [120.9077115, 14.5541619], [120.907526, 14.5541602]]]}, "properties": {"kind": "detection", "det_id": "D-SZ-fresh-manila-2026-07-20-006-102", "zone_id": "SZ-fresh-manila-2026-07-20-006", "scene_id": "S2B_MSIL2A_20260720T021529_R003_T51PTS_20260721T004116", "datetime": "2026-07-20T02:15:29.024000Z", "n_pixels": 2, "area_m2": 200, "prob_max": 0.8941, "prob_mean": 0.8451, "threshold": 0.63, "in_strip": true, "artifact": "ship"}}, {"type": "Feature", "id": "D-SZ-fresh-manila-2026-07-20-006-103", "geometry": {"type": "Polygon", "coordinates": [[[120.9104127, 14.5530113], [120.9104136, 14.552921], [120.9105063, 14.5529218], [120.9105055, 14.5530121], [120.9104127, 14.5530113]]]}, "properties": {"kind": "detection", "det_id": "D-SZ-fresh-manila-2026-07-20-006-103", "zone_id": "SZ-fresh-manila-2026-07-20-006", "scene_id": "S2B_MSIL2A_20260720T021529_R003_T51PTS_20260721T004116", "datetime": "2026-07-20T02:15:29.024000Z", "n_pixels": 1, "area_m2": 100, "prob_max": 0.9294, "prob_mean": 0.9294, "threshold": 0.63, "in_strip": true, "artifact": null}}, {"type": "Feature", "id": "D-SZ-fresh-manila-2026-07-20-007-104", "geometry": {"type": "Polygon", "coordinates": [[[120.8904813, 14.551477], [120.8904822, 14.5513867], [120.890575, 14.5513875], [120.8905741, 14.5514779], [120.8904813, 14.551477]]]}, "properties": {"kind": "detection", "det_id": "D-SZ-fresh-manila-2026-07-20-007-104", "zone_id": "SZ-fresh-manila-2026-07-20-007", "scene_id": "S2B_MSIL2A_20260720T021529_R003_T51PTS_20260721T004116", "datetime": "2026-07-20T02:15:29.024000Z", "n_pixels": 1, "area_m2": 100, "prob_max": 0.8235, "prob_mean": 0.8235, "threshold": 0.63, "in_strip": true, "artifact": null}}, {"type": "Feature", "id": "D-SZ-fresh-manila-2026-07-20-007-106", "geometry": {"type": "Polygon", "coordinates": [[[120.8911324, 14.5513022], [120.8911332, 14.5512118], [120.891226, 14.5512127], [120.8912269, 14.5511223], [120.8914124, 14.551124], [120.8914107, 14.5513047], [120.8911324, 14.5513022]]]}, "properties": {"kind": "detection", "det_id": "D-SZ-fresh-manila-2026-07-20-007-106", "zone_id": "SZ-fresh-manila-2026-07-20-007", "scene_id": "S2B_MSIL2A_20260720T021529_R003_T51PTS_20260721T004116", "datetime": "2026-07-20T02:15:29.024000Z", "n_pixels": 5, "area_m2": 500, "prob_max": 1.0, "prob_mean": 0.942, "threshold": 0.63, "in_strip": true, "artifact": "ship"}}, {"type": "Feature", "id": "D-SZ-fresh-manila-2026-07-20-007-108", "geometry": {"type": "Polygon", "coordinates": [[[120.8890006, 14.5511022], [120.8890014, 14.5510119], [120.8888159, 14.5510102], [120.8888168, 14.5509199], [120.8885385, 14.5509174], [120.8885393, 14.550827], [120.8889104, 14.5508303], [120.8889095, 14.5509207], [120.8891878, 14.5509232], [120.8891861, 14.5511039], [120.8890006, 14.5511022]]]}, "properties": {"kind": "detection", "det_id": "D-SZ-fresh-manila-2026-07-20-007-108", "zone_id": "SZ-fresh-manila-2026-07-20-007", "scene_id": "S2B_MSIL2A_20260720T021529_R003_T51PTS_20260721T004116", "datetime": "2026-07-20T02:15:29.024000Z", "n_pixels": 10, "area_m2": 1000, "prob_max": 0.9882, "prob_mean": 0.8839, "threshold": 0.63, "in_strip": true, "artifact": "ship"}}, {"type": "Feature", "id": "D-SZ-fresh-manila-2026-07-20-007-109", "geometry": {"type": "Polygon", "coordinates": [[[120.8911358, 14.5509408], [120.8911375, 14.5507601], [120.8912303, 14.5507609], [120.8912286, 14.5509416], [120.8911358, 14.5509408]]]}, "properties": {"kind": "detection", "det_id": "D-SZ-fresh-manila-2026-07-20-007-109", "zone_id": "SZ-fresh-manila-2026-07-20-007", "scene_id": "S2B_MSIL2A_20260720T021529_R003_T51PTS_20260721T004116", "datetime": "2026-07-20T02:15:29.024000Z", "n_pixels": 2, "area_m2": 200, "prob_max": 0.9961, "prob_mean": 0.8333, "threshold": 0.63, "in_strip": true, "artifact": "ship"}}, {"type": "Feature", "id": "D-SZ-fresh-manila-2026-07-20-007-112", "geometry": {"type": "Polygon", "coordinates": [[[120.8880858, 14.5497386], [120.8880867, 14.5496482], [120.8881795, 14.5496491], [120.8881786, 14.5497394], [120.8880858, 14.5497386]]]}, "properties": {"kind": "detection", "det_id": "D-SZ-fresh-manila-2026-07-20-007-112", "zone_id": "SZ-fresh-manila-2026-07-20-007", "scene_id": "S2B_MSIL2A_20260720T021529_R003_T51PTS_20260721T004116", "datetime": "2026-07-20T02:15:29.024000Z", "n_pixels": 1, "area_m2": 100, "prob_max": 0.7843, "prob_mean": 0.7843, "threshold": 0.63, "in_strip": true, "artifact": "ship"}}, {"type": "Feature", "id": "D-SZ-fresh-manila-2026-07-20-007-113", "geometry": {"type": "Polygon", "coordinates": [[[120.8878101, 14.549465], [120.887811, 14.5493746], [120.8877182, 14.5493738], [120.8877191, 14.5492834], [120.8876263, 14.5492826], [120.8876298, 14.5489212], [120.887537, 14.5489204], [120.8875379, 14.54883], [120.8876306, 14.5488308], [120.8876298, 14.5489212], [120.8877225, 14.548922], [120.8877208, 14.5491027], [120.8878136, 14.5491036], [120.8878127, 14.5491939], [120.8879055, 14.5491948], [120.8879046, 14.5492851], [120.8879974, 14.549286], [120.8879956, 14.5494667], [120.8878101, 14.549465]]]}, "properties": {"kind": "detection", "det_id": "D-SZ-fresh-manila-2026-07-20-007-113", "zone_id": "SZ-fresh-manila-2026-07-20-007", "scene_id": "S2B_MSIL2A_20260720T021529_R003_T51PTS_20260721T004116", "datetime": "2026-07-20T02:15:29.024000Z", "n_pixels": 13, "area_m2": 1300, "prob_max": 1.0, "prob_mean": 0.9695, "threshold": 0.63, "in_strip": true, "artifact": "ship"}}, {"type": "Feature", "id": "D-SZ-fresh-manila-2026-07-20-007-115", "geometry": {"type": "Polygon", "coordinates": [[[120.887354, 14.5486476], [120.8873549, 14.5485573], [120.8872621, 14.5485564], [120.8872639, 14.5483757], [120.8871711, 14.5483749], [120.8871728, 14.5481942], [120.8872656, 14.548195], [120.8872639, 14.5483757], [120.8874494, 14.5483774], [120.8874468, 14.5486485], [120.887354, 14.5486476]]]}, "properties": {"kind": "detection", "det_id": "D-SZ-fresh-manila-2026-07-20-007-115", "zone_id": "SZ-fresh-manila-2026-07-20-007", "scene_id": "S2B_MSIL2A_20260720T021529_R003_T51PTS_20260721T004116", "datetime": "2026-07-20T02:15:29.024000Z", "n_pixels": 7, "area_m2": 700, "prob_max": 0.9843, "prob_mean": 0.8342, "threshold": 0.63, "in_strip": true, "artifact": "ship"}}, {"type": "Feature", "id": "D-SZ-fresh-manila-2026-07-20-007-116", "geometry": {"type": "Polygon", "coordinates": [[[120.8867116, 14.5479189], [120.8867133, 14.5477382], [120.8868061, 14.5477391], [120.8868044, 14.5479198], [120.8867116, 14.5479189]]]}, "properties": {"kind": "detection", "det_id": "D-SZ-fresh-manila-2026-07-20-007-116", "zone_id": "SZ-fresh-manila-2026-07-20-007", "scene_id": "S2B_MSIL2A_20260720T021529_R003_T51PTS_20260721T004116", "datetime": "2026-07-20T02:15:29.024000Z", "n_pixels": 2, "area_m2": 200, "prob_max": 1.0, "prob_mean": 1.0, "threshold": 0.63, "in_strip": true, "artifact": null}}, {"type": "Feature", "id": "D-SZ-fresh-manila-2026-07-20-007-117", "geometry": {"type": "Polygon", "coordinates": [[[120.8861585, 14.5475525], [120.8861593, 14.5474621], [120.8862521, 14.547463], [120.8862512, 14.5475533], [120.8861585, 14.5475525]]]}, "properties": {"kind": "detection", "det_id": "D-SZ-fresh-manila-2026-07-20-007-117", "zone_id": "SZ-fresh-manila-2026-07-20-007", "scene_id": "S2B_MSIL2A_20260720T021529_R003_T51PTS_20260721T004116", "datetime": "2026-07-20T02:15:29.024000Z", "n_pixels": 1, "area_m2": 100, "prob_max": 0.9294, "prob_mean": 0.9294, "threshold": 0.63, "in_strip": true, "artifact": null}}, {"type": "Feature", "id": "D-SZ-fresh-manila-2026-07-20-007-118", "geometry": {"type": "Polygon", "coordinates": [[[120.886344, 14.5475542], [120.8863449, 14.5474638], [120.8865304, 14.5474655], [120.8865295, 14.5475558], [120.886344, 14.5475542]]]}, "properties": {"kind": "detection", "det_id": "D-SZ-fresh-manila-2026-07-20-007-118", "zone_id": "SZ-fresh-manila-2026-07-20-007", "scene_id": "S2B_MSIL2A_20260720T021529_R003_T51PTS_20260721T004116", "datetime": "2026-07-20T02:15:29.024000Z", "n_pixels": 2, "area_m2": 200, "prob_max": 0.9686, "prob_mean": 0.8255, "threshold": 0.63, "in_strip": true, "artifact": null}}, {"type": "Feature", "id": "D-SZ-fresh-manila-2026-07-20-007-119", "geometry": {"type": "Polygon", "coordinates": [[[120.8858836, 14.5471886], [120.8858853, 14.5470079], [120.8859781, 14.5470087], [120.8859764, 14.5471894], [120.8858836, 14.5471886]]]}, "properties": {"kind": "detection", "det_id": "D-SZ-fresh-manila-2026-07-20-007-119", "zone_id": "SZ-fresh-manila-2026-07-20-007", "scene_id": "S2B_MSIL2A_20260720T021529_R003_T51PTS_20260721T004116", "datetime": "2026-07-20T02:15:29.024000Z", "n_pixels": 2, "area_m2": 200, "prob_max": 1.0, "prob_mean": 0.8961, "threshold": 0.63, "in_strip": true, "artifact": null}}, {"type": "Feature", "id": "D-SZ-fresh-manila-2026-07-20-007-120", "geometry": {"type": "Polygon", "coordinates": [[[120.8857015, 14.5468255], [120.8857024, 14.5467351], [120.8856096, 14.5467343], [120.8856105, 14.5466439], [120.8855177, 14.5466431], [120.8855195, 14.5464624], [120.8856122, 14.5464632], [120.8856114, 14.5465536], [120.8857041, 14.5465544], [120.8857024, 14.5467351], [120.8857952, 14.546736], [120.8857943, 14.5468263], [120.8857015, 14.5468255]]]}, "properties": {"kind": "detection", "det_id": "D-SZ-fresh-manila-2026-07-20-007-120", "zone_id": "SZ-fresh-manila-2026-07-20-007", "scene_id": "S2B_MSIL2A_20260720T021529_R003_T51PTS_20260721T004116", "datetime": "2026-07-20T02:15:29.024000Z", "n_pixels": 5, "area_m2": 500, "prob_max": 0.9804, "prob_mean": 0.8753, "threshold": 0.63, "in_strip": true, "artifact": null}}, {"type": "Feature", "id": "D-SZ-fresh-manila-2026-07-20-007-121", "geometry": {"type": "Polygon", "coordinates": [[[120.8867288, 14.5461118], [120.8867305, 14.5459311], [120.8868233, 14.545932], [120.8868224, 14.5460223], [120.8869152, 14.5460232], [120.8869143, 14.5461135], [120.8867288, 14.5461118]]]}, "properties": {"kind": "detection", "det_id": "D-SZ-fresh-manila-2026-07-20-007-121", "zone_id": "SZ-fresh-manila-2026-07-20-007", "scene_id": "S2B_MSIL2A_20260720T021529_R003_T51PTS_20260721T004116", "datetime": "2026-07-20T02:15:29.024000Z", "n_pixels": 3, "area_m2": 300, "prob_max": 0.9961, "prob_mean": 0.9111, "threshold": 0.63, "in_strip": true, "artifact": null}}, {"type": "Feature", "id": "D-SZ-fresh-manila-2026-07-20-007-124", "geometry": {"type": "Polygon", "coordinates": [[[120.8886776, 14.5460391], [120.8886785, 14.5459487], [120.8887712, 14.5459496], [120.8887704, 14.5460399], [120.8886776, 14.5460391]]]}, "properties": {"kind": "detection", "det_id": "D-SZ-fresh-manila-2026-07-20-007-124", "zone_id": "SZ-fresh-manila-2026-07-20-007", "scene_id": "S2B_MSIL2A_20260720T021529_R003_T51PTS_20260721T004116", "datetime": "2026-07-20T02:15:29.024000Z", "n_pixels": 1, "area_m2": 100, "prob_max": 0.8706, "prob_mean": 0.8706, "threshold": 0.63, "in_strip": true, "artifact": null}}, {"type": "Feature", "id": "D-SZ-fresh-manila-2026-07-20-008-123", "geometry": {"type": "Polygon", "coordinates": [[[120.8340427, 14.5455399], [120.8340436, 14.5454496], [120.8341364, 14.5454504], [120.8341355, 14.5455408], [120.8340427, 14.5455399]]]}, "properties": {"kind": "detection", "det_id": "D-SZ-fresh-manila-2026-07-20-008-123", "zone_id": "SZ-fresh-manila-2026-07-20-008", "scene_id": "S2B_MSIL2A_20260720T021529_R003_T51PTS_20260721T004116", "datetime": "2026-07-20T02:15:29.024000Z", "n_pixels": 1, "area_m2": 100, "prob_max": 0.9098, "prob_mean": 0.9098, "threshold": 0.63, "in_strip": true, "artifact": null}}, {"type": "Feature", "id": "D-SZ-fresh-manila-2026-07-20-008-128", "geometry": {"type": "Polygon", "coordinates": [[[120.8328475, 14.5444446], [120.8328484, 14.5443542], [120.8329411, 14.5443551], [120.8329402, 14.5444454], [120.8328475, 14.5444446]]]}, "properties": {"kind": "detection", "det_id": "D-SZ-fresh-manila-2026-07-20-008-128", "zone_id": "SZ-fresh-manila-2026-07-20-008", "scene_id": "S2B_MSIL2A_20260720T021529_R003_T51PTS_20260721T004116", "datetime": "2026-07-20T02:15:29.024000Z", "n_pixels": 1, "area_m2": 100, "prob_max": 0.7412, "prob_mean": 0.7412, "threshold": 0.63, "in_strip": true, "artifact": null}}, {"type": "Feature", "id": "D-SZ-fresh-manila-2026-07-20-008-130", "geometry": {"type": "Polygon", "coordinates": [[[120.8359137, 14.5439308], [120.8359146, 14.5438404], [120.8361001, 14.5438421], [120.8360992, 14.5439325], [120.8359137, 14.5439308]]]}, "properties": {"kind": "detection", "det_id": "D-SZ-fresh-manila-2026-07-20-008-130", "zone_id": "SZ-fresh-manila-2026-07-20-008", "scene_id": "S2B_MSIL2A_20260720T021529_R003_T51PTS_20260721T004116", "datetime": "2026-07-20T02:15:29.024000Z", "n_pixels": 2, "area_m2": 200, "prob_max": 0.8157, "prob_mean": 0.7902, "threshold": 0.63, "in_strip": true, "artifact": "ship"}}, {"type": "Feature", "id": "D-SZ-fresh-manila-2026-07-20-008-131", "geometry": {"type": "Polygon", "coordinates": [[[120.8348952, 14.5437406], [120.834896, 14.5436503], [120.8349888, 14.5436512], [120.8349879, 14.5437415], [120.8348952, 14.5437406]]]}, "properties": {"kind": "detection", "det_id": "D-SZ-fresh-manila-2026-07-20-008-131", "zone_id": "SZ-fresh-manila-2026-07-20-008", "scene_id": "S2B_MSIL2A_20260720T021529_R003_T51PTS_20260721T004116", "datetime": "2026-07-20T02:15:29.024000Z", "n_pixels": 1, "area_m2": 100, "prob_max": 0.6863, "prob_mean": 0.6863, "threshold": 0.63, "in_strip": true, "artifact": null}}, {"type": "Feature", "id": "D-SZ-fresh-manila-2026-07-20-009-129", "geometry": {"type": "Polygon", "coordinates": [[[120.8926775, 14.5449004], [120.8926783, 14.5448101], [120.8927711, 14.5448109], [120.8927728, 14.5446302], [120.8928656, 14.544631], [120.8928647, 14.5447214], [120.8929575, 14.5447222], [120.8929566, 14.5448126], [120.8927711, 14.5448109], [120.8927702, 14.5449012], [120.8926775, 14.5449004]]]}, "properties": {"kind": "detection", "det_id": "D-SZ-fresh-manila-2026-07-20-009-129", "zone_id": "SZ-fresh-manila-2026-07-20-009", "scene_id": "S2B_MSIL2A_20260720T021529_R003_T51PTS_20260721T004116", "datetime": "2026-07-20T02:15:29.024000Z", "n_pixels": 4, "area_m2": 400, "prob_max": 1.0, "prob_mean": 0.8804, "threshold": 0.63, "in_strip": true, "artifact": null}}, {"type": "Feature", "id": "D-SZ-fresh-manila-2026-07-20-009-141", "geometry": {"type": "Polygon", "coordinates": [[[120.8938172, 14.5421094], [120.893818, 14.5420191], [120.8939108, 14.5420199], [120.8939099, 14.5421103], [120.8938172, 14.5421094]]]}, "properties": {"kind": "detection", "det_id": "D-SZ-fresh-manila-2026-07-20-009-141", "zone_id": "SZ-fresh-manila-2026-07-20-009", "scene_id": "S2B_MSIL2A_20260720T021529_R003_T51PTS_20260721T004116", "datetime": "2026-07-20T02:15:29.024000Z", "n_pixels": 1, "area_m2": 100, "prob_max": 1.0, "prob_mean": 1.0, "threshold": 0.63, "in_strip": true, "artifact": null}}, {"type": "Feature", "id": "D-SZ-fresh-manila-2026-07-20-010-132", "geometry": {"type": "Polygon", "coordinates": [[[120.8826715, 14.5435451], [120.8826723, 14.5434547], [120.8825796, 14.5434539], [120.8825804, 14.5433635], [120.8824877, 14.5433627], [120.8824885, 14.5432723], [120.882674, 14.543274], [120.8826732, 14.5433644], [120.8827659, 14.5433652], [120.8827651, 14.5434555], [120.8828578, 14.5434564], [120.882857, 14.5435467], [120.8826715, 14.5435451]]]}, "properties": {"kind": "detection", "det_id": "D-SZ-fresh-manila-2026-07-20-010-132", "zone_id": "SZ-fresh-manila-2026-07-20-010", "scene_id": "S2B_MSIL2A_20260720T021529_R003_T51PTS_20260721T004116", "datetime": "2026-07-20T02:15:29.024000Z", "n_pixels": 6, "area_m2": 600, "prob_max": 1.0, "prob_mean": 0.9131, "threshold": 0.63, "in_strip": true, "artifact": null}}, {"type": "Feature", "id": "D-SZ-fresh-manila-2026-07-20-010-137", "geometry": {"type": "Polygon", "coordinates": [[[120.8795263, 14.542613], [120.8795271, 14.5425226], [120.8794344, 14.5425218], [120.8794352, 14.5424314], [120.879528, 14.5424323], [120.8795271, 14.5425226], [120.8798054, 14.5425252], [120.8798046, 14.5426155], [120.8795263, 14.542613]]]}, "properties": {"kind": "detection", "det_id": "D-SZ-fresh-manila-2026-07-20-010-137", "zone_id": "SZ-fresh-manila-2026-07-20-010", "scene_id": "S2B_MSIL2A_20260720T021529_R003_T51PTS_20260721T004116", "datetime": "2026-07-20T02:15:29.024000Z", "n_pixels": 4, "area_m2": 400, "prob_max": 0.9686, "prob_mean": 0.9382, "threshold": 0.63, "in_strip": true, "artifact": null}}, {"type": "Feature", "id": "D-SZ-fresh-manila-2026-07-20-010-138", "geometry": {"type": "Polygon", "coordinates": [[[120.881567, 14.5426315], [120.8815687, 14.5424507], [120.8817542, 14.5424524], [120.8817525, 14.5426331], [120.881567, 14.5426315]]]}, "properties": {"kind": "detection", "det_id": "D-SZ-fresh-manila-2026-07-20-010-138", "zone_id": "SZ-fresh-manila-2026-07-20-010", "scene_id": "S2B_MSIL2A_20260720T021529_R003_T51PTS_20260721T004116", "datetime": "2026-07-20T02:15:29.024000Z", "n_pixels": 4, "area_m2": 400, "prob_max": 0.9882, "prob_mean": 0.8784, "threshold": 0.63, "in_strip": true, "artifact": null}}, {"type": "Feature", "id": "D-SZ-fresh-manila-2026-07-20-010-139", "geometry": {"type": "Polygon", "coordinates": [[[120.8775844, 14.5419629], [120.8775853, 14.5418725], [120.877678, 14.5418733], [120.8776772, 14.5419637], [120.8775844, 14.5419629]]]}, "properties": {"kind": "detection", "det_id": "D-SZ-fresh-manila-2026-07-20-010-139", "zone_id": "SZ-fresh-manila-2026-07-20-010", "scene_id": "S2B_MSIL2A_20260720T021529_R003_T51PTS_20260721T004116", "datetime": "2026-07-20T02:15:29.024000Z", "n_pixels": 1, "area_m2": 100, "prob_max": 0.8784, "prob_mean": 0.8784, "threshold": 0.63, "in_strip": true, "artifact": null}}, {"type": "Feature", "id": "D-SZ-fresh-manila-2026-07-20-010-140", "geometry": {"type": "Polygon", "coordinates": [[[120.8781409, 14.5419679], [120.8781418, 14.5418776], [120.8785128, 14.5418809], [120.878512, 14.5419713], [120.8781409, 14.5419679]]]}, "properties": {"kind": "detection", "det_id": "D-SZ-fresh-manila-2026-07-20-010-140", "zone_id": "SZ-fresh-manila-2026-07-20-010", "scene_id": "S2B_MSIL2A_20260720T021529_R003_T51PTS_20260721T004116", "datetime": "2026-07-20T02:15:29.024000Z", "n_pixels": 4, "area_m2": 400, "prob_max": 0.9765, "prob_mean": 0.8382, "threshold": 0.63, "in_strip": true, "artifact": null}}, {"type": "Feature", "id": "D-SZ-fresh-manila-2026-07-20-010-142", "geometry": {"type": "Polygon", "coordinates": [[[120.8810173, 14.5419036], [120.8810182, 14.5418132], [120.8811109, 14.5418141], [120.8811101, 14.5419044], [120.8810173, 14.5419036]]]}, "properties": {"kind": "detection", "det_id": "D-SZ-fresh-manila-2026-07-20-010-142", "zone_id": "SZ-fresh-manila-2026-07-20-010", "scene_id": "S2B_MSIL2A_20260720T021529_R003_T51PTS_20260721T004116", "datetime": "2026-07-20T02:15:29.024000Z", "n_pixels": 1, "area_m2": 100, "prob_max": 0.9373, "prob_mean": 0.9373, "threshold": 0.63, "in_strip": true, "artifact": null}}, {"type": "Feature", "id": "D-SZ-fresh-manila-2026-07-20-010-144", "geometry": {"type": "Polygon", "coordinates": [[[120.8774041, 14.5414191], [120.8774049, 14.5413287], [120.8774977, 14.5413295], [120.8774968, 14.5414199], [120.8774041, 14.5414191]]]}, "properties": {"kind": "detection", "det_id": "D-SZ-fresh-manila-2026-07-20-010-144", "zone_id": "SZ-fresh-manila-2026-07-20-010", "scene_id": "S2B_MSIL2A_20260720T021529_R003_T51PTS_20260721T004116", "datetime": "2026-07-20T02:15:29.024000Z", "n_pixels": 1, "area_m2": 100, "prob_max": 0.8078, "prob_mean": 0.8078, "threshold": 0.63, "in_strip": true, "artifact": null}}, {"type": "Feature", "id": "D-SZ-fresh-manila-2026-07-20-010-145", "geometry": {"type": "Polygon", "coordinates": [[[120.8767755, 14.5392447], [120.8767763, 14.5391543], [120.8766836, 14.5391535], [120.8766844, 14.5390631], [120.8767772, 14.539064], [120.8767763, 14.5391543], [120.8768691, 14.5391552], [120.8768682, 14.5392455], [120.8767755, 14.5392447]]]}, "properties": {"kind": "detection", "det_id": "D-SZ-fresh-manila-2026-07-20-010-145", "zone_id": "SZ-fresh-manila-2026-07-20-010", "scene_id": "S2B_MSIL2A_20260720T021529_R003_T51PTS_20260721T004116", "datetime": "2026-07-20T02:15:29.024000Z", "n_pixels": 2, "area_m2": 200, "prob_max": 0.9765, "prob_mean": 0.9451, "threshold": 0.63, "in_strip": true, "artifact": null}}, {"type": "Feature", "id": "D-SZ-fresh-manila-2026-07-20-011-161", "geometry": {"type": "Polygon", "coordinates": [[[120.9109091, 14.5199429], [120.9109108, 14.5197622], [120.9110036, 14.519763], [120.9110019, 14.5199437], [120.9109091, 14.5199429]]]}, "properties": {"kind": "detection", "det_id": "D-SZ-fresh-manila-2026-07-20-011-161", "zone_id": "SZ-fresh-manila-2026-07-20-011", "scene_id": "S2B_MSIL2A_20260720T021529_R003_T51PTS_20260721T004116", "datetime": "2026-07-20T02:15:29.024000Z", "n_pixels": 2, "area_m2": 200, "prob_max": 0.9961, "prob_mean": 0.9882, "threshold": 0.63, "in_strip": true, "artifact": null}}, {"type": "Feature", "id": "D-SZ-fresh-manila-2026-07-20-011-163", "geometry": {"type": "Polygon", "coordinates": [[[120.9107279, 14.5194894], [120.9107287, 14.5193991], [120.9108215, 14.5193999], [120.9108206, 14.5194903], [120.9107279, 14.5194894]]]}, "properties": {"kind": "detection", "det_id": "D-SZ-fresh-manila-2026-07-20-011-163", "zone_id": "SZ-fresh-manila-2026-07-20-011", "scene_id": "S2B_MSIL2A_20260720T021529_R003_T51PTS_20260721T004116", "datetime": "2026-07-20T02:15:29.024000Z", "n_pixels": 1, "area_m2": 100, "prob_max": 0.9765, "prob_mean": 0.9765, "threshold": 0.63, "in_strip": true, "artifact": null}}, {"type": "Feature", "id": "D-SZ-fresh-manila-2026-07-20-011-164", "geometry": {"type": "Polygon", "coordinates": [[[120.9098965, 14.5191206], [120.9098982, 14.5189399], [120.9100837, 14.5189415], [120.910082, 14.5191222], [120.9098965, 14.5191206]]]}, "properties": {"kind": "detection", "det_id": "D-SZ-fresh-manila-2026-07-20-011-164", "zone_id": "SZ-fresh-manila-2026-07-20-011", "scene_id": "S2B_MSIL2A_20260720T021529_R003_T51PTS_20260721T004116", "datetime": "2026-07-20T02:15:29.024000Z", "n_pixels": 4, "area_m2": 400, "prob_max": 0.9882, "prob_mean": 0.8971, "threshold": 0.63, "in_strip": true, "artifact": null}}, {"type": "Feature", "id": "D-SZ-fresh-manila-2026-07-20-011-166", "geometry": {"type": "Polygon", "coordinates": [[[120.9088796, 14.5187501], [120.9088805, 14.5186597], [120.9089732, 14.5186605], [120.9089724, 14.5187509], [120.9088796, 14.5187501]]]}, "properties": {"kind": "detection", "det_id": "D-SZ-fresh-manila-2026-07-20-011-166", "zone_id": "SZ-fresh-manila-2026-07-20-011", "scene_id": "S2B_MSIL2A_20260720T021529_R003_T51PTS_20260721T004116", "datetime": "2026-07-20T02:15:29.024000Z", "n_pixels": 1, "area_m2": 100, "prob_max": 1.0, "prob_mean": 1.0, "threshold": 0.63, "in_strip": true, "artifact": null}}, {"type": "Feature", "id": "D-SZ-fresh-manila-2026-07-20-011-167", "geometry": {"type": "Polygon", "coordinates": [[[120.9103636, 14.5187633], [120.9103645, 14.5186729], [120.91055, 14.5186746], [120.9105491, 14.5187649], [120.9103636, 14.5187633]]]}, "properties": {"kind": "detection", "det_id": "D-SZ-fresh-manila-2026-07-20-011-167", "zone_id": "SZ-fresh-manila-2026-07-20-011", "scene_id": "S2B_MSIL2A_20260720T021529_R003_T51PTS_20260721T004116", "datetime": "2026-07-20T02:15:29.024000Z", "n_pixels": 2, "area_m2": 200, "prob_max": 0.8157, "prob_mean": 0.7314, "threshold": 0.63, "in_strip": true, "artifact": null}}, {"type": "Feature", "id": "D-SZ-fresh-manila-2026-07-20-012-162", "geometry": {"type": "Polygon", "coordinates": [[[120.8398645, 14.5192088], [120.8398663, 14.5190281], [120.8397735, 14.5190272], [120.8397744, 14.5189369], [120.8398672, 14.5189377], [120.8398663, 14.5190281], [120.8400518, 14.5190298], [120.84005, 14.5192105], [120.8398645, 14.5192088]]]}, "properties": {"kind": "detection", "det_id": "D-SZ-fresh-manila-2026-07-20-012-162", "zone_id": "SZ-fresh-manila-2026-07-20-012", "scene_id": "S2B_MSIL2A_20260720T021529_R003_T51PTS_20260721T004116", "datetime": "2026-07-20T02:15:29.024000Z", "n_pixels": 5, "area_m2": 500, "prob_max": 0.9765, "prob_mean": 0.9271, "threshold": 0.63, "in_strip": true, "artifact": "ship"}}, {"type": "Feature", "id": "D-SZ-fresh-manila-2026-07-20-012-165", "geometry": {"type": "Polygon", "coordinates": [[[120.838945, 14.5183871], [120.8389467, 14.5182064], [120.8390395, 14.5182072], [120.8390377, 14.5183879], [120.838945, 14.5183871]]]}, "properties": {"kind": "detection", "det_id": "D-SZ-fresh-manila-2026-07-20-012-165", "zone_id": "SZ-fresh-manila-2026-07-20-012", "scene_id": "S2B_MSIL2A_20260720T021529_R003_T51PTS_20260721T004116", "datetime": "2026-07-20T02:15:29.024000Z", "n_pixels": 2, "area_m2": 200, "prob_max": 0.8157, "prob_mean": 0.7608, "threshold": 0.63, "in_strip": true, "artifact": null}}]}