{"type": "FeatureCollection", "features": [{"type": "Feature", "id": "D-SZ-live-santo_domingo-2025-10-18-001-1", "geometry": {"type": "Polygon", "coordinates": [[[-69.8957856, 18.4497561], [-69.8957851, 18.4496658], [-69.8956904, 18.4496662], [-69.8956909, 18.4497566], [-69.8957856, 18.4497561]]]}, "properties": {"kind": "detection", "det_id": "D-SZ-live-santo_domingo-2025-10-18-001-1", "zone_id": "SZ-live-santo_domingo-2025-10-18-001", "scene_id": "S2A_MSIL2A_20251018T151731_R125_T19QDA_20251018T175307", "datetime": "2025-10-18T15:17:31.024000Z", "n_pixels": 1, "area_m2": 100, "prob_max": 0.6824, "prob_mean": 0.6824, "threshold": 0.63, "in_strip": true, "artifact": null}}, {"type": "Feature", "id": "D-SZ-live-santo_domingo-2025-10-18-001-3", "geometry": {"type": "Polygon", "coordinates": [[[-69.8959731, 18.4493938], [-69.8959726, 18.4493034], [-69.8958779, 18.4493038], [-69.8958784, 18.4493942], [-69.8959731, 18.4493938]]]}, "properties": {"kind": "detection", "det_id": "D-SZ-live-santo_domingo-2025-10-18-001-3", "zone_id": "SZ-live-santo_domingo-2025-10-18-001", "scene_id": "S2A_MSIL2A_20251018T151731_R125_T19QDA_20251018T175307", "datetime": "2025-10-18T15:17:31.024000Z", "n_pixels": 1, "area_m2": 100, "prob_max": 0.851, "prob_mean": 0.851, "threshold": 0.63, "in_strip": true, "artifact": null}}, {"type": "Feature", "id": "D-SZ-live-santo_domingo-2025-10-18-001-4", "geometry": {"type": "Polygon", "coordinates": [[[-69.8967301, 18.4492998], [-69.8967297, 18.4492094], [-69.896635, 18.4492099], [-69.8966354, 18.4493003], [-69.8967301, 18.4492998]]]}, "properties": {"kind": "detection", "det_id": "D-SZ-live-santo_domingo-2025-10-18-001-4", "zone_id": "SZ-live-santo_domingo-2025-10-18-001", "scene_id": "S2A_MSIL2A_20251018T151731_R125_T19QDA_20251018T175307", "datetime": "2025-10-18T15:17:31.024000Z", "n_pixels": 1, "area_m2": 100, "prob_max": 0.7569, "prob_mean": 0.7569, "threshold": 0.63, "in_strip": true, "artifact": null}}, {"type": "Feature", "id": "D-SZ-live-santo_domingo-2025-10-18-001-5", "geometry": {"type": "Polygon", "coordinates": [[[-69.898144, 18.4480279], [-69.898143, 18.4478472], [-69.8979536, 18.4478481], [-69.8979546, 18.4480288], [-69.898144, 18.4480279]]]}, "properties": {"kind": "detection", "det_id": "D-SZ-live-santo_domingo-2025-10-18-001-5", "zone_id": "SZ-live-santo_domingo-2025-10-18-001", "scene_id": "S2A_MSIL2A_20251018T151731_R125_T19QDA_20251018T175307", "datetime": "2025-10-18T15:17:31.024000Z", "n_pixels": 4, "area_m2": 400, "prob_max": 0.9686, "prob_mean": 0.9461, "threshold": 0.63, "in_strip": true, "artifact": null}}, {"type": "Feature", "id": "D-SZ-live-santo_domingo-2025-10-18-001-6", "geometry": {"type": "Polygon", "coordinates": [[[-69.901079, 18.4479236], [-69.9010785, 18.4478332], [-69.9009838, 18.4478337], [-69.9009833, 18.4477433], [-69.9008886, 18.4477438], [-69.9008896, 18.4479245], [-69.901079, 18.4479236]]]}, "properties": {"kind": "detection", "det_id": "D-SZ-live-santo_domingo-2025-10-18-001-6", "zone_id": "SZ-live-santo_domingo-2025-10-18-001", "scene_id": "S2A_MSIL2A_20251018T151731_R125_T19QDA_20251018T175307", "datetime": "2025-10-18T15:17:31.024000Z", "n_pixels": 3, "area_m2": 300, "prob_max": 0.9294, "prob_mean": 0.9059, "threshold": 0.63, "in_strip": true, "artifact": null}}, {"type": "Feature", "id": "D-SZ-live-santo_domingo-2025-10-18-001-7", "geometry": {"type": "Polygon", "coordinates": [[[-69.9003214, 18.4479272], [-69.9003209, 18.4478368], [-69.9001316, 18.4478377], [-69.900132, 18.4479281], [-69.9003214, 18.4479272]]]}, "properties": {"kind": "detection", "det_id": "D-SZ-live-santo_domingo-2025-10-18-001-7", "zone_id": "SZ-live-santo_domingo-2025-10-18-001", "scene_id": "S2A_MSIL2A_20251018T151731_R125_T19QDA_20251018T175307", "datetime": "2025-10-18T15:17:31.024000Z", "n_pixels": 2, "area_m2": 200, "prob_max": 0.9608, "prob_mean": 0.8039, "threshold": 0.63, "in_strip": true, "artifact": null}}]}