{"type": "FeatureCollection", "features": [{"type": "Feature", "id": "SZ-live-santo_domingo-2025-10-18-001", "geometry": {"type": "Polygon", "coordinates": [[[-69.895793, 18.451112], [-69.897588, 18.45038], [-69.898058, 18.449745], [-69.898056, 18.449384], [-69.898624, 18.449291], [-69.899096, 18.448927], [-69.900139, 18.449284], [-69.901086, 18.449279], [-69.901937, 18.449004], [-69.902499, 18.447917], [-69.902211, 18.447015], [-69.90183, 18.446655], [-69.900976, 18.446388], [-69.899652, 18.446575], [-69.89918, 18.446939], [-69.898136, 18.446492], [-69.897096, 18.446768], [-69.896626, 18.447402], [-69.896534, 18.447945], [-69.89502, 18.448223], [-69.894362, 18.449221], [-69.89427, 18.449763], [-69.894559, 18.450575], [-69.895224, 18.451024], [-69.895793, 18.451112]]]}, "properties": {"kind": "detection_zone", "layer_kind": "scene_zone", "zone_id": "SZ-live-santo_domingo-2025-10-18-001", "scene_key": "live-santo_domingo-2025-10-18", "scene_kind": "live", "scene_id": "S2A_MSIL2A_20251018T151731_R125_T19QDA_20251018T175307", "region": "santo_domingo", "title": "Санто-Доминго (устье Осамы) · зона 1", "mission": "Sentinel-2", "datetime": "2025-10-18T15:17:31.024000Z", "detection_status": "insufficient_data", "status": "insufficient_data", "concentration_status": "unavailable", "verification": "false_alarm_signs", "training_scene": null, "flags": ["ship"], "n_cozar_filaments": 0, "crop_file": "crops/SZ-live-santo_domingo-2025-10-18-001.jpg", "measured": {"zone_area_km2": 0.2567, "suspicious_area_m2": 1200, "n_pixels": 12, "n_objects": 6, "water_km2": 0.2556, "lwd_m2_km2": 4694.8, "quality": {"valid_water_fraction": 1.0, "cloud_fraction": 0.0, "glint_fraction": 0.0}, "model": {"weights": "weights/lgbm", "file": "weights/lgbm/model.txt", "sha256": "0eeebf43fcccd8c7c07f053b7ec723229d1a3c9b92d12eec1bdb269258c51470", "sha256_short": "0eeebf43fccc", "trained_at": "2026-09-25T01:35:55Z", "threshold": 0.63, "harmonize": "none", "class": "MARIDA Marine Debris (любой плавающий мусор, не только пластик)"}}, "probable": {"prob_max": 0.969, "prob_mean": 0.867, "signs": {"foam": {"flag": false, "white_ratio_b2_b8": 0.196, "wind10m_ms": 3.2, "rule": "прирост B2 над водой ≥ 0.8 прироста B8 («белый» спектр) или ветер ≥ 7.0 м/с"}, "glint": {"flag": false, "b11_water_median": 0.0022, "glint_share": 0.0, "rule": "медиана B11 воды зоны > 0.01 или ≥ 20 % пикселей зоны — блик (маска качества)"}, "ship": {"flag": true, "share": 0, "bright_target_px_within_500m": 6, "rule": "≥ 30 % пикселей — у яркой цели или кильватера (reports/artifacts.md) или яркая цель с откликом в SWIR (судно, лодка: B11 ≥ 0,015) ближе 500 м"}, "coast": {"flag": false, "land_px_within_300m": 0, "rule": "суша (маска качества) ближе 300 м — прибой, кромка берега"}, "shallow": {"flag": false, "b3_water_zone": 0.0229, "b3_ratio_to_scene_water": 2.25, "rule": "медиана B3 воды зоны ≥ 2× медианы воды снимка и ≥ 0,03 — мелководье или мутная вода"}, "seam": {"flag": false, "share": 0, "rule": "≥ 30 % пикселей — прямая линия вдоль трека/границы яркости (шов)"}, "note": "эвристики, не классификатор; на размеченных данных не проверены"}, "n_cozar_filaments": 0}, "field_nearby": {"items": [{"source": "ADIS (4TU.ResearchData, судовая камера)", "segment_id": 416611, "ship": "RV Pelagia", "date": "2023-12-17", "days_from_scene": -671, "distance_km": 749.4, "lon": -69.62766, "lat": 25.17519, "n_items": 0, "area_km2": 0.4738, "size_class": "> 5 см", "c_items_km2": 0.0, "ci95_lo": 0.0, "ci95_hi": 7.79, "ci95_method": "точный интервал Пуассона для N, делённый на A"}, {"source": "ADIS (4TU.ResearchData, судовая камера)", "segment_id": 416610, "ship": "RV Pelagia", "date": "2023-12-17", "days_from_scene": -671, "distance_km": 749.7, "lon": -69.55526, "lat": 25.17532, "n_items": 0, "area_km2": 1.015, "size_class": "> 5 см", "c_items_km2": 0.0, "ci95_lo": 0.0, "ci95_hi": 3.63, "ci95_method": "точный интервал Пуассона для N, делённый на A"}, {"source": "ADIS (4TU.ResearchData, судовая камера)", "segment_id": 416609, "ship": "RV Pelagia", "date": "2023-12-17", "days_from_scene": -671, "distance_km": 751.5, "lon": -69.45806, "lat": 25.18796, "n_items": 0, "area_km2": 1.0152, "size_class": "> 5 см", "c_items_km2": 0.0, "ci95_lo": 0.0, "ci95_hi": 3.63, "ci95_method": "точный интервал Пуассона для N, делённый на A"}], "nearest_organizer_sample": {"sample_id": "MPL-0239", "source_id": "S2_SARGASSO_MSM41", "distance_km": 644.4}, "note": "Измерение ≠ оценка: это независимые полевые счёты C = N/A в другое время и в другом месте; со сценой они не связаны и не калибруют её. Ближайший отрезок ADIS — за 749 км: только для порядка величин."}}}]}