{"type": "FeatureCollection", "features": [{"type": "Feature", "id": "D-SZ-live-guanabara-2026-07-16-001-2", "geometry": {"type": "Polygon", "coordinates": [[[-43.1713927, -22.7165489], [-43.1713915, -22.7166392], [-43.1712942, -22.7166381], [-43.171293, -22.7167284], [-43.1711956, -22.7167273], [-43.1711944, -22.7168176], [-43.1710971, -22.7168165], [-43.1710959, -22.7169068], [-43.1709986, -22.7169057], [-43.1709974, -22.7169959], [-43.1709001, -22.7169948], [-43.1709013, -22.7169045], [-43.1709986, -22.7169057], [-43.1709998, -22.7168154], [-43.1710971, -22.7168165], [-43.1710983, -22.7167262], [-43.1711956, -22.7167273], [-43.1711968, -22.716637], [-43.1712942, -22.7166381], [-43.1712954, -22.7165478], [-43.1713927, -22.7165489]]]}, "properties": {"kind": "detection", "det_id": "D-SZ-live-guanabara-2026-07-16-001-2", "zone_id": "SZ-live-guanabara-2026-07-16-001", "scene_id": "S2B_MSIL2A_20260716T130249_R095_T23KPQ_20260716T162506", "datetime": "2026-07-16T13:02:49.024000Z", "n_pixels": 5, "area_m2": 500, "prob_max": 0.9098, "prob_mean": 0.7749, "threshold": 0.63, "in_strip": true, "artifact": null}}, {"type": "Feature", "id": "D-SZ-live-guanabara-2026-07-16-001-3", "geometry": {"type": "Polygon", "coordinates": [[[-43.1697309, -22.7170718], [-43.1697285, -22.7172523], [-43.1696312, -22.7172512], [-43.1696336, -22.7170706], [-43.1697309, -22.7170718]]]}, "properties": {"kind": "detection", "det_id": "D-SZ-live-guanabara-2026-07-16-001-3", "zone_id": "SZ-live-guanabara-2026-07-16-001", "scene_id": "S2B_MSIL2A_20260716T130249_R095_T23KPQ_20260716T162506", "datetime": "2026-07-16T13:02:49.024000Z", "n_pixels": 2, "area_m2": 200, "prob_max": 0.8706, "prob_mean": 0.7824, "threshold": 0.63, "in_strip": true, "artifact": null}}, {"type": "Feature", "id": "D-SZ-live-guanabara-2026-07-16-002-6", "geometry": {"type": "Polygon", "coordinates": [[[-43.1788778, -22.7246716], [-43.1788766, -22.7247619], [-43.1787793, -22.7247607], [-43.1787805, -22.7246705], [-43.1788778, -22.7246716]]]}, "properties": {"kind": "detection", "det_id": "D-SZ-live-guanabara-2026-07-16-002-6", "zone_id": "SZ-live-guanabara-2026-07-16-002", "scene_id": "S2B_MSIL2A_20260716T130249_R095_T23KPQ_20260716T162506", "datetime": "2026-07-16T13:02:49.024000Z", "n_pixels": 1, "area_m2": 100, "prob_max": 0.6784, "prob_mean": 0.6784, "threshold": 0.63, "in_strip": true, "artifact": null}}, {"type": "Feature", "id": "D-SZ-live-guanabara-2026-07-16-002-7", "geometry": {"type": "Polygon", "coordinates": [[[-43.1781917, -22.725025], [-43.1781905, -22.7251153], [-43.1780932, -22.7251141], [-43.1780944, -22.7250239], [-43.1781917, -22.725025]]]}, "properties": {"kind": "detection", "det_id": "D-SZ-live-guanabara-2026-07-16-002-7", "zone_id": "SZ-live-guanabara-2026-07-16-002", "scene_id": "S2B_MSIL2A_20260716T130249_R095_T23KPQ_20260716T162506", "datetime": "2026-07-16T13:02:49.024000Z", "n_pixels": 1, "area_m2": 100, "prob_max": 0.9608, "prob_mean": 0.9608, "threshold": 0.63, "in_strip": true, "artifact": null}}, {"type": "Feature", "id": "D-SZ-live-guanabara-2026-07-16-002-8", "geometry": {"type": "Polygon", "coordinates": [[[-43.178968, -22.7252144], [-43.1789668, -22.7253047], [-43.1788694, -22.7253036], [-43.1788706, -22.7252133], [-43.178968, -22.7252144]]]}, "properties": {"kind": "detection", "det_id": "D-SZ-live-guanabara-2026-07-16-002-8", "zone_id": "SZ-live-guanabara-2026-07-16-002", "scene_id": "S2B_MSIL2A_20260716T130249_R095_T23KPQ_20260716T162506", "datetime": "2026-07-16T13:02:49.024000Z", "n_pixels": 1, "area_m2": 100, "prob_max": 1.0, "prob_mean": 1.0, "threshold": 0.63, "in_strip": true, "artifact": null}}, {"type": "Feature", "id": "D-SZ-live-guanabara-2026-07-16-002-9", "geometry": {"type": "Polygon", "coordinates": [[[-43.1814001, -22.7253324], [-43.1813977, -22.725513], [-43.1813004, -22.7255119], [-43.1813028, -22.7253313], [-43.1814001, -22.7253324]]]}, "properties": {"kind": "detection", "det_id": "D-SZ-live-guanabara-2026-07-16-002-9", "zone_id": "SZ-live-guanabara-2026-07-16-002", "scene_id": "S2B_MSIL2A_20260716T130249_R095_T23KPQ_20260716T162506", "datetime": "2026-07-16T13:02:49.024000Z", "n_pixels": 2, "area_m2": 200, "prob_max": 0.9804, "prob_mean": 0.9765, "threshold": 0.63, "in_strip": true, "artifact": "ship"}}, {"type": "Feature", "id": "D-SZ-live-guanabara-2026-07-16-002-10", "geometry": {"type": "Polygon", "coordinates": [[[-43.1773121, -22.7252859], [-43.1773109, -22.7253761], [-43.1772136, -22.725375], [-43.1772148, -22.7252847], [-43.1773121, -22.7252859]]]}, "properties": {"kind": "detection", "det_id": "D-SZ-live-guanabara-2026-07-16-002-10", "zone_id": "SZ-live-guanabara-2026-07-16-002", "scene_id": "S2B_MSIL2A_20260716T130249_R095_T23KPQ_20260716T162506", "datetime": "2026-07-16T13:02:49.024000Z", "n_pixels": 1, "area_m2": 100, "prob_max": 0.9333, "prob_mean": 0.9333, "threshold": 0.63, "in_strip": true, "artifact": null}}, {"type": "Feature", "id": "D-SZ-live-guanabara-2026-07-16-002-11", "geometry": {"type": "Polygon", "coordinates": [[[-43.1818844, -22.7255185], [-43.1818832, -22.7256088], [-43.1816885, -22.7256066], [-43.1816849, -22.7258775], [-43.1815876, -22.7258764], [-43.1815912, -22.7256055], [-43.1816885, -22.7256066], [-43.1816897, -22.7255163], [-43.1818844, -22.7255185]]]}, "properties": {"kind": "detection", "det_id": "D-SZ-live-guanabara-2026-07-16-002-11", "zone_id": "SZ-live-guanabara-2026-07-16-002", "scene_id": "S2B_MSIL2A_20260716T130249_R095_T23KPQ_20260716T162506", "datetime": "2026-07-16T13:02:49.024000Z", "n_pixels": 5, "area_m2": 500, "prob_max": 0.9412, "prob_mean": 0.8024, "threshold": 0.63, "in_strip": true, "artifact": "ship"}}, {"type": "Feature", "id": "D-SZ-live-guanabara-2026-07-16-002-12", "geometry": {"type": "Polygon", "coordinates": [[[-43.1790617, -22.7254864], [-43.1790593, -22.725667], [-43.1788647, -22.7256648], [-43.1788671, -22.7254842], [-43.1790617, -22.7254864]]]}, "properties": {"kind": "detection", "det_id": "D-SZ-live-guanabara-2026-07-16-002-12", "zone_id": "SZ-live-guanabara-2026-07-16-002", "scene_id": "S2B_MSIL2A_20260716T130249_R095_T23KPQ_20260716T162506", "datetime": "2026-07-16T13:02:49.024000Z", "n_pixels": 4, "area_m2": 400, "prob_max": 1.0, "prob_mean": 0.998, "threshold": 0.63, "in_strip": true, "artifact": null}}, {"type": "Feature", "id": "D-SZ-live-guanabara-2026-07-16-002-13", "geometry": {"type": "Polygon", "coordinates": [[[-43.1783756, -22.7258398], [-43.1783732, -22.7260204], [-43.1782759, -22.7260193], [-43.1782783, -22.7258387], [-43.1783756, -22.7258398]]]}, "properties": {"kind": "detection", "det_id": "D-SZ-live-guanabara-2026-07-16-002-13", "zone_id": "SZ-live-guanabara-2026-07-16-002", "scene_id": "S2B_MSIL2A_20260716T130249_R095_T23KPQ_20260716T162506", "datetime": "2026-07-16T13:02:49.024000Z", "n_pixels": 2, "area_m2": 200, "prob_max": 0.7333, "prob_mean": 0.7059, "threshold": 0.63, "in_strip": true, "artifact": null}}, {"type": "Feature", "id": "D-SZ-live-guanabara-2026-07-16-003-15", "geometry": {"type": "Polygon", "coordinates": [[[-43.2006273, -22.7289817], [-43.2006262, -22.729072], [-43.2007235, -22.7290731], [-43.2007211, -22.7292536], [-43.2006238, -22.7292526], [-43.2006262, -22.729072], [-43.2004315, -22.7290698], [-43.2004327, -22.7289795], [-43.2006273, -22.7289817]]]}, "properties": {"kind": "detection", "det_id": "D-SZ-live-guanabara-2026-07-16-003-15", "zone_id": "SZ-live-guanabara-2026-07-16-003", "scene_id": "S2B_MSIL2A_20260716T130249_R095_T23KPQ_20260716T162506", "datetime": "2026-07-16T13:02:49.024000Z", "n_pixels": 4, "area_m2": 400, "prob_max": 0.9451, "prob_mean": 0.8657, "threshold": 0.63, "in_strip": true, "artifact": null}}, {"type": "Feature", "id": "D-SZ-live-guanabara-2026-07-16-003-17", "geometry": {"type": "Polygon", "coordinates": [[[-43.2008161, -22.7294353], [-43.2008149, -22.7295256], [-43.2007176, -22.7295245], [-43.2007188, -22.7294342], [-43.2008161, -22.7294353]]]}, "properties": {"kind": "detection", "det_id": "D-SZ-live-guanabara-2026-07-16-003-17", "zone_id": "SZ-live-guanabara-2026-07-16-003", "scene_id": "S2B_MSIL2A_20260716T130249_R095_T23KPQ_20260716T162506", "datetime": "2026-07-16T13:02:49.024000Z", "n_pixels": 1, "area_m2": 100, "prob_max": 0.7529, "prob_mean": 0.7529, "threshold": 0.63, "in_strip": true, "artifact": null}}, {"type": "Feature", "id": "D-SZ-live-guanabara-2026-07-16-004-20", "geometry": {"type": "Polygon", "coordinates": [[[-43.1814282, -22.7452902], [-43.181427, -22.7453805], [-43.1813296, -22.7453794], [-43.1813284, -22.7454697], [-43.1812311, -22.7454686], [-43.1812323, -22.7453783], [-43.1813296, -22.7453794], [-43.1813308, -22.7452891], [-43.1814282, -22.7452902]]]}, "properties": {"kind": "detection", "det_id": "D-SZ-live-guanabara-2026-07-16-004-20", "zone_id": "SZ-live-guanabara-2026-07-16-004", "scene_id": "S2B_MSIL2A_20260716T130249_R095_T23KPQ_20260716T162506", "datetime": "2026-07-16T13:02:49.024000Z", "n_pixels": 2, "area_m2": 200, "prob_max": 0.9373, "prob_mean": 0.902, "threshold": 0.63, "in_strip": true, "artifact": null}}, {"type": "Feature", "id": "D-SZ-live-guanabara-2026-07-16-004-21", "geometry": {"type": "Polygon", "coordinates": [[[-43.1823861, -22.7464751], [-43.1823837, -22.7466557], [-43.1820917, -22.7466524], [-43.1820905, -22.7467426], [-43.1819931, -22.7467415], [-43.1819955, -22.746561], [-43.1822876, -22.7465643], [-43.1822888, -22.746474], [-43.1823861, -22.7464751]]]}, "properties": {"kind": "detection", "det_id": "D-SZ-live-guanabara-2026-07-16-004-21", "zone_id": "SZ-live-guanabara-2026-07-16-004", "scene_id": "S2B_MSIL2A_20260716T130249_R095_T23KPQ_20260716T162506", "datetime": "2026-07-16T13:02:49.024000Z", "n_pixels": 6, "area_m2": 600, "prob_max": 0.9686, "prob_mean": 0.8928, "threshold": 0.63, "in_strip": true, "artifact": null}}, {"type": "Feature", "id": "D-SZ-live-guanabara-2026-07-16-005-23", "geometry": {"type": "Polygon", "coordinates": [[[-43.054969, -22.7513855], [-43.0549677, -22.7514758], [-43.0548704, -22.7514746], [-43.0548716, -22.7513843], [-43.054969, -22.7513855]]]}, "properties": {"kind": "detection", "det_id": "D-SZ-live-guanabara-2026-07-16-005-23", "zone_id": "SZ-live-guanabara-2026-07-16-005", "scene_id": "S2B_MSIL2A_20260716T130249_R095_T23KPQ_20260716T162506", "datetime": "2026-07-16T13:02:49.024000Z", "n_pixels": 1, "area_m2": 100, "prob_max": 0.898, "prob_mean": 0.898, "threshold": 0.63, "in_strip": true, "artifact": null}}, {"type": "Feature", "id": "D-SZ-live-guanabara-2026-07-16-005-25", "geometry": {"type": "Polygon", "coordinates": [[[-43.0555479, -22.7517538], [-43.0555467, -22.7518441], [-43.055644, -22.7518452], [-43.0556427, -22.7519355], [-43.0558374, -22.7519379], [-43.0558349, -22.7521185], [-43.0557375, -22.7521173], [-43.0557388, -22.752027], [-43.0554468, -22.7520234], [-43.0554493, -22.7518429], [-43.055352, -22.7518417], [-43.0553532, -22.7517514], [-43.0555479, -22.7517538]]]}, "properties": {"kind": "detection", "det_id": "D-SZ-live-guanabara-2026-07-16-005-25", "zone_id": "SZ-live-guanabara-2026-07-16-005", "scene_id": "S2B_MSIL2A_20260716T130249_R095_T23KPQ_20260716T162506", "datetime": "2026-07-16T13:02:49.024000Z", "n_pixels": 9, "area_m2": 900, "prob_max": 0.9725, "prob_mean": 0.8153, "threshold": 0.63, "in_strip": true, "artifact": null}}, {"type": "Feature", "id": "D-SZ-live-guanabara-2026-07-16-005-26", "geometry": {"type": "Polygon", "coordinates": [[[-43.0558336, -22.7522088], [-43.0558323, -22.752299], [-43.055735, -22.7522979], [-43.0557362, -22.7522076], [-43.0558336, -22.7522088]]]}, "properties": {"kind": "detection", "det_id": "D-SZ-live-guanabara-2026-07-16-005-26", "zone_id": "SZ-live-guanabara-2026-07-16-005", "scene_id": "S2B_MSIL2A_20260716T130249_R095_T23KPQ_20260716T162506", "datetime": "2026-07-16T13:02:49.024000Z", "n_pixels": 1, "area_m2": 100, "prob_max": 0.8039, "prob_mean": 0.8039, "threshold": 0.63, "in_strip": true, "artifact": null}}, {"type": "Feature", "id": "D-SZ-live-guanabara-2026-07-16-006-41", "geometry": {"type": "Polygon", "coordinates": [[[-43.1838733, -22.7665398], [-43.1838721, -22.7666301], [-43.1836774, -22.7666278], [-43.1836786, -22.7665376], [-43.1838733, -22.7665398]]]}, "properties": {"kind": "detection", "det_id": "D-SZ-live-guanabara-2026-07-16-006-41", "zone_id": "SZ-live-guanabara-2026-07-16-006", "scene_id": "S2B_MSIL2A_20260716T130249_R095_T23KPQ_20260716T162506", "datetime": "2026-07-16T13:02:49.024000Z", "n_pixels": 2, "area_m2": 200, "prob_max": 0.9412, "prob_mean": 0.9392, "threshold": 0.63, "in_strip": true, "artifact": null}}, {"type": "Feature", "id": "D-SZ-live-guanabara-2026-07-16-006-42", "geometry": {"type": "Polygon", "coordinates": [[[-43.1841642, -22.7666334], [-43.184163, -22.7667237], [-43.1839683, -22.7667215], [-43.1839695, -22.7666312], [-43.1841642, -22.7666334]]]}, "properties": {"kind": "detection", "det_id": "D-SZ-live-guanabara-2026-07-16-006-42", "zone_id": "SZ-live-guanabara-2026-07-16-006", "scene_id": "S2B_MSIL2A_20260716T130249_R095_T23KPQ_20260716T162506", "datetime": "2026-07-16T13:02:49.024000Z", "n_pixels": 2, "area_m2": 200, "prob_max": 0.9843, "prob_mean": 0.9804, "threshold": 0.63, "in_strip": true, "artifact": null}}, {"type": "Feature", "id": "D-SZ-live-guanabara-2026-07-16-006-43", "geometry": {"type": "Polygon", "coordinates": [[[-43.1852328, -22.7668262], [-43.1852304, -22.7670067], [-43.1851331, -22.7670056], [-43.1851354, -22.766825], [-43.1852328, -22.7668262]]]}, "properties": {"kind": "detection", "det_id": "D-SZ-live-guanabara-2026-07-16-006-43", "zone_id": "SZ-live-guanabara-2026-07-16-006", "scene_id": "S2B_MSIL2A_20260716T130249_R095_T23KPQ_20260716T162506", "datetime": "2026-07-16T13:02:49.024000Z", "n_pixels": 2, "area_m2": 200, "prob_max": 0.902, "prob_mean": 0.8706, "threshold": 0.63, "in_strip": true, "artifact": null}}, {"type": "Feature", "id": "D-SZ-live-guanabara-2026-07-16-006-44", "geometry": {"type": "Polygon", "coordinates": [[[-43.1849395, -22.7669131], [-43.1849383, -22.7670034], [-43.184841, -22.7670023], [-43.1848422, -22.766912], [-43.1849395, -22.7669131]]]}, "properties": {"kind": "detection", "det_id": "D-SZ-live-guanabara-2026-07-16-006-44", "zone_id": "SZ-live-guanabara-2026-07-16-006", "scene_id": "S2B_MSIL2A_20260716T130249_R095_T23KPQ_20260716T162506", "datetime": "2026-07-16T13:02:49.024000Z", "n_pixels": 1, "area_m2": 100, "prob_max": 0.7882, "prob_mean": 0.7882, "threshold": 0.63, "in_strip": true, "artifact": null}}, {"type": "Feature", "id": "D-SZ-live-guanabara-2026-07-16-007-58", "geometry": {"type": "Polygon", "coordinates": [[[-43.1435348, -22.7755575], [-43.1435336, -22.7756478], [-43.1434362, -22.7756467], [-43.1434374, -22.7755564], [-43.1435348, -22.7755575]]]}, "properties": {"kind": "detection", "det_id": "D-SZ-live-guanabara-2026-07-16-007-58", "zone_id": "SZ-live-guanabara-2026-07-16-007", "scene_id": "S2B_MSIL2A_20260716T130249_R095_T23KPQ_20260716T162506", "datetime": "2026-07-16T13:02:49.024000Z", "n_pixels": 1, "area_m2": 100, "prob_max": 0.651, "prob_mean": 0.651, "threshold": 0.63, "in_strip": true, "artifact": null}}, {"type": "Feature", "id": "D-SZ-live-guanabara-2026-07-16-007-59", "geometry": {"type": "Polygon", "coordinates": [[[-43.1435299, -22.7759187], [-43.1435287, -22.776009], [-43.143334, -22.7760067], [-43.1433352, -22.7759164], [-43.1435299, -22.7759187]]]}, "properties": {"kind": "detection", "det_id": "D-SZ-live-guanabara-2026-07-16-007-59", "zone_id": "SZ-live-guanabara-2026-07-16-007", "scene_id": "S2B_MSIL2A_20260716T130249_R095_T23KPQ_20260716T162506", "datetime": "2026-07-16T13:02:49.024000Z", "n_pixels": 2, "area_m2": 200, "prob_max": 0.9608, "prob_mean": 0.9078, "threshold": 0.63, "in_strip": true, "artifact": "ship"}}, {"type": "Feature", "id": "D-SZ-live-guanabara-2026-07-16-007-60", "geometry": {"type": "Polygon", "coordinates": [[[-43.1437222, -22.7761015], [-43.1437198, -22.7762821], [-43.1436224, -22.776281], [-43.1436248, -22.7761004], [-43.1437222, -22.7761015]]]}, "properties": {"kind": "detection", "det_id": "D-SZ-live-guanabara-2026-07-16-007-60", "zone_id": "SZ-live-guanabara-2026-07-16-007", "scene_id": "S2B_MSIL2A_20260716T130249_R095_T23KPQ_20260716T162506", "datetime": "2026-07-16T13:02:49.024000Z", "n_pixels": 2, "area_m2": 200, "prob_max": 0.9765, "prob_mean": 0.9059, "threshold": 0.63, "in_strip": true, "artifact": "ship"}}, {"type": "Feature", "id": "D-SZ-live-guanabara-2026-07-16-007-61", "geometry": {"type": "Polygon", "coordinates": [[[-43.1437014, -22.7776365], [-43.143699, -22.777817], [-43.1436016, -22.7778159], [-43.1436028, -22.7777256], [-43.1435055, -22.7777245], [-43.1435067, -22.7776342], [-43.1437014, -22.7776365]]]}, "properties": {"kind": "detection", "det_id": "D-SZ-live-guanabara-2026-07-16-007-61", "zone_id": "SZ-live-guanabara-2026-07-16-007", "scene_id": "S2B_MSIL2A_20260716T130249_R095_T23KPQ_20260716T162506", "datetime": "2026-07-16T13:02:49.024000Z", "n_pixels": 3, "area_m2": 300, "prob_max": 0.9529, "prob_mean": 0.9124, "threshold": 0.63, "in_strip": true, "artifact": null}}, {"type": "Feature", "id": "D-SZ-live-guanabara-2026-07-16-007-62", "geometry": {"type": "Polygon", "coordinates": [[[-43.1433095, -22.7778125], [-43.1433083, -22.7779028], [-43.1432109, -22.7779017], [-43.1432121, -22.7778114], [-43.1433095, -22.7778125]]]}, "properties": {"kind": "detection", "det_id": "D-SZ-live-guanabara-2026-07-16-007-62", "zone_id": "SZ-live-guanabara-2026-07-16-007", "scene_id": "S2B_MSIL2A_20260716T130249_R095_T23KPQ_20260716T162506", "datetime": "2026-07-16T13:02:49.024000Z", "n_pixels": 1, "area_m2": 100, "prob_max": 0.8275, "prob_mean": 0.8275, "threshold": 0.63, "in_strip": true, "artifact": null}}, {"type": "Feature", "id": "D-SZ-live-guanabara-2026-07-16-008-67", "geometry": {"type": "Polygon", "coordinates": [[[-43.0885295, -22.7884533], [-43.0885257, -22.7887241], [-43.0884284, -22.788723], [-43.0884321, -22.7884521], [-43.0885295, -22.7884533]]]}, "properties": {"kind": "detection", "det_id": "D-SZ-live-guanabara-2026-07-16-008-67", "zone_id": "SZ-live-guanabara-2026-07-16-008", "scene_id": "S2B_MSIL2A_20260716T130249_R095_T23KPQ_20260716T162506", "datetime": "2026-07-16T13:02:49.024000Z", "n_pixels": 3, "area_m2": 300, "prob_max": 0.949, "prob_mean": 0.9242, "threshold": 0.63, "in_strip": true, "artifact": null}}, {"type": "Feature", "id": "D-SZ-live-guanabara-2026-07-16-008-71", "geometry": {"type": "Polygon", "coordinates": [[[-43.0894655, -22.7911735], [-43.089463, -22.7913541], [-43.0893656, -22.7913529], [-43.0893681, -22.7911724], [-43.0894655, -22.7911735]]]}, "properties": {"kind": "detection", "det_id": "D-SZ-live-guanabara-2026-07-16-008-71", "zone_id": "SZ-live-guanabara-2026-07-16-008", "scene_id": "S2B_MSIL2A_20260716T130249_R095_T23KPQ_20260716T162506", "datetime": "2026-07-16T13:02:49.024000Z", "n_pixels": 2, "area_m2": 200, "prob_max": 0.949, "prob_mean": 0.8294, "threshold": 0.63, "in_strip": true, "artifact": null}}, {"type": "Feature", "id": "D-SZ-live-guanabara-2026-07-16-009-81", "geometry": {"type": "Polygon", "coordinates": [[[-43.0878367, -22.8171608], [-43.0878342, -22.8173413], [-43.0877368, -22.8173402], [-43.0877393, -22.8171596], [-43.0878367, -22.8171608]]]}, "properties": {"kind": "detection", "det_id": "D-SZ-live-guanabara-2026-07-16-009-81", "zone_id": "SZ-live-guanabara-2026-07-16-009", "scene_id": "S2B_MSIL2A_20260716T130249_R095_T23KPQ_20260716T162506", "datetime": "2026-07-16T13:02:49.024000Z", "n_pixels": 2, "area_m2": 200, "prob_max": 0.9373, "prob_mean": 0.8216, "threshold": 0.63, "in_strip": true, "artifact": null}}, {"type": "Feature", "id": "D-SZ-live-guanabara-2026-07-16-009-82", "geometry": {"type": "Polygon", "coordinates": [[[-43.0869514, -22.8177822], [-43.0869488, -22.8179628], [-43.0868514, -22.8179616], [-43.0868527, -22.8178714], [-43.0867553, -22.8178702], [-43.0867566, -22.8177799], [-43.0869514, -22.8177822]]]}, "properties": {"kind": "detection", "det_id": "D-SZ-live-guanabara-2026-07-16-009-82", "zone_id": "SZ-live-guanabara-2026-07-16-009", "scene_id": "S2B_MSIL2A_20260716T130249_R095_T23KPQ_20260716T162506", "datetime": "2026-07-16T13:02:49.024000Z", "n_pixels": 3, "area_m2": 300, "prob_max": 0.902, "prob_mean": 0.8288, "threshold": 0.63, "in_strip": true, "artifact": "ship"}}, {"type": "Feature", "id": "D-SZ-live-guanabara-2026-07-16-009-83", "geometry": {"type": "Polygon", "coordinates": [[[-43.0877129, -22.8190556], [-43.0877116, -22.8191459], [-43.0876142, -22.8191447], [-43.0876155, -22.8190544], [-43.0877129, -22.8190556]]]}, "properties": {"kind": "detection", "det_id": "D-SZ-live-guanabara-2026-07-16-009-83", "zone_id": "SZ-live-guanabara-2026-07-16-009", "scene_id": "S2B_MSIL2A_20260716T130249_R095_T23KPQ_20260716T162506", "datetime": "2026-07-16T13:02:49.024000Z", "n_pixels": 1, "area_m2": 100, "prob_max": 0.9922, "prob_mean": 0.9922, "threshold": 0.63, "in_strip": true, "artifact": null}}, {"type": "Feature", "id": "D-SZ-live-guanabara-2026-07-16-009-84", "geometry": {"type": "Polygon", "coordinates": [[[-43.0875118, -22.8195047], [-43.0875105, -22.819595], [-43.0874131, -22.8195938], [-43.0874144, -22.8195035], [-43.0875118, -22.8195047]]]}, "properties": {"kind": "detection", "det_id": "D-SZ-live-guanabara-2026-07-16-009-84", "zone_id": "SZ-live-guanabara-2026-07-16-009", "scene_id": "S2B_MSIL2A_20260716T130249_R095_T23KPQ_20260716T162506", "datetime": "2026-07-16T13:02:49.024000Z", "n_pixels": 1, "area_m2": 100, "prob_max": 0.8471, "prob_mean": 0.8471, "threshold": 0.63, "in_strip": true, "artifact": null}}, {"type": "Feature", "id": "D-SZ-live-guanabara-2026-07-16-010-96", "geometry": {"type": "Polygon", "coordinates": [[[-43.1247069, -22.8491145], [-43.1247057, -22.8492048], [-43.1245109, -22.8492025], [-43.1245121, -22.8491122], [-43.1247069, -22.8491145]]]}, "properties": {"kind": "detection", "det_id": "D-SZ-live-guanabara-2026-07-16-010-96", "zone_id": "SZ-live-guanabara-2026-07-16-010", "scene_id": "S2B_MSIL2A_20260716T130249_R095_T23KPQ_20260716T162506", "datetime": "2026-07-16T13:02:49.024000Z", "n_pixels": 2, "area_m2": 200, "prob_max": 0.8431, "prob_mean": 0.8196, "threshold": 0.63, "in_strip": true, "artifact": null}}, {"type": "Feature", "id": "D-SZ-live-guanabara-2026-07-16-010-97", "geometry": {"type": "Polygon", "coordinates": [[[-43.1233245, -22.8504528], [-43.1233208, -22.8507236], [-43.1232234, -22.8507225], [-43.1232271, -22.8504516], [-43.1233245, -22.8504528]]]}, "properties": {"kind": "detection", "det_id": "D-SZ-live-guanabara-2026-07-16-010-97", "zone_id": "SZ-live-guanabara-2026-07-16-010", "scene_id": "S2B_MSIL2A_20260716T130249_R095_T23KPQ_20260716T162506", "datetime": "2026-07-16T13:02:49.024000Z", "n_pixels": 3, "area_m2": 300, "prob_max": 0.9922, "prob_mean": 0.8275, "threshold": 0.63, "in_strip": true, "artifact": null}}, {"type": "Feature", "id": "D-SZ-live-guanabara-2026-07-16-011-101", "geometry": {"type": "Polygon", "coordinates": [[[-43.1410442, -22.8586074], [-43.1410405, -22.8588782], [-43.1408457, -22.858876], [-43.1408481, -22.8586954], [-43.1409456, -22.8586965], [-43.1409468, -22.8586062], [-43.1410442, -22.8586074]]]}, "properties": {"kind": "detection", "det_id": "D-SZ-live-guanabara-2026-07-16-011-101", "zone_id": "SZ-live-guanabara-2026-07-16-011", "scene_id": "S2B_MSIL2A_20260716T130249_R095_T23KPQ_20260716T162506", "datetime": "2026-07-16T13:02:49.024000Z", "n_pixels": 5, "area_m2": 500, "prob_max": 0.9647, "prob_mean": 0.8227, "threshold": 0.63, "in_strip": true, "artifact": null}}, {"type": "Feature", "id": "D-SZ-live-guanabara-2026-07-16-012-115", "geometry": {"type": "Polygon", "coordinates": [[[-43.1675337, -22.8814905], [-43.1675313, -22.8816711], [-43.1676287, -22.8816723], [-43.1676275, -22.8817625], [-43.16753, -22.8817614], [-43.1675288, -22.8818517], [-43.1674314, -22.8818506], [-43.1674338, -22.88167], [-43.1673364, -22.8816689], [-43.1673376, -22.8815786], [-43.167435, -22.8815797], [-43.1674362, -22.8814894], [-43.1675337, -22.8814905]]]}, "properties": {"kind": "detection", "det_id": "D-SZ-live-guanabara-2026-07-16-012-115", "zone_id": "SZ-live-guanabara-2026-07-16-012", "scene_id": "S2B_MSIL2A_20260716T130249_R095_T23KPQ_20260716T162506", "datetime": "2026-07-16T13:02:49.024000Z", "n_pixels": 6, "area_m2": 600, "prob_max": 0.9843, "prob_mean": 0.8183, "threshold": 0.63, "in_strip": true, "artifact": "ship"}}, {"type": "Feature", "id": "D-SZ-live-guanabara-2026-07-16-013-116", "geometry": {"type": "Polygon", "coordinates": [[[-43.1606688, -22.8846622], [-43.160664, -22.8850233], [-43.1605665, -22.8850222], [-43.160569, -22.8848416], [-43.1604715, -22.8848405], [-43.1604739, -22.8846599], [-43.1606688, -22.8846622]]]}, "properties": {"kind": "detection", "det_id": "D-SZ-live-guanabara-2026-07-16-013-116", "zone_id": "SZ-live-guanabara-2026-07-16-013", "scene_id": "S2B_MSIL2A_20260716T130249_R095_T23KPQ_20260716T162506", "datetime": "2026-07-16T13:02:49.024000Z", "n_pixels": 6, "area_m2": 600, "prob_max": 0.9647, "prob_mean": 0.8856, "threshold": 0.63, "in_strip": true, "artifact": "ship"}}, {"type": "Feature", "id": "D-SZ-live-guanabara-2026-07-16-013-121", "geometry": {"type": "Polygon", "coordinates": [[[-43.1619235, -22.8855797], [-43.1619223, -22.88567], [-43.1617274, -22.8856678], [-43.1617286, -22.8855775], [-43.1619235, -22.8855797]]]}, "properties": {"kind": "detection", "det_id": "D-SZ-live-guanabara-2026-07-16-013-121", "zone_id": "SZ-live-guanabara-2026-07-16-013", "scene_id": "S2B_MSIL2A_20260716T130249_R095_T23KPQ_20260716T162506", "datetime": "2026-07-16T13:02:49.024000Z", "n_pixels": 2, "area_m2": 200, "prob_max": 0.9686, "prob_mean": 0.9176, "threshold": 0.63, "in_strip": true, "artifact": null}}, {"type": "Feature", "id": "D-SZ-live-guanabara-2026-07-16-013-122", "geometry": {"type": "Polygon", "coordinates": [[[-43.1611208, -22.8872862], [-43.1611196, -22.8873765], [-43.1610221, -22.8873754], [-43.1610209, -22.8874657], [-43.1609235, -22.8874645], [-43.1609222, -22.8875548], [-43.1608248, -22.8875537], [-43.160826, -22.8874634], [-43.1609235, -22.8874645], [-43.1609259, -22.8872839], [-43.1611208, -22.8872862]]]}, "properties": {"kind": "detection", "det_id": "D-SZ-live-guanabara-2026-07-16-013-122", "zone_id": "SZ-live-guanabara-2026-07-16-013", "scene_id": "S2B_MSIL2A_20260716T130249_R095_T23KPQ_20260716T162506", "datetime": "2026-07-16T13:02:49.024000Z", "n_pixels": 4, "area_m2": 400, "prob_max": 0.9804, "prob_mean": 0.9186, "threshold": 0.63, "in_strip": true, "artifact": null}}, {"type": "Feature", "id": "D-SZ-live-guanabara-2026-07-16-014-117", "geometry": {"type": "Polygon", "coordinates": [[[-43.2080197, -22.8858352], [-43.2080186, -22.8859255], [-43.2082135, -22.8859277], [-43.2082123, -22.8860179], [-43.2083097, -22.886019], [-43.2083085, -22.8861093], [-43.2082111, -22.8861082], [-43.2082123, -22.8860179], [-43.2079199, -22.8860147], [-43.2079211, -22.8859244], [-43.2078237, -22.8859233], [-43.2078248, -22.885833], [-43.2080197, -22.8858352]]]}, "properties": {"kind": "detection", "det_id": "D-SZ-live-guanabara-2026-07-16-014-117", "zone_id": "SZ-live-guanabara-2026-07-16-014", "scene_id": "S2B_MSIL2A_20260716T130249_R095_T23KPQ_20260716T162506", "datetime": "2026-07-16T13:02:49.024000Z", "n_pixels": 6, "area_m2": 600, "prob_max": 0.9843, "prob_mean": 0.8275, "threshold": 0.63, "in_strip": true, "artifact": "seam"}}, {"type": "Feature", "id": "D-SZ-live-guanabara-2026-07-16-015-118", "geometry": {"type": "Polygon", "coordinates": [[[-43.2042192, -22.8857923], [-43.2042169, -22.8859729], [-43.2041194, -22.8859718], [-43.2041218, -22.8857912], [-43.2042192, -22.8857923]]]}, "properties": {"kind": "detection", "det_id": "D-SZ-live-guanabara-2026-07-16-015-118", "zone_id": "SZ-live-guanabara-2026-07-16-015", "scene_id": "S2B_MSIL2A_20260716T130249_R095_T23KPQ_20260716T162506", "datetime": "2026-07-16T13:02:49.024000Z", "n_pixels": 2, "area_m2": 200, "prob_max": 0.7059, "prob_mean": 0.6843, "threshold": 0.63, "in_strip": true, "artifact": null}}, {"type": "Feature", "id": "D-SZ-live-guanabara-2026-07-16-015-119", "geometry": {"type": "Polygon", "coordinates": [[[-43.2028538, -22.8858671], [-43.2028526, -22.8859574], [-43.20295, -22.8859585], [-43.2029477, -22.8861391], [-43.2028502, -22.886138], [-43.2028526, -22.8859574], [-43.2027551, -22.8859563], [-43.2027563, -22.885866], [-43.2028538, -22.8858671]]]}, "properties": {"kind": "detection", "det_id": "D-SZ-live-guanabara-2026-07-16-015-119", "zone_id": "SZ-live-guanabara-2026-07-16-015", "scene_id": "S2B_MSIL2A_20260716T130249_R095_T23KPQ_20260716T162506", "datetime": "2026-07-16T13:02:49.024000Z", "n_pixels": 3, "area_m2": 300, "prob_max": 0.902, "prob_mean": 0.8196, "threshold": 0.63, "in_strip": true, "artifact": "seam"}}, {"type": "Feature", "id": "D-SZ-live-guanabara-2026-07-16-015-120", "geometry": {"type": "Polygon", "coordinates": [[[-43.2032412, -22.8860521], [-43.2032388, -22.8862327], [-43.2031414, -22.8862316], [-43.2031437, -22.886051], [-43.2032412, -22.8860521]]]}, "properties": {"kind": "detection", "det_id": "D-SZ-live-guanabara-2026-07-16-015-120", "zone_id": "SZ-live-guanabara-2026-07-16-015", "scene_id": "S2B_MSIL2A_20260716T130249_R095_T23KPQ_20260716T162506", "datetime": "2026-07-16T13:02:49.024000Z", "n_pixels": 2, "area_m2": 200, "prob_max": 0.9608, "prob_mean": 0.9294, "threshold": 0.63, "in_strip": true, "artifact": "seam"}}]}