{"type": "FeatureCollection", "kind": "model_estimate", "layer_kind": "candidate_strip", "label": "Проверенные снимки-кандидаты (полосы обследования)", "count": 29, "empty_reason": null, "model": {"detector": "lgbm", "concentration": null, "trained_at": null, "concentration_note": "калибровки спутник → шт./км² нет; концентрация в зонах не выдаётся"}, "features": [{"type": "Feature", "id": "Z-S3_HE419_MarLitter_transect29", "geometry": {"type": "Polygon", "coordinates": [[[8.127355, 54.681795], [8.12735, 54.681778], [8.12734, 54.681761], [8.127324, 54.681746], [8.127304, 54.681733], [8.12728, 54.681723], [8.127252, 54.681715], [8.127223, 54.681711], [8.127192, 54.68171], [8.127162, 54.681713], [8.127134, 54.681719], [8.127107, 54.681728], [8.127085, 54.68174], [8.127067, 54.681754], [8.127054, 54.68177], [8.127047, 54.681787], [8.127045, 54.681805], [8.145144, 54.889205], [8.145149, 54.889222], [8.145159, 54.889239], [8.145175, 54.889254], [8.145195, 54.889267], [8.14522, 54.889277], [8.145248, 54.889285], [8.145277, 54.889289], [8.145308, 54.88929], [8.145338, 54.889287], [8.145367, 54.889281], [8.145393, 54.889272], [8.145416, 54.88926], [8.145434, 54.889246], [8.145447, 54.88923], [8.145454, 54.889213], [8.145456, 54.889195], [8.127355, 54.681795]]]}, "properties": {"kind": "model_estimate", "zone_id": "Z-S3_HE419_MarLitter_transect29", "scene_id": "LC08_L2SP_196022_20140412_02_T1", "mission": "Landsat-8", "datetime": "2014-04-12T10:20:44Z", "status": "insufficient_data", "detection_status": "insufficient_data", "status_reason": "связь снимка с полевым измерением не подтверждена: Облачность над точкой, Дрейф за разрыв времени больше допуска (несинхронно); снимок непригоден: облачность в полосе наблюдения", "concentration_status": "unavailable", "concentration_reason": "нет проверенного переноса «снимок → шт./км²»; спутниковая концентрация не выдаётся", "area_km2": 0.4635, "area_basis": "геодезическая площадь полигона geometry (WGS84): полоса наблюдения вокруг трансекты/точки", "strip_area_raster_km2": 1.1997, "pair_status": "rejected", "pair_reject_reasons": ["CLOUD", "DRIFT_TOO_LARGE"], "pair_sync": "unsynchronized", "pair_drift_shift_km": 17.03, "pair_tolerance_km": 3.005, "pair_time_known": true, "pair_dt_uncertainty_h": 0, "registry": {"status": "reject", "stage": "drift", "status_without_drift": "reject"}, "detected_area_m2": null, "detector": {"prob_mean": null, "prob_max": null, "n_pixels": null, "n_objects": null, "threshold": null}, "field_estimate": null, "concentration": null, "quality": {"valid_fraction": 0.0, "cloud_fraction": 1.0, "glint_fraction": null, "land_fraction": 0.0, "coverage": 1.0, "glint_b11_median": null, "flags": ["pair_rejected_drift"]}, "support": {"n_linked_samples": 6, "linked_sample_ids": ["MPL-0162", "MPL-0163", "MPL-0164", "MPL-0165", "MPL-0166", "MPL-0167"], "nearest_measurement_km": 0.0, "field_items_km2": 17.3, "field_sample_id": "MPL-0166", "field_target_scope": "all_litter", "field_scope_label": "Весь мусор (не только пластик)"}, "event_id": "S3:HE419_MarLitter_transect29", "quality_dir": "S3_HE419_MarLitter_transect29", "quality_decision": "reject", "quality_reason": "cloud", "quality_reject_reason": "cloud", "quality_reject_label": "облачность в полосе наблюдения", "layer_kind": "candidate_strip", "layer_label": "Снимок-кандидат: полоса обследования", "detector_verdict": "insufficient_data", "suspicious_pixels": null, "detection_reason": "связь снимка с полевым измерением не подтверждена: Облачность над точкой, Дрейф за разрыв времени больше допуска (несинхронно)"}}, {"type": "Feature", "id": "Z-S3_HE419_MarLitter_transect30", "geometry": {"type": "Polygon", "coordinates": [[[7.936316, 54.502241], [7.936294, 54.502229], [7.936268, 54.502219], [7.93624, 54.502213], [7.93621, 54.50221], [7.93618, 54.502211], [7.936151, 54.502215], [7.936123, 54.502222], [7.936098, 54.502232], [7.936078, 54.502245], [7.936062, 54.50226], [7.936051, 54.502277], [7.936046, 54.502294], [7.936047, 54.502312], [7.936054, 54.502329], [7.936066, 54.502345], [7.936084, 54.502359], [8.091284, 54.605259], [8.091306, 54.605271], [8.091332, 54.605281], [8.09136, 54.605287], [8.09139, 54.60529], [8.09142, 54.605289], [8.09145, 54.605285], [8.091478, 54.605278], [8.091502, 54.605268], [8.091523, 54.605255], [8.091539, 54.60524], [8.09155, 54.605223], [8.091554, 54.605206], [8.091553, 54.605188], [8.091547, 54.605171], [8.091534, 54.605155], [8.091516, 54.605141], [7.936316, 54.502241]]]}, "properties": {"kind": "model_estimate", "zone_id": "Z-S3_HE419_MarLitter_transect30", "scene_id": "LC08_L2SP_196022_20140412_02_T1", "mission": "Landsat-8", "datetime": "2014-04-12T10:20:44Z", "status": "insufficient_data", "detection_status": "insufficient_data", "status_reason": "связь снимка с полевым измерением не подтверждена: Дрейф за разрыв времени больше допуска (несинхронно), Ошибка обработки снимка; снимок непригоден: cloud(qa_suspect:red_sr<0.03)", "concentration_status": "unavailable", "concentration_reason": "нет проверенного переноса «снимок → шт./км²»; спутниковая концентрация не выдаётся", "area_km2": 0.3042, "area_basis": "геодезическая площадь полигона geometry (WGS84): полоса наблюдения вокруг трансекты/точки", "strip_area_raster_km2": 0.9504, "pair_status": "rejected", "pair_reject_reasons": ["DRIFT_TOO_LARGE", "PROCESSING_ERROR"], "pair_sync": "unsynchronized", "pair_drift_shift_km": 15.28, "pair_tolerance_km": 3.005, "pair_time_known": true, "pair_dt_uncertainty_h": 0, "registry": {"status": "reject", "stage": "drift", "status_without_drift": "reject"}, "detected_area_m2": null, "detector": {"prob_mean": null, "prob_max": null, "n_pixels": null, "n_objects": null, "threshold": null}, "field_estimate": null, "concentration": null, "quality": {"valid_fraction": 0.0, "cloud_fraction": 1.0, "glint_fraction": null, "land_fraction": 0.0, "coverage": 0.8068, "glint_b11_median": null, "flags": ["pair_rejected_drift"]}, "support": {"n_linked_samples": 9, "linked_sample_ids": ["MPL-0153", "MPL-0154", "MPL-0155", "MPL-0156", "MPL-0157", "MPL-0158", "MPL-0159", "MPL-0160", "MPL-0161"], "nearest_measurement_km": 0.0, "field_items_km2": 195.1, "field_sample_id": "MPL-0158", "field_target_scope": "all_litter", "field_scope_label": "Весь мусор (не только пластик)"}, "event_id": "S3:HE419_MarLitter_transect30", "quality_dir": "S3_HE419_MarLitter_transect30", "quality_decision": "reject", "quality_reason": "cloud(qa_suspect:red_sr<0.03)", "quality_reject_reason": "cloud(qa_suspect:red_sr<0.03)", "quality_reject_label": "cloud(qa_suspect:red_sr<0.03)", "layer_kind": "candidate_strip", "layer_label": "Снимок-кандидат: полоса обследования", "detector_verdict": "insufficient_data", "suspicious_pixels": null, "detection_reason": "связь снимка с полевым измерением не подтверждена: Дрейф за разрыв времени больше допуска (несинхронно), Ошибка обработки снимка"}}, {"type": "Feature", "id": "Z-S3_HE419_MarLitter_transect32", "geometry": {"type": "Polygon", "coordinates": [[[8.177093, 54.41569], [8.177123, 54.415689], [8.177152, 54.415685], [8.17718, 54.415677], [8.177204, 54.415666], [8.177224, 54.415653], [8.177239, 54.415638], [8.17725, 54.415622], [8.177254, 54.415604], [8.177252, 54.415587], [8.177245, 54.41557], [8.177232, 54.415554], [8.177214, 54.415539], [8.177191, 54.415528], [8.177166, 54.415519], [8.177137, 54.415513], [8.177107, 54.41551], [7.712508, 54.40201], [7.712478, 54.402011], [7.712449, 54.402015], [7.712421, 54.402023], [7.712397, 54.402033], [7.712377, 54.402046], [7.712361, 54.402061], [7.712351, 54.402078], [7.712346, 54.402095], [7.712348, 54.402113], [7.712355, 54.40213], [7.712368, 54.402146], [7.712385, 54.40216], [7.712408, 54.402172], [7.712434, 54.402181], [7.712462, 54.402187], [7.712492, 54.40219], [8.177093, 54.41569]]]}, "properties": {"kind": "model_estimate", "zone_id": "Z-S3_HE419_MarLitter_transect32", "scene_id": "LC08_L2SP_196022_20140412_02_T1", "mission": "Landsat-8", "datetime": "2014-04-12T10:20:44Z", "status": "insufficient_data", "detection_status": "insufficient_data", "status_reason": "связь снимка с полевым измерением не подтверждена: Дрейф за разрыв времени больше допуска (несинхронно), Нет данных/край снимка; снимок непригоден: снимок не покрывает полосу", "concentration_status": "unavailable", "concentration_reason": "нет проверенного переноса «снимок → шт./км²»; спутниковая концентрация не выдаётся", "area_km2": 0.6062, "area_basis": "геодезическая площадь полигона geometry (WGS84): полоса наблюдения вокруг трансекты/точки", "strip_area_raster_km2": 1.5408, "pair_status": "rejected", "pair_reject_reasons": ["DRIFT_TOO_LARGE", "NODATA"], "pair_sync": "unsynchronized", "pair_drift_shift_km": 11.36, "pair_tolerance_km": 3.005, "pair_time_known": true, "pair_dt_uncertainty_h": 0, "registry": {"status": "reject", "stage": "drift", "status_without_drift": "reject"}, "detected_area_m2": null, "detector": {"prob_mean": null, "prob_max": null, "n_pixels": null, "n_objects": null, "threshold": null}, "field_estimate": null, "concentration": null, "quality": {"valid_fraction": 0.0, "cloud_fraction": 1.0, "glint_fraction": null, "land_fraction": 0.0, "coverage": 0.5695, "glint_b11_median": null, "flags": ["pair_rejected_drift"]}, "support": {"n_linked_samples": 7, "linked_sample_ids": ["MPL-0143", "MPL-0144", "MPL-0145", "MPL-0146", "MPL-0147", "MPL-0150", "MPL-0151"], "nearest_measurement_km": 0.0, "field_items_km2": 19.7, "field_sample_id": "MPL-0146", "field_target_scope": "all_litter", "field_scope_label": "Весь мусор (не только пластик)"}, "event_id": "S3:HE419_MarLitter_transect32", "quality_dir": "S3_HE419_MarLitter_transect32", "quality_decision": "reject", "quality_reason": "insufficient_coverage", "quality_reject_reason": "insufficient_coverage", "quality_reject_label": "снимок не покрывает полосу", "layer_kind": "candidate_strip", "layer_label": "Снимок-кандидат: полоса обследования", "detector_verdict": "insufficient_data", "suspicious_pixels": null, "detection_reason": "связь снимка с полевым измерением не подтверждена: Дрейф за разрыв времени больше допуска (несинхронно), Нет данных/край снимка"}}, {"type": "Feature", "id": "Z-S3_HE460_MarLitter_transect01", "geometry": {"type": "Polygon", "coordinates": [[[7.719003, 54.306642], [7.719157, 54.306798], [7.919878, 54.238178], [7.919722, 54.238022], [7.719003, 54.306642]]]}, "properties": {"kind": "model_estimate", "zone_id": "Z-S3_HE460_MarLitter_transect01", "scene_id": "S2A_MSIL2A_20160408T104022_R008_T32UMF_20210211T022918", "mission": "Sentinel-2", "datetime": "2016-04-08T10:40:22Z", "status": "insufficient_data", "detection_status": "insufficient_data", "status_reason": "связь снимка с полевым измерением не подтверждена: Облачность над точкой, Дрейф за разрыв времени больше допуска (несинхронно); снимок непригоден: облачность в полосе наблюдения", "concentration_status": "unavailable", "concentration_reason": "нет проверенного переноса «снимок → шт./км²»; спутниковая концентрация не выдаётся", "area_km2": 0.3042, "area_basis": "геодезическая площадь полигона geometry (WGS84): полоса наблюдения вокруг трансекты/точки", "strip_area_raster_km2": 0.5109, "pair_status": "rejected", "pair_reject_reasons": ["CLOUD", "DRIFT_TOO_LARGE"], "pair_sync": "unsynchronized", "pair_drift_shift_km": 4.3, "pair_tolerance_km": 3.005, "pair_time_known": true, "pair_dt_uncertainty_h": 0, "registry": {"status": "reject", "stage": "drift", "status_without_drift": "reject"}, "detected_area_m2": 0.0, "detector": {"prob_mean": null, "prob_max": 0.0001, "n_pixels": 0, "n_objects": 0, "threshold": 0.63}, "field_estimate": null, "concentration": null, "quality": {"valid_fraction": 0.0233, "cloud_fraction": 0.8939, "glint_fraction": 0.0769, "land_fraction": 0.0, "coverage": 1.0, "glint_b11_median": 0.0225, "flags": ["pair_rejected_drift"]}, "support": {"n_linked_samples": 5, "linked_sample_ids": ["MPL-0779", "MPL-0780", "MPL-0781", "MPL-0782", "MPL-0783"], "nearest_measurement_km": 0.0, "field_items_km2": 19.9, "field_sample_id": "MPL-0779", "field_target_scope": "all_litter", "field_scope_label": "Весь мусор (не только пластик)"}, "event_id": "S3:HE460_MarLitter_transect01", "quality_dir": "S3_HE460_MarLitter_transect01", "quality_decision": "reject", "quality_reason": "cloud", "quality_reject_reason": "cloud", "quality_reject_label": "облачность в полосе наблюдения", "layer_kind": "candidate_strip", "layer_label": "Снимок-кандидат: полоса обследования", "detector_verdict": "insufficient_data", "suspicious_pixels": {"n_objects": 0, "area_m2": 0.0, "prob_max": 0.0001, "quality_rejected": true, "note": "на снимке, отклонённом по качеству (блик/облака) — вероятно ложные, не кандидаты"}, "detection_reason": "связь снимка с полевым измерением не подтверждена: Облачность над точкой, Дрейф за разрыв времени больше допуска (несинхронно)"}}, {"type": "Feature", "id": "Z-S3_HE460_MarLitter_transect03", "geometry": {"type": "Polygon", "coordinates": [[[6.55986, 54.934061], [6.56014, 54.934139], [6.71604, 54.748339], [6.71576, 54.748261], [6.55986, 54.934061]]]}, "properties": {"kind": "model_estimate", "zone_id": "Z-S3_HE460_MarLitter_transect03", "scene_id": "S2A_MSIL2A_20160411T105022_R051_T32ULF_20210211T031140", "mission": "Sentinel-2", "datetime": "2016-04-11T10:50:22Z", "status": "insufficient_data", "detection_status": "insufficient_data", "status_reason": "связь снимка с полевым измерением не подтверждена: Дрейф за разрыв времени больше допуска (несинхронно); детектор не нашёл мусора в полосе наблюдения (порог LightGBM)", "concentration_status": "unavailable", "concentration_reason": "нет проверенного переноса «снимок → шт./км²»; спутниковая концентрация не выдаётся", "area_km2": 0.459, "area_basis": "геодезическая площадь полигона geometry (WGS84): полоса наблюдения вокруг трансекты/точки", "strip_area_raster_km2": 0.7633, "pair_status": "rejected", "pair_reject_reasons": ["DRIFT_TOO_LARGE"], "pair_sync": "unsynchronized", "pair_drift_shift_km": 13.0, "pair_tolerance_km": 3.005, "pair_time_known": true, "pair_dt_uncertainty_h": 0, "registry": {"status": "reject", "stage": "drift", "status_without_drift": "accept"}, "detected_area_m2": 0.0, "detector": {"prob_mean": null, "prob_max": 0.1535, "n_pixels": 0, "n_objects": 0, "threshold": 0.63}, "field_estimate": null, "concentration": null, "quality": {"valid_fraction": 1.0, "cloud_fraction": 0.0, "glint_fraction": 0.0, "land_fraction": 0.0, "coverage": 1.0, "glint_b11_median": 0.0046, "flags": ["pair_rejected_drift"]}, "support": {"n_linked_samples": 13, "linked_sample_ids": ["MPL-0793", "MPL-0794", "MPL-0795", "MPL-0796", "MPL-0797", "MPL-0798", "MPL-0799", "MPL-0800", "MPL-0801", "MPL-0802", "MPL-0803", "MPL-0804", "MPL-0805"], "nearest_measurement_km": 0.0, "field_items_km2": 52.3, "field_sample_id": "MPL-0798", "field_target_scope": "all_litter", "field_scope_label": "Весь мусор (не только пластик)"}, "event_id": "S3:HE460_MarLitter_transect03", "quality_dir": "S3_HE460_MarLitter_transect03", "quality_decision": "accept", "quality_reason": null, "quality_reject_reason": null, "quality_reject_label": null, "layer_kind": "candidate_strip", "layer_label": "Снимок-кандидат: полоса обследования", "detector_verdict": "not_detected", "suspicious_pixels": {"n_objects": 0, "area_m2": 0.0, "prob_max": 0.1535, "quality_rejected": false, "note": "подозрительные пиксели на снимке-кандидате, без полевого подтверждения"}, "detection_reason": "связь снимка с полевым измерением не подтверждена: Дрейф за разрыв времени больше допуска (несинхронно)"}}, {"type": "Feature", "id": "Z-S4_DOORS3_T1", "geometry": {"type": "Polygon", "coordinates": [[[29.628889, 43.608628], [29.628732, 43.607753], [29.628343, 43.606918], [29.627737, 43.606153], [29.626938, 43.605489], [29.625976, 43.604952], [29.624888, 43.604561], [29.623716, 43.604331], [29.622504, 43.604273], [29.621301, 43.604387], [29.620151, 43.604669], [29.619099, 43.605109], [29.618185, 43.60569], [29.617445, 43.606389], [29.616907, 43.60718], [29.616591, 43.608032], [29.616511, 43.608912], [29.616668, 43.609787], [29.617056, 43.610622], [29.617662, 43.611387], [29.618462, 43.61205], [29.619424, 43.612588], [29.620512, 43.612979], [29.621684, 43.613209], [29.622896, 43.613267], [29.624099, 43.613153], [29.625249, 43.612871], [29.626301, 43.61243], [29.627215, 43.61185], [29.627955, 43.61115], [29.628493, 43.61036], [29.628809, 43.609508], [29.628889, 43.608628]]]}, "properties": {"kind": "model_estimate", "zone_id": "Z-S4_DOORS3_T1", "scene_id": "S2A_35TQJ_20240602_0_L2A", "mission": "Sentinel-2", "datetime": "2024-06-02T08:58:16Z", "status": "insufficient_data", "detection_status": "insufficient_data", "status_reason": "связь снимка с полевым измерением не подтверждена: Дрейф за разрыв времени больше допуска (несинхронно), Время наблюдения неизвестно (окно по суткам); детектор не нашёл мусора в полосе наблюдения (порог LightGBM)", "concentration_status": "unavailable", "concentration_reason": "нет проверенного переноса «снимок → шт./км²»; спутниковая концентрация не выдаётся", "area_km2": 0.7801, "area_basis": "геодезическая площадь полигона geometry (WGS84): полоса наблюдения вокруг трансекты/точки", "strip_area_raster_km2": 0.8049, "pair_status": "rejected", "pair_reject_reasons": ["DRIFT_TOO_LARGE", "TIME_UNKNOWN"], "pair_sync": "unsynchronized", "pair_drift_shift_km": 10.82, "pair_tolerance_km": 3.005, "pair_time_known": false, "pair_dt_uncertainty_h": 12, "registry": {"status": "reject", "stage": "drift", "status_without_drift": "accept"}, "detected_area_m2": 0.0, "detector": {"prob_mean": null, "prob_max": 0.0, "n_pixels": 0, "n_objects": 0, "threshold": 0.63}, "field_estimate": null, "concentration": null, "quality": {"valid_fraction": 1.0, "cloud_fraction": 0.0, "glint_fraction": 0.0, "land_fraction": 0.0, "coverage": 1.0, "glint_b11_median": 0.0046, "flags": ["pair_rejected_drift"]}, "support": {"n_linked_samples": 1, "linked_sample_ids": ["MPL-0904"], "nearest_measurement_km": 0.0, "field_items_km2": 192.54, "field_sample_id": "MPL-0904", "field_target_scope": "all_litter", "field_scope_label": "Весь мусор (не только пластик)"}, "event_id": "S4:DOORS3:T1", "quality_dir": "S4_DOORS3_T1", "quality_decision": "accept", "quality_reason": null, "quality_reject_reason": null, "quality_reject_label": null, "layer_kind": "candidate_strip", "layer_label": "Снимок-кандидат: полоса обследования", "detector_verdict": "not_detected", "suspicious_pixels": {"n_objects": 0, "area_m2": 0.0, "prob_max": 0.0, "quality_rejected": false, "note": "подозрительные пиксели на снимке-кандидате, без полевого подтверждения"}, "detection_reason": "связь снимка с полевым измерением не подтверждена: Дрейф за разрыв времени больше допуска (несинхронно), Время наблюдения неизвестно (окно по суткам)"}}, {"type": "Feature", "id": "Z-S4_DOORS3_T11", "geometry": {"type": "Polygon", "coordinates": [[[36.68414, 42.492903], [36.684055, 42.492023], [36.68374, 42.491172], [36.683207, 42.490383], [36.682476, 42.489686], [36.681576, 42.489107], [36.68054, 42.48867], [36.679409, 42.488391], [36.678226, 42.488281], [36.677037, 42.488343], [36.675887, 42.488576], [36.674821, 42.488971], [36.673879, 42.489511], [36.673098, 42.490178], [36.672507, 42.490944], [36.67213, 42.491781], [36.67198, 42.492657], [36.672065, 42.493537], [36.672379, 42.494388], [36.672912, 42.495177], [36.673643, 42.495874], [36.674544, 42.496452], [36.675579, 42.49689], [36.676711, 42.497169], [36.677893, 42.497279], [36.679083, 42.497217], [36.680233, 42.496984], [36.681299, 42.496589], [36.682241, 42.496049], [36.683023, 42.495382], [36.683613, 42.494616], [36.68399, 42.493778], [36.68414, 42.492903]]]}, "properties": {"kind": "model_estimate", "zone_id": "Z-S4_DOORS3_T11", "scene_id": "S2A_36TYN_20240603_0_L2A", "mission": "Sentinel-2", "datetime": "2024-06-03T08:28:24Z", "status": "insufficient_data", "detection_status": "insufficient_data", "status_reason": "связь снимка с полевым измерением не подтверждена: Дрейф за разрыв времени больше допуска (несинхронно), Время наблюдения неизвестно (окно по суткам); детектор не нашёл мусора в полосе наблюдения (порог LightGBM)", "concentration_status": "unavailable", "concentration_reason": "нет проверенного переноса «снимок → шт./км²»; спутниковая концентрация не выдаётся", "area_km2": 0.7803, "area_basis": "геодезическая площадь полигона geometry (WGS84): полоса наблюдения вокруг трансекты/точки", "strip_area_raster_km2": 0.8042, "pair_status": "rejected", "pair_reject_reasons": ["DRIFT_TOO_LARGE", "TIME_UNKNOWN"], "pair_sync": "unsynchronized", "pair_drift_shift_km": 28.46, "pair_tolerance_km": 3.005, "pair_time_known": false, "pair_dt_uncertainty_h": 12, "registry": {"status": "reject", "stage": "drift", "status_without_drift": "accept"}, "detected_area_m2": 0.0, "detector": {"prob_mean": null, "prob_max": 0.0, "n_pixels": 0, "n_objects": 0, "threshold": 0.63}, "field_estimate": null, "concentration": null, "quality": {"valid_fraction": 0.9956, "cloud_fraction": 0.0, "glint_fraction": 0.0044, "land_fraction": 0.0, "coverage": 1.0, "glint_b11_median": 0.0084, "flags": ["pair_rejected_drift"]}, "support": {"n_linked_samples": 1, "linked_sample_ids": ["MPL-0919"], "nearest_measurement_km": 0.0, "field_items_km2": 62.52, "field_sample_id": "MPL-0919", "field_target_scope": "all_litter", "field_scope_label": "Весь мусор (не только пластик)"}, "event_id": "S4:DOORS3:T11", "quality_dir": "S4_DOORS3_T11", "quality_decision": "accept", "quality_reason": null, "quality_reject_reason": null, "quality_reject_label": null, "layer_kind": "candidate_strip", "layer_label": "Снимок-кандидат: полоса обследования", "detector_verdict": "not_detected", "suspicious_pixels": {"n_objects": 0, "area_m2": 0.0, "prob_max": 0.0, "quality_rejected": false, "note": "подозрительные пиксели на снимке-кандидате, без полевого подтверждения"}, "detection_reason": "связь снимка с полевым измерением не подтверждена: Дрейф за разрыв времени больше допуска (несинхронно), Время наблюдения неизвестно (окно по суткам)"}}, {"type": "Feature", "id": "Z-S4_DOORS3_T12", "geometry": {"type": "Polygon", "coordinates": [[[37.043016, 42.437324], [37.042926, 42.436444], [37.042607, 42.435594], [37.04207, 42.434806], [37.041335, 42.434111], [37.040432, 42.433536], [37.039395, 42.433102], [37.038263, 42.432826], [37.037081, 42.43272], [37.035893, 42.432786], [37.034745, 42.433022], [37.033682, 42.43342], [37.032743, 42.433964], [37.031967, 42.434633], [37.031381, 42.435401], [37.031009, 42.43624], [37.030864, 42.437116], [37.030954, 42.437996], [37.031273, 42.438846], [37.03181, 42.439634], [37.032544, 42.440329], [37.033448, 42.440904], [37.034485, 42.441338], [37.035617, 42.441614], [37.036799, 42.44172], [37.037988, 42.441654], [37.039135, 42.441418], [37.040199, 42.44102], [37.041137, 42.440476], [37.041914, 42.439807], [37.042499, 42.439038], [37.042872, 42.4382], [37.043016, 42.437324]]]}, "properties": {"kind": "model_estimate", "zone_id": "Z-S4_DOORS3_T12", "scene_id": "S2A_37TCH_20240603_0_L2A", "mission": "Sentinel-2", "datetime": "2024-06-03T08:28:19Z", "status": "insufficient_data", "detection_status": "insufficient_data", "status_reason": "связь снимка с полевым измерением не подтверждена: Дрейф за разрыв времени больше допуска (несинхронно), Солнечные блики, Время наблюдения неизвестно (окно по суткам); снимок непригоден: солнечные блики", "concentration_status": "unavailable", "concentration_reason": "нет проверенного переноса «снимок → шт./км²»; спутниковая концентрация не выдаётся", "area_km2": 0.7805, "area_basis": "геодезическая площадь полигона geometry (WGS84): полоса наблюдения вокруг трансекты/точки", "strip_area_raster_km2": 0.8041, "pair_status": "rejected", "pair_reject_reasons": ["DRIFT_TOO_LARGE", "GLINT", "TIME_UNKNOWN"], "pair_sync": "unsynchronized", "pair_drift_shift_km": 28.46, "pair_tolerance_km": 3.005, "pair_time_known": false, "pair_dt_uncertainty_h": 12, "registry": {"status": "reject", "stage": "drift", "status_without_drift": "reject"}, "detected_area_m2": 0.0, "detector": {"prob_mean": null, "prob_max": 0.0001, "n_pixels": 0, "n_objects": 0, "threshold": 0.63}, "field_estimate": null, "concentration": null, "quality": {"valid_fraction": 0.0, "cloud_fraction": 0.0, "glint_fraction": 1.0, "land_fraction": 0.0, "coverage": 1.0, "glint_b11_median": 0.0143, "flags": ["pair_rejected_drift"]}, "support": {"n_linked_samples": 1, "linked_sample_ids": ["MPL-0918"], "nearest_measurement_km": 0.0, "field_items_km2": 48.97, "field_sample_id": "MPL-0918", "field_target_scope": "all_litter", "field_scope_label": "Весь мусор (не только пластик)"}, "event_id": "S4:DOORS3:T12", "quality_dir": "S4_DOORS3_T12", "quality_decision": "reject", "quality_reason": "glint", "quality_reject_reason": "glint", "quality_reject_label": "солнечные блики", "layer_kind": "candidate_strip", "layer_label": "Снимок-кандидат: полоса обследования", "detector_verdict": "insufficient_data", "suspicious_pixels": {"n_objects": 0, "area_m2": 0.0, "prob_max": 0.0001, "quality_rejected": true, "note": "на снимке, отклонённом по качеству (блик/облака) — вероятно ложные, не кандидаты"}, "detection_reason": "связь снимка с полевым измерением не подтверждена: Дрейф за разрыв времени больше допуска (несинхронно), Солнечные блики, Время наблюдения неизвестно (окно по суткам)"}}, {"type": "Feature", "id": "Z-S4_DOORS3_T13", "geometry": {"type": "Polygon", "coordinates": [[[37.336062, 42.390228], [37.335969, 42.389348], [37.335645, 42.388499], [37.335105, 42.387713], [37.334368, 42.38702], [37.333462, 42.386447], [37.332424, 42.386015], [37.331292, 42.385743], [37.330109, 42.385639], [37.328923, 42.385708], [37.327777, 42.385948], [37.326716, 42.386348], [37.325781, 42.386895], [37.325008, 42.387566], [37.324426, 42.388336], [37.324058, 42.389175], [37.323918, 42.390051], [37.324011, 42.390931], [37.324334, 42.391781], [37.324875, 42.392567], [37.325612, 42.39326], [37.326517, 42.393833], [37.327556, 42.394265], [37.328688, 42.394537], [37.329871, 42.394641], [37.331058, 42.394572], [37.332204, 42.394332], [37.333264, 42.393932], [37.334199, 42.393385], [37.334973, 42.392714], [37.335554, 42.391944], [37.335922, 42.391105], [37.336062, 42.390228]]]}, "properties": {"kind": "model_estimate", "zone_id": "Z-S4_DOORS3_T13", "scene_id": "S2A_37TCH_20240603_0_L2A", "mission": "Sentinel-2", "datetime": "2024-06-03T08:28:19Z", "status": "insufficient_data", "detection_status": "insufficient_data", "status_reason": "связь снимка с полевым измерением не подтверждена: Дрейф за разрыв времени больше допуска (несинхронно), Солнечные блики, Время наблюдения неизвестно (окно по суткам); снимок непригоден: солнечные блики", "concentration_status": "unavailable", "concentration_reason": "нет проверенного переноса «снимок → шт./км²»; спутниковая концентрация не выдаётся", "area_km2": 0.7806, "area_basis": "геодезическая площадь полигона geometry (WGS84): полоса наблюдения вокруг трансекты/точки", "strip_area_raster_km2": 0.8045, "pair_status": "rejected", "pair_reject_reasons": ["DRIFT_TOO_LARGE", "GLINT", "TIME_UNKNOWN"], "pair_sync": "unsynchronized", "pair_drift_shift_km": 28.46, "pair_tolerance_km": 3.005, "pair_time_known": false, "pair_dt_uncertainty_h": 12, "registry": {"status": "reject", "stage": "drift", "status_without_drift": "reject"}, "detected_area_m2": 0.0, "detector": {"prob_mean": null, "prob_max": 0.0001, "n_pixels": 0, "n_objects": 0, "threshold": 0.63}, "field_estimate": null, "concentration": null, "quality": {"valid_fraction": 0.0, "cloud_fraction": 0.0, "glint_fraction": 1.0, "land_fraction": 0.0, "coverage": 1.0, "glint_b11_median": 0.0155, "flags": ["pair_rejected_drift"]}, "support": {"n_linked_samples": 1, "linked_sample_ids": ["MPL-0917"], "nearest_measurement_km": 0.0, "field_items_km2": 263.57, "field_sample_id": "MPL-0917", "field_target_scope": "all_litter", "field_scope_label": "Весь мусор (не только пластик)"}, "event_id": "S4:DOORS3:T13", "quality_dir": "S4_DOORS3_T13", "quality_decision": "reject", "quality_reason": "glint", "quality_reject_reason": "glint", "quality_reject_label": "солнечные блики", "layer_kind": "candidate_strip", "layer_label": "Снимок-кандидат: полоса обследования", "detector_verdict": "insufficient_data", "suspicious_pixels": {"n_objects": 0, "area_m2": 0.0, "prob_max": 0.0001, "quality_rejected": true, "note": "на снимке, отклонённом по качеству (блик/облака) — вероятно ложные, не кандидаты"}, "detection_reason": "связь снимка с полевым измерением не подтверждена: Дрейф за разрыв времени больше допуска (несинхронно), Солнечные блики, Время наблюдения неизвестно (окно по суткам)"}}, {"type": "Feature", "id": "Z-S4_DOORS3_T14", "geometry": {"type": "Polygon", "coordinates": [[[37.672008, 42.33858], [37.67191, 42.337701], [37.671582, 42.336852], [37.671038, 42.336068], [37.670298, 42.335377], [37.66939, 42.334806], [37.66835, 42.334378], [37.667217, 42.334108], [37.666035, 42.334008], [37.66485, 42.334081], [37.663706, 42.334324], [37.662648, 42.334728], [37.661717, 42.335277], [37.660948, 42.33595], [37.66037, 42.336722], [37.660007, 42.337562], [37.659872, 42.338439], [37.65997, 42.339319], [37.660297, 42.340167], [37.660842, 42.340952], [37.661582, 42.341643], [37.662489, 42.342214], [37.66353, 42.342642], [37.664663, 42.342912], [37.665845, 42.343012], [37.667031, 42.342939], [37.668174, 42.342696], [37.669232, 42.342292], [37.670164, 42.341743], [37.670933, 42.34107], [37.67151, 42.340298], [37.671873, 42.339457], [37.672008, 42.33858]]]}, "properties": {"kind": "model_estimate", "zone_id": "Z-S4_DOORS3_T14", "scene_id": "S2A_37TCG_20240603_0_L2A", "mission": "Sentinel-2", "datetime": "2024-06-03T08:28:34Z", "status": "insufficient_data", "detection_status": "insufficient_data", "status_reason": "связь снимка с полевым измерением не подтверждена: Дрейф за разрыв времени больше допуска (несинхронно), Солнечные блики, Время наблюдения неизвестно (окно по суткам); снимок непригоден: солнечные блики", "concentration_status": "unavailable", "concentration_reason": "нет проверенного переноса «снимок → шт./км²»; спутниковая концентрация не выдаётся", "area_km2": 0.7807, "area_basis": "геодезическая площадь полигона geometry (WGS84): полоса наблюдения вокруг трансекты/точки", "strip_area_raster_km2": 0.8045, "pair_status": "rejected", "pair_reject_reasons": ["DRIFT_TOO_LARGE", "GLINT", "TIME_UNKNOWN"], "pair_sync": "unsynchronized", "pair_drift_shift_km": 28.45, "pair_tolerance_km": 3.005, "pair_time_known": false, "pair_dt_uncertainty_h": 12, "registry": {"status": "reject", "stage": "drift", "status_without_drift": "reject"}, "detected_area_m2": 0.0, "detector": {"prob_mean": null, "prob_max": 0.0002, "n_pixels": 0, "n_objects": 0, "threshold": 0.63}, "field_estimate": null, "concentration": null, "quality": {"valid_fraction": 0.0, "cloud_fraction": 0.0, "glint_fraction": 1.0, "land_fraction": 0.0, "coverage": 1.0, "glint_b11_median": 0.0236, "flags": ["pair_rejected_drift"]}, "support": {"n_linked_samples": 1, "linked_sample_ids": ["MPL-0916"], "nearest_measurement_km": 0.0, "field_items_km2": 89.39, "field_sample_id": "MPL-0916", "field_target_scope": "all_litter", "field_scope_label": "Весь мусор (не только пластик)"}, "event_id": "S4:DOORS3:T14", "quality_dir": "S4_DOORS3_T14", "quality_decision": "reject", "quality_reason": "glint", "quality_reject_reason": "glint", "quality_reject_label": "солнечные блики", "layer_kind": "candidate_strip", "layer_label": "Снимок-кандидат: полоса обследования", "detector_verdict": "insufficient_data", "suspicious_pixels": {"n_objects": 0, "area_m2": 0.0, "prob_max": 0.0002, "quality_rejected": true, "note": "на снимке, отклонённом по качеству (блик/облака) — вероятно ложные, не кандидаты"}, "detection_reason": "связь снимка с полевым измерением не подтверждена: Дрейф за разрыв времени больше допуска (несинхронно), Солнечные блики, Время наблюдения неизвестно (окно по суткам)"}}, {"type": "Feature", "id": "Z-S4_DOORS3_T15", "geometry": {"type": "Polygon", "coordinates": [[[37.885805, 42.301949], [37.885704, 42.30107], [37.885374, 42.300222], [37.884827, 42.299438], [37.884085, 42.298748], [37.883176, 42.298179], [37.882135, 42.297753], [37.881001, 42.297486], [37.87982, 42.297388], [37.878635, 42.297463], [37.877493, 42.297708], [37.876437, 42.298114], [37.875508, 42.298664], [37.874742, 42.299339], [37.874167, 42.300112], [37.873807, 42.300953], [37.873675, 42.301831], [37.873776, 42.30271], [37.874106, 42.303558], [37.874653, 42.304342], [37.875395, 42.305032], [37.876304, 42.3056], [37.877345, 42.306027], [37.878478, 42.306294], [37.87966, 42.306392], [37.880845, 42.306317], [37.881987, 42.306072], [37.883043, 42.305666], [37.883972, 42.305115], [37.884739, 42.30444], [37.885313, 42.303668], [37.885673, 42.302826], [37.885805, 42.301949]]]}, "properties": {"kind": "model_estimate", "zone_id": "Z-S4_DOORS3_T15", "scene_id": "S2A_37TDG_20240603_0_L2A", "mission": "Sentinel-2", "datetime": "2024-06-03T08:28:30Z", "status": "insufficient_data", "detection_status": "insufficient_data", "status_reason": "связь снимка с полевым измерением не подтверждена: Дрейф за разрыв времени больше допуска (несинхронно), Солнечные блики, Время наблюдения неизвестно (окно по суткам); снимок непригоден: солнечные блики", "concentration_status": "unavailable", "concentration_reason": "нет проверенного переноса «снимок → шт./км²»; спутниковая концентрация не выдаётся", "area_km2": 0.7808, "area_basis": "геодезическая площадь полигона geometry (WGS84): полоса наблюдения вокруг трансекты/точки", "strip_area_raster_km2": 0.8046, "pair_status": "rejected", "pair_reject_reasons": ["DRIFT_TOO_LARGE", "GLINT", "TIME_UNKNOWN"], "pair_sync": "unsynchronized", "pair_drift_shift_km": 28.45, "pair_tolerance_km": 3.005, "pair_time_known": false, "pair_dt_uncertainty_h": 12, "registry": {"status": "reject", "stage": "drift", "status_without_drift": "reject"}, "detected_area_m2": 0.0, "detector": {"prob_mean": null, "prob_max": 0.0001, "n_pixels": 0, "n_objects": 0, "threshold": 0.63}, "field_estimate": null, "concentration": null, "quality": {"valid_fraction": 0.0, "cloud_fraction": 0.0, "glint_fraction": 1.0, "land_fraction": 0.0, "coverage": 1.0, "glint_b11_median": 0.0178, "flags": ["pair_rejected_drift"]}, "support": {"n_linked_samples": 1, "linked_sample_ids": ["MPL-0915"], "nearest_measurement_km": 0.0, "field_items_km2": 127.14, "field_sample_id": "MPL-0915", "field_target_scope": "all_litter", "field_scope_label": "Весь мусор (не только пластик)"}, "event_id": "S4:DOORS3:T15", "quality_dir": "S4_DOORS3_T15", "quality_decision": "reject", "quality_reason": "glint", "quality_reject_reason": "glint", "quality_reject_label": "солнечные блики", "layer_kind": "candidate_strip", "layer_label": "Снимок-кандидат: полоса обследования", "detector_verdict": "insufficient_data", "suspicious_pixels": {"n_objects": 0, "area_m2": 0.0, "prob_max": 0.0001, "quality_rejected": true, "note": "на снимке, отклонённом по качеству (блик/облака) — вероятно ложные, не кандидаты"}, "detection_reason": "связь снимка с полевым измерением не подтверждена: Дрейф за разрыв времени больше допуска (несинхронно), Солнечные блики, Время наблюдения неизвестно (окно по суткам)"}}, {"type": "Feature", "id": "Z-S4_DOORS3_T16", "geometry": {"type": "Polygon", "coordinates": [[[38.143202, 42.261665], [38.143097, 42.260786], [38.142764, 42.259939], [38.142214, 42.259156], [38.141469, 42.258468], [38.140558, 42.257901], [38.139516, 42.257478], [38.138383, 42.257213], [38.137201, 42.257117], [38.136018, 42.257195], [38.134877, 42.257443], [38.133824, 42.257851], [38.132897, 42.258404], [38.132134, 42.25908], [38.131563, 42.259855], [38.131207, 42.260697], [38.131078, 42.261574], [38.131183, 42.262454], [38.131516, 42.263301], [38.132066, 42.264083], [38.13281, 42.264771], [38.133721, 42.265338], [38.134763, 42.265762], [38.135897, 42.266027], [38.137079, 42.266123], [38.138262, 42.266045], [38.139403, 42.265797], [38.140457, 42.265389], [38.141383, 42.264836], [38.142146, 42.264159], [38.142717, 42.263385], [38.143073, 42.262543], [38.143202, 42.261665]]]}, "properties": {"kind": "model_estimate", "zone_id": "Z-S4_DOORS3_T16", "scene_id": "S2A_37TDG_20240603_0_L2A", "mission": "Sentinel-2", "datetime": "2024-06-03T08:28:30Z", "status": "insufficient_data", "detection_status": "insufficient_data", "status_reason": "связь снимка с полевым измерением не подтверждена: Дрейф за разрыв времени больше допуска (несинхронно), Солнечные блики, Время наблюдения неизвестно (окно по суткам); снимок непригоден: солнечные блики", "concentration_status": "unavailable", "concentration_reason": "нет проверенного переноса «снимок → шт./км²»; спутниковая концентрация не выдаётся", "area_km2": 0.7809, "area_basis": "геодезическая площадь полигона geometry (WGS84): полоса наблюдения вокруг трансекты/точки", "strip_area_raster_km2": 0.8045, "pair_status": "rejected", "pair_reject_reasons": ["DRIFT_TOO_LARGE", "GLINT", "TIME_UNKNOWN"], "pair_sync": "unsynchronized", "pair_drift_shift_km": 28.45, "pair_tolerance_km": 3.005, "pair_time_known": false, "pair_dt_uncertainty_h": 12, "registry": {"status": "reject", "stage": "drift", "status_without_drift": "reject"}, "detected_area_m2": 0.0, "detector": {"prob_mean": null, "prob_max": 0.0, "n_pixels": 0, "n_objects": 0, "threshold": 0.63}, "field_estimate": null, "concentration": null, "quality": {"valid_fraction": 0.074, "cloud_fraction": 0.0, "glint_fraction": 0.926, "land_fraction": 0.0, "coverage": 1.0, "glint_b11_median": 0.0123, "flags": ["pair_rejected_drift"]}, "support": {"n_linked_samples": 1, "linked_sample_ids": ["MPL-0914"], "nearest_measurement_km": 0.0, "field_items_km2": 64.91, "field_sample_id": "MPL-0914", "field_target_scope": "all_litter", "field_scope_label": "Весь мусор (не только пластик)"}, "event_id": "S4:DOORS3:T16", "quality_dir": "S4_DOORS3_T16", "quality_decision": "reject", "quality_reason": "glint", "quality_reject_reason": "glint", "quality_reject_label": "солнечные блики", "layer_kind": "candidate_strip", "layer_label": "Снимок-кандидат: полоса обследования", "detector_verdict": "insufficient_data", "suspicious_pixels": {"n_objects": 0, "area_m2": 0.0, "prob_max": 0.0, "quality_rejected": true, "note": "на снимке, отклонённом по качеству (блик/облака) — вероятно ложные, не кандидаты"}, "detection_reason": "связь снимка с полевым измерением не подтверждена: Дрейф за разрыв времени больше допуска (несинхронно), Солнечные блики, Время наблюдения неизвестно (окно по суткам)"}}, {"type": "Feature", "id": "Z-S4_DOORS3_T17", "geometry": {"type": "Polygon", "coordinates": [[[38.421888, 42.218091], [38.421779, 42.217212], [38.421442, 42.216365], [38.42089, 42.215584], [38.420143, 42.214898], [38.41923, 42.214333], [38.418186, 42.213912], [38.417052, 42.21365], [38.415871, 42.213557], [38.414689, 42.213638], [38.41355, 42.213888], [38.412499, 42.214299], [38.411576, 42.214854], [38.410816, 42.215533], [38.410249, 42.216308], [38.409897, 42.217151], [38.409772, 42.218029], [38.40988, 42.218908], [38.410217, 42.219755], [38.41077, 42.220536], [38.411517, 42.221222], [38.41243, 42.221787], [38.413473, 42.222208], [38.414607, 42.22247], [38.415788, 42.222563], [38.416971, 42.222482], [38.41811, 42.222232], [38.419161, 42.221821], [38.420084, 42.221266], [38.420844, 42.220587], [38.421411, 42.219812], [38.421763, 42.218969], [38.421888, 42.218091]]]}, "properties": {"kind": "model_estimate", "zone_id": "Z-S4_DOORS3_T17", "scene_id": "S2A_37TDG_20240603_0_L2A", "mission": "Sentinel-2", "datetime": "2024-06-03T08:28:30Z", "status": "insufficient_data", "detection_status": "insufficient_data", "status_reason": "связь снимка с полевым измерением не подтверждена: Дрейф за разрыв времени больше допуска (несинхронно), Время наблюдения неизвестно (окно по суткам); детектор не нашёл мусора в полосе наблюдения (порог LightGBM)", "concentration_status": "unavailable", "concentration_reason": "нет проверенного переноса «снимок → шт./км²»; спутниковая концентрация не выдаётся", "area_km2": 0.7809, "area_basis": "геодезическая площадь полигона geometry (WGS84): полоса наблюдения вокруг трансекты/точки", "strip_area_raster_km2": 0.8046, "pair_status": "rejected", "pair_reject_reasons": ["DRIFT_TOO_LARGE", "TIME_UNKNOWN"], "pair_sync": "unsynchronized", "pair_drift_shift_km": 28.45, "pair_tolerance_km": 3.005, "pair_time_known": false, "pair_dt_uncertainty_h": 12, "registry": {"status": "reject", "stage": "drift", "status_without_drift": "accept"}, "detected_area_m2": 0.0, "detector": {"prob_mean": null, "prob_max": 0.0, "n_pixels": 0, "n_objects": 0, "threshold": 0.63}, "field_estimate": null, "concentration": null, "quality": {"valid_fraction": 1.0, "cloud_fraction": 0.0, "glint_fraction": 0.0, "land_fraction": 0.0, "coverage": 1.0, "glint_b11_median": 0.0045, "flags": ["pair_rejected_drift"]}, "support": {"n_linked_samples": 1, "linked_sample_ids": ["MPL-0913"], "nearest_measurement_km": 0.0, "field_items_km2": 89.61, "field_sample_id": "MPL-0913", "field_target_scope": "all_litter", "field_scope_label": "Весь мусор (не только пластик)"}, "event_id": "S4:DOORS3:T17", "quality_dir": "S4_DOORS3_T17", "quality_decision": "accept", "quality_reason": null, "quality_reject_reason": null, "quality_reject_label": null, "layer_kind": "candidate_strip", "layer_label": "Снимок-кандидат: полоса обследования", "detector_verdict": "not_detected", "suspicious_pixels": {"n_objects": 0, "area_m2": 0.0, "prob_max": 0.0, "quality_rejected": false, "note": "подозрительные пиксели на снимке-кандидате, без полевого подтверждения"}, "detection_reason": "связь снимка с полевым измерением не подтверждена: Дрейф за разрыв времени больше допуска (несинхронно), Время наблюдения неизвестно (окно по суткам)"}}, {"type": "Feature", "id": "Z-S4_DOORS3_T18", "geometry": {"type": "Polygon", "coordinates": [[[41.075015, 41.802001], [41.074871, 41.801126], [41.074501, 41.800287], [41.07392, 41.799519], [41.07315, 41.798851], [41.072221, 41.798308], [41.071168, 41.797911], [41.070031, 41.797675], [41.068855, 41.797609], [41.067685, 41.797717], [41.066565, 41.797993], [41.065538, 41.798428], [41.064645, 41.799004], [41.063919, 41.7997], [41.063388, 41.800488], [41.063073, 41.801338], [41.062985, 41.802218], [41.063129, 41.803094], [41.063498, 41.803932], [41.064079, 41.8047], [41.064849, 41.805369], [41.065779, 41.805912], [41.066832, 41.806309], [41.067969, 41.806545], [41.069145, 41.806611], [41.070316, 41.806503], [41.071436, 41.806226], [41.072462, 41.805792], [41.073356, 41.805216], [41.074082, 41.80452], [41.074613, 41.803732], [41.074928, 41.802882], [41.075015, 41.802001]]]}, "properties": {"kind": "model_estimate", "zone_id": "Z-S4_DOORS3_T18", "scene_id": "S2B_37TFG_20240605_0_L2A", "mission": "Sentinel-2", "datetime": "2024-06-05T08:18:24Z", "status": "insufficient_data", "detection_status": "insufficient_data", "status_reason": "связь снимка с полевым измерением не подтверждена: Дрейф за разрыв времени больше допуска (несинхронно), Время наблюдения неизвестно (окно по суткам); детектор не нашёл мусора в полосе наблюдения (порог LightGBM)", "concentration_status": "unavailable", "concentration_reason": "нет проверенного переноса «снимок → шт./км²»; спутниковая концентрация не выдаётся", "area_km2": 0.7804, "area_basis": "геодезическая площадь полигона geometry (WGS84): полоса наблюдения вокруг трансекты/точки", "strip_area_raster_km2": 0.8044, "pair_status": "rejected", "pair_reject_reasons": ["DRIFT_TOO_LARGE", "TIME_UNKNOWN"], "pair_sync": "unsynchronized", "pair_drift_shift_km": 11.3, "pair_tolerance_km": 3.005, "pair_time_known": false, "pair_dt_uncertainty_h": 12, "registry": {"status": "reject", "stage": "drift", "status_without_drift": "accept"}, "detected_area_m2": 0.0, "detector": {"prob_mean": null, "prob_max": 0.0, "n_pixels": 0, "n_objects": 0, "threshold": 0.63}, "field_estimate": null, "concentration": null, "quality": {"valid_fraction": 1.0, "cloud_fraction": 0.0, "glint_fraction": 0.0, "land_fraction": 0.0, "coverage": 1.0, "glint_b11_median": 0.0021, "flags": ["pair_rejected_drift"]}, "support": {"n_linked_samples": 1, "linked_sample_ids": ["MPL-0921"], "nearest_measurement_km": 0.0, "field_items_km2": 348.74, "field_sample_id": "MPL-0921", "field_target_scope": "all_litter", "field_scope_label": "Весь мусор (не только пластик)"}, "event_id": "S4:DOORS3:T18", "quality_dir": "S4_DOORS3_T18", "quality_decision": "accept", "quality_reason": null, "quality_reject_reason": null, "quality_reject_label": null, "layer_kind": "candidate_strip", "layer_label": "Снимок-кандидат: полоса обследования", "detector_verdict": "not_detected", "suspicious_pixels": {"n_objects": 0, "area_m2": 0.0, "prob_max": 0.0, "quality_rejected": false, "note": "подозрительные пиксели на снимке-кандидате, без полевого подтверждения"}, "detection_reason": "связь снимка с полевым измерением не подтверждена: Дрейф за разрыв времени больше допуска (несинхронно), Время наблюдения неизвестно (окно по суткам)"}}, {"type": "Feature", "id": "Z-S4_DOORS3_T19", "geometry": {"type": "Polygon", "coordinates": [[[41.253772, 41.774672], [41.253625, 41.773797], [41.253254, 41.772959], [41.252671, 41.772192], [41.251899, 41.771525], [41.250969, 41.770983], [41.249915, 41.770587], [41.248779, 41.770353], [41.247603, 41.77029], [41.246433, 41.770399], [41.245314, 41.770678], [41.24429, 41.771114], [41.243398, 41.771691], [41.242674, 41.772388], [41.242146, 41.773176], [41.241833, 41.774027], [41.241748, 41.774908], [41.241895, 41.775783], [41.242266, 41.776621], [41.242849, 41.777388], [41.24362, 41.778055], [41.244551, 41.778597], [41.245605, 41.778993], [41.246741, 41.779227], [41.247917, 41.77929], [41.249087, 41.779181], [41.250206, 41.778902], [41.251231, 41.778466], [41.252122, 41.777889], [41.252846, 41.777192], [41.253374, 41.776403], [41.253687, 41.775552], [41.253772, 41.774672]]]}, "properties": {"kind": "model_estimate", "zone_id": "Z-S4_DOORS3_T19", "scene_id": "S2B_37TFG_20240605_0_L2A", "mission": "Sentinel-2", "datetime": "2024-06-05T08:18:24Z", "status": "insufficient_data", "detection_status": "insufficient_data", "status_reason": "связь снимка с полевым измерением не подтверждена: Дрейф за разрыв времени больше допуска (несинхронно), Время наблюдения неизвестно (окно по суткам); детектор не нашёл мусора в полосе наблюдения (порог LightGBM)", "concentration_status": "unavailable", "concentration_reason": "нет проверенного переноса «снимок → шт./км²»; спутниковая концентрация не выдаётся", "area_km2": 0.7803, "area_basis": "геодезическая площадь полигона geometry (WGS84): полоса наблюдения вокруг трансекты/точки", "strip_area_raster_km2": 0.8043, "pair_status": "rejected", "pair_reject_reasons": ["DRIFT_TOO_LARGE", "TIME_UNKNOWN"], "pair_sync": "unsynchronized", "pair_drift_shift_km": 11.3, "pair_tolerance_km": 3.005, "pair_time_known": false, "pair_dt_uncertainty_h": 12, "registry": {"status": "reject", "stage": "drift", "status_without_drift": "accept"}, "detected_area_m2": 0.0, "detector": {"prob_mean": null, "prob_max": 0.0, "n_pixels": 0, "n_objects": 0, "threshold": 0.63}, "field_estimate": null, "concentration": null, "quality": {"valid_fraction": 1.0, "cloud_fraction": 0.0, "glint_fraction": 0.0, "land_fraction": 0.0, "coverage": 1.0, "glint_b11_median": 0.0026, "flags": ["pair_rejected_drift"]}, "support": {"n_linked_samples": 1, "linked_sample_ids": ["MPL-0920"], "nearest_measurement_km": 0.0, "field_items_km2": 544.69, "field_sample_id": "MPL-0920", "field_target_scope": "all_litter", "field_scope_label": "Весь мусор (не только пластик)"}, "event_id": "S4:DOORS3:T19", "quality_dir": "S4_DOORS3_T19", "quality_decision": "accept", "quality_reason": null, "quality_reject_reason": null, "quality_reject_label": null, "layer_kind": "candidate_strip", "layer_label": "Снимок-кандидат: полоса обследования", "detector_verdict": "not_detected", "suspicious_pixels": {"n_objects": 0, "area_m2": 0.0, "prob_max": 0.0, "quality_rejected": false, "note": "подозрительные пиксели на снимке-кандидате, без полевого подтверждения"}, "detection_reason": "связь снимка с полевым измерением не подтверждена: Дрейф за разрыв времени больше допуска (несинхронно), Время наблюдения неизвестно (окно по суткам)"}}, {"type": "Feature", "id": "Z-S4_DOORS3_T2", "geometry": {"type": "Polygon", "coordinates": [[[29.836742, 43.551237], [29.836582, 43.550362], [29.836191, 43.549528], [29.835583, 43.548764], [29.834782, 43.548102], [29.833819, 43.547566], [29.832731, 43.547177], [29.831559, 43.54695], [29.830349, 43.546893], [29.829147, 43.54701], [29.828, 43.547294], [29.82695, 43.547736], [29.82604, 43.548319], [29.825303, 43.549019], [29.824768, 43.549811], [29.824455, 43.550663], [29.824378, 43.551543], [29.824537, 43.552417], [29.824929, 43.553252], [29.825536, 43.554015], [29.826337, 43.554678], [29.8273, 43.555214], [29.828389, 43.555603], [29.82956, 43.55583], [29.830771, 43.555887], [29.831973, 43.55577], [29.833121, 43.555486], [29.83417, 43.555044], [29.835081, 43.554461], [29.835818, 43.553761], [29.836353, 43.552969], [29.836665, 43.552117], [29.836742, 43.551237]]]}, "properties": {"kind": "model_estimate", "zone_id": "Z-S4_DOORS3_T2", "scene_id": "S2A_35TQJ_20240602_0_L2A", "mission": "Sentinel-2", "datetime": "2024-06-02T08:58:16Z", "status": "insufficient_data", "detection_status": "insufficient_data", "status_reason": "связь снимка с полевым измерением не подтверждена: Дрейф за разрыв времени больше допуска (несинхронно), Время наблюдения неизвестно (окно по суткам); детектор не нашёл мусора в полосе наблюдения (порог LightGBM)", "concentration_status": "unavailable", "concentration_reason": "нет проверенного переноса «снимок → шт./км²»; спутниковая концентрация не выдаётся", "area_km2": 0.78, "area_basis": "геодезическая площадь полигона geometry (WGS84): полоса наблюдения вокруг трансекты/точки", "strip_area_raster_km2": 0.8042, "pair_status": "rejected", "pair_reject_reasons": ["DRIFT_TOO_LARGE", "TIME_UNKNOWN"], "pair_sync": "unsynchronized", "pair_drift_shift_km": 10.82, "pair_tolerance_km": 3.005, "pair_time_known": false, "pair_dt_uncertainty_h": 12, "registry": {"status": "reject", "stage": "drift", "status_without_drift": "accept"}, "detected_area_m2": 0.0, "detector": {"prob_mean": null, "prob_max": 0.0, "n_pixels": 0, "n_objects": 0, "threshold": 0.63}, "field_estimate": null, "concentration": null, "quality": {"valid_fraction": 1.0, "cloud_fraction": 0.0, "glint_fraction": 0.0, "land_fraction": 0.0, "coverage": 1.0, "glint_b11_median": 0.0055, "flags": ["pair_rejected_drift"]}, "support": {"n_linked_samples": 1, "linked_sample_ids": ["MPL-0903"], "nearest_measurement_km": 0.0, "field_items_km2": 439.84, "field_sample_id": "MPL-0903", "field_target_scope": "all_litter", "field_scope_label": "Весь мусор (не только пластик)"}, "event_id": "S4:DOORS3:T2", "quality_dir": "S4_DOORS3_T2", "quality_decision": "accept", "quality_reason": null, "quality_reject_reason": null, "quality_reject_label": null, "layer_kind": "candidate_strip", "layer_label": "Снимок-кандидат: полоса обследования", "detector_verdict": "not_detected", "suspicious_pixels": {"n_objects": 0, "area_m2": 0.0, "prob_max": 0.0, "quality_rejected": false, "note": "подозрительные пиксели на снимке-кандидате, без полевого подтверждения"}, "detection_reason": "связь снимка с полевым измерением не подтверждена: Дрейф за разрыв времени больше допуска (несинхронно), Время наблюдения неизвестно (окно по суткам)"}}, {"type": "Feature", "id": "Z-S4_DOORS3_T20", "geometry": {"type": "Polygon", "coordinates": [[[41.641975, 41.722782], [41.641824, 41.721907], [41.641447, 41.721071], [41.640861, 41.720306], [41.640086, 41.719641], [41.639153, 41.719103], [41.638098, 41.718711], [41.636961, 41.718481], [41.635786, 41.718421], [41.634618, 41.718535], [41.633502, 41.718816], [41.632481, 41.719256], [41.631594, 41.719836], [41.630875, 41.720535], [41.630352, 41.721326], [41.630045, 41.722177], [41.629965, 41.723058], [41.630116, 41.723933], [41.630492, 41.724769], [41.631079, 41.725534], [41.631854, 41.726199], [41.632787, 41.726737], [41.633842, 41.727129], [41.634979, 41.727359], [41.636154, 41.727419], [41.637322, 41.727305], [41.638438, 41.727024], [41.639459, 41.726584], [41.640346, 41.726004], [41.641065, 41.725305], [41.641588, 41.724514], [41.641896, 41.723662], [41.641975, 41.722782]]]}, "properties": {"kind": "model_estimate", "zone_id": "Z-S4_DOORS3_T20", "scene_id": "S2A_37TGG_20240607_0_L2A", "mission": "Sentinel-2", "datetime": "2024-06-07T08:08:27Z", "status": "insufficient_data", "detection_status": "insufficient_data", "status_reason": "связь снимка с полевым измерением не подтверждена: Дрейф за разрыв времени больше допуска (несинхронно), Солнечные блики, Время наблюдения неизвестно (окно по суткам); снимок непригоден: солнечные блики", "concentration_status": "unavailable", "concentration_reason": "нет проверенного переноса «снимок → шт./км²»; спутниковая концентрация не выдаётся", "area_km2": 0.7801, "area_basis": "геодезическая площадь полигона geometry (WGS84): полоса наблюдения вокруг трансекты/точки", "strip_area_raster_km2": 0.804, "pair_status": "rejected", "pair_reject_reasons": ["DRIFT_TOO_LARGE", "GLINT", "TIME_UNKNOWN"], "pair_sync": "unsynchronized", "pair_drift_shift_km": 11.42, "pair_tolerance_km": 3.005, "pair_time_known": false, "pair_dt_uncertainty_h": 12, "registry": {"status": "reject", "stage": "drift", "status_without_drift": "reject"}, "detected_area_m2": 0.0, "detector": {"prob_mean": null, "prob_max": 0.0002, "n_pixels": 0, "n_objects": 0, "threshold": 0.63}, "field_estimate": null, "concentration": null, "quality": {"valid_fraction": 0.0, "cloud_fraction": 0.0432, "glint_fraction": 0.9568, "land_fraction": 0.0, "coverage": 1.0, "glint_b11_median": 0.0182, "flags": ["pair_rejected_drift"]}, "support": {"n_linked_samples": 1, "linked_sample_ids": ["MPL-0923"], "nearest_measurement_km": 0.0, "field_items_km2": 224.92, "field_sample_id": "MPL-0923", "field_target_scope": "all_litter", "field_scope_label": "Весь мусор (не только пластик)"}, "event_id": "S4:DOORS3:T20", "quality_dir": "S4_DOORS3_T20", "quality_decision": "reject", "quality_reason": "glint", "quality_reject_reason": "glint", "quality_reject_label": "солнечные блики", "layer_kind": "candidate_strip", "layer_label": "Снимок-кандидат: полоса обследования", "detector_verdict": "insufficient_data", "suspicious_pixels": {"n_objects": 0, "area_m2": 0.0, "prob_max": 0.0002, "quality_rejected": true, "note": "на снимке, отклонённом по качеству (блик/облака) — вероятно ложные, не кандидаты"}, "detection_reason": "связь снимка с полевым измерением не подтверждена: Дрейф за разрыв времени больше допуска (несинхронно), Солнечные блики, Время наблюдения неизвестно (окно по суткам)"}}, {"type": "Feature", "id": "Z-S4_DOORS3_T21", "geometry": {"type": "Polygon", "coordinates": [[[41.555104, 41.595367], [41.554954, 41.594492], [41.554579, 41.593655], [41.553995, 41.59289], [41.553223, 41.592224], [41.552292, 41.591685], [41.55124, 41.591292], [41.550105, 41.591061], [41.548933, 41.591001], [41.547767, 41.591113], [41.546653, 41.591394], [41.545633, 41.591833], [41.544747, 41.592413], [41.544028, 41.593111], [41.543505, 41.593901], [41.543197, 41.594753], [41.543116, 41.595633], [41.543266, 41.596508], [41.54364, 41.597344], [41.544225, 41.59811], [41.544997, 41.598775], [41.545927, 41.599315], [41.54698, 41.599708], [41.548114, 41.599939], [41.549287, 41.599999], [41.550453, 41.599887], [41.551567, 41.599606], [41.552587, 41.599167], [41.553474, 41.598587], [41.554192, 41.597889], [41.554715, 41.597099], [41.555023, 41.596247], [41.555104, 41.595367]]]}, "properties": {"kind": "model_estimate", "zone_id": "Z-S4_DOORS3_T21", "scene_id": "S2A_37TGG_20240607_0_L2A", "mission": "Sentinel-2", "datetime": "2024-06-07T08:08:27Z", "status": "insufficient_data", "detection_status": "insufficient_data", "status_reason": "связь снимка с полевым измерением не подтверждена: Дрейф за разрыв времени больше допуска (несинхронно), Солнечные блики, Время наблюдения неизвестно (окно по суткам); снимок непригоден: солнечные блики", "concentration_status": "unavailable", "concentration_reason": "нет проверенного переноса «снимок → шт./км²»; спутниковая концентрация не выдаётся", "area_km2": 0.7801, "area_basis": "геодезическая площадь полигона geometry (WGS84): полоса наблюдения вокруг трансекты/точки", "strip_area_raster_km2": 0.804, "pair_status": "rejected", "pair_reject_reasons": ["DRIFT_TOO_LARGE", "GLINT", "TIME_UNKNOWN"], "pair_sync": "unsynchronized", "pair_drift_shift_km": 11.42, "pair_tolerance_km": 3.005, "pair_time_known": false, "pair_dt_uncertainty_h": 12, "registry": {"status": "reject", "stage": "drift", "status_without_drift": "reject"}, "detected_area_m2": 0.0, "detector": {"prob_mean": null, "prob_max": 0.0006, "n_pixels": 0, "n_objects": 0, "threshold": 0.63}, "field_estimate": null, "concentration": null, "quality": {"valid_fraction": 0.0, "cloud_fraction": 0.0, "glint_fraction": 1.0, "land_fraction": 0.0, "coverage": 1.0, "glint_b11_median": 0.0165, "flags": ["pair_rejected_drift"]}, "support": {"n_linked_samples": 1, "linked_sample_ids": ["MPL-0922"], "nearest_measurement_km": 0.0, "field_items_km2": 67.34, "field_sample_id": "MPL-0922", "field_target_scope": "all_litter", "field_scope_label": "Весь мусор (не только пластик)"}, "event_id": "S4:DOORS3:T21", "quality_dir": "S4_DOORS3_T21", "quality_decision": "reject", "quality_reason": "glint", "quality_reject_reason": "glint", "quality_reject_label": "солнечные блики", "layer_kind": "candidate_strip", "layer_label": "Снимок-кандидат: полоса обследования", "detector_verdict": "insufficient_data", "suspicious_pixels": {"n_objects": 0, "area_m2": 0.0, "prob_max": 0.0006, "quality_rejected": true, "note": "на снимке, отклонённом по качеству (блик/облака) — вероятно ложные, не кандидаты"}, "detection_reason": "связь снимка с полевым измерением не подтверждена: Дрейф за разрыв времени больше допуска (несинхронно), Солнечные блики, Время наблюдения неизвестно (окно по суткам)"}}, {"type": "Feature", "id": "Z-S4_DOORS3_T25", "geometry": {"type": "Polygon", "coordinates": [[[41.683954, 42.036859], [41.683801, 42.035984], [41.683422, 42.035148], [41.682832, 42.034384], [41.682053, 42.033719], [41.681115, 42.033181], [41.680054, 42.03279], [41.678912, 42.032561], [41.677731, 42.032502], [41.676558, 42.032616], [41.675436, 42.032898], [41.674411, 42.033338], [41.67352, 42.033919], [41.672798, 42.034618], [41.672273, 42.035409], [41.671965, 42.03626], [41.671886, 42.037141], [41.672038, 42.038016], [41.672417, 42.038851], [41.673007, 42.039616], [41.673787, 42.04028], [41.674725, 42.040818], [41.675785, 42.04121], [41.676928, 42.041439], [41.678109, 42.041498], [41.679283, 42.041384], [41.680404, 42.041102], [41.68143, 42.040662], [41.682321, 42.040081], [41.683042, 42.039382], [41.683567, 42.038591], [41.683875, 42.037739], [41.683954, 42.036859]]]}, "properties": {"kind": "model_estimate", "zone_id": "Z-S4_DOORS3_T25", "scene_id": "S2B_37TGG_20240612_0_L2A", "mission": "Sentinel-2", "datetime": "2024-06-12T08:08:25Z", "status": "insufficient_data", "detection_status": "insufficient_data", "status_reason": "связь снимка с полевым измерением не подтверждена: Дрейф за разрыв времени больше допуска (несинхронно), Время наблюдения неизвестно (окно по суткам); детектор не нашёл мусора в полосе наблюдения (порог LightGBM)", "concentration_status": "unavailable", "concentration_reason": "нет проверенного переноса «снимок → шт./км²»; спутниковая концентрация не выдаётся", "area_km2": 0.78, "area_basis": "геодезическая площадь полигона geometry (WGS84): полоса наблюдения вокруг трансекты/точки", "strip_area_raster_km2": 0.8041, "pair_status": "rejected", "pair_reject_reasons": ["DRIFT_TOO_LARGE", "TIME_UNKNOWN"], "pair_sync": "unsynchronized", "pair_drift_shift_km": 23.14, "pair_tolerance_km": 3.005, "pair_time_known": false, "pair_dt_uncertainty_h": 12, "registry": {"status": "reject", "stage": "drift", "status_without_drift": "accept"}, "detected_area_m2": 0.0, "detector": {"prob_mean": null, "prob_max": 0.0, "n_pixels": 0, "n_objects": 0, "threshold": 0.63}, "field_estimate": null, "concentration": null, "quality": {"valid_fraction": 1.0, "cloud_fraction": 0.0, "glint_fraction": 0.0, "land_fraction": 0.0, "coverage": 1.0, "glint_b11_median": 0.0046, "flags": ["pair_rejected_drift"]}, "support": {"n_linked_samples": 1, "linked_sample_ids": ["MPL-0927"], "nearest_measurement_km": 0.0, "field_items_km2": 976.01, "field_sample_id": "MPL-0927", "field_target_scope": "all_litter", "field_scope_label": "Весь мусор (не только пластик)"}, "event_id": "S4:DOORS3:T25", "quality_dir": "S4_DOORS3_T25", "quality_decision": "accept", "quality_reason": null, "quality_reject_reason": null, "quality_reject_label": null, "layer_kind": "candidate_strip", "layer_label": "Снимок-кандидат: полоса обследования", "detector_verdict": "not_detected", "suspicious_pixels": {"n_objects": 0, "area_m2": 0.0, "prob_max": 0.0, "quality_rejected": false, "note": "подозрительные пиксели на снимке-кандидате, без полевого подтверждения"}, "detection_reason": "связь снимка с полевым измерением не подтверждена: Дрейф за разрыв времени больше допуска (несинхронно), Время наблюдения неизвестно (окно по суткам)"}}, {"type": "Feature", "id": "Z-S4_DOORS3_T3", "geometry": {"type": "Polygon", "coordinates": [[[32.457397, 43.130029], [32.457287, 43.12915], [32.456944, 43.128304], [32.456383, 43.127523], [32.455625, 43.126837], [32.454698, 43.126273], [32.453639, 43.125852], [32.452489, 43.12559], [32.45129, 43.125498], [32.45009, 43.125579], [32.448935, 43.125829], [32.447869, 43.12624], [32.446932, 43.126796], [32.446161, 43.127474], [32.445586, 43.12825], [32.445229, 43.129093], [32.445103, 43.12997], [32.445213, 43.130849], [32.445555, 43.131696], [32.446116, 43.132477], [32.446875, 43.133163], [32.447801, 43.133727], [32.44886, 43.134148], [32.450011, 43.13441], [32.45121, 43.134502], [32.45241, 43.134421], [32.453565, 43.134171], [32.454632, 43.13376], [32.455568, 43.133204], [32.456339, 43.132526], [32.456914, 43.13175], [32.457271, 43.130907], [32.457397, 43.130029]]]}, "properties": {"kind": "model_estimate", "zone_id": "Z-S4_DOORS3_T3", "scene_id": "S2A_36TVN_20240602_0_L2A", "mission": "Sentinel-2", "datetime": "2024-06-02T08:58:21Z", "status": "insufficient_data", "detection_status": "insufficient_data", "status_reason": "связь снимка с полевым измерением не подтверждена: Дрейф за разрыв времени больше допуска (несинхронно), Солнечные блики, Время наблюдения неизвестно (окно по суткам); снимок непригоден: солнечные блики", "concentration_status": "unavailable", "concentration_reason": "нет проверенного переноса «снимок → шт./км²»; спутниковая концентрация не выдаётся", "area_km2": 0.7809, "area_basis": "геодезическая площадь полигона geometry (WGS84): полоса наблюдения вокруг трансекты/точки", "strip_area_raster_km2": 0.8046, "pair_status": "rejected", "pair_reject_reasons": ["DRIFT_TOO_LARGE", "GLINT", "TIME_UNKNOWN"], "pair_sync": "unsynchronized", "pair_drift_shift_km": 28.1, "pair_tolerance_km": 3.005, "pair_time_known": false, "pair_dt_uncertainty_h": 12, "registry": {"status": "reject", "stage": "drift", "status_without_drift": "reject"}, "detected_area_m2": 0.0, "detector": {"prob_mean": null, "prob_max": null, "n_pixels": 0, "n_objects": 0, "threshold": 0.63}, "field_estimate": null, "concentration": null, "quality": {"valid_fraction": 0.0, "cloud_fraction": 0.0, "glint_fraction": 1.0, "land_fraction": 0.0, "coverage": 1.0, "glint_b11_median": null, "flags": ["pair_rejected_drift"]}, "support": {"n_linked_samples": 1, "linked_sample_ids": ["MPL-0912"], "nearest_measurement_km": 0.0, "field_items_km2": 686.06, "field_sample_id": "MPL-0912", "field_target_scope": "all_litter", "field_scope_label": "Весь мусор (не только пластик)"}, "event_id": "S4:DOORS3:T3", "quality_dir": "S4_DOORS3_T3", "quality_decision": "reject", "quality_reason": "glint", "quality_reject_reason": "glint", "quality_reject_label": "солнечные блики", "layer_kind": "candidate_strip", "layer_label": "Снимок-кандидат: полоса обследования", "detector_verdict": "insufficient_data", "suspicious_pixels": {"n_objects": 0, "area_m2": 0.0, "prob_max": null, "quality_rejected": true, "note": "на снимке, отклонённом по качеству (блик/облака) — вероятно ложные, не кандидаты"}, "detection_reason": "связь снимка с полевым измерением не подтверждена: Дрейф за разрыв времени больше допуска (несинхронно), Солнечные блики, Время наблюдения неизвестно (окно по суткам)"}}, {"type": "Feature", "id": "Z-S4_DOORS3_T30", "geometry": {"type": "Polygon", "coordinates": [[[31.514845, 42.519149], [31.514749, 42.518269], [31.514423, 42.51742], [31.513879, 42.516635], [31.513138, 42.515943], [31.512229, 42.515371], [31.511187, 42.514942], [31.510052, 42.514671], [31.508867, 42.514569], [31.507678, 42.51464], [31.50653, 42.514881], [31.505469, 42.515283], [31.504533, 42.515831], [31.50376, 42.516503], [31.503179, 42.517274], [31.502813, 42.518114], [31.502675, 42.518991], [31.502771, 42.51987], [31.503097, 42.520719], [31.503641, 42.521505], [31.504381, 42.522197], [31.50529, 42.522769], [31.506332, 42.523198], [31.507468, 42.523469], [31.508653, 42.523571], [31.509842, 42.5235], [31.51099, 42.523259], [31.512052, 42.522857], [31.512987, 42.522309], [31.51376, 42.521637], [31.514341, 42.520866], [31.514707, 42.520026], [31.514845, 42.519149]]]}, "properties": {"kind": "model_estimate", "zone_id": "Z-S4_DOORS3_T30", "scene_id": "S2B_36TUN_20240617_0_L2A", "mission": "Sentinel-2", "datetime": "2024-06-17T08:58:25Z", "status": "insufficient_data", "detection_status": "insufficient_data", "status_reason": "связь снимка с полевым измерением не подтверждена: Дрейф за разрыв времени больше допуска (несинхронно), Время наблюдения неизвестно (окно по суткам); детектор не нашёл мусора в полосе наблюдения (порог LightGBM)", "concentration_status": "unavailable", "concentration_reason": "нет проверенного переноса «снимок → шт./км²»; спутниковая концентрация не выдаётся", "area_km2": 0.7807, "area_basis": "геодезическая площадь полигона geometry (WGS84): полоса наблюдения вокруг трансекты/точки", "strip_area_raster_km2": 0.8045, "pair_status": "rejected", "pair_reject_reasons": ["DRIFT_TOO_LARGE", "TIME_UNKNOWN"], "pair_sync": "unsynchronized", "pair_drift_shift_km": 10.82, "pair_tolerance_km": 3.005, "pair_time_known": false, "pair_dt_uncertainty_h": 12, "registry": {"status": "reject", "stage": "drift", "status_without_drift": "accept"}, "detected_area_m2": 0.0, "detector": {"prob_mean": null, "prob_max": 0.0004, "n_pixels": 0, "n_objects": 0, "threshold": 0.63}, "field_estimate": null, "concentration": null, "quality": {"valid_fraction": 1.0, "cloud_fraction": 0.0, "glint_fraction": 0.0, "land_fraction": 0.0, "coverage": 1.0, "glint_b11_median": 0.0014, "flags": ["pair_rejected_drift"]}, "support": {"n_linked_samples": 1, "linked_sample_ids": ["MPL-0934"], "nearest_measurement_km": 0.0, "field_items_km2": 587.41, "field_sample_id": "MPL-0934", "field_target_scope": "all_litter", "field_scope_label": "Весь мусор (не только пластик)"}, "event_id": "S4:DOORS3:T30", "quality_dir": "S4_DOORS3_T30", "quality_decision": "accept", "quality_reason": null, "quality_reject_reason": null, "quality_reject_label": null, "layer_kind": "candidate_strip", "layer_label": "Снимок-кандидат: полоса обследования", "detector_verdict": "not_detected", "suspicious_pixels": {"n_objects": 0, "area_m2": 0.0, "prob_max": 0.0004, "quality_rejected": false, "note": "подозрительные пиксели на снимке-кандидате, без полевого подтверждения"}, "detection_reason": "связь снимка с полевым измерением не подтверждена: Дрейф за разрыв времени больше допуска (несинхронно), Время наблюдения неизвестно (окно по суткам)"}}, {"type": "Feature", "id": "Z-S4_DOORS3_T31", "geometry": {"type": "Polygon", "coordinates": [[[31.270352, 42.491832], [31.270259, 42.490952], [31.269936, 42.490103], [31.269396, 42.489316], [31.268658, 42.488622], [31.267752, 42.488049], [31.266712, 42.487617], [31.265578, 42.487344], [31.264394, 42.487239], [31.263206, 42.487308], [31.262058, 42.487546], [31.260995, 42.487946], [31.260058, 42.488492], [31.259283, 42.489163], [31.258699, 42.489932], [31.25833, 42.490771], [31.258188, 42.491648], [31.258281, 42.492528], [31.258604, 42.493377], [31.259144, 42.494164], [31.259881, 42.494857], [31.260788, 42.495431], [31.261827, 42.495863], [31.262961, 42.496136], [31.264145, 42.496241], [31.265334, 42.496172], [31.266482, 42.495934], [31.267545, 42.495533], [31.268483, 42.494988], [31.269258, 42.494317], [31.269841, 42.493547], [31.270211, 42.492708], [31.270352, 42.491832]]]}, "properties": {"kind": "model_estimate", "zone_id": "Z-S4_DOORS3_T31", "scene_id": "S2B_36TUN_20240617_0_L2A", "mission": "Sentinel-2", "datetime": "2024-06-17T08:58:25Z", "status": "insufficient_data", "detection_status": "insufficient_data", "status_reason": "связь снимка с полевым измерением не подтверждена: Дрейф за разрыв времени больше допуска (несинхронно), Время наблюдения неизвестно (окно по суткам); детектор не нашёл мусора в полосе наблюдения (порог LightGBM)", "concentration_status": "unavailable", "concentration_reason": "нет проверенного переноса «снимок → шт./км²»; спутниковая концентрация не выдаётся", "area_km2": 0.7806, "area_basis": "геодезическая площадь полигона geometry (WGS84): полоса наблюдения вокруг трансекты/точки", "strip_area_raster_km2": 0.8041, "pair_status": "rejected", "pair_reject_reasons": ["DRIFT_TOO_LARGE", "TIME_UNKNOWN"], "pair_sync": "unsynchronized", "pair_drift_shift_km": 10.82, "pair_tolerance_km": 3.005, "pair_time_known": false, "pair_dt_uncertainty_h": 12, "registry": {"status": "reject", "stage": "drift", "status_without_drift": "accept"}, "detected_area_m2": 0.0, "detector": {"prob_mean": null, "prob_max": 0.0, "n_pixels": 0, "n_objects": 0, "threshold": 0.63}, "field_estimate": null, "concentration": null, "quality": {"valid_fraction": 1.0, "cloud_fraction": 0.0, "glint_fraction": 0.0, "land_fraction": 0.0, "coverage": 1.0, "glint_b11_median": 0.0013, "flags": ["pair_rejected_drift"]}, "support": {"n_linked_samples": 1, "linked_sample_ids": ["MPL-0933"], "nearest_measurement_km": 0.0, "field_items_km2": 345.29, "field_sample_id": "MPL-0933", "field_target_scope": "all_litter", "field_scope_label": "Весь мусор (не только пластик)"}, "event_id": "S4:DOORS3:T31", "quality_dir": "S4_DOORS3_T31", "quality_decision": "accept", "quality_reason": null, "quality_reject_reason": null, "quality_reject_label": null, "layer_kind": "candidate_strip", "layer_label": "Снимок-кандидат: полоса обследования", "detector_verdict": "not_detected", "suspicious_pixels": {"n_objects": 0, "area_m2": 0.0, "prob_max": 0.0, "quality_rejected": false, "note": "подозрительные пиксели на снимке-кандидате, без полевого подтверждения"}, "detection_reason": "связь снимка с полевым измерением не подтверждена: Дрейф за разрыв времени больше допуска (несинхронно), Время наблюдения неизвестно (окно по суткам)"}}, {"type": "Feature", "id": "Z-S4_DOORS3_T32", "geometry": {"type": "Polygon", "coordinates": [[[30.962728, 42.464758], [30.96264, 42.463878], [30.962321, 42.463028], [30.961785, 42.46224], [30.961051, 42.461545], [30.960148, 42.460968], [30.959111, 42.460534], [30.957979, 42.460258], [30.956796, 42.46015], [30.955608, 42.460215], [30.954459, 42.460451], [30.953395, 42.460848], [30.952456, 42.461391], [30.951678, 42.46206], [30.951091, 42.462828], [30.950718, 42.463666], [30.950572, 42.464541], [30.95066, 42.465421], [30.950979, 42.466272], [30.951515, 42.46706], [30.952249, 42.467755], [30.953151, 42.468331], [30.954189, 42.468766], [30.955321, 42.469042], [30.956504, 42.46915], [30.957692, 42.469085], [30.958841, 42.468849], [30.959905, 42.468452], [30.960844, 42.467909], [30.961622, 42.46724], [30.962209, 42.466472], [30.962583, 42.465634], [30.962728, 42.464758]]]}, "properties": {"kind": "model_estimate", "zone_id": "Z-S4_DOORS3_T32", "scene_id": "S2B_36TUN_20240617_0_L2A", "mission": "Sentinel-2", "datetime": "2024-06-17T08:58:25Z", "status": "insufficient_data", "detection_status": "insufficient_data", "status_reason": "связь снимка с полевым измерением не подтверждена: Дрейф за разрыв времени больше допуска (несинхронно), Время наблюдения неизвестно (окно по суткам); детектор не нашёл мусора в полосе наблюдения (порог LightGBM)", "concentration_status": "unavailable", "concentration_reason": "нет проверенного переноса «снимок → шт./км²»; спутниковая концентрация не выдаётся", "area_km2": 0.7804, "area_basis": "геодезическая площадь полигона geometry (WGS84): полоса наблюдения вокруг трансекты/точки", "strip_area_raster_km2": 0.8039, "pair_status": "rejected", "pair_reject_reasons": ["DRIFT_TOO_LARGE", "TIME_UNKNOWN"], "pair_sync": "unsynchronized", "pair_drift_shift_km": 10.82, "pair_tolerance_km": 3.005, "pair_time_known": false, "pair_dt_uncertainty_h": 12, "registry": {"status": "reject", "stage": "drift", "status_without_drift": "accept"}, "detected_area_m2": 0.0, "detector": {"prob_mean": null, "prob_max": 0.0002, "n_pixels": 0, "n_objects": 0, "threshold": 0.63}, "field_estimate": null, "concentration": null, "quality": {"valid_fraction": 1.0, "cloud_fraction": 0.0, "glint_fraction": 0.0, "land_fraction": 0.0, "coverage": 1.0, "glint_b11_median": 0.0018, "flags": ["pair_rejected_drift"]}, "support": {"n_linked_samples": 1, "linked_sample_ids": ["MPL-0932"], "nearest_measurement_km": 0.0, "field_items_km2": 198.51, "field_sample_id": "MPL-0932", "field_target_scope": "all_litter", "field_scope_label": "Весь мусор (не только пластик)"}, "event_id": "S4:DOORS3:T32", "quality_dir": "S4_DOORS3_T32", "quality_decision": "accept", "quality_reason": null, "quality_reject_reason": null, "quality_reject_label": null, "layer_kind": "candidate_strip", "layer_label": "Снимок-кандидат: полоса обследования", "detector_verdict": "not_detected", "suspicious_pixels": {"n_objects": 0, "area_m2": 0.0, "prob_max": 0.0002, "quality_rejected": false, "note": "подозрительные пиксели на снимке-кандидате, без полевого подтверждения"}, "detection_reason": "связь снимка с полевым измерением не подтверждена: Дрейф за разрыв времени больше допуска (несинхронно), Время наблюдения неизвестно (окно по суткам)"}}, {"type": "Feature", "id": "Z-S4_DOORS3_T33", "geometry": {"type": "Polygon", "coordinates": [[[29.220915, 43.35631], [29.220765, 43.355435], [29.220383, 43.354598], [29.219785, 43.353831], [29.218994, 43.353164], [29.218039, 43.352623], [29.216958, 43.352228], [29.215792, 43.351994], [29.214586, 43.351931], [29.213387, 43.352041], [29.212239, 43.352319], [29.211189, 43.352756], [29.210275, 43.353333], [29.209533, 43.35403], [29.208991, 43.354819], [29.208671, 43.355669], [29.208584, 43.356549], [29.208735, 43.357425], [29.209116, 43.358262], [29.209714, 43.359029], [29.210506, 43.359696], [29.211461, 43.360237], [29.212542, 43.360632], [29.213708, 43.360866], [29.214914, 43.360929], [29.216113, 43.360819], [29.217261, 43.360541], [29.218312, 43.360104], [29.219226, 43.359527], [29.219968, 43.35883], [29.220509, 43.358041], [29.220829, 43.35719], [29.220915, 43.35631]]]}, "properties": {"kind": "model_estimate", "zone_id": "Z-S4_DOORS3_T33", "scene_id": "LC09_L2SP_180030_20240618_02_T1", "mission": "Landsat-9", "datetime": "2024-06-18T08:44:09Z", "status": "insufficient_data", "detection_status": "insufficient_data", "status_reason": "связь снимка с полевым измерением не подтверждена: Дрейф за разрыв времени больше допуска (несинхронно), Время наблюдения неизвестно (окно по суткам); снимок непригоден: нет результата детектора", "concentration_status": "unavailable", "concentration_reason": "нет проверенного переноса «снимок → шт./км²»; спутниковая концентрация не выдаётся", "area_km2": 0.7804, "area_basis": "геодезическая площадь полигона geometry (WGS84): полоса наблюдения вокруг трансекты/точки", "strip_area_raster_km2": 0.8451, "pair_status": "rejected", "pair_reject_reasons": ["DRIFT_TOO_LARGE", "TIME_UNKNOWN"], "pair_sync": "unsynchronized", "pair_drift_shift_km": 10.99, "pair_tolerance_km": 3.005, "pair_time_known": false, "pair_dt_uncertainty_h": 12, "registry": {"status": "reject", "stage": "drift", "status_without_drift": "accept"}, "detected_area_m2": null, "detector": {"prob_mean": null, "prob_max": null, "n_pixels": null, "n_objects": null, "threshold": null}, "field_estimate": null, "concentration": null, "quality": {"valid_fraction": 1.0, "cloud_fraction": 0.0, "glint_fraction": null, "land_fraction": 0.0, "coverage": 1.0, "glint_b11_median": null, "flags": ["pair_rejected_drift"]}, "support": {"n_linked_samples": 1, "linked_sample_ids": ["MPL-0935"], "nearest_measurement_km": 0.0, "field_items_km2": 340.86, "field_sample_id": "MPL-0935", "field_target_scope": "all_litter", "field_scope_label": "Весь мусор (не только пластик)"}, "event_id": "S4:DOORS3:T33", "quality_dir": "S4_DOORS3_T33", "quality_decision": "accept", "quality_reason": null, "quality_reject_reason": null, "quality_reject_label": null, "layer_kind": "candidate_strip", "layer_label": "Снимок-кандидат: полоса обследования", "detector_verdict": "insufficient_data", "suspicious_pixels": null, "detection_reason": "связь снимка с полевым измерением не подтверждена: Дрейф за разрыв времени больше допуска (несинхронно), Время наблюдения неизвестно (окно по суткам)"}}, {"type": "Feature", "id": "Z-S4_DOORS3_T4", "geometry": {"type": "Polygon", "coordinates": [[[32.601796, 43.116142], [32.601683, 43.115263], [32.601339, 43.114417], [32.600776, 43.113637], [32.600016, 43.112952], [32.599089, 43.112388], [32.598029, 43.111969], [32.596878, 43.111708], [32.59568, 43.111618], [32.59448, 43.1117], [32.593326, 43.111952], [32.59226, 43.112364], [32.591325, 43.112921], [32.590557, 43.1136], [32.589984, 43.114377], [32.589628, 43.11522], [32.589504, 43.116098], [32.589616, 43.116977], [32.589961, 43.117823], [32.590523, 43.118603], [32.591283, 43.119288], [32.592211, 43.119851], [32.593271, 43.120271], [32.594422, 43.120532], [32.59562, 43.120622], [32.59682, 43.12054], [32.597975, 43.120288], [32.59904, 43.119876], [32.599975, 43.119319], [32.600744, 43.118639], [32.601317, 43.117863], [32.601672, 43.11702], [32.601796, 43.116142]]]}, "properties": {"kind": "model_estimate", "zone_id": "Z-S4_DOORS3_T4", "scene_id": "S2A_36TVN_20240602_0_L2A", "mission": "Sentinel-2", "datetime": "2024-06-02T08:58:21Z", "status": "insufficient_data", "detection_status": "insufficient_data", "status_reason": "связь снимка с полевым измерением не подтверждена: Дрейф за разрыв времени больше допуска (несинхронно), Солнечные блики, Время наблюдения неизвестно (окно по суткам); снимок непригоден: солнечные блики", "concentration_status": "unavailable", "concentration_reason": "нет проверенного переноса «снимок → шт./км²»; спутниковая концентрация не выдаётся", "area_km2": 0.781, "area_basis": "геодезическая площадь полигона geometry (WGS84): полоса наблюдения вокруг трансекты/точки", "strip_area_raster_km2": 0.8045, "pair_status": "rejected", "pair_reject_reasons": ["DRIFT_TOO_LARGE", "GLINT", "TIME_UNKNOWN"], "pair_sync": "unsynchronized", "pair_drift_shift_km": 28.1, "pair_tolerance_km": 3.005, "pair_time_known": false, "pair_dt_uncertainty_h": 12, "registry": {"status": "reject", "stage": "drift", "status_without_drift": "reject"}, "detected_area_m2": 0.0, "detector": {"prob_mean": null, "prob_max": null, "n_pixels": 0, "n_objects": 0, "threshold": 0.63}, "field_estimate": null, "concentration": null, "quality": {"valid_fraction": 0.0, "cloud_fraction": 0.0, "glint_fraction": 1.0, "land_fraction": 0.0, "coverage": 1.0, "glint_b11_median": null, "flags": ["pair_rejected_drift"]}, "support": {"n_linked_samples": 1, "linked_sample_ids": ["MPL-0911"], "nearest_measurement_km": 0.0, "field_items_km2": 269.64, "field_sample_id": "MPL-0911", "field_target_scope": "all_litter", "field_scope_label": "Весь мусор (не только пластик)"}, "event_id": "S4:DOORS3:T4", "quality_dir": "S4_DOORS3_T4", "quality_decision": "reject", "quality_reason": "glint", "quality_reject_reason": "glint", "quality_reject_label": "солнечные блики", "layer_kind": "candidate_strip", "layer_label": "Снимок-кандидат: полоса обследования", "detector_verdict": "insufficient_data", "suspicious_pixels": {"n_objects": 0, "area_m2": 0.0, "prob_max": null, "quality_rejected": true, "note": "на снимке, отклонённом по качеству (блик/облака) — вероятно ложные, не кандидаты"}, "detection_reason": "связь снимка с полевым измерением не подтверждена: Дрейф за разрыв времени больше допуска (несинхронно), Солнечные блики, Время наблюдения неизвестно (окно по суткам)"}}, {"type": "Feature", "id": "Z-S4_DOORS3_T5", "geometry": {"type": "Polygon", "coordinates": [[[32.839733, 43.084259], [32.839617, 43.08338], [32.83927, 43.082535], [32.838704, 43.081756], [32.837942, 43.081073], [32.837013, 43.080511], [32.835952, 43.080094], [32.8348, 43.079836], [32.833602, 43.079748], [32.832404, 43.079832], [32.831251, 43.080087], [32.830188, 43.080501], [32.829255, 43.08106], [32.828489, 43.081741], [32.82792, 43.082519], [32.827568, 43.083363], [32.827447, 43.084241], [32.827563, 43.085119], [32.82791, 43.085965], [32.828476, 43.086744], [32.829238, 43.087427], [32.830167, 43.087989], [32.831228, 43.088406], [32.83238, 43.088664], [32.833578, 43.088752], [32.834777, 43.088668], [32.83593, 43.088413], [32.836993, 43.087999], [32.837925, 43.08744], [32.838691, 43.086759], [32.839261, 43.085981], [32.839612, 43.085137], [32.839733, 43.084259]]]}, "properties": {"kind": "model_estimate", "zone_id": "Z-S4_DOORS3_T5", "scene_id": "S2A_36TVN_20240602_0_L2A", "mission": "Sentinel-2", "datetime": "2024-06-02T08:58:21Z", "status": "insufficient_data", "detection_status": "insufficient_data", "status_reason": "связь снимка с полевым измерением не подтверждена: Дрейф за разрыв времени больше допуска (несинхронно), Солнечные блики, Время наблюдения неизвестно (окно по суткам); снимок непригоден: солнечные блики", "concentration_status": "unavailable", "concentration_reason": "нет проверенного переноса «снимок → шт./км²»; спутниковая концентрация не выдаётся", "area_km2": 0.781, "area_basis": "геодезическая площадь полигона geometry (WGS84): полоса наблюдения вокруг трансекты/точки", "strip_area_raster_km2": 0.8045, "pair_status": "rejected", "pair_reject_reasons": ["DRIFT_TOO_LARGE", "GLINT", "TIME_UNKNOWN"], "pair_sync": "unsynchronized", "pair_drift_shift_km": 28.1, "pair_tolerance_km": 3.005, "pair_time_known": false, "pair_dt_uncertainty_h": 12, "registry": {"status": "reject", "stage": "drift", "status_without_drift": "reject"}, "detected_area_m2": 0.0, "detector": {"prob_mean": null, "prob_max": null, "n_pixels": 0, "n_objects": 0, "threshold": 0.63}, "field_estimate": null, "concentration": null, "quality": {"valid_fraction": 0.0, "cloud_fraction": 0.0, "glint_fraction": 1.0, "land_fraction": 0.0, "coverage": 1.0, "glint_b11_median": null, "flags": ["pair_rejected_drift"]}, "support": {"n_linked_samples": 1, "linked_sample_ids": ["MPL-0910"], "nearest_measurement_km": 0.0, "field_items_km2": 389.72, "field_sample_id": "MPL-0910", "field_target_scope": "all_litter", "field_scope_label": "Весь мусор (не только пластик)"}, "event_id": "S4:DOORS3:T5", "quality_dir": "S4_DOORS3_T5", "quality_decision": "reject", "quality_reason": "glint", "quality_reject_reason": "glint", "quality_reject_label": "солнечные блики", "layer_kind": "candidate_strip", "layer_label": "Снимок-кандидат: полоса обследования", "detector_verdict": "insufficient_data", "suspicious_pixels": {"n_objects": 0, "area_m2": 0.0, "prob_max": null, "quality_rejected": true, "note": "на снимке, отклонённом по качеству (блик/облака) — вероятно ложные, не кандидаты"}, "detection_reason": "связь снимка с полевым измерением не подтверждена: Дрейф за разрыв времени больше допуска (несинхронно), Солнечные блики, Время наблюдения неизвестно (окно по суткам)"}}, {"type": "Feature", "id": "Z-S4_DOORS3_T6", "geometry": {"type": "Polygon", "coordinates": [[[33.197577, 43.02453], [33.197456, 43.023651], [33.197104, 43.022807], [33.196535, 43.02203], [33.195769, 43.021349], [33.194838, 43.020791], [33.193775, 43.020376], [33.192623, 43.020122], [33.191426, 43.020037], [33.190229, 43.020126], [33.189079, 43.020384], [33.188019, 43.020802], [33.187091, 43.021363], [33.18633, 43.022047], [33.185765, 43.022826], [33.185419, 43.023672], [33.185303, 43.02455], [33.185424, 43.025428], [33.185776, 43.026272], [33.186345, 43.02705], [33.18711, 43.027731], [33.188042, 43.028289], [33.189104, 43.028704], [33.190256, 43.028958], [33.191454, 43.029042], [33.192651, 43.028954], [33.193802, 43.028696], [33.194861, 43.028278], [33.195789, 43.027716], [33.19655, 43.027033], [33.197115, 43.026253], [33.197462, 43.025408], [33.197577, 43.02453]]]}, "properties": {"kind": "model_estimate", "zone_id": "Z-S4_DOORS3_T6", "scene_id": "LC09_L2SP_178030_20240604_02_T2", "mission": "Landsat-9", "datetime": "2024-06-04T08:32:00Z", "status": "insufficient_data", "detection_status": "insufficient_data", "status_reason": "связь снимка с полевым измерением не подтверждена: Дрейф за разрыв времени больше допуска (несинхронно), Ошибка обработки снимка, Время наблюдения неизвестно (окно по суткам); снимок непригоден: cloud(qa_suspect:red_sr<0.03)", "concentration_status": "unavailable", "concentration_reason": "нет проверенного переноса «снимок → шт./км²»; спутниковая концентрация не выдаётся", "area_km2": 0.781, "area_basis": "геодезическая площадь полигона geometry (WGS84): полоса наблюдения вокруг трансекты/точки", "strip_area_raster_km2": 0.8496, "pair_status": "rejected", "pair_reject_reasons": ["DRIFT_TOO_LARGE", "PROCESSING_ERROR", "TIME_UNKNOWN"], "pair_sync": "unsynchronized", "pair_drift_shift_km": 23.42, "pair_tolerance_km": 3.005, "pair_time_known": false, "pair_dt_uncertainty_h": 12, "registry": {"status": "reject", "stage": "drift", "status_without_drift": "reject"}, "detected_area_m2": null, "detector": {"prob_mean": null, "prob_max": null, "n_pixels": null, "n_objects": null, "threshold": null}, "field_estimate": null, "concentration": null, "quality": {"valid_fraction": 0.0, "cloud_fraction": 1.0, "glint_fraction": null, "land_fraction": 0.0, "coverage": 1.0, "glint_b11_median": null, "flags": ["pair_rejected_drift"]}, "support": {"n_linked_samples": 1, "linked_sample_ids": ["MPL-0909"], "nearest_measurement_km": 0.0, "field_items_km2": 268.24, "field_sample_id": "MPL-0909", "field_target_scope": "all_litter", "field_scope_label": "Весь мусор (не только пластик)"}, "event_id": "S4:DOORS3:T6", "quality_dir": "S4_DOORS3_T6", "quality_decision": "reject", "quality_reason": "cloud(qa_suspect:red_sr<0.03)", "quality_reject_reason": "cloud(qa_suspect:red_sr<0.03)", "quality_reject_label": "cloud(qa_suspect:red_sr<0.03)", "layer_kind": "candidate_strip", "layer_label": "Снимок-кандидат: полоса обследования", "detector_verdict": "insufficient_data", "suspicious_pixels": null, "detection_reason": "связь снимка с полевым измерением не подтверждена: Дрейф за разрыв времени больше допуска (несинхронно), Ошибка обработки снимка, Время наблюдения неизвестно (окно по суткам)"}}, {"type": "Feature", "id": "Z-S4_DOORS3_T7", "geometry": {"type": "Polygon", "coordinates": [[[33.428493, 42.988447], [33.428369, 42.987569], [33.428014, 42.986726], [33.427442, 42.98595], [33.426675, 42.98527], [33.425741, 42.984714], [33.424678, 42.984302], [33.423526, 42.98405], [33.422329, 42.983968], [33.421133, 42.984058], [33.419985, 42.984319], [33.418927, 42.984739], [33.418002, 42.985302], [33.417244, 42.985987], [33.416682, 42.986768], [33.416339, 42.987614], [33.416227, 42.988492], [33.416351, 42.98937], [33.416705, 42.990214], [33.417277, 42.99099], [33.418045, 42.99167], [33.418978, 42.992226], [33.420041, 42.992638], [33.421194, 42.99289], [33.422391, 42.992972], [33.423587, 42.992881], [33.424736, 42.992621], [33.425793, 42.992201], [33.426719, 42.991638], [33.427477, 42.990952], [33.428038, 42.990172], [33.428381, 42.989326], [33.428493, 42.988447]]]}, "properties": {"kind": "model_estimate", "zone_id": "Z-S4_DOORS3_T7", "scene_id": "LC09_L2SP_178030_20240604_02_T2", "mission": "Landsat-9", "datetime": "2024-06-04T08:32:00Z", "status": "insufficient_data", "detection_status": "insufficient_data", "status_reason": "связь снимка с полевым измерением не подтверждена: Дрейф за разрыв времени больше допуска (несинхронно), Ошибка обработки снимка, Время наблюдения неизвестно (окно по суткам); снимок непригоден: cloud(qa_suspect:red_sr<0.03)", "concentration_status": "unavailable", "concentration_reason": "нет проверенного переноса «снимок → шт./км²»; спутниковая концентрация не выдаётся", "area_km2": 0.7809, "area_basis": "геодезическая площадь полигона geometry (WGS84): полоса наблюдения вокруг трансекты/точки", "strip_area_raster_km2": 0.8442, "pair_status": "rejected", "pair_reject_reasons": ["DRIFT_TOO_LARGE", "PROCESSING_ERROR", "TIME_UNKNOWN"], "pair_sync": "unsynchronized", "pair_drift_shift_km": 23.42, "pair_tolerance_km": 3.005, "pair_time_known": false, "pair_dt_uncertainty_h": 12, "registry": {"status": "reject", "stage": "drift", "status_without_drift": "reject"}, "detected_area_m2": null, "detector": {"prob_mean": null, "prob_max": null, "n_pixels": null, "n_objects": null, "threshold": null}, "field_estimate": null, "concentration": null, "quality": {"valid_fraction": 0.0, "cloud_fraction": 1.0, "glint_fraction": null, "land_fraction": 0.0, "coverage": 1.0, "glint_b11_median": null, "flags": ["pair_rejected_drift"]}, "support": {"n_linked_samples": 1, "linked_sample_ids": ["MPL-0908"], "nearest_measurement_km": 0.0, "field_items_km2": 131.17, "field_sample_id": "MPL-0908", "field_target_scope": "all_litter", "field_scope_label": "Весь мусор (не только пластик)"}, "event_id": "S4:DOORS3:T7", "quality_dir": "S4_DOORS3_T7", "quality_decision": "reject", "quality_reason": "cloud(qa_suspect:red_sr<0.03)", "quality_reject_reason": "cloud(qa_suspect:red_sr<0.03)", "quality_reject_label": "cloud(qa_suspect:red_sr<0.03)", "layer_kind": "candidate_strip", "layer_label": "Снимок-кандидат: полоса обследования", "detector_verdict": "insufficient_data", "suspicious_pixels": null, "detection_reason": "связь снимка с полевым измерением не подтверждена: Дрейф за разрыв времени больше допуска (несинхронно), Ошибка обработки снимка, Время наблюдения неизвестно (окно по суткам)"}}, {"type": "Feature", "id": "Z-S4_DOORS3_T8", "geometry": {"type": "Polygon", "coordinates": [[[33.594741, 42.973438], [33.594615, 42.972561], [33.594258, 42.971718], [33.593684, 42.970942], [33.592915, 42.970264], [33.591981, 42.969709], [33.590917, 42.969298], [33.589764, 42.969048], [33.588567, 42.968968], [33.587372, 42.96906], [33.586224, 42.969322], [33.585168, 42.969744], [33.584244, 42.970309], [33.583488, 42.970995], [33.582929, 42.971776], [33.582588, 42.972622], [33.582479, 42.973501], [33.582605, 42.974379], [33.582962, 42.975222], [33.583536, 42.975997], [33.584305, 42.976676], [33.585239, 42.977231], [33.586303, 42.977642], [33.587456, 42.977892], [33.588653, 42.977972], [33.589848, 42.97788], [33.590996, 42.977618], [33.592052, 42.977196], [33.592976, 42.976631], [33.593732, 42.975945], [33.594291, 42.975164], [33.594632, 42.974317], [33.594741, 42.973438]]]}, "properties": {"kind": "model_estimate", "zone_id": "Z-S4_DOORS3_T8", "scene_id": "LC09_L2SP_178030_20240604_02_T2", "mission": "Landsat-9", "datetime": "2024-06-04T08:32:00Z", "status": "insufficient_data", "detection_status": "insufficient_data", "status_reason": "связь снимка с полевым измерением не подтверждена: Дрейф за разрыв времени больше допуска (несинхронно), Ошибка обработки снимка, Время наблюдения неизвестно (окно по суткам); снимок непригоден: cloud(qa_suspect:red_sr<0.03)", "concentration_status": "unavailable", "concentration_reason": "нет проверенного переноса «снимок → шт./км²»; спутниковая концентрация не выдаётся", "area_km2": 0.7809, "area_basis": "геодезическая площадь полигона geometry (WGS84): полоса наблюдения вокруг трансекты/точки", "strip_area_raster_km2": 0.8469, "pair_status": "rejected", "pair_reject_reasons": ["DRIFT_TOO_LARGE", "PROCESSING_ERROR", "TIME_UNKNOWN"], "pair_sync": "unsynchronized", "pair_drift_shift_km": 23.42, "pair_tolerance_km": 3.005, "pair_time_known": false, "pair_dt_uncertainty_h": 12, "registry": {"status": "reject", "stage": "drift", "status_without_drift": "reject"}, "detected_area_m2": null, "detector": {"prob_mean": null, "prob_max": null, "n_pixels": null, "n_objects": null, "threshold": null}, "field_estimate": null, "concentration": null, "quality": {"valid_fraction": 0.0, "cloud_fraction": 1.0, "glint_fraction": null, "land_fraction": 0.0, "coverage": 1.0, "glint_b11_median": null, "flags": ["pair_rejected_drift"]}, "support": {"n_linked_samples": 1, "linked_sample_ids": ["MPL-0907"], "nearest_measurement_km": 0.0, "field_items_km2": 217.98, "field_sample_id": "MPL-0907", "field_target_scope": "all_litter", "field_scope_label": "Весь мусор (не только пластик)"}, "event_id": "S4:DOORS3:T8", "quality_dir": "S4_DOORS3_T8", "quality_decision": "reject", "quality_reason": "cloud(qa_suspect:red_sr<0.03)", "quality_reject_reason": "cloud(qa_suspect:red_sr<0.03)", "quality_reject_label": "cloud(qa_suspect:red_sr<0.03)", "layer_kind": "candidate_strip", "layer_label": "Снимок-кандидат: полоса обследования", "detector_verdict": "insufficient_data", "suspicious_pixels": null, "detection_reason": "связь снимка с полевым измерением не подтверждена: Дрейф за разрыв времени больше допуска (несинхронно), Ошибка обработки снимка, Время наблюдения неизвестно (окно по суткам)"}}]}