{"type": "FeatureCollection", "kind": "detection", "label": "Подозрительные пиксели детектора", "note": "контуры пикселей детектора (класс MARIDA Marine Debris = любой плавающий мусор), не полосы и не зоны скопления; без полевого подтверждения", "count": 5, "empty_reason": null, "features": [{"type": "Feature", "id": "D-S3_HE460_MarLitter_transect03-0001", "geometry": {"type": "Polygon", "coordinates": [[[6.7492917, 54.9390725], [6.7492967, 54.9389828], [6.7494527, 54.9389856], [6.7494476, 54.9390754], [6.7492917, 54.9390725]]]}, "properties": {"kind": "detection", "label": "Подозрительные пиксели детектора", "det_id": "D-S3_HE460_MarLitter_transect03-0001", "zone_id": "Z-S3_HE460_MarLitter_transect03", "scene_id": "S2A_MSIL2A_20160411T105022_R051_T32ULF_20210211T031140", "datetime": "2016-04-11T10:50:22Z", "n_pixels": 1, "area_m2": 100.0, "prob_max": 0.9373, "prob_mean": 0.9373, "threshold": 0.63, "in_strip": false, "quality_rejected": false, "note": "объект детектора (пиксели P ≥ порога), не концентрация; в полосе наблюдения — in_strip"}}, {"type": "Feature", "id": "D-S3_HE460_MarLitter_transect03-0002", "geometry": {"type": "Polygon", "coordinates": [[[6.745007, 54.8900935], [6.745012, 54.8900037], [6.7451678, 54.8900066], [6.7451628, 54.8900963], [6.745007, 54.8900935]]]}, "properties": {"kind": "detection", "label": "Подозрительные пиксели детектора", "det_id": "D-S3_HE460_MarLitter_transect03-0002", "zone_id": "Z-S3_HE460_MarLitter_transect03", "scene_id": "S2A_MSIL2A_20160411T105022_R051_T32ULF_20210211T031140", "datetime": "2016-04-11T10:50:22Z", "n_pixels": 1, "area_m2": 100.0, "prob_max": 0.8157, "prob_mean": 0.8157, "threshold": 0.63, "in_strip": false, "quality_rejected": false, "note": "объект детектора (пиксели P ≥ порога), не концентрация; в полосе наблюдения — in_strip"}}, {"type": "Feature", "id": "D-S3_HE460_MarLitter_transect03-0003", "geometry": {"type": "Polygon", "coordinates": [[[6.5417417, 54.8732939], [6.5417471, 54.8732041], [6.5419028, 54.8732073], [6.5418973, 54.8732971], [6.5417417, 54.8732939]]]}, "properties": {"kind": "detection", "label": "Подозрительные пиксели детектора", "det_id": "D-S3_HE460_MarLitter_transect03-0003", "zone_id": "Z-S3_HE460_MarLitter_transect03", "scene_id": "S2A_MSIL2A_20160411T105022_R051_T32ULF_20210211T031140", "datetime": "2016-04-11T10:50:22Z", "n_pixels": 1, "area_m2": 100.0, "prob_max": 0.6784, "prob_mean": 0.6784, "threshold": 0.63, "in_strip": false, "quality_rejected": false, "note": "объект детектора (пиксели P ≥ порога), не концентрация; в полосе наблюдения — in_strip"}}, {"type": "Feature", "id": "D-S3_HE460_MarLitter_transect03-0004", "geometry": {"type": "Polygon", "coordinates": [[[6.6148196, 54.8395137], [6.6148249, 54.8394239], [6.6149805, 54.839427], [6.6149752, 54.8395168], [6.6148196, 54.8395137]]]}, "properties": {"kind": "detection", "label": "Подозрительные пиксели детектора", "det_id": "D-S3_HE460_MarLitter_transect03-0004", "zone_id": "Z-S3_HE460_MarLitter_transect03", "scene_id": "S2A_MSIL2A_20160411T105022_R051_T32ULF_20210211T031140", "datetime": "2016-04-11T10:50:22Z", "n_pixels": 1, "area_m2": 100.1, "prob_max": 0.6784, "prob_mean": 0.6784, "threshold": 0.63, "in_strip": false, "quality_rejected": false, "note": "объект детектора (пиксели P ≥ порога), не концентрация; в полосе наблюдения — in_strip"}}, {"type": "Feature", "id": "D-S3_HE460_MarLitter_transect03-0005", "geometry": {"type": "Polygon", "coordinates": [[[6.6873566, 54.7885109], [6.6873617, 54.7884211], [6.6875171, 54.788424], [6.687512, 54.7885138], [6.6873566, 54.7885109]]]}, "properties": {"kind": "detection", "label": "Подозрительные пиксели детектора", "det_id": "D-S3_HE460_MarLitter_transect03-0005", "zone_id": "Z-S3_HE460_MarLitter_transect03", "scene_id": "S2A_MSIL2A_20160411T105022_R051_T32ULF_20210211T031140", "datetime": "2016-04-11T10:50:22Z", "n_pixels": 1, "area_m2": 100.0, "prob_max": 0.7804, "prob_mean": 0.7804, "threshold": 0.63, "in_strip": false, "quality_rejected": false, "note": "объект детектора (пиксели P ≥ порога), не концентрация; в полосе наблюдения — in_strip"}}]}