{"type": "FeatureCollection", "kind": "model_estimate", "layer_kind": "candidate_strip", "label": "Проверенные снимки-кандидаты (полосы обследования)", "count": 2, "empty_reason": null, "model": {"detector": "lgbm", "concentration": null, "trained_at": null, "concentration_note": "калибровки спутник → шт./км² нет; концентрация в зонах не выдаётся"}, "features": [{"type": "Feature", "id": "Z-S3_HE460_MarLitter_transect01", "geometry": {"type": "Polygon", "coordinates": [[[7.719003, 54.306642], [7.719157, 54.306798], [7.919878, 54.238178], [7.919722, 54.238022], [7.719003, 54.306642]]]}, "properties": {"kind": "model_estimate", "zone_id": "Z-S3_HE460_MarLitter_transect01", "scene_id": "S2A_MSIL2A_20160408T104022_R008_T32UMF_20210211T022918", "mission": "Sentinel-2", "datetime": "2016-04-08T10:40:22Z", "status": "insufficient_data", "detection_status": "insufficient_data", "status_reason": "связь снимка с полевым измерением не подтверждена: Облачность над точкой, Дрейф за разрыв времени больше допуска (несинхронно); снимок непригоден: облачность в полосе наблюдения", "concentration_status": "unavailable", "concentration_reason": "нет проверенного переноса «снимок → шт./км²»; спутниковая концентрация не выдаётся", "area_km2": 0.3042, "area_basis": "геодезическая площадь полигона geometry (WGS84): полоса наблюдения вокруг трансекты/точки", "strip_area_raster_km2": 0.5109, "pair_status": "rejected", "pair_reject_reasons": ["CLOUD", "DRIFT_TOO_LARGE"], "pair_sync": "unsynchronized", "pair_drift_shift_km": 4.3, "pair_tolerance_km": 3.005, "pair_time_known": true, "pair_dt_uncertainty_h": 0, "registry": {"status": "reject", "stage": "drift", "status_without_drift": "reject"}, "detected_area_m2": 0.0, "detector": {"prob_mean": null, "prob_max": 0.0001, "n_pixels": 0, "n_objects": 0, "threshold": 0.63}, "field_estimate": null, "concentration": null, "quality": {"valid_fraction": 0.0233, "cloud_fraction": 0.8939, "glint_fraction": 0.0769, "land_fraction": 0.0, "coverage": 1.0, "glint_b11_median": 0.0225, "flags": ["pair_rejected_drift"]}, "support": {"n_linked_samples": 5, "linked_sample_ids": ["MPL-0779", "MPL-0780", "MPL-0781", "MPL-0782", "MPL-0783"], "nearest_measurement_km": 0.0, "field_items_km2": 19.9, "field_sample_id": "MPL-0779", "field_target_scope": "all_litter", "field_scope_label": "Весь мусор (не только пластик)"}, "event_id": "S3:HE460_MarLitter_transect01", "quality_dir": "S3_HE460_MarLitter_transect01", "quality_decision": "reject", "quality_reason": "cloud", "quality_reject_reason": "cloud", "quality_reject_label": "облачность в полосе наблюдения", "layer_kind": "candidate_strip", "layer_label": "Снимок-кандидат: полоса обследования", "detector_verdict": "insufficient_data", "suspicious_pixels": {"n_objects": 0, "area_m2": 0.0, "prob_max": 0.0001, "quality_rejected": true, "note": "на снимке, отклонённом по качеству (блик/облака) — вероятно ложные, не кандидаты"}, "detection_reason": "связь снимка с полевым измерением не подтверждена: Облачность над точкой, Дрейф за разрыв времени больше допуска (несинхронно)"}}, {"type": "Feature", "id": "Z-S3_HE460_MarLitter_transect03", "geometry": {"type": "Polygon", "coordinates": [[[6.55986, 54.934061], [6.56014, 54.934139], [6.71604, 54.748339], [6.71576, 54.748261], [6.55986, 54.934061]]]}, "properties": {"kind": "model_estimate", "zone_id": "Z-S3_HE460_MarLitter_transect03", "scene_id": "S2A_MSIL2A_20160411T105022_R051_T32ULF_20210211T031140", "mission": "Sentinel-2", "datetime": "2016-04-11T10:50:22Z", "status": "insufficient_data", "detection_status": "insufficient_data", "status_reason": "связь снимка с полевым измерением не подтверждена: Дрейф за разрыв времени больше допуска (несинхронно); детектор не нашёл мусора в полосе наблюдения (порог LightGBM)", "concentration_status": "unavailable", "concentration_reason": "нет проверенного переноса «снимок → шт./км²»; спутниковая концентрация не выдаётся", "area_km2": 0.459, "area_basis": "геодезическая площадь полигона geometry (WGS84): полоса наблюдения вокруг трансекты/точки", "strip_area_raster_km2": 0.7633, "pair_status": "rejected", "pair_reject_reasons": ["DRIFT_TOO_LARGE"], "pair_sync": "unsynchronized", "pair_drift_shift_km": 13.0, "pair_tolerance_km": 3.005, "pair_time_known": true, "pair_dt_uncertainty_h": 0, "registry": {"status": "reject", "stage": "drift", "status_without_drift": "accept"}, "detected_area_m2": 0.0, "detector": {"prob_mean": null, "prob_max": 0.1535, "n_pixels": 0, "n_objects": 0, "threshold": 0.63}, "field_estimate": null, "concentration": null, "quality": {"valid_fraction": 1.0, "cloud_fraction": 0.0, "glint_fraction": 0.0, "land_fraction": 0.0, "coverage": 1.0, "glint_b11_median": 0.0046, "flags": ["pair_rejected_drift"]}, "support": {"n_linked_samples": 13, "linked_sample_ids": ["MPL-0793", "MPL-0794", "MPL-0795", "MPL-0796", "MPL-0797", "MPL-0798", "MPL-0799", "MPL-0800", "MPL-0801", "MPL-0802", "MPL-0803", "MPL-0804", "MPL-0805"], "nearest_measurement_km": 0.0, "field_items_km2": 52.3, "field_sample_id": "MPL-0798", "field_target_scope": "all_litter", "field_scope_label": "Весь мусор (не только пластик)"}, "event_id": "S3:HE460_MarLitter_transect03", "quality_dir": "S3_HE460_MarLitter_transect03", "quality_decision": "accept", "quality_reason": null, "quality_reject_reason": null, "quality_reject_label": null, "layer_kind": "candidate_strip", "layer_label": "Снимок-кандидат: полоса обследования", "detector_verdict": "not_detected", "suspicious_pixels": {"n_objects": 0, "area_m2": 0.0, "prob_max": 0.1535, "quality_rejected": false, "note": "подозрительные пиксели на снимке-кандидате, без полевого подтверждения"}, "detection_reason": "связь снимка с полевым измерением не подтверждена: Дрейф за разрыв времени больше допуска (несинхронно)"}}]}