{"type": "FeatureCollection", "features": [{"type": "Feature", "id": "D-SZ-live-jakarta-2026-04-03-001-3", "geometry": {"type": "Polygon", "coordinates": [[[106.4349291, -5.8571799], [106.4349293, -5.8572703], [106.4350196, -5.8572701], [106.4350194, -5.8571797], [106.4349291, -5.8571799]]]}, "properties": {"kind": "detection", "det_id": "D-SZ-live-jakarta-2026-04-03-001-3", "zone_id": "SZ-live-jakarta-2026-04-03-001", "scene_id": "S2B_MSIL2A_20260403T025519_R032_T48MXU_20260403T081539", "datetime": "2026-04-03T02:55:19.024000Z", "n_pixels": 1, "area_m2": 100, "prob_max": 0.9294, "prob_mean": 0.9294, "threshold": 0.63, "in_strip": true, "artifact": null}}, {"type": "Feature", "id": "D-SZ-live-jakarta-2026-04-03-001-6", "geometry": {"type": "Polygon", "coordinates": [[[106.4342068, -5.8572722], [106.4342071, -5.8573626], [106.4343877, -5.8573622], [106.4343875, -5.8572717], [106.4342068, -5.8572722]]]}, "properties": {"kind": "detection", "det_id": "D-SZ-live-jakarta-2026-04-03-001-6", "zone_id": "SZ-live-jakarta-2026-04-03-001", "scene_id": "S2B_MSIL2A_20260403T025519_R032_T48MXU_20260403T081539", "datetime": "2026-04-03T02:55:19.024000Z", "n_pixels": 2, "area_m2": 200, "prob_max": 0.8627, "prob_mean": 0.7784, "threshold": 0.63, "in_strip": true, "artifact": null}}, {"type": "Feature", "id": "D-SZ-live-jakarta-2026-04-03-001-13", "geometry": {"type": "Polygon", "coordinates": [[[106.4329448, -5.8581798], [106.4329453, -5.8583607], [106.432855, -5.8583609], [106.4328555, -5.8585418], [106.4329458, -5.8585415], [106.4329455, -5.8584511], [106.4330358, -5.8584509], [106.4330352, -5.8581796], [106.4329448, -5.8581798]]]}, "properties": {"kind": "detection", "det_id": "D-SZ-live-jakarta-2026-04-03-001-13", "zone_id": "SZ-live-jakarta-2026-04-03-001", "scene_id": "S2B_MSIL2A_20260403T025519_R032_T48MXU_20260403T081539", "datetime": "2026-04-03T02:55:19.024000Z", "n_pixels": 5, "area_m2": 500, "prob_max": 0.9765, "prob_mean": 0.8761, "threshold": 0.63, "in_strip": true, "artifact": null}}, {"type": "Feature", "id": "D-SZ-live-jakarta-2026-04-03-001-17", "geometry": {"type": "Polygon", "coordinates": [[[106.4289734, -5.8590038], [106.4289736, -5.8590943], [106.4292445, -5.8590936], [106.4292443, -5.8590032], [106.4289734, -5.8590038]]]}, "properties": {"kind": "detection", "det_id": "D-SZ-live-jakarta-2026-04-03-001-17", "zone_id": "SZ-live-jakarta-2026-04-03-001", "scene_id": "S2B_MSIL2A_20260403T025519_R032_T48MXU_20260403T081539", "datetime": "2026-04-03T02:55:19.024000Z", "n_pixels": 3, "area_m2": 300, "prob_max": 0.9961, "prob_mean": 0.8667, "threshold": 0.63, "in_strip": true, "artifact": null}}, {"type": "Feature", "id": "D-SZ-live-jakarta-2026-04-03-001-18", "geometry": {"type": "Polygon", "coordinates": [[[106.4318635, -5.8590869], [106.4318637, -5.8591773], [106.4320443, -5.8591769], [106.4320441, -5.8590864], [106.4318635, -5.8590869]]]}, "properties": {"kind": "detection", "det_id": "D-SZ-live-jakarta-2026-04-03-001-18", "zone_id": "SZ-live-jakarta-2026-04-03-001", "scene_id": "S2B_MSIL2A_20260403T025519_R032_T48MXU_20260403T081539", "datetime": "2026-04-03T02:55:19.024000Z", "n_pixels": 2, "area_m2": 200, "prob_max": 0.7843, "prob_mean": 0.7784, "threshold": 0.63, "in_strip": true, "artifact": null}}, {"type": "Feature", "id": "D-SZ-live-jakarta-2026-04-03-002-5", "geometry": {"type": "Polygon", "coordinates": [[[106.4180418, -5.8573133], [106.418042, -5.8574038], [106.4181323, -5.8574035], [106.4181321, -5.8573131], [106.4180418, -5.8573133]]]}, "properties": {"kind": "detection", "det_id": "D-SZ-live-jakarta-2026-04-03-002-5", "zone_id": "SZ-live-jakarta-2026-04-03-002", "scene_id": "S2B_MSIL2A_20260403T025519_R032_T48MXU_20260403T081539", "datetime": "2026-04-03T02:55:19.024000Z", "n_pixels": 1, "area_m2": 100, "prob_max": 0.9529, "prob_mean": 0.9529, "threshold": 0.63, "in_strip": true, "artifact": null}}, {"type": "Feature", "id": "D-SZ-live-jakarta-2026-04-03-002-8", "geometry": {"type": "Polygon", "coordinates": [[[106.4155136, -5.8575006], [106.4155138, -5.857591], [106.4156041, -5.8575908], [106.4156039, -5.8575004], [106.4155136, -5.8575006]]]}, "properties": {"kind": "detection", "det_id": "D-SZ-live-jakarta-2026-04-03-002-8", "zone_id": "SZ-live-jakarta-2026-04-03-002", "scene_id": "S2B_MSIL2A_20260403T025519_R032_T48MXU_20260403T081539", "datetime": "2026-04-03T02:55:19.024000Z", "n_pixels": 1, "area_m2": 100, "prob_max": 0.8667, "prob_mean": 0.8667, "threshold": 0.63, "in_strip": true, "artifact": null}}, {"type": "Feature", "id": "D-SZ-live-jakarta-2026-04-03-002-9", "geometry": {"type": "Polygon", "coordinates": [[[106.4159653, -5.8575899], [106.4159656, -5.8576803], [106.4160559, -5.8576801], [106.4160557, -5.8575897], [106.4159653, -5.8575899]]]}, "properties": {"kind": "detection", "det_id": "D-SZ-live-jakarta-2026-04-03-002-9", "zone_id": "SZ-live-jakarta-2026-04-03-002", "scene_id": "S2B_MSIL2A_20260403T025519_R032_T48MXU_20260403T081539", "datetime": "2026-04-03T02:55:19.024000Z", "n_pixels": 1, "area_m2": 100, "prob_max": 0.6627, "prob_mean": 0.6627, "threshold": 0.63, "in_strip": true, "artifact": null}}, {"type": "Feature", "id": "D-SZ-live-jakarta-2026-04-03-002-10", "geometry": {"type": "Polygon", "coordinates": [[[106.4144303, -5.8576842], [106.4144306, -5.8577746], [106.4146112, -5.8577742], [106.414611, -5.8576837], [106.4144303, -5.8576842]]]}, "properties": {"kind": "detection", "det_id": "D-SZ-live-jakarta-2026-04-03-002-10", "zone_id": "SZ-live-jakarta-2026-04-03-002", "scene_id": "S2B_MSIL2A_20260403T025519_R032_T48MXU_20260403T081539", "datetime": "2026-04-03T02:55:19.024000Z", "n_pixels": 2, "area_m2": 200, "prob_max": 0.9098, "prob_mean": 0.8294, "threshold": 0.63, "in_strip": true, "artifact": null}}, {"type": "Feature", "id": "D-SZ-live-jakarta-2026-04-03-002-11", "geometry": {"type": "Polygon", "coordinates": [[[106.4168689, -5.8577685], [106.4168691, -5.8578589], [106.4169594, -5.8578587], [106.4169592, -5.8577682], [106.4168689, -5.8577685]]]}, "properties": {"kind": "detection", "det_id": "D-SZ-live-jakarta-2026-04-03-002-11", "zone_id": "SZ-live-jakarta-2026-04-03-002", "scene_id": "S2B_MSIL2A_20260403T025519_R032_T48MXU_20260403T081539", "datetime": "2026-04-03T02:55:19.024000Z", "n_pixels": 1, "area_m2": 100, "prob_max": 0.9137, "prob_mean": 0.9137, "threshold": 0.63, "in_strip": true, "artifact": null}}, {"type": "Feature", "id": "D-SZ-live-jakarta-2026-04-03-002-12", "geometry": {"type": "Polygon", "coordinates": [[[106.4140696, -5.857866], [106.4140698, -5.8579564], [106.4141601, -5.8579562], [106.4141599, -5.8578658], [106.4140696, -5.857866]]]}, "properties": {"kind": "detection", "det_id": "D-SZ-live-jakarta-2026-04-03-002-12", "zone_id": "SZ-live-jakarta-2026-04-03-002", "scene_id": "S2B_MSIL2A_20260403T025519_R032_T48MXU_20260403T081539", "datetime": "2026-04-03T02:55:19.024000Z", "n_pixels": 1, "area_m2": 100, "prob_max": 0.749, "prob_mean": 0.749, "threshold": 0.63, "in_strip": true, "artifact": null}}, {"type": "Feature", "id": "D-SZ-live-jakarta-2026-04-03-002-14", "geometry": {"type": "Polygon", "coordinates": [[[106.4129874, -5.8585018], [106.4129877, -5.8585922], [106.4131683, -5.8585917], [106.4131681, -5.8585013], [106.4129874, -5.8585018]]]}, "properties": {"kind": "detection", "det_id": "D-SZ-live-jakarta-2026-04-03-002-14", "zone_id": "SZ-live-jakarta-2026-04-03-002", "scene_id": "S2B_MSIL2A_20260403T025519_R032_T48MXU_20260403T081539", "datetime": "2026-04-03T02:55:19.024000Z", "n_pixels": 2, "area_m2": 200, "prob_max": 0.7961, "prob_mean": 0.749, "threshold": 0.63, "in_strip": true, "artifact": null}}, {"type": "Feature", "id": "D-SZ-live-jakarta-2026-04-03-003-21", "geometry": {"type": "Polygon", "coordinates": [[[106.4727749, -5.8598852], [106.4727752, -5.8599756], [106.4728655, -5.8599754], [106.4728652, -5.859885], [106.4727749, -5.8598852]]]}, "properties": {"kind": "detection", "det_id": "D-SZ-live-jakarta-2026-04-03-003-21", "zone_id": "SZ-live-jakarta-2026-04-03-003", "scene_id": "S2B_MSIL2A_20260403T025519_R032_T48MXU_20260403T081539", "datetime": "2026-04-03T02:55:19.024000Z", "n_pixels": 1, "area_m2": 100, "prob_max": 0.6431, "prob_mean": 0.6431, "threshold": 0.63, "in_strip": true, "artifact": null}}, {"type": "Feature", "id": "D-SZ-live-jakarta-2026-04-03-003-22", "geometry": {"type": "Polygon", "coordinates": [[[106.4715111, -5.8600694], [106.4715113, -5.8601598], [106.4716016, -5.8601596], [106.4716014, -5.8600692], [106.4715111, -5.8600694]]]}, "properties": {"kind": "detection", "det_id": "D-SZ-live-jakarta-2026-04-03-003-22", "zone_id": "SZ-live-jakarta-2026-04-03-003", "scene_id": "S2B_MSIL2A_20260403T025519_R032_T48MXU_20260403T081539", "datetime": "2026-04-03T02:55:19.024000Z", "n_pixels": 1, "area_m2": 100, "prob_max": 0.8784, "prob_mean": 0.8784, "threshold": 0.63, "in_strip": true, "artifact": null}}, {"type": "Feature", "id": "D-SZ-live-jakarta-2026-04-03-003-23", "geometry": {"type": "Polygon", "coordinates": [[[106.4702482, -5.8606153], [106.4702485, -5.8607058], [106.4703388, -5.8607055], [106.4703385, -5.8606151], [106.4702482, -5.8606153]]]}, "properties": {"kind": "detection", "det_id": "D-SZ-live-jakarta-2026-04-03-003-23", "zone_id": "SZ-live-jakarta-2026-04-03-003", "scene_id": "S2B_MSIL2A_20260403T025519_R032_T48MXU_20260403T081539", "datetime": "2026-04-03T02:55:19.024000Z", "n_pixels": 1, "area_m2": 100, "prob_max": 0.9882, "prob_mean": 0.9882, "threshold": 0.63, "in_strip": true, "artifact": null}}, {"type": "Feature", "id": "D-SZ-live-jakarta-2026-04-03-003-26", "geometry": {"type": "Polygon", "coordinates": [[[106.4688951, -5.8611615], [106.4688953, -5.8612519], [106.468805, -5.8612522], [106.4688052, -5.8613426], [106.4689858, -5.8613421], [106.4689856, -5.8612517], [106.4690759, -5.8612514], [106.4690757, -5.861161], [106.4688951, -5.8611615]]]}, "properties": {"kind": "detection", "det_id": "D-SZ-live-jakarta-2026-04-03-003-26", "zone_id": "SZ-live-jakarta-2026-04-03-003", "scene_id": "S2B_MSIL2A_20260403T025519_R032_T48MXU_20260403T081539", "datetime": "2026-04-03T02:55:19.024000Z", "n_pixels": 4, "area_m2": 400, "prob_max": 0.9569, "prob_mean": 0.8127, "threshold": 0.63, "in_strip": true, "artifact": null}}, {"type": "Feature", "id": "D-SZ-live-jakarta-2026-04-03-003-28", "geometry": {"type": "Polygon", "coordinates": [[[106.4739546, -5.8620525], [106.4739548, -5.862143], [106.4740451, -5.8621427], [106.4740454, -5.8622332], [106.4741357, -5.8622329], [106.4741352, -5.8620521], [106.4739546, -5.8620525]]]}, "properties": {"kind": "detection", "det_id": "D-SZ-live-jakarta-2026-04-03-003-28", "zone_id": "SZ-live-jakarta-2026-04-03-003", "scene_id": "S2B_MSIL2A_20260403T025519_R032_T48MXU_20260403T081539", "datetime": "2026-04-03T02:55:19.024000Z", "n_pixels": 3, "area_m2": 300, "prob_max": 0.9608, "prob_mean": 0.8444, "threshold": 0.63, "in_strip": true, "artifact": null}}, {"type": "Feature", "id": "D-SZ-live-jakarta-2026-04-03-003-33", "geometry": {"type": "Polygon", "coordinates": [[[106.4750423, -5.863587], [106.4750426, -5.8636775], [106.4751329, -5.8636772], [106.4751331, -5.8637677], [106.4752234, -5.8637674], [106.4752229, -5.8635866], [106.4750423, -5.863587]]]}, "properties": {"kind": "detection", "det_id": "D-SZ-live-jakarta-2026-04-03-003-33", "zone_id": "SZ-live-jakarta-2026-04-03-003", "scene_id": "S2B_MSIL2A_20260403T025519_R032_T48MXU_20260403T081539", "datetime": "2026-04-03T02:55:19.024000Z", "n_pixels": 3, "area_m2": 300, "prob_max": 0.9686, "prob_mean": 0.8105, "threshold": 0.63, "in_strip": true, "artifact": null}}, {"type": "Feature", "id": "D-SZ-live-jakarta-2026-04-03-003-34", "geometry": {"type": "Polygon", "coordinates": [[[106.4753137, -5.8637672], [106.4753139, -5.8638576], [106.4754043, -5.8638574], [106.475404, -5.863767], [106.4753137, -5.8637672]]]}, "properties": {"kind": "detection", "det_id": "D-SZ-live-jakarta-2026-04-03-003-34", "zone_id": "SZ-live-jakarta-2026-04-03-003", "scene_id": "S2B_MSIL2A_20260403T025519_R032_T48MXU_20260403T081539", "datetime": "2026-04-03T02:55:19.024000Z", "n_pixels": 1, "area_m2": 100, "prob_max": 0.9412, "prob_mean": 0.9412, "threshold": 0.63, "in_strip": true, "artifact": null}}, {"type": "Feature", "id": "D-SZ-live-jakarta-2026-04-03-003-35", "geometry": {"type": "Polygon", "coordinates": [[[106.476762, -5.8650295], [106.4767622, -5.8651199], [106.4768525, -5.8651197], [106.4768523, -5.8650292], [106.476762, -5.8650295]]]}, "properties": {"kind": "detection", "det_id": "D-SZ-live-jakarta-2026-04-03-003-35", "zone_id": "SZ-live-jakarta-2026-04-03-003", "scene_id": "S2B_MSIL2A_20260403T025519_R032_T48MXU_20260403T081539", "datetime": "2026-04-03T02:55:19.024000Z", "n_pixels": 1, "area_m2": 100, "prob_max": 0.9569, "prob_mean": 0.9569, "threshold": 0.63, "in_strip": true, "artifact": null}}, {"type": "Feature", "id": "D-SZ-live-jakarta-2026-04-03-004-39", "geometry": {"type": "Polygon", "coordinates": [[[106.5117436, -5.8772349], [106.5117439, -5.8773253], [106.5118342, -5.8773251], [106.5118339, -5.8772347], [106.5117436, -5.8772349]]]}, "properties": {"kind": "detection", "det_id": "D-SZ-live-jakarta-2026-04-03-004-39", "zone_id": "SZ-live-jakarta-2026-04-03-004", "scene_id": "S2B_MSIL2A_20260403T025519_R032_T48MXU_20260403T081539", "datetime": "2026-04-03T02:55:19.024000Z", "n_pixels": 1, "area_m2": 100, "prob_max": 0.7412, "prob_mean": 0.7412, "threshold": 0.63, "in_strip": true, "artifact": null}}, {"type": "Feature", "id": "D-SZ-live-jakarta-2026-04-03-004-40", "geometry": {"type": "Polygon", "coordinates": [[[106.5125579, -5.8777753], [106.5125581, -5.8778657], [106.5126484, -5.8778655], [106.5126482, -5.8777751], [106.5125579, -5.8777753]]]}, "properties": {"kind": "detection", "det_id": "D-SZ-live-jakarta-2026-04-03-004-40", "zone_id": "SZ-live-jakarta-2026-04-03-004", "scene_id": "S2B_MSIL2A_20260403T025519_R032_T48MXU_20260403T081539", "datetime": "2026-04-03T02:55:19.024000Z", "n_pixels": 1, "area_m2": 100, "prob_max": 0.9294, "prob_mean": 0.9294, "threshold": 0.63, "in_strip": true, "artifact": null}}, {"type": "Feature", "id": "D-SZ-live-jakarta-2026-04-03-004-42", "geometry": {"type": "Polygon", "coordinates": [[[106.5130104, -5.8781358], [106.5130106, -5.8782262], [106.5131912, -5.8782258], [106.5131915, -5.8783162], [106.5132818, -5.8783159], [106.5132816, -5.8782255], [106.5131912, -5.8782258], [106.513191, -5.8781353], [106.5130104, -5.8781358]]]}, "properties": {"kind": "detection", "det_id": "D-SZ-live-jakarta-2026-04-03-004-42", "zone_id": "SZ-live-jakarta-2026-04-03-004", "scene_id": "S2B_MSIL2A_20260403T025519_R032_T48MXU_20260403T081539", "datetime": "2026-04-03T02:55:19.024000Z", "n_pixels": 3, "area_m2": 300, "prob_max": 0.9686, "prob_mean": 0.8732, "threshold": 0.63, "in_strip": true, "artifact": null}}, {"type": "Feature", "id": "D-SZ-live-jakarta-2026-04-03-004-43", "geometry": {"type": "Polygon", "coordinates": [[[106.513644, -5.8786767], [106.5136442, -5.8787671], [106.5138249, -5.8787666], [106.5138246, -5.8786762], [106.513644, -5.8786767]]]}, "properties": {"kind": "detection", "det_id": "D-SZ-live-jakarta-2026-04-03-004-43", "zone_id": "SZ-live-jakarta-2026-04-03-004", "scene_id": "S2B_MSIL2A_20260403T025519_R032_T48MXU_20260403T081539", "datetime": "2026-04-03T02:55:19.024000Z", "n_pixels": 2, "area_m2": 200, "prob_max": 0.9961, "prob_mean": 0.9902, "threshold": 0.63, "in_strip": true, "artifact": null}}, {"type": "Feature", "id": "D-SZ-live-jakarta-2026-04-03-004-44", "geometry": {"type": "Polygon", "coordinates": [[[106.5147289, -5.8791259], [106.5147294, -5.8793068], [106.5148197, -5.8793065], [106.5148192, -5.8791257], [106.5147289, -5.8791259]]]}, "properties": {"kind": "detection", "det_id": "D-SZ-live-jakarta-2026-04-03-004-44", "zone_id": "SZ-live-jakarta-2026-04-03-004", "scene_id": "S2B_MSIL2A_20260403T025519_R032_T48MXU_20260403T081539", "datetime": "2026-04-03T02:55:19.024000Z", "n_pixels": 2, "area_m2": 200, "prob_max": 0.8667, "prob_mean": 0.849, "threshold": 0.63, "in_strip": true, "artifact": null}}, {"type": "Feature", "id": "D-SZ-live-jakarta-2026-04-03-005-45", "geometry": {"type": "Polygon", "coordinates": [[[106.5174416, -5.8803846], [106.5174418, -5.880475], [106.5175321, -5.8804748], [106.5175324, -5.8805652], [106.5176227, -5.880565], [106.5176222, -5.8803841], [106.5174416, -5.8803846]]]}, "properties": {"kind": "detection", "det_id": "D-SZ-live-jakarta-2026-04-03-005-45", "zone_id": "SZ-live-jakarta-2026-04-03-005", "scene_id": "S2B_MSIL2A_20260403T025519_R032_T48MXU_20260403T081539", "datetime": "2026-04-03T02:55:19.024000Z", "n_pixels": 3, "area_m2": 300, "prob_max": 0.9804, "prob_mean": 0.8118, "threshold": 0.63, "in_strip": true, "artifact": null}}, {"type": "Feature", "id": "D-SZ-live-jakarta-2026-04-03-005-46", "geometry": {"type": "Polygon", "coordinates": [[[106.5178939, -5.8806547], [106.5178941, -5.8807451], [106.5179844, -5.8807449], [106.5179842, -5.8806544], [106.5178939, -5.8806547]]]}, "properties": {"kind": "detection", "det_id": "D-SZ-live-jakarta-2026-04-03-005-46", "zone_id": "SZ-live-jakarta-2026-04-03-005", "scene_id": "S2B_MSIL2A_20260403T025519_R032_T48MXU_20260403T081539", "datetime": "2026-04-03T02:55:19.024000Z", "n_pixels": 1, "area_m2": 100, "prob_max": 0.9686, "prob_mean": 0.9686, "threshold": 0.63, "in_strip": true, "artifact": null}}, {"type": "Feature", "id": "D-SZ-live-jakarta-2026-04-03-005-47", "geometry": {"type": "Polygon", "coordinates": [[[106.5187982, -5.8811044], [106.5187984, -5.8811948], [106.518979, -5.8811943], [106.5189793, -5.8812847], [106.5190696, -5.8812845], [106.5190693, -5.8811941], [106.518979, -5.8811943], [106.5189788, -5.8811039], [106.5187982, -5.8811044]]]}, "properties": {"kind": "detection", "det_id": "D-SZ-live-jakarta-2026-04-03-005-47", "zone_id": "SZ-live-jakarta-2026-04-03-005", "scene_id": "S2B_MSIL2A_20260403T025519_R032_T48MXU_20260403T081539", "datetime": "2026-04-03T02:55:19.024000Z", "n_pixels": 3, "area_m2": 300, "prob_max": 0.9804, "prob_mean": 0.8497, "threshold": 0.63, "in_strip": true, "artifact": null}}, {"type": "Feature", "id": "D-SZ-live-jakarta-2026-04-03-005-48", "geometry": {"type": "Polygon", "coordinates": [[[106.5194306, -5.8811931], [106.5194308, -5.8812835], [106.5195211, -5.8812833], [106.5195209, -5.8811928], [106.5194306, -5.8811931]]]}, "properties": {"kind": "detection", "det_id": "D-SZ-live-jakarta-2026-04-03-005-48", "zone_id": "SZ-live-jakarta-2026-04-03-005", "scene_id": "S2B_MSIL2A_20260403T025519_R032_T48MXU_20260403T081539", "datetime": "2026-04-03T02:55:19.024000Z", "n_pixels": 1, "area_m2": 100, "prob_max": 0.902, "prob_mean": 0.902, "threshold": 0.63, "in_strip": true, "artifact": null}}, {"type": "Feature", "id": "D-SZ-live-jakarta-2026-04-03-005-49", "geometry": {"type": "Polygon", "coordinates": [[[106.5203336, -5.8811906], [106.5203339, -5.8812811], [106.5205145, -5.8812806], [106.5205143, -5.8811901], [106.5203336, -5.8811906]]]}, "properties": {"kind": "detection", "det_id": "D-SZ-live-jakarta-2026-04-03-005-49", "zone_id": "SZ-live-jakarta-2026-04-03-005", "scene_id": "S2B_MSIL2A_20260403T025519_R032_T48MXU_20260403T081539", "datetime": "2026-04-03T02:55:19.024000Z", "n_pixels": 2, "area_m2": 200, "prob_max": 0.9529, "prob_mean": 0.7961, "threshold": 0.63, "in_strip": true, "artifact": null}}]}