{"type": "FeatureCollection", "features": [{"type": "Feature", "id": "SZ-live-jakarta-2026-04-03-001", "geometry": {"type": "Polygon", "coordinates": [[[106.435468, -5.855912], [106.433752, -5.856007], [106.433121, -5.856461], [106.432942, -5.856914], [106.432129, -5.857097], [106.43168, -5.857821], [106.430778, -5.858276], [106.430599, -5.859], [106.430326, -5.858186], [106.429693, -5.857736], [106.42897, -5.857647], [106.428158, -5.857921], [106.427619, -5.859007], [106.427892, -5.859911], [106.428525, -5.860362], [106.429699, -5.860359], [106.43033, -5.859905], [106.430599, -5.859181], [106.430782, -5.859994], [106.431415, -5.860445], [106.432048, -5.860533], [106.43286, -5.86026], [106.43313, -5.859807], [106.433761, -5.859625], [106.434122, -5.859262], [106.434391, -5.858628], [106.435474, -5.858535], [106.436285, -5.857719], [106.436374, -5.857176], [106.436101, -5.856363], [106.435468, -5.855912]]]}, "properties": {"kind": "detection_zone", "layer_kind": "scene_zone", "zone_id": "SZ-live-jakarta-2026-04-03-001", "scene_key": "live-jakarta-2026-04-03", "scene_kind": "live", "scene_id": "S2B_MSIL2A_20260403T025519_R032_T48MXU_20260403T081539", "region": "jakarta", "title": "Джакартский залив · зона 1", "mission": "Sentinel-2", "datetime": "2026-04-03T02:55:19.024000Z", "detection_status": "detected", "status": "detected", "concentration_status": "unavailable", "quantity": {"status": "not_confirmed", "label": "концентрация по снимку не подтверждена", "detail": "перевод площади в штуки не показываем: нет калибровочных пар (см. docs/QUANTITY.md)"}, "verification": "unverified", "training_scene": null, "flags": [], "n_cozar_filaments": 0, "crop_file": "crops/SZ-live-jakarta-2026-04-03-001.jpg", "wind_high": false, "measured": {"zone_area_km2": 0.2677, "suspicious_area_m2": 1300, "n_pixels": 13, "n_objects": 5, "water_km2": 0.2696, "lwd_m2_km2": 4822.0, "lwd_note": null, "quality": {"valid_water_fraction": 1.0, "cloud_fraction": 0.0, "glint_fraction": 0.0}, "model": {"weights": "weights/lgbm", "file": "weights/lgbm/model.txt", "sha256": "0eeebf43fcccd8c7c07f053b7ec723229d1a3c9b92d12eec1bdb269258c51470", "sha256_short": "0eeebf43fccc", "trained_at": "2026-09-25T01:35:55Z", "threshold": 0.63, "harmonize": "none", "class": "MARIDA Marine Debris (любой плавающий мусор, не только пластик)"}}, "probable": {"prob_max": 0.996, "prob_mean": 0.848, "signs": {"foam": {"flag": false, "white_ratio_b2_b8": 0.114, "wind10m_ms": 1.32, "rule": "прирост B2 над водой ≥ 0.8 прироста B8 («белый» спектр) или ветер ≥ 7.0 м/с"}, "glint": {"flag": false, "b11_water_median": 0.0034, "glint_share": 0.0, "rule": "медиана B11 воды зоны > 0.01 или ≥ 20 % пикселей зоны — блик (маска качества)"}, "ship": {"flag": false, "share": 0, "bright_target_px_within_500m": 0, "rule": "≥ 30 % пикселей — у яркой цели или кильватера (reports/artifacts.md) или яркая цель с откликом в SWIR (судно, лодка: B11 ≥ 0,015) ближе 500 м"}, "coast": {"flag": false, "land_px_within_300m": 0, "rule": "суша (маска качества) ближе 300 м — прибой, кромка берега"}, "shallow": {"flag": false, "b3_water_zone": 0.0123, "b3_ratio_to_scene_water": 0.46, "rule": "медиана B3 воды зоны ≥ 2× медианы воды снимка и ≥ 0,03 — мелководье или мутная вода"}, "seam": {"flag": false, "share": 0, "rule": "≥ 30 % пикселей — прямая линия вдоль трека/границы яркости (шов)"}, "cloud": {"flag": false, "cloud_fraction": 0.0, "rule": "облака или тени облаков (маска качества) ≥ 20 % зоны"}, "note": "эвристики, не классификатор; на размеченных данных не проверены"}, "n_cozar_filaments": 0}, "field_nearby": {"items": [{"source": "ADIS (4TU.ResearchData, судовая камера)", "segment_id": 299932, "ship": "Antsiva", "date": "2022-02-05", "days_from_scene": -1518, "distance_km": 5584.9, "lon": 61.51495, "lat": -28.72991, "n_items": 0, "area_km2": 0.1999, "size_class": "> 5 см", "c_items_km2": 0.0, "ci95_lo": 0.0, "ci95_hi": 18.45, "ci95_method": "точный интервал Пуассона для N, делённый на A", "raw_10cm_items_km2": 0.0, "authors_cal_10cm_items_km2": 0.0, "authors_cal_10cm_lo95": null, "authors_cal_10cm_hi95": null}, {"source": "ADIS (4TU.ResearchData, судовая камера)", "segment_id": 299754, "ship": "Antsiva", "date": "2022-02-03", "days_from_scene": -1520, "distance_km": 5588.4, "lon": 63.022, "lat": -31.55208, "n_items": 0, "area_km2": 0.0769, "size_class": "> 5 см", "c_items_km2": 0.0, "ci95_lo": 0.0, "ci95_hi": 47.95, "ci95_method": "точный интервал Пуассона для N, делённый на A", "raw_10cm_items_km2": 0.0, "authors_cal_10cm_items_km2": 0.0, "authors_cal_10cm_lo95": null, "authors_cal_10cm_hi95": null}, {"source": "ADIS (4TU.ResearchData, судовая камера)", "segment_id": 299753, "ship": "Antsiva", "date": "2022-02-03", "days_from_scene": -1520, "distance_km": 5589.2, "lon": 63.01827, "lat": -31.56061, "n_items": 0, "area_km2": 0.0094, "size_class": "> 5 см", "c_items_km2": 0.0, "ci95_lo": 0.0, "ci95_hi": 390.52, "ci95_method": "точный интервал Пуассона для N, делённый на A", "raw_10cm_items_km2": 0.0, "authors_cal_10cm_items_km2": 0.0, "authors_cal_10cm_lo95": null, "authors_cal_10cm_hi95": null}], "nearest_organizer_sample": {"sample_id": "MPL-0922", "source_id": "S4_BLACK_SEA_DOORS3", "distance_km": 8904.8}, "note": "Измерение ≠ оценка: это независимые полевые счёты C = N/A в другое время и в другом месте; со сценой они не связаны и не калибруют её. Ближайший отрезок ADIS — за 5585 км: только для порядка величин."}}}, {"type": "Feature", "id": "SZ-live-jakarta-2026-04-03-002", "geometry": {"type": "Polygon", "coordinates": [[[106.418038, -5.855957], [106.417226, -5.85623], [106.417046, -5.856502], [106.41551, -5.856144], [106.414879, -5.856417], [106.413976, -5.856419], [106.413254, -5.856783], [106.412984, -5.857236], [106.412533, -5.857237], [106.411902, -5.857691], [106.411633, -5.858505], [106.411906, -5.859409], [106.412539, -5.859859], [106.413172, -5.859948], [106.413984, -5.859675], [106.414254, -5.859222], [106.415246, -5.858858], [106.416963, -5.859215], [106.417775, -5.858942], [106.417955, -5.85867], [106.418948, -5.858487], [106.419398, -5.857853], [106.419395, -5.856858], [106.418942, -5.856226], [106.418038, -5.855957]]]}, "properties": {"kind": "detection_zone", "layer_kind": "scene_zone", "zone_id": "SZ-live-jakarta-2026-04-03-002", "scene_key": "live-jakarta-2026-04-03", "scene_kind": "live", "scene_id": "S2B_MSIL2A_20260403T025519_R032_T48MXU_20260403T081539", "region": "jakarta", "title": "Джакартский залив · зона 2", "mission": "Sentinel-2", "datetime": "2026-04-03T02:55:19.024000Z", "detection_status": "insufficient_data", "status": "insufficient_data", "concentration_status": "unavailable", "quantity": {"status": "not_confirmed", "label": "концентрация по снимку не подтверждена", "detail": "перевод площади в штуки не показываем: нет калибровочных пар (см. docs/QUANTITY.md)"}, "verification": "false_alarm_signs", "training_scene": null, "flags": ["ship"], "n_cozar_filaments": 0, "crop_file": "crops/SZ-live-jakarta-2026-04-03-002.jpg", "wind_high": false, "measured": {"zone_area_km2": 0.2461, "suspicious_area_m2": 900, "n_pixels": 9, "n_objects": 7, "water_km2": 0.2461, "lwd_m2_km2": 3657.0, "lwd_note": null, "quality": {"valid_water_fraction": 1.0, "cloud_fraction": 0.0, "glint_fraction": 0.0}, "model": {"weights": "weights/lgbm", "file": "weights/lgbm/model.txt", "sha256": "0eeebf43fcccd8c7c07f053b7ec723229d1a3c9b92d12eec1bdb269258c51470", "sha256_short": "0eeebf43fccc", "trained_at": "2026-09-25T01:35:55Z", "threshold": 0.63, "harmonize": "none", "class": "MARIDA Marine Debris (любой плавающий мусор, не только пластик)"}}, "probable": {"prob_max": 0.953, "prob_mean": 0.811, "signs": {"foam": {"flag": false, "white_ratio_b2_b8": -0.015, "wind10m_ms": 1.32, "rule": "прирост B2 над водой ≥ 0.8 прироста B8 («белый» спектр) или ветер ≥ 7.0 м/с"}, "glint": {"flag": false, "b11_water_median": 0.0032, "glint_share": 0.0, "rule": "медиана B11 воды зоны > 0.01 или ≥ 20 % пикселей зоны — блик (маска качества)"}, "ship": {"flag": true, "share": 0, "bright_target_px_within_500m": 5, "rule": "≥ 30 % пикселей — у яркой цели или кильватера (reports/artifacts.md) или яркая цель с откликом в SWIR (судно, лодка: B11 ≥ 0,015) ближе 500 м"}, "coast": {"flag": false, "land_px_within_300m": 0, "rule": "суша (маска качества) ближе 300 м — прибой, кромка берега"}, "shallow": {"flag": false, "b3_water_zone": 0.0114, "b3_ratio_to_scene_water": 0.43, "rule": "медиана B3 воды зоны ≥ 2× медианы воды снимка и ≥ 0,03 — мелководье или мутная вода"}, "seam": {"flag": false, "share": 0, "rule": "≥ 30 % пикселей — прямая линия вдоль трека/границы яркости (шов)"}, "cloud": {"flag": false, "cloud_fraction": 0.0, "rule": "облака или тени облаков (маска качества) ≥ 20 % зоны"}, "note": "эвристики, не классификатор; на размеченных данных не проверены"}, "n_cozar_filaments": 0}, "field_nearby": {"items": [{"source": "ADIS (4TU.ResearchData, судовая камера)", "segment_id": 299932, "ship": "Antsiva", "date": "2022-02-05", "days_from_scene": -1518, "distance_km": 5584.9, "lon": 61.51495, "lat": -28.72991, "n_items": 0, "area_km2": 0.1999, "size_class": "> 5 см", "c_items_km2": 0.0, "ci95_lo": 0.0, "ci95_hi": 18.45, "ci95_method": "точный интервал Пуассона для N, делённый на A", "raw_10cm_items_km2": 0.0, "authors_cal_10cm_items_km2": 0.0, "authors_cal_10cm_lo95": null, "authors_cal_10cm_hi95": null}, {"source": "ADIS (4TU.ResearchData, судовая камера)", "segment_id": 299754, "ship": "Antsiva", "date": "2022-02-03", "days_from_scene": -1520, "distance_km": 5588.4, "lon": 63.022, "lat": -31.55208, "n_items": 0, "area_km2": 0.0769, "size_class": "> 5 см", "c_items_km2": 0.0, "ci95_lo": 0.0, "ci95_hi": 47.95, "ci95_method": "точный интервал Пуассона для N, делённый на A", "raw_10cm_items_km2": 0.0, "authors_cal_10cm_items_km2": 0.0, "authors_cal_10cm_lo95": null, "authors_cal_10cm_hi95": null}, {"source": "ADIS (4TU.ResearchData, судовая камера)", "segment_id": 299753, "ship": "Antsiva", "date": "2022-02-03", "days_from_scene": -1520, "distance_km": 5589.2, "lon": 63.01827, "lat": -31.56061, "n_items": 0, "area_km2": 0.0094, "size_class": "> 5 см", "c_items_km2": 0.0, "ci95_lo": 0.0, "ci95_hi": 390.52, "ci95_method": "точный интервал Пуассона для N, делённый на A", "raw_10cm_items_km2": 0.0, "authors_cal_10cm_items_km2": 0.0, "authors_cal_10cm_lo95": null, "authors_cal_10cm_hi95": null}], "nearest_organizer_sample": {"sample_id": "MPL-0922", "source_id": "S4_BLACK_SEA_DOORS3", "distance_km": 8904.8}, "note": "Измерение ≠ оценка: это независимые полевые счёты C = N/A в другое время и в другом месте; со сценой они не связаны и не калибруют её. Ближайший отрезок ADIS — за 5585 км: только для порядка величин."}}}, {"type": "Feature", "id": "SZ-live-jakarta-2026-04-03-003", "geometry": {"type": "Polygon", "coordinates": [[[106.472771, -5.858529], [106.47214, -5.858802], [106.471056, -5.858805], [106.470426, -5.859349], [106.469433, -5.859532], [106.469163, -5.859895], [106.468079, -5.860078], [106.467719, -5.860441], [106.46745, -5.861256], [106.467724, -5.862159], [106.468357, -5.86261], [106.468989, -5.862699], [106.469801, -5.862425], [106.470161, -5.861972], [106.471154, -5.861789], [106.471424, -5.861426], [106.472778, -5.861242], [106.472692, -5.862598], [106.473235, -5.863321], [106.473778, -5.8635], [106.473961, -5.864494], [106.474866, -5.865125], [106.475498, -5.865123], [106.475681, -5.865937], [106.476314, -5.866387], [106.476856, -5.866476], [106.477668, -5.866203], [106.478207, -5.865116], [106.477934, -5.864212], [106.4773, -5.863762], [106.476668, -5.863764], [106.476486, -5.86295], [106.476033, -5.862499], [106.4754, -5.86232], [106.475217, -5.861235], [106.474583, -5.860785], [106.473951, -5.860696], [106.47422, -5.859972], [106.473947, -5.859068], [106.473313, -5.858618], [106.472771, -5.858529]]]}, "properties": {"kind": "detection_zone", "layer_kind": "scene_zone", "zone_id": "SZ-live-jakarta-2026-04-03-003", "scene_key": "live-jakarta-2026-04-03", "scene_kind": "live", "scene_id": "S2B_MSIL2A_20260403T025519_R032_T48MXU_20260403T081539", "region": "jakarta", "title": "Джакартский залив · зона 3", "mission": "Sentinel-2", "datetime": "2026-04-03T02:55:19.024000Z", "detection_status": "detected", "status": "detected", "concentration_status": "unavailable", "quantity": {"status": "not_confirmed", "label": "концентрация по снимку не подтверждена", "detail": "перевод площади в штуки не показываем: нет калибровочных пар (см. docs/QUANTITY.md)"}, "verification": "unverified", "training_scene": null, "flags": [], "n_cozar_filaments": 0, "crop_file": "crops/SZ-live-jakarta-2026-04-03-003.jpg", "wind_high": false, "measured": {"zone_area_km2": 0.3997, "suspicious_area_m2": 1500, "n_pixels": 15, "n_objects": 8, "water_km2": 0.4039, "lwd_m2_km2": 3713.8, "lwd_note": null, "quality": {"valid_water_fraction": 1.0, "cloud_fraction": 0.0, "glint_fraction": 0.0}, "model": {"weights": "weights/lgbm", "file": "weights/lgbm/model.txt", "sha256": "0eeebf43fcccd8c7c07f053b7ec723229d1a3c9b92d12eec1bdb269258c51470", "sha256_short": "0eeebf43fccc", "trained_at": "2026-09-25T01:35:55Z", "threshold": 0.63, "harmonize": "none", "class": "MARIDA Marine Debris (любой плавающий мусор, не только пластик)"}}, "probable": {"prob_max": 0.988, "prob_mean": 0.842, "signs": {"foam": {"flag": false, "white_ratio_b2_b8": 0.408, "wind10m_ms": 1.32, "rule": "прирост B2 над водой ≥ 0.8 прироста B8 («белый» спектр) или ветер ≥ 7.0 м/с"}, "glint": {"flag": false, "b11_water_median": 0.0068, "glint_share": 0.0, "rule": "медиана B11 воды зоны > 0.01 или ≥ 20 % пикселей зоны — блик (маска качества)"}, "ship": {"flag": false, "share": 0, "bright_target_px_within_500m": 0, "rule": "≥ 30 % пикселей — у яркой цели или кильватера (reports/artifacts.md) или яркая цель с откликом в SWIR (судно, лодка: B11 ≥ 0,015) ближе 500 м"}, "coast": {"flag": false, "land_px_within_300m": 0, "rule": "суша (маска качества) ближе 300 м — прибой, кромка берега"}, "shallow": {"flag": false, "b3_water_zone": 0.0194, "b3_ratio_to_scene_water": 0.72, "rule": "медиана B3 воды зоны ≥ 2× медианы воды снимка и ≥ 0,03 — мелководье или мутная вода"}, "seam": {"flag": false, "share": 0, "rule": "≥ 30 % пикселей — прямая линия вдоль трека/границы яркости (шов)"}, "cloud": {"flag": false, "cloud_fraction": 0.0, "rule": "облака или тени облаков (маска качества) ≥ 20 % зоны"}, "note": "эвристики, не классификатор; на размеченных данных не проверены"}, "n_cozar_filaments": 0}, "field_nearby": {"items": [{"source": "ADIS (4TU.ResearchData, судовая камера)", "segment_id": 299932, "ship": "Antsiva", "date": "2022-02-05", "days_from_scene": -1518, "distance_km": 5584.9, "lon": 61.51495, "lat": -28.72991, "n_items": 0, "area_km2": 0.1999, "size_class": "> 5 см", "c_items_km2": 0.0, "ci95_lo": 0.0, "ci95_hi": 18.45, "ci95_method": "точный интервал Пуассона для N, делённый на A", "raw_10cm_items_km2": 0.0, "authors_cal_10cm_items_km2": 0.0, "authors_cal_10cm_lo95": null, "authors_cal_10cm_hi95": null}, {"source": "ADIS (4TU.ResearchData, судовая камера)", "segment_id": 299754, "ship": "Antsiva", "date": "2022-02-03", "days_from_scene": -1520, "distance_km": 5588.4, "lon": 63.022, "lat": -31.55208, "n_items": 0, "area_km2": 0.0769, "size_class": "> 5 см", "c_items_km2": 0.0, "ci95_lo": 0.0, "ci95_hi": 47.95, "ci95_method": "точный интервал Пуассона для N, делённый на A", "raw_10cm_items_km2": 0.0, "authors_cal_10cm_items_km2": 0.0, "authors_cal_10cm_lo95": null, "authors_cal_10cm_hi95": null}, {"source": "ADIS (4TU.ResearchData, судовая камера)", "segment_id": 299753, "ship": "Antsiva", "date": "2022-02-03", "days_from_scene": -1520, "distance_km": 5589.2, "lon": 63.01827, "lat": -31.56061, "n_items": 0, "area_km2": 0.0094, "size_class": "> 5 см", "c_items_km2": 0.0, "ci95_lo": 0.0, "ci95_hi": 390.52, "ci95_method": "точный интервал Пуассона для N, делённый на A", "raw_10cm_items_km2": 0.0, "authors_cal_10cm_items_km2": 0.0, "authors_cal_10cm_lo95": null, "authors_cal_10cm_hi95": null}], "nearest_organizer_sample": {"sample_id": "MPL-0922", "source_id": "S4_BLACK_SEA_DOORS3", "distance_km": 8904.8}, "note": "Измерение ≠ оценка: это независимые полевые счёты C = N/A в другое время и в другом месте; со сценой они не связаны и не калибруют её. Ближайший отрезок ADIS — за 5585 км: только для порядка величин."}}}, {"type": "Feature", "id": "SZ-live-jakarta-2026-04-03-004", "geometry": {"type": "Polygon", "coordinates": [[[106.51174, -5.875878], [106.510928, -5.876152], [106.510478, -5.876786], [106.510389, -5.877329], [106.510662, -5.878142], [106.512562, -5.879403], [106.512834, -5.879855], [106.513648, -5.880033], [106.514281, -5.880574], [106.514823, -5.880663], [106.515635, -5.88039], [106.516174, -5.879303], [106.515901, -5.878309], [106.515267, -5.877858], [106.514816, -5.87786], [106.512644, -5.876147], [106.51174, -5.875878]]]}, "properties": {"kind": "detection_zone", "layer_kind": "scene_zone", "zone_id": "SZ-live-jakarta-2026-04-03-004", "scene_key": "live-jakarta-2026-04-03", "scene_kind": "live", "scene_id": "S2B_MSIL2A_20260403T025519_R032_T48MXU_20260403T081539", "region": "jakarta", "title": "Джакартский залив · зона 4", "mission": "Sentinel-2", "datetime": "2026-04-03T02:55:19.024000Z", "detection_status": "insufficient_data", "status": "insufficient_data", "concentration_status": "unavailable", "quantity": {"status": "not_confirmed", "label": "концентрация по снимку не подтверждена", "detail": "перевод площади в штуки не показываем: нет калибровочных пар (см. docs/QUANTITY.md)"}, "verification": "false_alarm_signs", "training_scene": null, "flags": ["ship"], "n_cozar_filaments": 0, "crop_file": "crops/SZ-live-jakarta-2026-04-03-004.jpg", "wind_high": false, "measured": {"zone_area_km2": 0.1896, "suspicious_area_m2": 900, "n_pixels": 9, "n_objects": 5, "water_km2": 0.1914, "lwd_m2_km2": 4702.2, "lwd_note": null, "quality": {"valid_water_fraction": 1.0, "cloud_fraction": 0.0, "glint_fraction": 0.0}, "model": {"weights": "weights/lgbm", "file": "weights/lgbm/model.txt", "sha256": "0eeebf43fcccd8c7c07f053b7ec723229d1a3c9b92d12eec1bdb269258c51470", "sha256_short": "0eeebf43fccc", "trained_at": "2026-09-25T01:35:55Z", "threshold": 0.63, "harmonize": "none", "class": "MARIDA Marine Debris (любой плавающий мусор, не только пластик)"}}, "probable": {"prob_max": 0.996, "prob_mean": 0.885, "signs": {"foam": {"flag": false, "white_ratio_b2_b8": 0.336, "wind10m_ms": 1.32, "rule": "прирост B2 над водой ≥ 0.8 прироста B8 («белый» спектр) или ветер ≥ 7.0 м/с"}, "glint": {"flag": false, "b11_water_median": 0.0079, "glint_share": 0.0, "rule": "медиана B11 воды зоны > 0.01 или ≥ 20 % пикселей зоны — блик (маска качества)"}, "ship": {"flag": true, "share": 0, "bright_target_px_within_500m": 1, "rule": "≥ 30 % пикселей — у яркой цели или кильватера (reports/artifacts.md) или яркая цель с откликом в SWIR (судно, лодка: B11 ≥ 0,015) ближе 500 м"}, "coast": {"flag": false, "land_px_within_300m": 0, "rule": "суша (маска качества) ближе 300 м — прибой, кромка берега"}, "shallow": {"flag": false, "b3_water_zone": 0.024, "b3_ratio_to_scene_water": 0.9, "rule": "медиана B3 воды зоны ≥ 2× медианы воды снимка и ≥ 0,03 — мелководье или мутная вода"}, "seam": {"flag": false, "share": 0, "rule": "≥ 30 % пикселей — прямая линия вдоль трека/границы яркости (шов)"}, "cloud": {"flag": false, "cloud_fraction": 0.0, "rule": "облака или тени облаков (маска качества) ≥ 20 % зоны"}, "note": "эвристики, не классификатор; на размеченных данных не проверены"}, "n_cozar_filaments": 0}, "field_nearby": {"items": [{"source": "ADIS (4TU.ResearchData, судовая камера)", "segment_id": 299932, "ship": "Antsiva", "date": "2022-02-05", "days_from_scene": -1518, "distance_km": 5584.9, "lon": 61.51495, "lat": -28.72991, "n_items": 0, "area_km2": 0.1999, "size_class": "> 5 см", "c_items_km2": 0.0, "ci95_lo": 0.0, "ci95_hi": 18.45, "ci95_method": "точный интервал Пуассона для N, делённый на A", "raw_10cm_items_km2": 0.0, "authors_cal_10cm_items_km2": 0.0, "authors_cal_10cm_lo95": null, "authors_cal_10cm_hi95": null}, {"source": "ADIS (4TU.ResearchData, судовая камера)", "segment_id": 299754, "ship": "Antsiva", "date": "2022-02-03", "days_from_scene": -1520, "distance_km": 5588.4, "lon": 63.022, "lat": -31.55208, "n_items": 0, "area_km2": 0.0769, "size_class": "> 5 см", "c_items_km2": 0.0, "ci95_lo": 0.0, "ci95_hi": 47.95, "ci95_method": "точный интервал Пуассона для N, делённый на A", "raw_10cm_items_km2": 0.0, "authors_cal_10cm_items_km2": 0.0, "authors_cal_10cm_lo95": null, "authors_cal_10cm_hi95": null}, {"source": "ADIS (4TU.ResearchData, судовая камера)", "segment_id": 299753, "ship": "Antsiva", "date": "2022-02-03", "days_from_scene": -1520, "distance_km": 5589.2, "lon": 63.01827, "lat": -31.56061, "n_items": 0, "area_km2": 0.0094, "size_class": "> 5 см", "c_items_km2": 0.0, "ci95_lo": 0.0, "ci95_hi": 390.52, "ci95_method": "точный интервал Пуассона для N, делённый на A", "raw_10cm_items_km2": 0.0, "authors_cal_10cm_items_km2": 0.0, "authors_cal_10cm_lo95": null, "authors_cal_10cm_hi95": null}], "nearest_organizer_sample": {"sample_id": "MPL-0922", "source_id": "S4_BLACK_SEA_DOORS3", "distance_km": 8904.8}, "note": "Измерение ≠ оценка: это независимые полевые счёты C = N/A в другое время и в другом месте; со сценой они не связаны и не калибруют её. Ближайший отрезок ADIS — за 5585 км: только для порядка величин."}}}, {"type": "Feature", "id": "SZ-live-jakarta-2026-04-03-005", "geometry": {"type": "Polygon", "coordinates": [[[106.517438, -5.879028], [106.516626, -5.879302], [106.516176, -5.879936], [106.516179, -5.880931], [106.516723, -5.881653], [106.518983, -5.882641], [106.520969, -5.882545], [106.5216, -5.882091], [106.521869, -5.881186], [106.521324, -5.880103], [106.520511, -5.879834], [106.518975, -5.879838], [106.518432, -5.879297], [106.517438, -5.879028]]]}, "properties": {"kind": "detection_zone", "layer_kind": "scene_zone", "zone_id": "SZ-live-jakarta-2026-04-03-005", "scene_key": "live-jakarta-2026-04-03", "scene_kind": "live", "scene_id": "S2B_MSIL2A_20260403T025519_R032_T48MXU_20260403T081539", "region": "jakarta", "title": "Джакартский залив · зона 5", "mission": "Sentinel-2", "datetime": "2026-04-03T02:55:19.024000Z", "detection_status": "detected", "status": "detected", "concentration_status": "unavailable", "quantity": {"status": "not_confirmed", "label": "концентрация по снимку не подтверждена", "detail": "перевод площади в штуки не показываем: нет калибровочных пар (см. docs/QUANTITY.md)"}, "verification": "unverified", "training_scene": null, "flags": [], "n_cozar_filaments": 0, "crop_file": "crops/SZ-live-jakarta-2026-04-03-005.jpg", "wind_high": false, "measured": {"zone_area_km2": 0.177, "suspicious_area_m2": 1000, "n_pixels": 10, "n_objects": 5, "water_km2": 0.1758, "lwd_m2_km2": 5688.3, "lwd_note": null, "quality": {"valid_water_fraction": 1.0, "cloud_fraction": 0.0, "glint_fraction": 0.0}, "model": {"weights": "weights/lgbm", "file": "weights/lgbm/model.txt", "sha256": "0eeebf43fcccd8c7c07f053b7ec723229d1a3c9b92d12eec1bdb269258c51470", "sha256_short": "0eeebf43fccc", "trained_at": "2026-09-25T01:35:55Z", "threshold": 0.63, "harmonize": "none", "class": "MARIDA Marine Debris (любой плавающий мусор, не только пластик)"}}, "probable": {"prob_max": 0.98, "prob_mean": 0.845, "signs": {"foam": {"flag": false, "white_ratio_b2_b8": 0.492, "wind10m_ms": 1.32, "rule": "прирост B2 над водой ≥ 0.8 прироста B8 («белый» спектр) или ветер ≥ 7.0 м/с"}, "glint": {"flag": false, "b11_water_median": 0.0074, "glint_share": 0.0, "rule": "медиана B11 воды зоны > 0.01 или ≥ 20 % пикселей зоны — блик (маска качества)"}, "ship": {"flag": false, "share": 0, "bright_target_px_within_500m": 0, "rule": "≥ 30 % пикселей — у яркой цели или кильватера (reports/artifacts.md) или яркая цель с откликом в SWIR (судно, лодка: B11 ≥ 0,015) ближе 500 м"}, "coast": {"flag": false, "land_px_within_300m": 0, "rule": "суша (маска качества) ближе 300 м — прибой, кромка берега"}, "shallow": {"flag": false, "b3_water_zone": 0.0243, "b3_ratio_to_scene_water": 0.91, "rule": "медиана B3 воды зоны ≥ 2× медианы воды снимка и ≥ 0,03 — мелководье или мутная вода"}, "seam": {"flag": false, "share": 0, "rule": "≥ 30 % пикселей — прямая линия вдоль трека/границы яркости (шов)"}, "cloud": {"flag": false, "cloud_fraction": 0.0, "rule": "облака или тени облаков (маска качества) ≥ 20 % зоны"}, "note": "эвристики, не классификатор; на размеченных данных не проверены"}, "n_cozar_filaments": 0}, "field_nearby": {"items": [{"source": "ADIS (4TU.ResearchData, судовая камера)", "segment_id": 299932, "ship": "Antsiva", "date": "2022-02-05", "days_from_scene": -1518, "distance_km": 5584.9, "lon": 61.51495, "lat": -28.72991, "n_items": 0, "area_km2": 0.1999, "size_class": "> 5 см", "c_items_km2": 0.0, "ci95_lo": 0.0, "ci95_hi": 18.45, "ci95_method": "точный интервал Пуассона для N, делённый на A", "raw_10cm_items_km2": 0.0, "authors_cal_10cm_items_km2": 0.0, "authors_cal_10cm_lo95": null, "authors_cal_10cm_hi95": null}, {"source": "ADIS (4TU.ResearchData, судовая камера)", "segment_id": 299754, "ship": "Antsiva", "date": "2022-02-03", "days_from_scene": -1520, "distance_km": 5588.4, "lon": 63.022, "lat": -31.55208, "n_items": 0, "area_km2": 0.0769, "size_class": "> 5 см", "c_items_km2": 0.0, "ci95_lo": 0.0, "ci95_hi": 47.95, "ci95_method": "точный интервал Пуассона для N, делённый на A", "raw_10cm_items_km2": 0.0, "authors_cal_10cm_items_km2": 0.0, "authors_cal_10cm_lo95": null, "authors_cal_10cm_hi95": null}, {"source": "ADIS (4TU.ResearchData, судовая камера)", "segment_id": 299753, "ship": "Antsiva", "date": "2022-02-03", "days_from_scene": -1520, "distance_km": 5589.2, "lon": 63.01827, "lat": -31.56061, "n_items": 0, "area_km2": 0.0094, "size_class": "> 5 см", "c_items_km2": 0.0, "ci95_lo": 0.0, "ci95_hi": 390.52, "ci95_method": "точный интервал Пуассона для N, делённый на A", "raw_10cm_items_km2": 0.0, "authors_cal_10cm_items_km2": 0.0, "authors_cal_10cm_lo95": null, "authors_cal_10cm_hi95": null}], "nearest_organizer_sample": {"sample_id": "MPL-0922", "source_id": "S4_BLACK_SEA_DOORS3", "distance_km": 8904.8}, "note": "Измерение ≠ оценка: это независимые полевые счёты C = N/A в другое время и в другом месте; со сценой они не связаны и не калибруют её. Ближайший отрезок ADIS — за 5585 км: только для порядка величин."}}}]}