{"type": "FeatureCollection", "features": [{"type": "Feature", "id": "D-SZ-fresh-nile-2026-08-10-001-55", "geometry": {"type": "Polygon", "coordinates": [[[30.263209, 31.4973672], [30.2632143, 31.4971869], [30.2634246, 31.4971914], [30.263422, 31.4972815], [30.2633168, 31.4972793], [30.2633142, 31.4973694], [30.263209, 31.4973672]]]}, "properties": {"kind": "detection", "det_id": "D-SZ-fresh-nile-2026-08-10-001-55", "zone_id": "SZ-fresh-nile-2026-08-10-001", "scene_id": "S2A_MSIL2A_20260810T083741_R064_T36RTV_20260810T135811", "datetime": "2026-08-10T08:37:41.024000Z", "n_pixels": 3, "area_m2": 300, "prob_max": 0.9961, "prob_mean": 0.8771, "threshold": 0.63, "in_strip": true, "artifact": null}}, {"type": "Feature", "id": "D-SZ-fresh-nile-2026-08-10-001-57", "geometry": {"type": "Polygon", "coordinates": [[[30.2623202, 31.4953642], [30.2623228, 31.4952741], [30.262428, 31.4952764], [30.2624254, 31.4953665], [30.2623202, 31.4953642]]]}, "properties": {"kind": "detection", "det_id": "D-SZ-fresh-nile-2026-08-10-001-57", "zone_id": "SZ-fresh-nile-2026-08-10-001", "scene_id": "S2A_MSIL2A_20260810T083741_R064_T36RTV_20260810T135811", "datetime": "2026-08-10T08:37:41.024000Z", "n_pixels": 1, "area_m2": 100, "prob_max": 0.8431, "prob_mean": 0.8431, "threshold": 0.63, "in_strip": true, "artifact": null}}, {"type": "Feature", "id": "D-SZ-fresh-nile-2026-08-10-001-60", "geometry": {"type": "Polygon", "coordinates": [[[30.2623701, 31.4936519], [30.2623727, 31.4935618], [30.2624779, 31.493564], [30.2624753, 31.4936542], [30.2623701, 31.4936519]]]}, "properties": {"kind": "detection", "det_id": "D-SZ-fresh-nile-2026-08-10-001-60", "zone_id": "SZ-fresh-nile-2026-08-10-001", "scene_id": "S2A_MSIL2A_20260810T083741_R064_T36RTV_20260810T135811", "datetime": "2026-08-10T08:37:41.024000Z", "n_pixels": 1, "area_m2": 100, "prob_max": 0.6353, "prob_mean": 0.6353, "threshold": 0.63, "in_strip": true, "artifact": null}}]}