{"type": "FeatureCollection", "features": [{"type": "Feature", "id": "SZ-fresh-nile-2026-08-10-001", "geometry": {"type": "Polygon", "coordinates": [[[30.26317, 31.498719], [30.261923, 31.498151], [30.261631, 31.497333], [30.261863, 31.496617], [30.261034, 31.496148], [30.260743, 31.49533], [30.261079, 31.494616], [30.260792, 31.493618], [30.260913, 31.49308], [30.261458, 31.49246], [30.262412, 31.49221], [30.263456, 31.492503], [30.263963, 31.493145], [30.264053, 31.493688], [30.263709, 31.494673], [30.264003, 31.4954], [30.263777, 31.495936], [30.26471, 31.496407], [30.265002, 31.497225], [30.264661, 31.49812], [30.264229, 31.498471], [30.26317, 31.498719]]]}, "properties": {"kind": "detection_zone", "layer_kind": "scene_zone", "zone_id": "SZ-fresh-nile-2026-08-10-001", "scene_key": "fresh-nile-2026-08-10", "scene_kind": "fresh_s2", "scene_id": "S2A_MSIL2A_20260810T083741_R064_T36RTV_20260810T135811", "region": "nile", "title": "Дельта Нила (устье Розетты) · зона 1", "mission": "Sentinel-2", "datetime": "2026-08-10T08:37:41.024000Z", "detection_status": "insufficient_data", "status": "insufficient_data", "concentration_status": "unavailable", "quantity": {"status": "not_confirmed", "label": "концентрация по снимку не подтверждена", "detail": "перевод площади в штуки не показываем: нет калибровочных пар (см. docs/QUANTITY.md)"}, "verification": "false_alarm_signs", "training_scene": null, "flags": ["ship"], "n_cozar_filaments": 0, "crop_file": "crops/SZ-fresh-nile-2026-08-10-001.jpg", "wind_high": false, "measured": {"zone_area_km2": 0.1905, "suspicious_area_m2": 500, "n_pixels": 5, "n_objects": 3, "water_km2": 0.1903, "lwd_m2_km2": 2627.4, "lwd_note": null, "quality": {"valid_water_fraction": 1.0, "cloud_fraction": 0.0, "glint_fraction": 0.0}, "model": {"weights": "weights/lgbm", "file": "weights/lgbm/model.txt", "sha256": "0eeebf43fcccd8c7c07f053b7ec723229d1a3c9b92d12eec1bdb269258c51470", "sha256_short": "0eeebf43fccc", "trained_at": "2026-09-25T01:36:30Z", "threshold": 0.63, "harmonize": "none", "class": "MARIDA Marine Debris (любой плавающий мусор, не только пластик)"}}, "probable": {"prob_max": 0.996, "prob_mean": 0.822, "signs": {"foam": {"flag": false, "white_ratio_b2_b8": -0.204, "wind10m_ms": 4.95, "rule": "прирост B2 над водой ≥ 0.8 прироста B8 («белый» спектр) или ветер ≥ 7.0 м/с"}, "glint": {"flag": false, "b11_water_median": 0.0043, "glint_share": 0.0, "rule": "медиана B11 воды зоны > 0.01 или ≥ 20 % пикселей зоны — блик (маска качества)"}, "ship": {"flag": true, "share": 0, "bright_target_px_within_500m": 16, "rule": "≥ 30 % пикселей — у яркой цели или кильватера (reports/artifacts.md) или яркая цель с откликом в SWIR (судно, лодка: B11 ≥ 0,015) ближе 500 м, или малый яркий объект (≤ 40 пикс.) с B11 ≥ 0,01 ближе 500 м (лодка с кильватером)"}, "coast": {"flag": false, "land_px_within_300m": 0, "rule": "суша (маска качества) ближе 300 м — прибой, кромка берега"}, "shallow": {"flag": false, "b3_water_zone": 0.0274, "b3_ratio_to_scene_water": 0.69, "rule": "медиана B3 воды зоны ≥ 2× медианы воды снимка и ≥ 0,03, или B4 воды зоны ≥ 0,02 и (≥ 2× воды снимка или B8 ≥ 0,013) — мелководье, яркое дно, илистая банка"}, "seam": {"flag": false, "share": 0, "rule": "≥ 30 % пикселей — прямая линия вдоль трека/границы яркости (шов)"}, "cloud": {"flag": false, "cloud_fraction": 0.0, "rule": "облака или тени облаков (маска качества) ≥ 20 % зоны"}, "diag": {"dist_land_m": null, "dist_bright_m": 352, "n_bright_px_500m": 39, "b11_bright_max_500m": 0.0609, "b4_water_zone": 0.0115, "b8_water_zone": 0.0065, "b11_det_median": 0.0049, "b8_det_median": 0.0306, "water_scene_b3": 0.0396, "water_scene_b4": 0.0202, "n_det_px": 5, "n_obj": 3}, "note": "эвристики, не классификатор; на размеченных данных не проверены"}, "n_cozar_filaments": 0}, "field_nearby": {"items": [{"source": "ADIS (4TU.ResearchData, судовая камера)", "segment_id": 335682, "ship": "Gaia Blu", "date": "2023-12-05", "days_from_scene": -979, "distance_km": 1453.5, "lon": 17.96852, "lat": 39.18272, "n_items": 0, "area_km2": 0.4995, "size_class": "> 5 см", "c_items_km2": 0.0, "ci95_lo": 0.0, "ci95_hi": 7.39, "ci95_method": "точный интервал Пуассона для N, делённый на A", "raw_10cm_items_km2": 0.0, "authors_cal_10cm_items_km2": 0.0, "authors_cal_10cm_lo95": null, "authors_cal_10cm_hi95": null}, {"source": "ADIS (4TU.ResearchData, судовая камера)", "segment_id": 335764, "ship": "Dallaporta", "date": "2023-04-09", "days_from_scene": -1219, "distance_km": 1456.4, "lon": 18.32136, "lat": 39.62843, "n_items": 7, "area_km2": 0.3998, "size_class": "> 5 см", "c_items_km2": 17.51, "ci95_lo": 7.04, "ci95_hi": 36.08, "ci95_method": "точный интервал Пуассона для N, делённый на A", "raw_10cm_items_km2": 17.51, "authors_cal_10cm_items_km2": 61.23, "authors_cal_10cm_lo95": null, "authors_cal_10cm_hi95": null}, {"source": "ADIS (4TU.ResearchData, судовая камера)", "segment_id": 335763, "ship": "Dallaporta", "date": "2023-04-09", "days_from_scene": -1219, "distance_km": 1456.4, "lon": 18.25448, "lat": 39.555, "n_items": 0, "area_km2": 0.4, "size_class": "> 5 см", "c_items_km2": 0.0, "ci95_lo": 0.0, "ci95_hi": 9.22, "ci95_method": "точный интервал Пуассона для N, делённый на A", "raw_10cm_items_km2": 0.0, "authors_cal_10cm_items_km2": 0.0, "authors_cal_10cm_lo95": null, "authors_cal_10cm_hi95": null}], "nearest_organizer_sample": {"sample_id": "MPL-0932", "source_id": "S4_BLACK_SEA_DOORS3", "distance_km": 1215.3}, "note": "Измерение ≠ оценка: это независимые полевые счёты C = N/A в другое время и в другом месте; со сценой они не связаны и не калибруют её. Ближайший отрезок ADIS — за 1454 км: только для порядка величин."}, "acquired_at": "2026-08-10T08:37:41.024000Z", "acquisition_date": "2026-08-10", "processed_at": "2026-09-26T19:46:44Z", "human_checked": false, "auto_label": "автоматически, не проверено человеком"}}]}