{"type": "FeatureCollection", "features": [{"type": "Feature", "id": "D-SZ-fresh-guanabara-2026-07-21-001-5", "geometry": {"type": "Polygon", "coordinates": [[[-43.2122304, -22.7275767], [-43.2122293, -22.727667], [-43.2120346, -22.7276648], [-43.2120334, -22.7277551], [-43.2118387, -22.7277529], [-43.2118376, -22.7278432], [-43.2117402, -22.7278421], [-43.2117414, -22.7277518], [-43.2118387, -22.7277529], [-43.2118399, -22.7276626], [-43.2120346, -22.7276648], [-43.2120358, -22.7275745], [-43.2122304, -22.7275767]]]}, "properties": {"kind": "detection", "det_id": "D-SZ-fresh-guanabara-2026-07-21-001-5", "zone_id": "SZ-fresh-guanabara-2026-07-21-001", "scene_id": "S2C_MSIL2A_20260721T130251_R095_T23KPQ_20260721T172903", "datetime": "2026-07-21T13:02:51.025000Z", "n_pixels": 5, "area_m2": 500, "prob_max": 0.8824, "prob_mean": 0.8039, "threshold": 0.63, "in_strip": true, "artifact": "seam"}}, {"type": "Feature", "id": "D-SZ-fresh-guanabara-2026-07-21-002-11", "geometry": {"type": "Polygon", "coordinates": [[[-43.063744, -22.7504989], [-43.0637428, -22.7505891], [-43.0636454, -22.750588], [-43.0636441, -22.7506782], [-43.0635468, -22.7506771], [-43.0635481, -22.7505868], [-43.0636454, -22.750588], [-43.0636467, -22.7504977], [-43.063744, -22.7504989]]]}, "properties": {"kind": "detection", "det_id": "D-SZ-fresh-guanabara-2026-07-21-002-11", "zone_id": "SZ-fresh-guanabara-2026-07-21-002", "scene_id": "S2C_MSIL2A_20260721T130251_R095_T23KPQ_20260721T172903", "datetime": "2026-07-21T13:02:51.025000Z", "n_pixels": 2, "area_m2": 200, "prob_max": 0.9804, "prob_mean": 0.8255, "threshold": 0.63, "in_strip": true, "artifact": "ship"}}, {"type": "Feature", "id": "D-SZ-fresh-guanabara-2026-07-21-002-12", "geometry": {"type": "Polygon", "coordinates": [[[-43.065572, -22.7520561], [-43.0655694, -22.7522367], [-43.0653747, -22.7522343], [-43.065376, -22.7521441], [-43.0654733, -22.7521452], [-43.0654746, -22.7520549], [-43.065572, -22.7520561]]]}, "properties": {"kind": "detection", "det_id": "D-SZ-fresh-guanabara-2026-07-21-002-12", "zone_id": "SZ-fresh-guanabara-2026-07-21-002", "scene_id": "S2C_MSIL2A_20260721T130251_R095_T23KPQ_20260721T172903", "datetime": "2026-07-21T13:02:51.025000Z", "n_pixels": 3, "area_m2": 300, "prob_max": 0.9961, "prob_mean": 0.9647, "threshold": 0.63, "in_strip": true, "artifact": null}}, {"type": "Feature", "id": "D-SZ-fresh-guanabara-2026-07-21-003-54", "geometry": {"type": "Polygon", "coordinates": [[[-43.1077276, -22.8298599], [-43.1077251, -22.8300405], [-43.1074329, -22.830037], [-43.1074342, -22.8299467], [-43.1075316, -22.8299479], [-43.1075328, -22.8298576], [-43.1077276, -22.8298599]]]}, "properties": {"kind": "detection", "det_id": "D-SZ-fresh-guanabara-2026-07-21-003-54", "zone_id": "SZ-fresh-guanabara-2026-07-21-003", "scene_id": "S2C_MSIL2A_20260721T130251_R095_T23KPQ_20260721T172903", "datetime": "2026-07-21T13:02:51.025000Z", "n_pixels": 5, "area_m2": 500, "prob_max": 0.9882, "prob_mean": 0.9255, "threshold": 0.63, "in_strip": true, "artifact": null}}]}