{"type": "FeatureCollection", "features": [{"type": "Feature", "id": "D-SZ-fresh-org_german_bight-2026-09-18-001-5", "geometry": {"type": "Polygon", "coordinates": [[[7.6624858, 54.0147451], [7.6624887, 54.0146552], [7.6626413, 54.0146569], [7.6626442, 54.0145671], [7.6624916, 54.0145654], [7.6624945, 54.0144755], [7.6627996, 54.0144789], [7.662791, 54.0147485], [7.6624858, 54.0147451]]]}, "properties": {"kind": "detection", "det_id": "D-SZ-fresh-org_german_bight-2026-09-18-001-5", "zone_id": "SZ-fresh-org_german_bight-2026-09-18-001", "scene_id": "S2B_MSIL2A_20260918T104019_R008_T32UME_20260918T150811", "datetime": "2026-09-18T10:40:19.024000Z", "n_pixels": 5, "area_m2": 500, "prob_max": 0.9843, "prob_mean": 0.7482, "threshold": 0.63, "in_strip": true, "artifact": "ship"}}]}