{"type":"FeatureCollection","features":[{"type":"Feature","geometry":{"type":"Polygon","coordinates":[[[-69.748936,18.455725],[-69.748935,18.455544],[-69.74903,18.455544],[-69.749028,18.455092],[-69.748744,18.455093],[-69.748744,18.455003],[-69.748649,18.455003],[-69.748649,18.454913],[-69.748459,18.454913],[-69.748461,18.455456],[-69.748556,18.455455],[-69.748557,18.455636],[-69.748652,18.455636],[-69.748652,18.455726],[-69.748936,18.455725]]]},"properties":{"id":"santo_domingo_2025-10-18_mdd_0","region":"santo_domingo","date":"2025-10-18","area_m2":4100.0,"mean_prob":0.5934,"max_prob":0.698,"model":"mdd","n_px":41,"px_area_m2":100.0,"confirmed":false,"confirmed_by":null,"lon":-69.748735,"lat":18.45533}},{"type":"Feature","geometry":{"type":"Polygon","coordinates":[[[-69.748458,18.454733],[-69.748457,18.454462],[-69.748362,18.454462],[-69.748362,18.454372],[-69.748267,18.454372],[-69.748269,18.454643],[-69.748363,18.454643],[-69.748364,18.454733],[-69.748458,18.454733]]]},"properties":{"id":"santo_domingo_2025-10-18_mdd_1","region":"santo_domingo","date":"2025-10-18","area_m2":600.0,"mean_prob":0.5314,"max_prob":0.5569,"model":"mdd","n_px":6,"px_area_m2":100.0,"confirmed":false,"confirmed_by":null,"lon":-69.748363,"lat":18.454552}},{"type":"Feature","geometry":{"type":"Polygon","coordinates":[[[-69.864733,18.432277],[-69.864732,18.432187],[-69.864827,18.432187],[-69.864825,18.431825],[-69.86473,18.431825],[-69.86473,18.431735],[-69.864635,18.431736],[-69.864635,18.431645],[-69.864256,18.431647],[-69.864255,18.431557],[-69.864066,18.431557],[-69.864066,18.431467],[-69.863876,18.431468],[-69.863877,18.431558],[-69.863971,18.431558],[-69.863972,18.431739],[-69.864067,18.431738],[-69.864067,18.431828],[-69.864162,18.431828],[-69.864163,18.431918],[-69.864257,18.431918],[-69.864258,18.432099],[-69.864353,18.432098],[-69.864353,18.432189],[-69.864448,18.432188],[-69.864448,18.432279],[-69.864733,18.432277]]]},"properties":{"id":"santo_domingo_2025-10-18_mdd_2","region":"santo_domingo","date":"2025-10-18","area_m2":4600.0,"mean_prob":0.5816,"max_prob":0.6863,"model":"mdd","n_px":46,"px_area_m2":100.0,"confirmed":false,"confirmed_by":null,"lon":-69.864432,"lat":18.431886}},{"type":"Feature","geometry":{"type":"Polygon","coordinates":[[[-69.860755,18.432205],[-69.860755,18.432115],[-69.86085,18.432114],[-69.860849,18.432024],[-69.860944,18.432023],[-69.860942,18.431662],[-69.860753,18.431663],[-69.860753,18.431753],[-69.860658,18.431754],[-69.860659,18.431844],[-69.860564,18.431844],[-69.860566,18.432206],[-69.860755,18.432205]]]},"properties":{"id":"santo_domingo_2025-10-18_mdd_3","region":"santo_domingo","date":"2025-10-18","area_m2":1800.0,"mean_prob":0.5381,"max_prob":0.5765,"model":"mdd","n_px":18,"px_area_m2":100.0,"confirmed":false,"confirmed_by":null,"lon":-69.860754,"lat":18.431934}},{"type":"Feature","geometry":{"type":"Polygon","coordinates":[[[-69.89588,18.43141],[-69.895879,18.43132],[-69.896258,18.431318],[-69.896258,18.431227],[-69.896447,18.431226],[-69.896447,18.431136],[-69.896541,18.431136],[-69.89654,18.430955],[-69.896446,18.430955],[-69.896445,18.430865],[-69.895877,18.430868],[-69.895878,18.430958],[-69.895783,18.430959],[-69.895783,18.431049],[-69.895689,18.431049],[-69.89569,18.43132],[-69.895785,18.43132],[-69.895785,18.43141],[-69.89588,18.43141]]]},"properties":{"id":"santo_domingo_2025-10-18_mdd_4","region":"santo_domingo","date":"2025-10-18","area_m2":3800.0,"mean_prob":0.5643,"max_prob":0.6275,"model":"mdd","n_px":38,"px_area_m2":100.0,"confirmed":false,"confirmed_by":null,"lon":-69.896093,"lat":18.4311}},{"type":"Feature","geometry":{"type":"Polygon","coordinates":[[[-69.78225,18.409137],[-69.782249,18.408957],[-69.782154,18.408957],[-69.782154,18.408867],[-69.782059,18.408867],[-69.782059,18.408777],[-69.781964,18.408777],[-69.781964,18.408687],[-69.781869,18.408687],[-69.781869,18.408597],[-69.781679,18.408598],[-69.78168,18.408688],[-69.78149,18.408689],[-69.781491,18.408779],[-69.781585,18.408779],[-69.781586,18.408869],[-69.78168,18.408869],[-69.781681,18.408959],[-69.78187,18.408958],[-69.781871,18.409049],[-69.78206,18.409048],[-69.78206,18.409138],[-69.78225,18.409137]]]},"properties":{"id":"santo_domingo_2025-10-18_mdd_5","region":"santo_domingo","date":"2025-10-18","area_m2":2300.0,"mean_prob":0.5482,"max_prob":0.5961,"model":"mdd","n_px":23,"px_area_m2":100.0,"confirmed":false,"confirmed_by":null,"lon":-69.781888,"lat":18.408862}},{"type":"Feature","geometry":{"type":"Polygon","coordinates":[[[-69.90068,18.371198],[-69.900679,18.371108],[-69.900774,18.371108],[-69.900774,18.371017],[-69.900868,18.371017],[-69.900868,18.370926],[-69.900962,18.370926],[-69.900962,18.370836],[-69.900867,18.370836],[-69.900868,18.370926],[-69.900773,18.370927],[-69.900774,18.371017],[-69.900679,18.371018],[-69.900679,18.371108],[-69.900585,18.371108],[-69.900585,18.371199],[-69.90068,18.371198]]]},"properties":{"id":"santo_domingo_2025-10-18_mdd_6","region":"santo_domingo","date":"2025-10-18","area_m2":400.0,"mean_prob":0.5176,"max_prob":0.5255,"model":"mdd","n_px":4,"px_area_m2":100.0,"confirmed":false,"confirmed_by":null,"lon":-69.900774,"lat":18.371017}},{"type":"Feature","geometry":{"type":"Polygon","coordinates":[[[-69.919102,18.364603],[-69.919102,18.364513],[-69.919291,18.364512],[-69.91929,18.364422],[-69.919385,18.364421],[-69.919385,18.364331],[-69.919574,18.36433],[-69.919573,18.36424],[-69.919668,18.364239],[-69.919668,18.364149],[-69.919857,18.364148],[-69.919856,18.364058],[-69.919951,18.364057],[-69.919951,18.363967],[-69.920045,18.363966],[-69.920045,18.363876],[-69.920234,18.363875],[-69.920234,18.363785],[-69.920328,18.363784],[-69.920328,18.363694],[-69.920422,18.363693],[-69.920422,18.363603],[-69.920517,18.363602],[-69.920516,18.363512],[-69.920611,18.363512],[-69.92061,18.363421],[-69.920705,18.363421],[-69.920704,18.36333],[-69.920799,18.36333],[-69.920799,18.36324],[-69.920893,18.363239],[-69.920893,18.363149],[-69.920987,18.363148],[-69.920987,18.363058],[-69.921082,18.363058],[-69.921081,18.362967],[-69.921176,18.362967],[-69.921175,18.362876],[-69.92127,18.362876],[-69.921269,18.362785],[-69.921364,18.362785],[-69.921364,18.362695],[-69.921458,18.362694],[-69.921458,18.362604],[-69.921552,18.362603],[-69.921552,18.362513],[-69.921647,18.362513],[-69.921646,18.362422],[-69.921741,18.362422],[-69.92174,18.362331],[-69.921835,18.362331],[-69.921834,18.36215],[-69.921929,18.36215],[-69.921928,18.362059],[-69.922023,18.362059],[-69.922022,18.361878],[-69.922116,18.361878],[-69.922115,18.361697],[-69.92221,18.361696],[-69.92221,18.361606],[-69.922304,18.361606],[-69.922303,18.361425],[-69.922209,18.361425],[-69.922209,18.361516],[-69.922114,18.361516],[-69.922115,18.361607],[-69.92202,18.361607],[-69.922021,18.361788],[-69.921927,18.361788],[-69.921927,18.361879],[-69.921832,18.361879],[-69.921833,18.36206],[-69.921739,18.36206],[-69.921739,18.362151],[-69.921645,18.362151],[-69.921646,18.362332],[-69.921551,18.362332],[-69.921551,18.362423],[-69.921457,18.362423],[-69.921458,18.362604],[-69.921363,18.362604],[-69.921364,18.362695],[-69.921174,18.362696],[-69.921175,18.362786],[-69.92108,18.362786],[-69.921081,18.362877],[-69.920986,18.362877],[-69.920986,18.362968],[-69.920892,18.362968],[-69.920892,18.363058],[-69.920798,18.363059],[-69.920798,18.363149],[-69.920703,18.36315],[-69.920704,18.36324],[-69.920609,18.363241],[-69.92061,18.363331],[-69.920515,18.363331],[-69.920516,18.363422],[-69.920421,18.363422],[-69.920421,18.363513],[-69.920327,18.363513],[-69.920327,18.363603],[-69.920233,18.363604],[-69.920233,18.363694],[-69.920138,18.363695],[-69.920139,18.363785],[-69.91995,18.363786],[-69.91995,18.363876],[-69.919855,18.363877],[-69.919856,18.363967],[-69.919667,18.363968],[-69.919667,18.364058],[-69.919572,18.364059],[-69.919573,18.364149],[-69.919478,18.36415],[-69.919479,18.36424],[-69.919289,18.364241],[-69.91929,18.364331],[-69.919195,18.364332],[-69.919196,18.364422],[-69.919101,18.364423],[-69.919102,18.364513],[-69.919007,18.364514],[-69.919007,18.364604],[-69.919102,18.364603]]]},"properties":{"id":"santo_domingo_2025-10-18_mdd_7","region":"santo_domingo","date":"2025-10-18","area_m2":6900.0,"mean_prob":0.5303,"max_prob":0.5686,"model":"mdd","n_px":69,"px_area_m2":100.0,"confirmed":true,"confirmed_by":"lgbm","lon":-69.920796,"lat":18.363104}},{"type":"Feature","geometry":{"type":"Polygon","coordinates":[[[-69.781255,18.356543],[-69.781255,18.356452],[-69.78135,18.356452],[-69.781349,18.356362],[-69.78116,18.356362],[-69.781161,18.356543],[-69.781255,18.356543]]]},"properties":{"id":"santo_domingo_2025-10-18_mdd_8","region":"santo_domingo","date":"2025-10-18","area_m2":300.0,"mean_prob":0.5373,"max_prob":0.5569,"model":"mdd","n_px":3,"px_area_m2":100.0,"confirmed":false,"confirmed_by":null,"lon":-69.781239,"lat":18.356437}},{"type":"Feature","geometry":{"type":"Polygon","coordinates":[[[-69.90148,18.343088],[-69.90148,18.342998],[-69.901575,18.342997],[-69.901574,18.342907],[-69.901669,18.342907],[-69.901668,18.342816],[-69.901763,18.342816],[-69.901762,18.342725],[-69.901857,18.342725],[-69.901857,18.342635],[-69.901951,18.342634],[-69.901951,18.342544],[-69.902045,18.342543],[-69.902045,18.342453],[-69.90214,18.342453],[-69.902139,18.342362],[-69.902234,18.342362],[-69.902233,18.342271],[-69.902328,18.342271],[-69.902327,18.342181],[-69.902422,18.34218],[-69.902422,18.34209],[-69.902516,18.342089],[-69.902516,18.341999],[-69.90261,18.341998],[-69.90261,18.341908],[-69.902705,18.341908],[-69.902704,18.341727],[-69.902609,18.341727],[-69.902609,18.341818],[-69.90242,18.341819],[-69.902421,18.341909],[-69.902326,18.341909],[-69.902327,18.34209],[-69.902232,18.342091],[-69.902233,18.342181],[-69.902138,18.342181],[-69.902139,18.342272],[-69.901949,18.342273],[-69.90195,18.342363],[-69.901855,18.342363],[-69.901856,18.342454],[-69.901761,18.342454],[-69.901762,18.342635],[-69.901667,18.342636],[-69.901668,18.342816],[-69.901574,18.342817],[-69.901574,18.342907],[-69.90148,18.342908],[-69.90148,18.342998],[-69.901385,18.342998],[-69.901386,18.343089],[-69.90148,18.343088]]]},"properties":{"id":"santo_domingo_2025-10-18_mdd_9","region":"santo_domingo","date":"2025-10-18","area_m2":3000.0,"mean_prob":0.5239,"max_prob":0.5569,"model":"mdd","n_px":30,"px_area_m2":100.0,"confirmed":false,"confirmed_by":null,"lon":-69.902107,"lat":18.342329}},{"type":"Feature","geometry":{"type":"Polygon","coordinates":[[[-69.910895,18.31557],[-69.910894,18.315479],[-69.910989,18.315479],[-69.910988,18.315389],[-69.911083,18.315388],[-69.911083,18.315298],[-69.911177,18.315297],[-69.911177,18.315207],[-69.911271,18.315206],[-69.91127,18.315026],[-69.911365,18.315025],[-69.911365,18.314935],[-69.911459,18.314934],[-69.911458,18.314754],[-69.911553,18.314753],[-69.911552,18.314663],[-69.911647,18.314662],[-69.911646,18.314572],[-69.911741,18.314572],[-69.911741,18.314481],[-69.911835,18.314481],[-69.911835,18.31439],[-69.911929,18.31439],[-69.911928,18.314209],[-69.912023,18.314209],[-69.912023,18.314118],[-69.912117,18.314118],[-69.912117,18.314028],[-69.912211,18.314027],[-69.91221,18.313846],[-69.912305,18.313846],[-69.912304,18.313575],[-69.912209,18.313575],[-69.912209,18.313666],[-69.912115,18.313666],[-69.912116,18.313847],[-69.912021,18.313847],[-69.912022,18.313938],[-69.911927,18.313938],[-69.911927,18.314028],[-69.911833,18.314029],[-69.911834,18.31421],[-69.911739,18.31421],[-69.91174,18.314301],[-69.911645,18.314301],[-69.911646,18.314391],[-69.911551,18.314392],[-69.911551,18.314482],[-69.911457,18.314483],[-69.911458,18.314663],[-69.911363,18.314664],[-69.911364,18.314845],[-69.911269,18.314845],[-69.91127,18.314935],[-69.911175,18.314936],[-69.911176,18.315117],[-69.911082,18.315117],[-69.911082,18.315207],[-69.910987,18.315208],[-69.910988,18.315298],[-69.910893,18.315299],[-69.910894,18.315389],[-69.910799,18.315389],[-69.9108,18.31557],[-69.910895,18.31557]]]},"properties":{"id":"santo_domingo_2025-10-18_mdd_10","region":"santo_domingo","date":"2025-10-18","area_m2":4500.0,"mean_prob":0.5267,"max_prob":0.5686,"model":"mdd","n_px":45,"px_area_m2":100.0,"confirmed":false,"confirmed_by":null,"lon":-69.911628,"lat":18.314523}}]}