{"type":"FeatureCollection","features":[{"type":"Feature","geometry":{"type":"Polygon","coordinates":[[[120.8183,14.711833],[120.818301,14.711742],[120.818208,14.711741],[120.818209,14.711651],[120.818302,14.711652],[120.818301,14.711742],[120.818394,14.711743],[120.818393,14.711833],[120.8183,14.711833]]]},"properties":{"id":"manila_2025-12-27_lgbm_0","region":"manila","date":"2025-12-27","area_m2":200.0,"mean_prob":0.8118,"max_prob":0.9647,"model":"lgbm","n_px":2,"px_area_m2":100.0,"confirmed":false,"confirmed_by":null,"lon":120.818301,"lat":14.711742}},{"type":"Feature","geometry":{"type":"Polygon","coordinates":[[[120.888866,14.710769],[120.888867,14.710679],[120.888774,14.710678],[120.888775,14.710588],[120.888868,14.710589],[120.888867,14.710679],[120.888959,14.71068],[120.888959,14.71077],[120.888866,14.710769]]]},"properties":{"id":"manila_2025-12-27_lgbm_1","region":"manila","date":"2025-12-27","area_m2":200.0,"mean_prob":0.8039,"max_prob":0.949,"model":"lgbm","n_px":2,"px_area_m2":100.0,"confirmed":false,"confirmed_by":null,"lon":120.888867,"lat":14.710679}},{"type":"Feature","geometry":{"type":"Polygon","coordinates":[[[120.883111,14.710627],[120.883112,14.710536],[120.883298,14.710538],[120.883297,14.710628],[120.883111,14.710627]]]},"properties":{"id":"manila_2025-12-27_lgbm_2","region":"manila","date":"2025-12-27","area_m2":200.0,"mean_prob":0.8588,"max_prob":0.9882,"model":"lgbm","n_px":2,"px_area_m2":100.0,"confirmed":false,"confirmed_by":null,"lon":120.883204,"lat":14.710582}},{"type":"Feature","geometry":{"type":"Polygon","coordinates":[[[120.884602,14.710098],[120.884603,14.709917],[120.884882,14.70992],[120.88488,14.710101],[120.884602,14.710098]]]},"properties":{"id":"manila_2025-12-27_lgbm_3","region":"manila","date":"2025-12-27","area_m2":600.0,"mean_prob":0.9686,"max_prob":1.0,"model":"lgbm","n_px":6,"px_area_m2":100.0,"confirmed":false,"confirmed_by":null,"lon":120.884742,"lat":14.710009}},{"type":"Feature","geometry":{"type":"Polygon","coordinates":[[[120.856203,14.709114],[120.856205,14.708933],[120.856391,14.708935],[120.856389,14.709116],[120.856203,14.709114]]]},"properties":{"id":"manila_2025-12-27_lgbm_4","region":"manila","date":"2025-12-27","area_m2":400.0,"mean_prob":0.9127,"max_prob":0.9569,"model":"lgbm","n_px":4,"px_area_m2":100.0,"confirmed":false,"confirmed_by":null,"lon":120.856297,"lat":14.709025}},{"type":"Feature","geometry":{"type":"Polygon","coordinates":[[[120.854466,14.706387],[120.854467,14.706297],[120.854653,14.706299],[120.854652,14.706389],[120.854466,14.706387]]]},"properties":{"id":"manila_2025-12-27_lgbm_5","region":"manila","date":"2025-12-27","area_m2":200.0,"mean_prob":0.9686,"max_prob":0.9843,"model":"lgbm","n_px":2,"px_area_m2":100.0,"confirmed":false,"confirmed_by":null,"lon":120.854559,"lat":14.706343}},{"type":"Feature","geometry":{"type":"Polygon","coordinates":[[[120.916109,14.706408],[120.916111,14.706227],[120.916296,14.706229],[120.916295,14.706319],[120.916203,14.706318],[120.916202,14.706408],[120.916109,14.706408]]]},"properties":{"id":"manila_2025-12-27_lgbm_6","region":"manila","date":"2025-12-27","area_m2":300.0,"mean_prob":0.8144,"max_prob":0.898,"model":"lgbm","n_px":3,"px_area_m2":100.0,"confirmed":false,"confirmed_by":null,"lon":120.916187,"lat":14.706303}},{"type":"Feature","geometry":{"type":"Polygon","coordinates":[[[120.925949,14.706496],[120.925951,14.706315],[120.926043,14.706316],[120.926042,14.706497],[120.925949,14.706496]]]},"properties":{"id":"manila_2025-12-27_lgbm_7","region":"manila","date":"2025-12-27","area_m2":200.0,"mean_prob":0.7608,"max_prob":0.8275,"model":"lgbm","n_px":2,"px_area_m2":100.0,"confirmed":false,"confirmed_by":null,"lon":120.925996,"lat":14.706406}},{"type":"Feature","geometry":{"type":"Polygon","coordinates":[[[120.855125,14.70549],[120.855126,14.705309],[120.855219,14.70531],[120.855218,14.705491],[120.855125,14.70549]]]},"properties":{"id":"manila_2025-12-27_lgbm_8","region":"manila","date":"2025-12-27","area_m2":200.0,"mean_prob":0.9686,"max_prob":0.9961,"model":"lgbm","n_px":2,"px_area_m2":100.0,"confirmed":false,"confirmed_by":null,"lon":120.855172,"lat":14.7054}},{"type":"Feature","geometry":{"type":"Polygon","coordinates":[[[120.796407,14.700963],[120.796409,14.700783],[120.796502,14.700784],[120.796501,14.700874],[120.796594,14.700875],[120.796593,14.700965],[120.796407,14.700963]]]},"properties":{"id":"manila_2025-12-27_lgbm_9","region":"manila","date":"2025-12-27","area_m2":300.0,"mean_prob":0.8288,"max_prob":0.9373,"model":"lgbm","n_px":3,"px_area_m2":100.0,"confirmed":false,"confirmed_by":null,"lon":120.796485,"lat":14.700889}},{"type":"Feature","geometry":{"type":"Polygon","coordinates":[[[120.933233,14.701952],[120.933235,14.701772],[120.933327,14.701772],[120.933326,14.701953],[120.933233,14.701952]]]},"properties":{"id":"manila_2025-12-27_lgbm_10","region":"manila","date":"2025-12-27","area_m2":200.0,"mean_prob":0.9961,"max_prob":1.0,"model":"lgbm","n_px":2,"px_area_m2":100.0,"confirmed":false,"confirmed_by":null,"lon":120.93328,"lat":14.701862}},{"type":"Feature","geometry":{"type":"Polygon","coordinates":[[[120.892687,14.699509],[120.892688,14.699419],[120.892874,14.69942],[120.892873,14.699511],[120.892687,14.699509]]]},"properties":{"id":"manila_2025-12-27_lgbm_11","region":"manila","date":"2025-12-27","area_m2":200.0,"mean_prob":0.9392,"max_prob":0.9804,"model":"lgbm","n_px":2,"px_area_m2":100.0,"confirmed":true,"confirmed_by":"mdd","lon":120.892781,"lat":14.699465}},{"type":"Feature","geometry":{"type":"Polygon","coordinates":[[[120.82382,14.69815],[120.823822,14.697969],[120.824007,14.697971],[120.824006,14.698152],[120.82382,14.69815]]]},"properties":{"id":"manila_2025-12-27_lgbm_12","region":"manila","date":"2025-12-27","area_m2":400.0,"mean_prob":0.8363,"max_prob":0.9686,"model":"lgbm","n_px":4,"px_area_m2":100.0,"confirmed":false,"confirmed_by":null,"lon":120.823914,"lat":14.698061}},{"type":"Feature","geometry":{"type":"Polygon","coordinates":[[[120.874345,14.695547],[120.874347,14.695366],[120.874439,14.695367],[120.874438,14.695547],[120.874345,14.695547]]]},"properties":{"id":"manila_2025-12-27_lgbm_13","region":"manila","date":"2025-12-27","area_m2":200.0,"mean_prob":0.9373,"max_prob":0.9412,"model":"lgbm","n_px":2,"px_area_m2":100.0,"confirmed":false,"confirmed_by":null,"lon":120.874392,"lat":14.695457}},{"type":"Feature","geometry":{"type":"Polygon","coordinates":[[[120.838526,14.694131],[120.838528,14.69395],[120.838714,14.693952],[120.838713,14.694043],[120.83862,14.694042],[120.838619,14.694132],[120.838526,14.694131]]]},"properties":{"id":"manila_2025-12-27_lgbm_14","region":"manila","date":"2025-12-27","area_m2":300.0,"mean_prob":0.9595,"max_prob":1.0,"model":"lgbm","n_px":3,"px_area_m2":100.0,"confirmed":false,"confirmed_by":null,"lon":120.838605,"lat":14.694026}},{"type":"Feature","geometry":{"type":"Polygon","coordinates":[[[120.922632,14.693996],[120.922634,14.693815],[120.922819,14.693817],[120.922819,14.693907],[120.922726,14.693907],[120.922725,14.693997],[120.922632,14.693996]]]},"properties":{"id":"manila_2025-12-27_lgbm_15","region":"manila","date":"2025-12-27","area_m2":300.0,"mean_prob":0.9778,"max_prob":0.9922,"model":"lgbm","n_px":3,"px_area_m2":100.0,"confirmed":false,"confirmed_by":null,"lon":120.92271,"lat":14.693891}},{"type":"Feature","geometry":{"type":"Polygon","coordinates":[[[120.923657,14.693553],[120.923658,14.693463],[120.923751,14.693464],[120.923752,14.693374],[120.923938,14.693375],[120.923938,14.693285],[120.924031,14.693286],[120.92403,14.693376],[120.923938,14.693375],[120.923937,14.693466],[120.923844,14.693465],[120.923843,14.693555],[120.923657,14.693553]]]},"properties":{"id":"manila_2025-12-27_lgbm_16","region":"manila","date":"2025-12-27","area_m2":500.0,"mean_prob":0.9106,"max_prob":0.9843,"model":"lgbm","n_px":5,"px_area_m2":100.0,"confirmed":false,"confirmed_by":null,"lon":120.923835,"lat":14.693438}},{"type":"Feature","geometry":{"type":"Polygon","coordinates":[[[120.779108,14.68589],[120.779109,14.685799],[120.779016,14.685798],[120.779017,14.685708],[120.779203,14.68571],[120.779201,14.685891],[120.779108,14.68589]]]},"properties":{"id":"manila_2025-12-27_lgbm_17","region":"manila","date":"2025-12-27","area_m2":300.0,"mean_prob":0.8667,"max_prob":0.9647,"model":"lgbm","n_px":3,"px_area_m2":100.0,"confirmed":false,"confirmed_by":null,"lon":120.779124,"lat":14.685784}},{"type":"Feature","geometry":{"type":"Polygon","coordinates":[[[120.858014,14.685276],[120.858016,14.685095],[120.858109,14.685096],[120.858107,14.685277],[120.858014,14.685276]]]},"properties":{"id":"manila_2025-12-27_lgbm_18","region":"manila","date":"2025-12-27","area_m2":200.0,"mean_prob":0.9392,"max_prob":1.0,"model":"lgbm","n_px":2,"px_area_m2":100.0,"confirmed":false,"confirmed_by":null,"lon":120.858061,"lat":14.685186}},{"type":"Feature","geometry":{"type":"Polygon","coordinates":[[[120.923273,14.685056],[120.923274,14.684966],[120.923367,14.684966],[120.923368,14.684876],[120.923461,14.684877],[120.923462,14.684787],[120.923554,14.684787],[120.923555,14.684697],[120.923648,14.684698],[120.923649,14.684607],[120.923742,14.684608],[120.923741,14.684699],[120.923648,14.684698],[120.923646,14.684879],[120.923554,14.684878],[120.923553,14.684968],[120.923367,14.684966],[120.923366,14.685057],[120.923273,14.685056]]]},"properties":{"id":"manila_2025-12-27_lgbm_19","region":"manila","date":"2025-12-27","area_m2":700.0,"mean_prob":0.9053,"max_prob":0.9804,"model":"lgbm","n_px":7,"px_area_m2":100.0,"confirmed":false,"confirmed_by":null,"lon":120.923521,"lat":14.684845}},{"type":"Feature","geometry":{"type":"Polygon","coordinates":[[[120.875204,14.683446],[120.875205,14.683356],[120.875298,14.683357],[120.875299,14.683266],[120.875392,14.683267],[120.87539,14.683448],[120.875204,14.683446]]]},"properties":{"id":"manila_2025-12-27_lgbm_20","region":"manila","date":"2025-12-27","area_m2":300.0,"mean_prob":0.9203,"max_prob":0.9843,"model":"lgbm","n_px":3,"px_area_m2":100.0,"confirmed":false,"confirmed_by":null,"lon":120.875313,"lat":14.683372}},{"type":"Feature","geometry":{"type":"Polygon","coordinates":[[[120.859532,14.681947],[120.859533,14.681766],[120.859626,14.681767],[120.859624,14.681948],[120.859532,14.681947]]]},"properties":{"id":"manila_2025-12-27_lgbm_21","region":"manila","date":"2025-12-27","area_m2":200.0,"mean_prob":0.9902,"max_prob":1.0,"model":"lgbm","n_px":2,"px_area_m2":100.0,"confirmed":false,"confirmed_by":null,"lon":120.859579,"lat":14.681857}},{"type":"Feature","geometry":{"type":"Polygon","coordinates":[[[120.871334,14.680519],[120.871336,14.680338],[120.871429,14.680339],[120.871428,14.68043],[120.871521,14.680431],[120.87152,14.680521],[120.871334,14.680519]]]},"properties":{"id":"manila_2025-12-27_lgbm_22","region":"manila","date":"2025-12-27","area_m2":300.0,"mean_prob":0.7725,"max_prob":0.8196,"model":"lgbm","n_px":3,"px_area_m2":100.0,"confirmed":false,"confirmed_by":null,"lon":120.871412,"lat":14.680445}},{"type":"Feature","geometry":{"type":"Polygon","coordinates":[[[120.800984,14.679592],[120.800985,14.679502],[120.801171,14.679504],[120.80117,14.679594],[120.800984,14.679592]]]},"properties":{"id":"manila_2025-12-27_lgbm_23","region":"manila","date":"2025-12-27","area_m2":200.0,"mean_prob":0.8216,"max_prob":0.8392,"model":"lgbm","n_px":2,"px_area_m2":100.0,"confirmed":false,"confirmed_by":null,"lon":120.801077,"lat":14.679548}},{"type":"Feature","geometry":{"type":"Polygon","coordinates":[[[120.848555,14.674797],[120.848557,14.674617],[120.84865,14.674617],[120.848649,14.674708],[120.848742,14.674709],[120.848741,14.674799],[120.848555,14.674797]]]},"properties":{"id":"manila_2025-12-27_lgbm_24","region":"manila","date":"2025-12-27","area_m2":300.0,"mean_prob":0.8771,"max_prob":0.9647,"model":"lgbm","n_px":3,"px_area_m2":100.0,"confirmed":false,"confirmed_by":null,"lon":120.848634,"lat":14.674723}},{"type":"Feature","geometry":{"type":"Polygon","coordinates":[[[120.927547,14.674883],[120.927547,14.674793],[120.927733,14.674794],[120.927732,14.674885],[120.927547,14.674883]]]},"properties":{"id":"manila_2025-12-27_lgbm_25","region":"manila","date":"2025-12-27","area_m2":200.0,"mean_prob":0.9608,"max_prob":0.9961,"model":"lgbm","n_px":2,"px_area_m2":100.0,"confirmed":false,"confirmed_by":null,"lon":120.92764,"lat":14.674839}},{"type":"Feature","geometry":{"type":"Polygon","coordinates":[[[120.852856,14.671674],[120.852857,14.671494],[120.85295,14.671495],[120.852948,14.671675],[120.852856,14.671674]]]},"properties":{"id":"manila_2025-12-27_lgbm_26","region":"manila","date":"2025-12-27","area_m2":200.0,"mean_prob":0.9078,"max_prob":0.9216,"model":"lgbm","n_px":2,"px_area_m2":100.0,"confirmed":false,"confirmed_by":null,"lon":120.852903,"lat":14.671585}},{"type":"Feature","geometry":{"type":"Polygon","coordinates":[[[120.88266,14.670773],[120.882661,14.670593],[120.882754,14.670594],[120.882752,14.670774],[120.88266,14.670773]]]},"properties":{"id":"manila_2025-12-27_lgbm_27","region":"manila","date":"2025-12-27","area_m2":200.0,"mean_prob":0.9902,"max_prob":1.0,"model":"lgbm","n_px":2,"px_area_m2":100.0,"confirmed":false,"confirmed_by":null,"lon":120.882707,"lat":14.670683}},{"type":"Feature","geometry":{"type":"Polygon","coordinates":[[[120.882011,14.670677],[120.882012,14.670587],[120.882197,14.670588],[120.882196,14.670679],[120.882011,14.670677]]]},"properties":{"id":"manila_2025-12-27_lgbm_28","region":"manila","date":"2025-12-27","area_m2":200.0,"mean_prob":0.9431,"max_prob":1.0,"model":"lgbm","n_px":2,"px_area_m2":100.0,"confirmed":false,"confirmed_by":null,"lon":120.882104,"lat":14.670633}},{"type":"Feature","geometry":{"type":"Polygon","coordinates":[[[120.880898,14.670577],[120.880899,14.670486],[120.881084,14.670488],[120.881084,14.670578],[120.880898,14.670577]]]},"properties":{"id":"manila_2025-12-27_lgbm_29","region":"manila","date":"2025-12-27","area_m2":200.0,"mean_prob":0.7627,"max_prob":0.7882,"model":"lgbm","n_px":2,"px_area_m2":100.0,"confirmed":false,"confirmed_by":null,"lon":120.880991,"lat":14.670532}},{"type":"Feature","geometry":{"type":"Polygon","coordinates":[[[120.91812,14.670461],[120.918121,14.670371],[120.918028,14.67037],[120.918029,14.67028],[120.918122,14.670281],[120.918121,14.670371],[120.918214,14.670372],[120.918213,14.670462],[120.91812,14.670461]]]},"properties":{"id":"manila_2025-12-27_lgbm_30","region":"manila","date":"2025-12-27","area_m2":200.0,"mean_prob":0.7431,"max_prob":0.8392,"model":"lgbm","n_px":2,"px_area_m2":100.0,"confirmed":false,"confirmed_by":null,"lon":120.918121,"lat":14.670371}},{"type":"Feature","geometry":{"type":"Polygon","coordinates":[[[120.924063,14.670244],[120.924064,14.670153],[120.923971,14.670152],[120.923972,14.670062],[120.924158,14.670064],[120.924156,14.670244],[120.924063,14.670244]]]},"properties":{"id":"manila_2025-12-27_lgbm_31","region":"manila","date":"2025-12-27","area_m2":300.0,"mean_prob":0.9948,"max_prob":0.9961,"model":"lgbm","n_px":3,"px_area_m2":100.0,"confirmed":false,"confirmed_by":null,"lon":120.924079,"lat":14.670138}},{"type":"Feature","geometry":{"type":"Polygon","coordinates":[[[120.846671,14.668184],[120.846672,14.668093],[120.846765,14.668094],[120.846765,14.668004],[120.846858,14.668005],[120.846857,14.668185],[120.846671,14.668184]]]},"properties":{"id":"manila_2025-12-27_lgbm_32","region":"manila","date":"2025-12-27","area_m2":300.0,"mean_prob":0.9974,"max_prob":1.0,"model":"lgbm","n_px":3,"px_area_m2":100.0,"confirmed":false,"confirmed_by":null,"lon":120.84678,"lat":14.668109}},{"type":"Feature","geometry":{"type":"Polygon","coordinates":[[[120.924542,14.668712],[120.924542,14.668621],[120.924635,14.668622],[120.924636,14.668532],[120.924729,14.668533],[120.924727,14.668713],[120.924542,14.668712]]]},"properties":{"id":"manila_2025-12-27_lgbm_33","region":"manila","date":"2025-12-27","area_m2":300.0,"mean_prob":0.9935,"max_prob":1.0,"model":"lgbm","n_px":3,"px_area_m2":100.0,"confirmed":true,"confirmed_by":"mdd","lon":120.924651,"lat":14.668637}},{"type":"Feature","geometry":{"type":"Polygon","coordinates":[[[120.926031,14.668273],[120.926032,14.668183],[120.926217,14.668184],[120.926216,14.668275],[120.926031,14.668273]]]},"properties":{"id":"manila_2025-12-27_lgbm_34","region":"manila","date":"2025-12-27","area_m2":200.0,"mean_prob":0.8961,"max_prob":0.9137,"model":"lgbm","n_px":2,"px_area_m2":100.0,"confirmed":false,"confirmed_by":null,"lon":120.926124,"lat":14.668229}},{"type":"Feature","geometry":{"type":"Polygon","coordinates":[[[120.865383,14.662393],[120.865385,14.662212],[120.865478,14.662213],[120.865476,14.662393],[120.865383,14.662393]]]},"properties":{"id":"manila_2025-12-27_lgbm_35","region":"manila","date":"2025-12-27","area_m2":200.0,"mean_prob":0.9431,"max_prob":0.9804,"model":"lgbm","n_px":2,"px_area_m2":100.0,"confirmed":false,"confirmed_by":null,"lon":120.865431,"lat":14.662303}},{"type":"Feature","geometry":{"type":"Polygon","coordinates":[[[120.866871,14.662135],[120.866873,14.661954],[120.867058,14.661956],[120.867057,14.662137],[120.866871,14.662135]]]},"properties":{"id":"manila_2025-12-27_lgbm_36","region":"manila","date":"2025-12-27","area_m2":400.0,"mean_prob":0.8441,"max_prob":0.9961,"model":"lgbm","n_px":4,"px_area_m2":100.0,"confirmed":false,"confirmed_by":null,"lon":120.866965,"lat":14.662046}},{"type":"Feature","geometry":{"type":"Polygon","coordinates":[[[120.922318,14.658481],[120.922318,14.65839],[120.922504,14.658392],[120.922503,14.658482],[120.922318,14.658481]]]},"properties":{"id":"manila_2025-12-27_lgbm_37","region":"manila","date":"2025-12-27","area_m2":200.0,"mean_prob":0.9118,"max_prob":1.0,"model":"lgbm","n_px":2,"px_area_m2":100.0,"confirmed":false,"confirmed_by":null,"lon":120.922411,"lat":14.658436}},{"type":"Feature","geometry":{"type":"Polygon","coordinates":[[[120.902876,14.653246],[120.902878,14.653065],[120.903063,14.653067],[120.903061,14.653248],[120.902876,14.653246]]]},"properties":{"id":"manila_2025-12-27_lgbm_38","region":"manila","date":"2025-12-27","area_m2":400.0,"mean_prob":0.9775,"max_prob":0.9882,"model":"lgbm","n_px":4,"px_area_m2":100.0,"confirmed":false,"confirmed_by":null,"lon":120.902969,"lat":14.653156}},{"type":"Feature","geometry":{"type":"Polygon","coordinates":[[[120.895478,14.640709],[120.89548,14.640438],[120.895573,14.640439],[120.89557,14.64071],[120.895478,14.640709]]]},"properties":{"id":"manila_2025-12-27_lgbm_39","region":"manila","date":"2025-12-27","area_m2":300.0,"mean_prob":0.9856,"max_prob":1.0,"model":"lgbm","n_px":3,"px_area_m2":100.0,"confirmed":false,"confirmed_by":null,"lon":120.895525,"lat":14.640574}},{"type":"Feature","geometry":{"type":"Polygon","coordinates":[[[120.875465,14.627515],[120.875467,14.627335],[120.87556,14.627336],[120.875558,14.627516],[120.875465,14.627515]]]},"properties":{"id":"manila_2025-12-27_lgbm_40","region":"manila","date":"2025-12-27","area_m2":200.0,"mean_prob":0.9843,"max_prob":0.9922,"model":"lgbm","n_px":2,"px_area_m2":100.0,"confirmed":false,"confirmed_by":null,"lon":120.875512,"lat":14.627425}},{"type":"Feature","geometry":{"type":"Polygon","coordinates":[[[120.891525,14.627029],[120.891526,14.626848],[120.891619,14.626849],[120.891617,14.62703],[120.891525,14.627029]]]},"properties":{"id":"manila_2025-12-27_lgbm_41","region":"manila","date":"2025-12-27","area_m2":200.0,"mean_prob":0.9765,"max_prob":0.9961,"model":"lgbm","n_px":2,"px_area_m2":100.0,"confirmed":false,"confirmed_by":null,"lon":120.891572,"lat":14.626939}},{"type":"Feature","geometry":{"type":"Polygon","coordinates":[[[120.871215,14.625579],[120.871217,14.625398],[120.87131,14.625399],[120.871308,14.62558],[120.871215,14.625579]]]},"properties":{"id":"manila_2025-12-27_lgbm_42","region":"manila","date":"2025-12-27","area_m2":200.0,"mean_prob":0.8941,"max_prob":1.0,"model":"lgbm","n_px":2,"px_area_m2":100.0,"confirmed":false,"confirmed_by":null,"lon":120.871262,"lat":14.625489}},{"type":"Feature","geometry":{"type":"Polygon","coordinates":[[[120.883185,14.625688],[120.883186,14.625598],[120.883093,14.625597],[120.883094,14.625507],[120.88328,14.625508],[120.883278,14.625689],[120.883185,14.625688]]]},"properties":{"id":"manila_2025-12-27_lgbm_43","region":"manila","date":"2025-12-27","area_m2":300.0,"mean_prob":0.9804,"max_prob":0.9961,"model":"lgbm","n_px":3,"px_area_m2":100.0,"confirmed":false,"confirmed_by":null,"lon":120.883202,"lat":14.625583}},{"type":"Feature","geometry":{"type":"Polygon","coordinates":[[[120.885228,14.625526],[120.885229,14.625436],[120.885415,14.625437],[120.885414,14.625528],[120.885228,14.625526]]]},"properties":{"id":"manila_2025-12-27_lgbm_44","region":"manila","date":"2025-12-27","area_m2":200.0,"mean_prob":0.8922,"max_prob":0.8941,"model":"lgbm","n_px":2,"px_area_m2":100.0,"confirmed":false,"confirmed_by":null,"lon":120.885322,"lat":14.625482}},{"type":"Feature","geometry":{"type":"Polygon","coordinates":[[[120.871195,14.617989],[120.871196,14.617898],[120.871382,14.6179],[120.871381,14.61799],[120.871195,14.617989]]]},"properties":{"id":"manila_2025-12-27_lgbm_45","region":"manila","date":"2025-12-27","area_m2":200.0,"mean_prob":0.9882,"max_prob":0.9922,"model":"lgbm","n_px":2,"px_area_m2":100.0,"confirmed":false,"confirmed_by":null,"lon":120.871289,"lat":14.617944}},{"type":"Feature","geometry":{"type":"Polygon","coordinates":[[[120.874936,14.61495],[120.874937,14.61486],[120.87503,14.614861],[120.875031,14.614771],[120.875124,14.614771],[120.875122,14.614952],[120.874936,14.61495]]]},"properties":{"id":"manila_2025-12-27_lgbm_46","region":"manila","date":"2025-12-27","area_m2":300.0,"mean_prob":0.9386,"max_prob":0.9961,"model":"lgbm","n_px":3,"px_area_m2":100.0,"confirmed":false,"confirmed_by":null,"lon":120.875045,"lat":14.614876}},{"type":"Feature","geometry":{"type":"Polygon","coordinates":[[[120.878508,14.610194],[120.87851,14.610013],[120.878603,14.610014],[120.878602,14.610104],[120.878695,14.610105],[120.878694,14.610196],[120.878508,14.610194]]]},"properties":{"id":"manila_2025-12-27_lgbm_47","region":"manila","date":"2025-12-27","area_m2":300.0,"mean_prob":0.966,"max_prob":1.0,"model":"lgbm","n_px":3,"px_area_m2":100.0,"confirmed":false,"confirmed_by":null,"lon":120.878586,"lat":14.610119}},{"type":"Feature","geometry":{"type":"Polygon","coordinates":[[[120.913219,14.609694],[120.91322,14.609513],[120.913406,14.609515],[120.913405,14.609605],[120.913312,14.609604],[120.913311,14.609695],[120.913219,14.609694]]]},"properties":{"id":"manila_2025-12-27_lgbm_48","region":"manila","date":"2025-12-27","area_m2":300.0,"mean_prob":0.9686,"max_prob":1.0,"model":"lgbm","n_px":3,"px_area_m2":100.0,"confirmed":false,"confirmed_by":null,"lon":120.913297,"lat":14.609589}},{"type":"Feature","geometry":{"type":"Polygon","coordinates":[[[120.858299,14.608112],[120.858301,14.607931],[120.858394,14.607932],[120.858392,14.608112],[120.858299,14.608112]]]},"properties":{"id":"manila_2025-12-27_lgbm_49","region":"manila","date":"2025-12-27","area_m2":200.0,"mean_prob":0.9431,"max_prob":0.9608,"model":"lgbm","n_px":2,"px_area_m2":100.0,"confirmed":false,"confirmed_by":null,"lon":120.858347,"lat":14.608022}},{"type":"Feature","geometry":{"type":"Polygon","coordinates":[[[120.857942,14.606663],[120.857944,14.606482],[120.858037,14.606483],[120.858035,14.606663],[120.857942,14.606663]]]},"properties":{"id":"manila_2025-12-27_lgbm_50","region":"manila","date":"2025-12-27","area_m2":200.0,"mean_prob":0.9118,"max_prob":0.9451,"model":"lgbm","n_px":2,"px_area_m2":100.0,"confirmed":false,"confirmed_by":null,"lon":120.85799,"lat":14.606573}},{"type":"Feature","geometry":{"type":"Polygon","coordinates":[[[120.839744,14.588784],[120.839746,14.588604],[120.839839,14.588604],[120.839838,14.588695],[120.83993,14.588696],[120.83993,14.588786],[120.839744,14.588784]]]},"properties":{"id":"manila_2025-12-27_lgbm_51","region":"manila","date":"2025-12-27","area_m2":300.0,"mean_prob":0.932,"max_prob":1.0,"model":"lgbm","n_px":3,"px_area_m2":100.0,"confirmed":false,"confirmed_by":null,"lon":120.839822,"lat":14.58871}},{"type":"Feature","geometry":{"type":"Polygon","coordinates":[[[120.704791,14.584786],[120.704792,14.584605],[120.704885,14.584606],[120.704883,14.584787],[120.704791,14.584786]]]},"properties":{"id":"manila_2025-12-27_lgbm_52","region":"manila","date":"2025-12-27","area_m2":200.0,"mean_prob":0.8725,"max_prob":0.9961,"model":"lgbm","n_px":2,"px_area_m2":100.0,"confirmed":false,"confirmed_by":null,"lon":120.704838,"lat":14.584696}},{"type":"Feature","geometry":{"type":"Polygon","coordinates":[[[120.862054,14.584472],[120.862056,14.584291],[120.862148,14.584292],[120.862148,14.584382],[120.86224,14.584383],[120.862239,14.584473],[120.862054,14.584472]]]},"properties":{"id":"manila_2025-12-27_lgbm_53","region":"manila","date":"2025-12-27","area_m2":300.0,"mean_prob":0.9974,"max_prob":1.0,"model":"lgbm","n_px":3,"px_area_m2":100.0,"confirmed":false,"confirmed_by":null,"lon":120.862132,"lat":14.584397}},{"type":"Feature","geometry":{"type":"Polygon","coordinates":[[[120.709656,14.580768],[120.709658,14.580587],[120.709751,14.580588],[120.709749,14.580769],[120.709656,14.580768]]]},"properties":{"id":"manila_2025-12-27_lgbm_54","region":"manila","date":"2025-12-27","area_m2":200.0,"mean_prob":0.9961,"max_prob":0.9961,"model":"lgbm","n_px":2,"px_area_m2":100.0,"confirmed":false,"confirmed_by":null,"lon":120.709704,"lat":14.580678}},{"type":"Feature","geometry":{"type":"Polygon","coordinates":[[[120.70762,14.580296],[120.707622,14.580116],[120.707715,14.580116],[120.707713,14.580297],[120.70762,14.580296]]]},"properties":{"id":"manila_2025-12-27_lgbm_55","region":"manila","date":"2025-12-27","area_m2":200.0,"mean_prob":0.9588,"max_prob":0.9882,"model":"lgbm","n_px":2,"px_area_m2":100.0,"confirmed":false,"confirmed_by":null,"lon":120.707668,"lat":14.580206}},{"type":"Feature","geometry":{"type":"Polygon","coordinates":[[[120.860415,14.581204],[120.860416,14.581113],[120.860602,14.581115],[120.860601,14.581205],[120.860415,14.581204]]]},"properties":{"id":"manila_2025-12-27_lgbm_56","region":"manila","date":"2025-12-27","area_m2":200.0,"mean_prob":0.9725,"max_prob":0.9882,"model":"lgbm","n_px":2,"px_area_m2":100.0,"confirmed":false,"confirmed_by":null,"lon":120.860509,"lat":14.581159}},{"type":"Feature","geometry":{"type":"Polygon","coordinates":[[[120.866265,14.580715],[120.866267,14.580534],[120.86636,14.580535],[120.866358,14.580716],[120.866265,14.580715]]]},"properties":{"id":"manila_2025-12-27_lgbm_57","region":"manila","date":"2025-12-27","area_m2":200.0,"mean_prob":0.9941,"max_prob":0.9961,"model":"lgbm","n_px":2,"px_area_m2":100.0,"confirmed":false,"confirmed_by":null,"lon":120.866313,"lat":14.580625}},{"type":"Feature","geometry":{"type":"Polygon","coordinates":[[[120.787888,14.57854],[120.787889,14.57845],[120.788075,14.578452],[120.788074,14.578542],[120.787888,14.57854]]]},"properties":{"id":"manila_2025-12-27_lgbm_58","region":"manila","date":"2025-12-27","area_m2":200.0,"mean_prob":0.9843,"max_prob":0.9961,"model":"lgbm","n_px":2,"px_area_m2":100.0,"confirmed":false,"confirmed_by":null,"lon":120.787981,"lat":14.578496}},{"type":"Feature","geometry":{"type":"Polygon","coordinates":[[[120.808965,14.576841],[120.808967,14.576661],[120.80906,14.576662],[120.809059,14.576752],[120.809152,14.576753],[120.809151,14.576843],[120.808965,14.576841]]]},"properties":{"id":"manila_2025-12-27_lgbm_59","region":"manila","date":"2025-12-27","area_m2":300.0,"mean_prob":0.7542,"max_prob":0.8549,"model":"lgbm","n_px":3,"px_area_m2":100.0,"confirmed":false,"confirmed_by":null,"lon":120.809044,"lat":14.576767}},{"type":"Feature","geometry":{"type":"Polygon","coordinates":[[[120.860085,14.576954],[120.860086,14.576863],[120.860272,14.576865],[120.860271,14.576955],[120.860085,14.576954]]]},"properties":{"id":"manila_2025-12-27_lgbm_60","region":"manila","date":"2025-12-27","area_m2":200.0,"mean_prob":0.9294,"max_prob":0.9412,"model":"lgbm","n_px":2,"px_area_m2":100.0,"confirmed":false,"confirmed_by":null,"lon":120.860179,"lat":14.576909}},{"type":"Feature","geometry":{"type":"Polygon","coordinates":[[[120.795181,14.572917],[120.795182,14.572826],[120.795367,14.572828],[120.795366,14.572918],[120.795181,14.572917]]]},"properties":{"id":"manila_2025-12-27_lgbm_61","region":"manila","date":"2025-12-27","area_m2":200.0,"mean_prob":0.9314,"max_prob":0.9529,"model":"lgbm","n_px":2,"px_area_m2":100.0,"confirmed":false,"confirmed_by":null,"lon":120.795274,"lat":14.572872}},{"type":"Feature","geometry":{"type":"Polygon","coordinates":[[[120.858279,14.571877],[120.85828,14.571787],[120.858465,14.571788],[120.858464,14.571879],[120.858279,14.571877]]]},"properties":{"id":"manila_2025-12-27_lgbm_62","region":"manila","date":"2025-12-27","area_m2":200.0,"mean_prob":0.9118,"max_prob":0.9412,"model":"lgbm","n_px":2,"px_area_m2":100.0,"confirmed":false,"confirmed_by":null,"lon":120.858372,"lat":14.571833}},{"type":"Feature","geometry":{"type":"Polygon","coordinates":[[[120.808247,14.565088],[120.808248,14.564998],[120.808433,14.565],[120.808432,14.56509],[120.808247,14.565088]]]},"properties":{"id":"manila_2025-12-27_lgbm_63","region":"manila","date":"2025-12-27","area_m2":200.0,"mean_prob":0.9118,"max_prob":0.9529,"model":"lgbm","n_px":2,"px_area_m2":100.0,"confirmed":false,"confirmed_by":null,"lon":120.80834,"lat":14.565044}},{"type":"Feature","geometry":{"type":"Polygon","coordinates":[[[120.824402,14.563793],[120.824403,14.563703],[120.824681,14.563706],[120.82468,14.563796],[120.824402,14.563793]]]},"properties":{"id":"manila_2025-12-27_lgbm_64","region":"manila","date":"2025-12-27","area_m2":300.0,"mean_prob":0.9908,"max_prob":0.9961,"model":"lgbm","n_px":3,"px_area_m2":100.0,"confirmed":false,"confirmed_by":null,"lon":120.824541,"lat":14.563749}},{"type":"Feature","geometry":{"type":"Polygon","coordinates":[[[120.806276,14.557931],[120.806278,14.557751],[120.806371,14.557752],[120.806369,14.557932],[120.806276,14.557931]]]},"properties":{"id":"manila_2025-12-27_lgbm_65","region":"manila","date":"2025-12-27","area_m2":200.0,"mean_prob":0.7529,"max_prob":0.7765,"model":"lgbm","n_px":2,"px_area_m2":100.0,"confirmed":false,"confirmed_by":null,"lon":120.806324,"lat":14.557842}},{"type":"Feature","geometry":{"type":"Polygon","coordinates":[[[120.804519,14.557373],[120.804521,14.557192],[120.804614,14.557193],[120.804612,14.557374],[120.804519,14.557373]]]},"properties":{"id":"manila_2025-12-27_lgbm_66","region":"manila","date":"2025-12-27","area_m2":200.0,"mean_prob":0.7255,"max_prob":0.7529,"model":"lgbm","n_px":2,"px_area_m2":100.0,"confirmed":false,"confirmed_by":null,"lon":120.804567,"lat":14.557283}},{"type":"Feature","geometry":{"type":"Polygon","coordinates":[[[120.80499,14.556654],[120.804991,14.556564],[120.804898,14.556563],[120.804899,14.556473],[120.805085,14.556475],[120.805083,14.556655],[120.80499,14.556654]]]},"properties":{"id":"manila_2025-12-27_lgbm_67","region":"manila","date":"2025-12-27","area_m2":300.0,"mean_prob":0.8797,"max_prob":1.0,"model":"lgbm","n_px":3,"px_area_m2":100.0,"confirmed":false,"confirmed_by":null,"lon":120.805007,"lat":14.556549}},{"type":"Feature","geometry":{"type":"Polygon","coordinates":[[[120.802676,14.556181],[120.802678,14.556],[120.80277,14.556001],[120.802769,14.556182],[120.802676,14.556181]]]},"properties":{"id":"manila_2025-12-27_lgbm_68","region":"manila","date":"2025-12-27","area_m2":200.0,"mean_prob":0.8471,"max_prob":0.8667,"model":"lgbm","n_px":2,"px_area_m2":100.0,"confirmed":false,"confirmed_by":null,"lon":120.802723,"lat":14.556091}},{"type":"Feature","geometry":{"type":"Polygon","coordinates":[[[120.806866,14.554594],[120.806867,14.554503],[120.80696,14.554504],[120.806961,14.554414],[120.807053,14.554415],[120.807052,14.554595],[120.806866,14.554594]]]},"properties":{"id":"manila_2025-12-27_lgbm_69","region":"manila","date":"2025-12-27","area_m2":300.0,"mean_prob":0.8732,"max_prob":0.9961,"model":"lgbm","n_px":3,"px_area_m2":100.0,"confirmed":false,"confirmed_by":null,"lon":120.806975,"lat":14.554519}},{"type":"Feature","geometry":{"type":"Polygon","coordinates":[[[120.806053,14.552418],[120.806054,14.552327],[120.806146,14.552328],[120.806147,14.552238],[120.80624,14.552239],[120.806239,14.552329],[120.806332,14.55233],[120.806331,14.55242],[120.806053,14.552418]]]},"properties":{"id":"manila_2025-12-27_lgbm_70","region":"manila","date":"2025-12-27","area_m2":400.0,"mean_prob":0.8814,"max_prob":0.9843,"model":"lgbm","n_px":4,"px_area_m2":100.0,"confirmed":false,"confirmed_by":null,"lon":120.806192,"lat":14.552351}},{"type":"Feature","geometry":{"type":"Polygon","coordinates":[[[120.802009,14.548585],[120.802011,14.548404],[120.802103,14.548405],[120.802102,14.548585],[120.802009,14.548585]]]},"properties":{"id":"manila_2025-12-27_lgbm_71","region":"manila","date":"2025-12-27","area_m2":200.0,"mean_prob":1.0,"max_prob":1.0,"model":"lgbm","n_px":2,"px_area_m2":100.0,"confirmed":false,"confirmed_by":null,"lon":120.802056,"lat":14.548495}},{"type":"Feature","geometry":{"type":"Polygon","coordinates":[[[120.795098,14.543911],[120.795099,14.543821],[120.795006,14.54382],[120.795007,14.54373],[120.795192,14.543732],[120.795191,14.543912],[120.795098,14.543911]]]},"properties":{"id":"manila_2025-12-27_lgbm_72","region":"manila","date":"2025-12-27","area_m2":300.0,"mean_prob":0.9281,"max_prob":0.9961,"model":"lgbm","n_px":3,"px_area_m2":100.0,"confirmed":false,"confirmed_by":null,"lon":120.795114,"lat":14.543806}},{"type":"Feature","geometry":{"type":"Polygon","coordinates":[[[120.804933,14.534336],[120.804934,14.534155],[120.805027,14.534156],[120.805028,14.534065],[120.805121,14.534066],[120.80512,14.534157],[120.805027,14.534156],[120.805025,14.534336],[120.804933,14.534336]]]},"properties":{"id":"manila_2025-12-27_lgbm_73","region":"manila","date":"2025-12-27","area_m2":300.0,"mean_prob":0.8314,"max_prob":0.9608,"model":"lgbm","n_px":3,"px_area_m2":100.0,"confirmed":false,"confirmed_by":null,"lon":120.805011,"lat":14.534201}},{"type":"Feature","geometry":{"type":"Polygon","coordinates":[[[120.815728,14.530732],[120.815729,14.530641],[120.815822,14.530642],[120.815824,14.530462],[120.815916,14.530462],[120.815914,14.530643],[120.815822,14.530642],[120.815821,14.530733],[120.815728,14.530732]]]},"properties":{"id":"manila_2025-12-27_lgbm_74","region":"manila","date":"2025-12-27","area_m2":300.0,"mean_prob":0.9516,"max_prob":0.9725,"model":"lgbm","n_px":3,"px_area_m2":100.0,"confirmed":false,"confirmed_by":null,"lon":120.815838,"lat":14.530597}},{"type":"Feature","geometry":{"type":"Polygon","coordinates":[[[120.798578,14.529668],[120.79858,14.529487],[120.798766,14.529489],[120.798764,14.529669],[120.798578,14.529668]]]},"properties":{"id":"manila_2025-12-27_lgbm_75","region":"manila","date":"2025-12-27","area_m2":400.0,"mean_prob":0.9098,"max_prob":0.9922,"model":"lgbm","n_px":4,"px_area_m2":100.0,"confirmed":false,"confirmed_by":null,"lon":120.798672,"lat":14.529578}},{"type":"Feature","geometry":{"type":"Polygon","coordinates":[[[120.766309,14.52873],[120.76631,14.528639],[120.766495,14.528641],[120.766494,14.528732],[120.766309,14.52873]]]},"properties":{"id":"manila_2025-12-27_lgbm_76","region":"manila","date":"2025-12-27","area_m2":200.0,"mean_prob":0.9882,"max_prob":0.9922,"model":"lgbm","n_px":2,"px_area_m2":100.0,"confirmed":false,"confirmed_by":null,"lon":120.766402,"lat":14.528686}},{"type":"Feature","geometry":{"type":"Polygon","coordinates":[[[120.796205,14.52585],[120.796206,14.52567],[120.796299,14.525671],[120.796297,14.525851],[120.796205,14.52585]]]},"properties":{"id":"manila_2025-12-27_lgbm_77","region":"manila","date":"2025-12-27","area_m2":200.0,"mean_prob":0.9941,"max_prob":0.9961,"model":"lgbm","n_px":2,"px_area_m2":100.0,"confirmed":false,"confirmed_by":null,"lon":120.796252,"lat":14.52576}},{"type":"Feature","geometry":{"type":"Polygon","coordinates":[[[120.834062,14.524486],[120.834064,14.524306],[120.834157,14.524307],[120.834155,14.524487],[120.834062,14.524486]]]},"properties":{"id":"manila_2025-12-27_lgbm_78","region":"manila","date":"2025-12-27","area_m2":200.0,"mean_prob":0.9961,"max_prob":1.0,"model":"lgbm","n_px":2,"px_area_m2":100.0,"confirmed":false,"confirmed_by":null,"lon":120.83411,"lat":14.524397}},{"type":"Feature","geometry":{"type":"Polygon","coordinates":[[[120.797545,14.512219],[120.797546,14.512129],[120.797639,14.51213],[120.79764,14.512039],[120.797733,14.51204],[120.797732,14.51213],[120.797639,14.51213],[120.797638,14.51222],[120.797545,14.512219]]]},"properties":{"id":"manila_2025-12-27_lgbm_79","region":"manila","date":"2025-12-27","area_m2":200.0,"mean_prob":0.8706,"max_prob":0.949,"model":"lgbm","n_px":2,"px_area_m2":100.0,"confirmed":false,"confirmed_by":null,"lon":120.797639,"lat":14.51213}},{"type":"Feature","geometry":{"type":"Polygon","coordinates":[[[120.934912,14.512294],[120.934914,14.512113],[120.935006,14.512114],[120.935005,14.512295],[120.934912,14.512294]]]},"properties":{"id":"manila_2025-12-27_lgbm_80","region":"manila","date":"2025-12-27","area_m2":200.0,"mean_prob":0.8,"max_prob":0.9098,"model":"lgbm","n_px":2,"px_area_m2":100.0,"confirmed":false,"confirmed_by":null,"lon":120.934959,"lat":14.512204}},{"type":"Feature","geometry":{"type":"Polygon","coordinates":[[[120.818243,14.510786],[120.818244,14.510605],[120.818337,14.510606],[120.818335,14.510787],[120.818243,14.510786]]]},"properties":{"id":"manila_2025-12-27_lgbm_81","region":"manila","date":"2025-12-27","area_m2":200.0,"mean_prob":0.9922,"max_prob":1.0,"model":"lgbm","n_px":2,"px_area_m2":100.0,"confirmed":false,"confirmed_by":null,"lon":120.81829,"lat":14.510696}},{"type":"Feature","geometry":{"type":"Polygon","coordinates":[[[120.834585,14.508949],[120.834586,14.508769],[120.834679,14.50877],[120.834677,14.50895],[120.834585,14.508949]]]},"properties":{"id":"manila_2025-12-27_lgbm_82","region":"manila","date":"2025-12-27","area_m2":200.0,"mean_prob":0.9412,"max_prob":0.9647,"model":"lgbm","n_px":2,"px_area_m2":100.0,"confirmed":true,"confirmed_by":"mdd","lon":120.834632,"lat":14.50886}},{"type":"Feature","geometry":{"type":"Polygon","coordinates":[[[120.930021,14.50963],[120.930022,14.509449],[120.930115,14.50945],[120.930113,14.509631],[120.930021,14.50963]]]},"properties":{"id":"manila_2025-12-27_lgbm_83","region":"manila","date":"2025-12-27","area_m2":200.0,"mean_prob":0.9922,"max_prob":0.9961,"model":"lgbm","n_px":2,"px_area_m2":100.0,"confirmed":false,"confirmed_by":null,"lon":120.930068,"lat":14.50954}},{"type":"Feature","geometry":{"type":"Polygon","coordinates":[[[120.839041,14.508448],[120.839042,14.508358],[120.839135,14.508359],[120.839136,14.508269],[120.839229,14.508269],[120.83923,14.508179],[120.839322,14.50818],[120.839321,14.50827],[120.839229,14.508269],[120.839227,14.50845],[120.839041,14.508448]]]},"properties":{"id":"manila_2025-12-27_lgbm_84","region":"manila","date":"2025-12-27","area_m2":400.0,"mean_prob":0.9529,"max_prob":1.0,"model":"lgbm","n_px":4,"px_area_m2":100.0,"confirmed":true,"confirmed_by":"mdd","lon":120.839182,"lat":14.508337}},{"type":"Feature","geometry":{"type":"Polygon","coordinates":[[[120.84879,14.507454],[120.848791,14.507363],[120.848698,14.507362],[120.848699,14.507272],[120.848884,14.507274],[120.848883,14.507455],[120.84879,14.507454]]]},"properties":{"id":"manila_2025-12-27_lgbm_85","region":"manila","date":"2025-12-27","area_m2":300.0,"mean_prob":0.8967,"max_prob":0.9961,"model":"lgbm","n_px":3,"px_area_m2":100.0,"confirmed":false,"confirmed_by":null,"lon":120.848806,"lat":14.507348}},{"type":"Feature","geometry":{"type":"Polygon","coordinates":[[[120.797878,14.50671],[120.79788,14.50653],[120.797973,14.506531],[120.797971,14.506711],[120.797878,14.50671]]]},"properties":{"id":"manila_2025-12-27_lgbm_86","region":"manila","date":"2025-12-27","area_m2":200.0,"mean_prob":0.8686,"max_prob":0.9412,"model":"lgbm","n_px":2,"px_area_m2":100.0,"confirmed":false,"confirmed_by":null,"lon":120.797925,"lat":14.50662}},{"type":"Feature","geometry":{"type":"Polygon","coordinates":[[[120.854173,14.507051],[120.854175,14.50687],[120.854268,14.506871],[120.854266,14.507052],[120.854173,14.507051]]]},"properties":{"id":"manila_2025-12-27_lgbm_87","region":"manila","date":"2025-12-27","area_m2":200.0,"mean_prob":0.9863,"max_prob":0.9922,"model":"lgbm","n_px":2,"px_area_m2":100.0,"confirmed":false,"confirmed_by":null,"lon":120.85422,"lat":14.506961}},{"type":"Feature","geometry":{"type":"Polygon","coordinates":[[[120.78742,14.504443],[120.787423,14.504172],[120.787516,14.504173],[120.787513,14.504444],[120.78742,14.504443]]]},"properties":{"id":"manila_2025-12-27_lgbm_88","region":"manila","date":"2025-12-27","area_m2":300.0,"mean_prob":0.8261,"max_prob":0.9255,"model":"lgbm","n_px":3,"px_area_m2":100.0,"confirmed":false,"confirmed_by":null,"lon":120.787468,"lat":14.504308}},{"type":"Feature","geometry":{"type":"Polygon","coordinates":[[[120.791411,14.50412],[120.791413,14.503939],[120.791599,14.503941],[120.791598,14.504031],[120.791505,14.50403],[120.791504,14.50412],[120.791411,14.50412]]]},"properties":{"id":"manila_2025-12-27_lgbm_89","region":"manila","date":"2025-12-27","area_m2":300.0,"mean_prob":0.8719,"max_prob":0.9686,"model":"lgbm","n_px":3,"px_area_m2":100.0,"confirmed":false,"confirmed_by":null,"lon":120.79149,"lat":14.504015}},{"type":"Feature","geometry":{"type":"Polygon","coordinates":[[[120.901324,14.503502],[120.901325,14.503411],[120.901511,14.503413],[120.90151,14.503503],[120.901324,14.503502]]]},"properties":{"id":"manila_2025-12-27_lgbm_90","region":"manila","date":"2025-12-27","area_m2":200.0,"mean_prob":0.8725,"max_prob":0.9843,"model":"lgbm","n_px":2,"px_area_m2":100.0,"confirmed":false,"confirmed_by":null,"lon":120.901418,"lat":14.503457}},{"type":"Feature","geometry":{"type":"Polygon","coordinates":[[[120.785876,14.501176],[120.785877,14.501086],[120.786062,14.501087],[120.786061,14.501178],[120.785876,14.501176]]]},"properties":{"id":"manila_2025-12-27_lgbm_91","region":"manila","date":"2025-12-27","area_m2":200.0,"mean_prob":0.9824,"max_prob":0.9961,"model":"lgbm","n_px":2,"px_area_m2":100.0,"confirmed":false,"confirmed_by":null,"lon":120.785969,"lat":14.501132}},{"type":"Feature","geometry":{"type":"Polygon","coordinates":[[[120.922296,14.502423],[120.922298,14.502242],[120.922391,14.502243],[120.922389,14.502424],[120.922296,14.502423]]]},"properties":{"id":"manila_2025-12-27_lgbm_92","region":"manila","date":"2025-12-27","area_m2":200.0,"mean_prob":0.9922,"max_prob":1.0,"model":"lgbm","n_px":2,"px_area_m2":100.0,"confirmed":false,"confirmed_by":null,"lon":120.922344,"lat":14.502333}},{"type":"Feature","geometry":{"type":"Polygon","coordinates":[[[120.929632,14.501584],[120.929634,14.501313],[120.929541,14.501312],[120.929542,14.501222],[120.929728,14.501224],[120.929724,14.501585],[120.929632,14.501584]]]},"properties":{"id":"manila_2025-12-27_lgbm_93","region":"manila","date":"2025-12-27","area_m2":500.0,"mean_prob":0.9545,"max_prob":0.9882,"model":"lgbm","n_px":5,"px_area_m2":100.0,"confirmed":false,"confirmed_by":null,"lon":120.929661,"lat":14.501377}},{"type":"Feature","geometry":{"type":"Polygon","coordinates":[[[120.785239,14.499905],[120.785241,14.499724],[120.785334,14.499725],[120.785332,14.499906],[120.785239,14.499905]]]},"properties":{"id":"manila_2025-12-27_lgbm_94","region":"manila","date":"2025-12-27","area_m2":200.0,"mean_prob":0.9686,"max_prob":0.9686,"model":"lgbm","n_px":2,"px_area_m2":100.0,"confirmed":false,"confirmed_by":null,"lon":120.785287,"lat":14.499815}},{"type":"Feature","geometry":{"type":"Polygon","coordinates":[[[120.85405,14.500544],[120.854053,14.500273],[120.854238,14.500275],[120.854237,14.500455],[120.854144,14.500455],[120.854143,14.500545],[120.85405,14.500544]]]},"properties":{"id":"manila_2025-12-27_lgbm_95","region":"manila","date":"2025-12-27","area_m2":500.0,"mean_prob":0.9137,"max_prob":1.0,"model":"lgbm","n_px":5,"px_area_m2":100.0,"confirmed":false,"confirmed_by":null,"lon":120.854135,"lat":14.500391}},{"type":"Feature","geometry":{"type":"Polygon","coordinates":[[[120.894131,14.49919],[120.894131,14.4991],[120.894317,14.499101],[120.894316,14.499192],[120.894131,14.49919]]]},"properties":{"id":"manila_2025-12-27_lgbm_96","region":"manila","date":"2025-12-27","area_m2":200.0,"mean_prob":0.9078,"max_prob":0.9608,"model":"lgbm","n_px":2,"px_area_m2":100.0,"confirmed":false,"confirmed_by":null,"lon":120.894224,"lat":14.499146}},{"type":"Feature","geometry":{"type":"Polygon","coordinates":[[[120.78229,14.49807],[120.782292,14.497889],[120.782477,14.497891],[120.782475,14.498072],[120.78229,14.49807]]]},"properties":{"id":"manila_2025-12-27_lgbm_97","region":"manila","date":"2025-12-27","area_m2":400.0,"mean_prob":0.8569,"max_prob":0.9647,"model":"lgbm","n_px":4,"px_area_m2":100.0,"confirmed":false,"confirmed_by":null,"lon":120.782384,"lat":14.497981}},{"type":"Feature","geometry":{"type":"Polygon","coordinates":[[[120.785259,14.497917],[120.785261,14.497737],[120.785354,14.497738],[120.785352,14.497918],[120.785259,14.497917]]]},"properties":{"id":"manila_2025-12-27_lgbm_98","region":"manila","date":"2025-12-27","area_m2":200.0,"mean_prob":0.8,"max_prob":0.8706,"model":"lgbm","n_px":2,"px_area_m2":100.0,"confirmed":false,"confirmed_by":null,"lon":120.785306,"lat":14.497827}},{"type":"Feature","geometry":{"type":"Polygon","coordinates":[[[120.786283,14.497566],[120.786284,14.497475],[120.786191,14.497474],[120.786192,14.497384],[120.786377,14.497386],[120.786376,14.497566],[120.786283,14.497566]]]},"properties":{"id":"manila_2025-12-27_lgbm_99","region":"manila","date":"2025-12-27","area_m2":300.0,"mean_prob":0.9516,"max_prob":1.0,"model":"lgbm","n_px":3,"px_area_m2":100.0,"confirmed":false,"confirmed_by":null,"lon":120.786299,"lat":14.49746}},{"type":"Feature","geometry":{"type":"Polygon","coordinates":[[[120.802421,14.497446],[120.802422,14.497356],[120.802608,14.497357],[120.802607,14.497448],[120.802421,14.497446]]]},"properties":{"id":"manila_2025-12-27_lgbm_100","region":"manila","date":"2025-12-27","area_m2":200.0,"mean_prob":0.902,"max_prob":0.9686,"model":"lgbm","n_px":2,"px_area_m2":100.0,"confirmed":false,"confirmed_by":null,"lon":120.802515,"lat":14.497402}},{"type":"Feature","geometry":{"type":"Polygon","coordinates":[[[120.891274,14.497177],[120.891276,14.496996],[120.891369,14.496997],[120.891368,14.497087],[120.891461,14.497088],[120.89146,14.497178],[120.891274,14.497177]]]},"properties":{"id":"manila_2025-12-27_lgbm_101","region":"manila","date":"2025-12-27","area_m2":300.0,"mean_prob":0.9503,"max_prob":0.9882,"model":"lgbm","n_px":3,"px_area_m2":100.0,"confirmed":false,"confirmed_by":null,"lon":120.891352,"lat":14.497102}},{"type":"Feature","geometry":{"type":"Polygon","coordinates":[[[120.874514,14.494405],[120.874515,14.494224],[120.874793,14.494227],[120.874794,14.494136],[120.874887,14.494137],[120.874886,14.494228],[120.874793,14.494227],[120.874793,14.494317],[120.874607,14.494315],[120.874606,14.494406],[120.874514,14.494405]]]},"properties":{"id":"manila_2025-12-27_lgbm_102","region":"manila","date":"2025-12-27","area_m2":500.0,"mean_prob":0.9569,"max_prob":0.9961,"model":"lgbm","n_px":5,"px_area_m2":100.0,"confirmed":false,"confirmed_by":null,"lon":120.874672,"lat":14.494271}},{"type":"Feature","geometry":{"type":"Polygon","coordinates":[[[120.802295,14.491481],[120.802296,14.491391],[120.802481,14.491393],[120.80248,14.491483],[120.802295,14.491481]]]},"properties":{"id":"manila_2025-12-27_lgbm_103","region":"manila","date":"2025-12-27","area_m2":200.0,"mean_prob":0.9471,"max_prob":0.9569,"model":"lgbm","n_px":2,"px_area_m2":100.0,"confirmed":false,"confirmed_by":null,"lon":120.802388,"lat":14.491437}},{"type":"Feature","geometry":{"type":"Polygon","coordinates":[[[120.909332,14.49029],[120.909333,14.490199],[120.909148,14.490198],[120.909149,14.490017],[120.909242,14.490018],[120.909241,14.490108],[120.909334,14.490109],[120.909333,14.490199],[120.909519,14.490201],[120.909518,14.490291],[120.909332,14.49029]]]},"properties":{"id":"manila_2025-12-27_lgbm_104","region":"manila","date":"2025-12-27","area_m2":500.0,"mean_prob":0.9404,"max_prob":0.9843,"model":"lgbm","n_px":5,"px_area_m2":100.0,"confirmed":false,"confirmed_by":null,"lon":120.909306,"lat":14.490172}},{"type":"Feature","geometry":{"type":"Polygon","coordinates":[[[120.911099,14.489763],[120.9111,14.489673],[120.911286,14.489675],[120.911285,14.489765],[120.911099,14.489763]]]},"properties":{"id":"manila_2025-12-27_lgbm_105","region":"manila","date":"2025-12-27","area_m2":200.0,"mean_prob":0.7078,"max_prob":0.7098,"model":"lgbm","n_px":2,"px_area_m2":100.0,"confirmed":false,"confirmed_by":null,"lon":120.911193,"lat":14.489719}},{"type":"Feature","geometry":{"type":"Polygon","coordinates":[[[120.910452,14.489577],[120.910453,14.489486],[120.91036,14.489486],[120.910361,14.489395],[120.910454,14.489396],[120.910453,14.489486],[120.910545,14.489487],[120.910545,14.489578],[120.910452,14.489577]]]},"properties":{"id":"manila_2025-12-27_lgbm_106","region":"manila","date":"2025-12-27","area_m2":200.0,"mean_prob":0.9118,"max_prob":0.9882,"model":"lgbm","n_px":2,"px_area_m2":100.0,"confirmed":false,"confirmed_by":null,"lon":120.910453,"lat":14.489486}}]}