{"type": "FeatureCollection", "features": [{"type": "Feature", "id": "SZ-live-bali-2025-07-20-001", "geometry": {"type": "Polygon", "coordinates": [[[115.241295, -8.742814], [115.240476, -8.743081], [115.240019, -8.743621], [115.239743, -8.744434], [115.23983, -8.745157], [115.238833, -8.744791], [115.237739, -8.745329], [115.237462, -8.746322], [115.238002, -8.747409], [115.238819, -8.747684], [115.239365, -8.747596], [115.240186, -8.746787], [115.240191, -8.745792], [115.24128, -8.746159], [115.242373, -8.745621], [115.242741, -8.744538], [115.242654, -8.743724], [115.242203, -8.743089], [115.241295, -8.742814]]]}, "properties": {"kind": "detection_zone", "layer_kind": "scene_zone", "zone_id": "SZ-live-bali-2025-07-20-001", "scene_key": "live-bali-2025-07-20", "scene_kind": "live", "scene_id": "S2C_MSIL2A_20250720T021631_R003_T50LLR_20250720T061715", "region": "bali", "title": "Бали (пролив Бадунг) · зона 1", "mission": "Sentinel-2", "datetime": "2025-07-20T02:16:31.025000Z", "detection_status": "insufficient_data", "status": "insufficient_data", "concentration_status": "unavailable", "quantity": {"status": "not_confirmed", "label": "концентрация по снимку не подтверждена", "detail": "перевод площади в штуки не показываем: нет калибровочных пар (см. docs/QUANTITY.md)"}, "verification": "false_alarm_signs", "training_scene": null, "flags": ["coast", "shallow", "ship"], "n_cozar_filaments": 0, "crop_file": "crops/SZ-live-bali-2025-07-20-001.jpg", "measured": {"zone_area_km2": 0.1639, "suspicious_area_m2": 1400, "n_pixels": 14, "n_objects": 2, "water_km2": 0.1544, "lwd_m2_km2": 9067.4, "quality": {"valid_water_fraction": 0.928, "cloud_fraction": 0.005, "glint_fraction": 0.0}, "model": {"weights": "weights/lgbm", "file": "weights/lgbm/model.txt", "sha256": "0eeebf43fcccd8c7c07f053b7ec723229d1a3c9b92d12eec1bdb269258c51470", "sha256_short": "0eeebf43fccc", "trained_at": "2026-09-25T01:35:55Z", "threshold": 0.63, "harmonize": "none", "class": "MARIDA Marine Debris (любой плавающий мусор, не только пластик)"}}, "probable": {"prob_max": 0.965, "prob_mean": 0.787, "signs": {"foam": {"flag": false, "white_ratio_b2_b8": 0.484, "wind10m_ms": 5.08, "rule": "прирост B2 над водой ≥ 0.8 прироста B8 («белый» спектр) или ветер ≥ 7.0 м/с"}, "glint": {"flag": false, "b11_water_median": 0.0047, "glint_share": 0.0, "rule": "медиана B11 воды зоны > 0.01 или ≥ 20 % пикселей зоны — блик (маска качества)"}, "ship": {"flag": true, "share": 1.0, "bright_target_px_within_500m": 361, "rule": "≥ 30 % пикселей — у яркой цели или кильватера (reports/artifacts.md) или яркая цель с откликом в SWIR (судно, лодка: B11 ≥ 0,015) ближе 500 м"}, "coast": {"flag": true, "land_px_within_300m": 177, "rule": "суша (маска качества) ближе 300 м — прибой, кромка берега"}, "shallow": {"flag": true, "b3_water_zone": 0.062, "b3_ratio_to_scene_water": 5.25, "rule": "медиана B3 воды зоны ≥ 2× медианы воды снимка и ≥ 0,03 — мелководье или мутная вода"}, "seam": {"flag": false, "share": 0, "rule": "≥ 30 % пикселей — прямая линия вдоль трека/границы яркости (шов)"}, "cloud": {"flag": false, "cloud_fraction": 0.005, "rule": "облака или тени облаков (маска качества) ≥ 20 % зоны"}, "note": "эвристики, не классификатор; на размеченных данных не проверены"}, "n_cozar_filaments": 0}, "field_nearby": {"items": [{"source": "ADIS (4TU.ResearchData, судовая камера)", "segment_id": 437124, "ship": "Bark Europa", "date": "2024-08-17", "days_from_scene": -337, "distance_km": 5751.3, "lon": 167.19954, "lat": -15.52294, "n_items": 0, "area_km2": 0.1994, "size_class": "> 5 см", "c_items_km2": 0.0, "ci95_lo": 0.0, "ci95_hi": 18.5, "ci95_method": "точный интервал Пуассона для N, делённый на A"}, {"source": "ADIS (4TU.ResearchData, судовая камера)", "segment_id": 417394, "ship": "Bark Europa", "date": "2024-08-17", "days_from_scene": -337, "distance_km": 5751.7, "lon": 167.20278, "lat": -15.52361, "n_items": 3, "area_km2": 0.2326, "size_class": "> 5 см", "c_items_km2": 12.9, "ci95_lo": 2.66, "ci95_hi": 37.69, "ci95_method": "точный интервал Пуассона для N, делённый на A"}, {"source": "ADIS (4TU.ResearchData, судовая камера)", "segment_id": 437123, "ship": "Bark Europa", "date": "2024-08-17", "days_from_scene": -337, "distance_km": 5758.6, "lon": 167.26541, "lat": -15.53092, "n_items": 0, "area_km2": 0.4595, "size_class": "> 5 см", "c_items_km2": 0.0, "ci95_lo": 0.0, "ci95_hi": 8.03, "ci95_method": "точный интервал Пуассона для N, делённый на A"}], "nearest_organizer_sample": {"sample_id": "MPL-0922", "source_id": "S4_BLACK_SEA_DOORS3", "distance_km": 9848.4}, "note": "Измерение ≠ оценка: это независимые полевые счёты C = N/A в другое время и в другом месте; со сценой они не связаны и не калибруют её. Ближайший отрезок ADIS — за 5751 км: только для порядка величин."}}}]}