{"type": "FeatureCollection", "features": [{"type": "Feature", "id": "D-SZ-live-honduras-2025-02-19-001-5", "geometry": {"type": "Polygon", "coordinates": [[[-88.1217556, 15.8569194], [-88.1217546, 15.8567387], [-88.1214744, 15.8567401], [-88.1214749, 15.8568305], [-88.1215683, 15.85683], [-88.1215688, 15.8569204], [-88.1217556, 15.8569194]]]}, "properties": {"kind": "detection", "det_id": "D-SZ-live-honduras-2025-02-19-001-5", "zone_id": "SZ-live-honduras-2025-02-19-001", "scene_id": "S2C_MSIL2A_20250219T161341_R140_T16PCC_20250219T193154", "datetime": "2025-02-19T16:13:41.024000Z", "n_pixels": 5, "area_m2": 500, "prob_max": 0.9961, "prob_mean": 0.9529, "threshold": 0.63, "in_strip": true, "artifact": null}}]}