{"type": "FeatureCollection", "features": [{"type": "Feature", "id": "D-SZ-live-bali-2026-05-31-001-2", "geometry": {"type": "Polygon", "coordinates": [[[115.2467436, -8.7243045], [115.2467432, -8.7243949], [115.2468341, -8.7243953], [115.2468345, -8.7243049], [115.2467436, -8.7243045]]]}, "properties": {"kind": "detection", "det_id": "D-SZ-live-bali-2026-05-31-001-2", "zone_id": "SZ-live-bali-2026-05-31-001", "scene_id": "S2B_MSIL2A_20260531T021529_R003_T50LLR_20260531T060010", "datetime": "2026-05-31T02:15:29.024000Z", "n_pixels": 1, "area_m2": 100, "prob_max": 0.6863, "prob_mean": 0.6863, "threshold": 0.63, "in_strip": true, "artifact": null}}, {"type": "Feature", "id": "D-SZ-live-bali-2026-05-31-001-3", "geometry": {"type": "Polygon", "coordinates": [[[115.2480082, -8.7259377], [115.2480078, -8.7260282], [115.2479169, -8.7260277], [115.2479165, -8.7261181], [115.2480982, -8.726119], [115.2480986, -8.7260286], [115.2481895, -8.726029], [115.2481899, -8.7259386], [115.2480082, -8.7259377]]]}, "properties": {"kind": "detection", "det_id": "D-SZ-live-bali-2026-05-31-001-3", "zone_id": "SZ-live-bali-2026-05-31-001", "scene_id": "S2B_MSIL2A_20260531T021529_R003_T50LLR_20260531T060010", "datetime": "2026-05-31T02:15:29.024000Z", "n_pixels": 4, "area_m2": 400, "prob_max": 0.851, "prob_mean": 0.7588, "threshold": 0.63, "in_strip": true, "artifact": "seam"}}, {"type": "Feature", "id": "D-SZ-live-bali-2026-05-31-001-4", "geometry": {"type": "Polygon", "coordinates": [[[115.2500052, -8.726399], [115.2500048, -8.7264894], [115.2499139, -8.726489], [115.2499135, -8.7265794], [115.2500953, -8.7265803], [115.2500961, -8.7263994], [115.2500052, -8.726399]]]}, "properties": {"kind": "detection", "det_id": "D-SZ-live-bali-2026-05-31-001-4", "zone_id": "SZ-live-bali-2026-05-31-001", "scene_id": "S2B_MSIL2A_20260531T021529_R003_T50LLR_20260531T060010", "datetime": "2026-05-31T02:15:29.024000Z", "n_pixels": 3, "area_m2": 300, "prob_max": 0.8941, "prob_mean": 0.8458, "threshold": 0.63, "in_strip": true, "artifact": "seam"}}, {"type": "Feature", "id": "D-SZ-live-bali-2026-05-31-001-5", "geometry": {"type": "Polygon", "coordinates": [[[115.2500944, -8.7267611], [115.250094, -8.7268515], [115.2501849, -8.7268519], [115.2501853, -8.7267615], [115.2500944, -8.7267611]]]}, "properties": {"kind": "detection", "det_id": "D-SZ-live-bali-2026-05-31-001-5", "zone_id": "SZ-live-bali-2026-05-31-001", "scene_id": "S2B_MSIL2A_20260531T021529_R003_T50LLR_20260531T060010", "datetime": "2026-05-31T02:15:29.024000Z", "n_pixels": 1, "area_m2": 100, "prob_max": 0.8235, "prob_mean": 0.8235, "threshold": 0.63, "in_strip": true, "artifact": null}}, {"type": "Feature", "id": "D-SZ-live-bali-2026-05-31-001-6", "geometry": {"type": "Polygon", "coordinates": [[[115.2513603, -8.7281231], [115.2513599, -8.7282135], [115.2514507, -8.7282139], [115.2514512, -8.7281235], [115.2513603, -8.7281231]]]}, "properties": {"kind": "detection", "det_id": "D-SZ-live-bali-2026-05-31-001-6", "zone_id": "SZ-live-bali-2026-05-31-001", "scene_id": "S2B_MSIL2A_20260531T021529_R003_T50LLR_20260531T060010", "datetime": "2026-05-31T02:15:29.024000Z", "n_pixels": 1, "area_m2": 100, "prob_max": 0.6353, "prob_mean": 0.6353, "threshold": 0.63, "in_strip": true, "artifact": null}}, {"type": "Feature", "id": "D-SZ-live-bali-2026-05-31-002-10", "geometry": {"type": "Polygon", "coordinates": [[[115.2381942, -8.7838458], [115.2381937, -8.7839362], [115.2382846, -8.7839366], [115.238285, -8.7838462], [115.2381942, -8.7838458]]]}, "properties": {"kind": "detection", "det_id": "D-SZ-live-bali-2026-05-31-002-10", "zone_id": "SZ-live-bali-2026-05-31-002", "scene_id": "S2B_MSIL2A_20260531T021529_R003_T50LLR_20260531T060010", "datetime": "2026-05-31T02:15:29.024000Z", "n_pixels": 1, "area_m2": 100, "prob_max": 0.9608, "prob_mean": 0.9608, "threshold": 0.63, "in_strip": true, "artifact": null}}, {"type": "Feature", "id": "D-SZ-live-bali-2026-05-31-002-11", "geometry": {"type": "Polygon", "coordinates": [[[115.2387343, -8.7849332], [115.2387339, -8.7850236], [115.2388248, -8.7850241], [115.2388244, -8.7851145], [115.2389153, -8.7851149], [115.2389157, -8.7850245], [115.2388248, -8.7850241], [115.2388252, -8.7849337], [115.2387343, -8.7849332]]]}, "properties": {"kind": "detection", "det_id": "D-SZ-live-bali-2026-05-31-002-11", "zone_id": "SZ-live-bali-2026-05-31-002", "scene_id": "S2B_MSIL2A_20260531T021529_R003_T50LLR_20260531T060010", "datetime": "2026-05-31T02:15:29.024000Z", "n_pixels": 2, "area_m2": 200, "prob_max": 0.8627, "prob_mean": 0.7902, "threshold": 0.63, "in_strip": true, "artifact": null}}, {"type": "Feature", "id": "D-SZ-live-bali-2026-05-31-002-12", "geometry": {"type": "Polygon", "coordinates": [[[115.2376433, -8.7850185], [115.2376429, -8.785109], [115.2378246, -8.7851098], [115.2378251, -8.7850194], [115.2376433, -8.7850185]]]}, "properties": {"kind": "detection", "det_id": "D-SZ-live-bali-2026-05-31-002-12", "zone_id": "SZ-live-bali-2026-05-31-002", "scene_id": "S2B_MSIL2A_20260531T021529_R003_T50LLR_20260531T060010", "datetime": "2026-05-31T02:15:29.024000Z", "n_pixels": 2, "area_m2": 200, "prob_max": 0.9098, "prob_mean": 0.9039, "threshold": 0.63, "in_strip": true, "artifact": null}}]}