{"type": "FeatureCollection", "features": [{"type": "Feature", "id": "SZ-live-bali-2026-05-31-001", "geometry": {"type": "Polygon", "coordinates": [[[115.24675, -8.722948], [115.245657, -8.723486], [115.24538, -8.724389], [115.245649, -8.725204], [115.246283, -8.725659], [115.246646, -8.72566], [115.246553, -8.726112], [115.246822, -8.726927], [115.24791, -8.727474], [115.24882, -8.727207], [115.249271, -8.727933], [115.250088, -8.728208], [115.250266, -8.729022], [115.2509, -8.729477], [115.251444, -8.72957], [115.252264, -8.729303], [115.252721, -8.728672], [115.252725, -8.727677], [115.252274, -8.727042], [115.251457, -8.726767], [115.25119, -8.725591], [115.250102, -8.725043], [115.249283, -8.725311], [115.249013, -8.724857], [115.248196, -8.724673], [115.247929, -8.723496], [115.247295, -8.723041], [115.24675, -8.722948]]]}, "properties": {"kind": "detection_zone", "layer_kind": "scene_zone", "zone_id": "SZ-live-bali-2026-05-31-001", "scene_key": "live-bali-2026-05-31", "scene_kind": "live", "scene_id": "S2B_MSIL2A_20260531T021529_R003_T50LLR_20260531T060010", "region": "bali", "title": "Бали (пролив Бадунг) · зона 1", "mission": "Sentinel-2", "datetime": "2026-05-31T02:15:29.024000Z", "detection_status": "insufficient_data", "status": "insufficient_data", "concentration_status": "unavailable", "verification": "false_alarm_signs", "training_scene": null, "flags": ["ship", "coast", "seam"], "n_cozar_filaments": 0, "crop_file": "crops/SZ-live-bali-2026-05-31-001.jpg", "measured": {"zone_area_km2": 0.2637, "suspicious_area_m2": 1000, "n_pixels": 10, "n_objects": 5, "water_km2": 0.2639, "lwd_m2_km2": 3789.3, "quality": {"valid_water_fraction": 0.99, "cloud_fraction": 0.0, "glint_fraction": 0.0}, "model": {"weights": "weights/lgbm", "file": "weights/lgbm/model.txt", "sha256": "0eeebf43fcccd8c7c07f053b7ec723229d1a3c9b92d12eec1bdb269258c51470", "sha256_short": "0eeebf43fccc", "trained_at": "2026-09-25T01:35:55Z", "threshold": 0.63, "harmonize": "none", "class": "MARIDA Marine Debris (любой плавающий мусор, не только пластик)"}}, "probable": {"prob_max": 0.894, "prob_mean": 0.772, "signs": {"foam": {"flag": false, "white_ratio_b2_b8": 0.658, "wind10m_ms": 1.87, "rule": "прирост B2 над водой ≥ 0.8 прироста B8 («белый» спектр) или ветер ≥ 7.0 м/с"}, "glint": {"flag": false, "b11_water_median": 0.0022, "glint_share": 0.0, "rule": "медиана B11 воды зоны > 0.01 или ≥ 20 % пикселей зоны — блик (маска качества)"}, "ship": {"flag": true, "share": 0, "bright_target_px_within_500m": 90, "rule": "≥ 30 % пикселей — у яркой цели или кильватера (reports/artifacts.md) или яркая цель с откликом в SWIR (судно, лодка: B11 ≥ 0,015) ближе 500 м"}, "coast": {"flag": true, "land_px_within_300m": 433, "rule": "суша (маска качества) ближе 300 м — прибой, кромка берега"}, "shallow": {"flag": false, "b3_water_zone": 0.0278, "b3_ratio_to_scene_water": 3.56, "rule": "медиана B3 воды зоны ≥ 2× медианы воды снимка и ≥ 0,03 — мелководье или мутная вода"}, "seam": {"flag": true, "share": 0.7, "rule": "≥ 30 % пикселей — прямая линия вдоль трека/границы яркости (шов)"}, "note": "эвристики, не классификатор; на размеченных данных не проверены"}, "n_cozar_filaments": 0}, "field_nearby": {"items": [{"source": "ADIS (4TU.ResearchData, судовая камера)", "segment_id": 437124, "ship": "Bark Europa", "date": "2024-08-17", "days_from_scene": -652, "distance_km": 5751.3, "lon": 167.19954, "lat": -15.52294, "n_items": 0, "area_km2": 0.1994, "size_class": "> 5 см", "c_items_km2": 0.0, "ci95_lo": 0.0, "ci95_hi": 18.5, "ci95_method": "точный интервал Пуассона для N, делённый на A"}, {"source": "ADIS (4TU.ResearchData, судовая камера)", "segment_id": 417394, "ship": "Bark Europa", "date": "2024-08-17", "days_from_scene": -652, "distance_km": 5751.7, "lon": 167.20278, "lat": -15.52361, "n_items": 3, "area_km2": 0.2326, "size_class": "> 5 см", "c_items_km2": 12.9, "ci95_lo": 2.66, "ci95_hi": 37.69, "ci95_method": "точный интервал Пуассона для N, делённый на A"}, {"source": "ADIS (4TU.ResearchData, судовая камера)", "segment_id": 437123, "ship": "Bark Europa", "date": "2024-08-17", "days_from_scene": -652, "distance_km": 5758.6, "lon": 167.26541, "lat": -15.53092, "n_items": 0, "area_km2": 0.4595, "size_class": "> 5 см", "c_items_km2": 0.0, "ci95_lo": 0.0, "ci95_hi": 8.03, "ci95_method": "точный интервал Пуассона для N, делённый на A"}], "nearest_organizer_sample": {"sample_id": "MPL-0922", "source_id": "S4_BLACK_SEA_DOORS3", "distance_km": 9848.4}, "note": "Измерение ≠ оценка: это независимые полевые счёты C = N/A в другое время и в другом месте; со сценой они не связаны и не калибруют её. Ближайший отрезок ADIS — за 5751 км: только для порядка величин."}}}, {"type": "Feature", "id": "SZ-live-bali-2026-05-31-002", "geometry": {"type": "Polygon", "coordinates": [[[115.238201, -8.78249], [115.237107, -8.783027], [115.236922, -8.78384], [115.236373, -8.784561], [115.236368, -8.785555], [115.237182, -8.786373], [115.239364, -8.786383], [115.240185, -8.785573], [115.24019, -8.784578], [115.239557, -8.783852], [115.239379, -8.783038], [115.238745, -8.782583], [115.238201, -8.78249]]]}, "properties": {"kind": "detection_zone", "layer_kind": "scene_zone", "zone_id": "SZ-live-bali-2026-05-31-002", "scene_key": "live-bali-2026-05-31", "scene_kind": "live", "scene_id": "S2B_MSIL2A_20260531T021529_R003_T50LLR_20260531T060010", "region": "bali", "title": "Бали (пролив Бадунг) · зона 2", "mission": "Sentinel-2", "datetime": "2026-05-31T02:15:29.024000Z", "detection_status": "detected", "status": "detected", "concentration_status": "unavailable", "verification": "unverified", "training_scene": null, "flags": [], "n_cozar_filaments": 0, "crop_file": "crops/SZ-live-bali-2026-05-31-002.jpg", "measured": {"zone_area_km2": 0.1372, "suspicious_area_m2": 500, "n_pixels": 5, "n_objects": 3, "water_km2": 0.1404, "lwd_m2_km2": 3561.3, "quality": {"valid_water_fraction": 1.0, "cloud_fraction": 0.0, "glint_fraction": 0.0}, "model": {"weights": "weights/lgbm", "file": "weights/lgbm/model.txt", "sha256": "0eeebf43fcccd8c7c07f053b7ec723229d1a3c9b92d12eec1bdb269258c51470", "sha256_short": "0eeebf43fccc", "trained_at": "2026-09-25T01:35:55Z", "threshold": 0.63, "harmonize": "none", "class": "MARIDA Marine Debris (любой плавающий мусор, не только пластик)"}}, "probable": {"prob_max": 0.961, "prob_mean": 0.87, "signs": {"foam": {"flag": false, "white_ratio_b2_b8": 0.758, "wind10m_ms": 1.87, "rule": "прирост B2 над водой ≥ 0.8 прироста B8 («белый» спектр) или ветер ≥ 7.0 м/с"}, "glint": {"flag": false, "b11_water_median": 0.0014, "glint_share": 0.0, "rule": "медиана B11 воды зоны > 0.01 или ≥ 20 % пикселей зоны — блик (маска качества)"}, "ship": {"flag": false, "share": 0, "bright_target_px_within_500m": 0, "rule": "≥ 30 % пикселей — у яркой цели или кильватера (reports/artifacts.md) или яркая цель с откликом в SWIR (судно, лодка: B11 ≥ 0,015) ближе 500 м"}, "coast": {"flag": false, "land_px_within_300m": 0, "rule": "суша (маска качества) ближе 300 м — прибой, кромка берега"}, "shallow": {"flag": false, "b3_water_zone": 0.0142, "b3_ratio_to_scene_water": 1.82, "rule": "медиана B3 воды зоны ≥ 2× медианы воды снимка и ≥ 0,03 — мелководье или мутная вода"}, "seam": {"flag": false, "share": 0, "rule": "≥ 30 % пикселей — прямая линия вдоль трека/границы яркости (шов)"}, "note": "эвристики, не классификатор; на размеченных данных не проверены"}, "n_cozar_filaments": 0}, "field_nearby": {"items": [{"source": "ADIS (4TU.ResearchData, судовая камера)", "segment_id": 437124, "ship": "Bark Europa", "date": "2024-08-17", "days_from_scene": -652, "distance_km": 5751.3, "lon": 167.19954, "lat": -15.52294, "n_items": 0, "area_km2": 0.1994, "size_class": "> 5 см", "c_items_km2": 0.0, "ci95_lo": 0.0, "ci95_hi": 18.5, "ci95_method": "точный интервал Пуассона для N, делённый на A"}, {"source": "ADIS (4TU.ResearchData, судовая камера)", "segment_id": 417394, "ship": "Bark Europa", "date": "2024-08-17", "days_from_scene": -652, "distance_km": 5751.7, "lon": 167.20278, "lat": -15.52361, "n_items": 3, "area_km2": 0.2326, "size_class": "> 5 см", "c_items_km2": 12.9, "ci95_lo": 2.66, "ci95_hi": 37.69, "ci95_method": "точный интервал Пуассона для N, делённый на A"}, {"source": "ADIS (4TU.ResearchData, судовая камера)", "segment_id": 437123, "ship": "Bark Europa", "date": "2024-08-17", "days_from_scene": -652, "distance_km": 5758.6, "lon": 167.26541, "lat": -15.53092, "n_items": 0, "area_km2": 0.4595, "size_class": "> 5 см", "c_items_km2": 0.0, "ci95_lo": 0.0, "ci95_hi": 8.03, "ci95_method": "точный интервал Пуассона для N, делённый на A"}], "nearest_organizer_sample": {"sample_id": "MPL-0922", "source_id": "S4_BLACK_SEA_DOORS3", "distance_km": 9848.4}, "note": "Измерение ≠ оценка: это независимые полевые счёты C = N/A в другое время и в другом месте; со сценой они не связаны и не калибруют её. Ближайший отрезок ADIS — за 5751 км: только для порядка величин."}}}]}