{"type": "FeatureCollection", "features": [{"type": "Feature", "id": "D-SZ-fresh-scotland-2026-07-30-001-8", "geometry": {"type": "Polygon", "coordinates": [[[-2.2830597, 56.2884049], [-2.2830614, 56.288315], [-2.2828999, 56.2883141], [-2.2828982, 56.2884039], [-2.2830597, 56.2884049]]]}, "properties": {"kind": "detection", "det_id": "D-SZ-fresh-scotland-2026-07-30-001-8", "zone_id": "SZ-fresh-scotland-2026-07-30-001", "scene_id": "S2C_MSIL2A_20260730T113321_R080_T30VWH_20260730T150808", "datetime": "2026-07-30T11:33:21.025000Z", "n_pixels": 1, "area_m2": 100, "prob_max": 0.7922, "prob_mean": 0.7922, "threshold": 0.63, "in_strip": true, "artifact": "ship"}}, {"type": "Feature", "id": "D-SZ-fresh-scotland-2026-07-30-001-10", "geometry": {"type": "Polygon", "coordinates": [[[-2.2829032, 56.2881344], [-2.2829049, 56.2880446], [-2.2827434, 56.2880437], [-2.2827417, 56.2881335], [-2.2829032, 56.2881344]]]}, "properties": {"kind": "detection", "det_id": "D-SZ-fresh-scotland-2026-07-30-001-10", "zone_id": "SZ-fresh-scotland-2026-07-30-001", "scene_id": "S2C_MSIL2A_20260730T113321_R080_T30VWH_20260730T150808", "datetime": "2026-07-30T11:33:21.025000Z", "n_pixels": 1, "area_m2": 100, "prob_max": 0.9686, "prob_mean": 0.9686, "threshold": 0.63, "in_strip": true, "artifact": "ship"}}, {"type": "Feature", "id": "D-SZ-fresh-scotland-2026-07-30-001-11", "geometry": {"type": "Polygon", "coordinates": [[[-2.2861506, 56.2872547], [-2.2861523, 56.2871649], [-2.2859907, 56.2871639], [-2.2859891, 56.2872538], [-2.2861506, 56.2872547]]]}, "properties": {"kind": "detection", "det_id": "D-SZ-fresh-scotland-2026-07-30-001-11", "zone_id": "SZ-fresh-scotland-2026-07-30-001", "scene_id": "S2C_MSIL2A_20260730T113321_R080_T30VWH_20260730T150808", "datetime": "2026-07-30T11:33:21.025000Z", "n_pixels": 1, "area_m2": 100, "prob_max": 0.9843, "prob_mean": 0.9843, "threshold": 0.63, "in_strip": true, "artifact": null}}, {"type": "Feature", "id": "D-SZ-fresh-scotland-2026-07-30-001-12", "geometry": {"type": "Polygon", "coordinates": [[[-2.2863155, 56.287076], [-2.2863171, 56.2869861], [-2.2859941, 56.2869843], [-2.2859924, 56.2870741], [-2.2863155, 56.287076]]]}, "properties": {"kind": "detection", "det_id": "D-SZ-fresh-scotland-2026-07-30-001-12", "zone_id": "SZ-fresh-scotland-2026-07-30-001", "scene_id": "S2C_MSIL2A_20260730T113321_R080_T30VWH_20260730T150808", "datetime": "2026-07-30T11:33:21.025000Z", "n_pixels": 2, "area_m2": 200, "prob_max": 0.8588, "prob_mean": 0.7902, "threshold": 0.63, "in_strip": true, "artifact": null}}, {"type": "Feature", "id": "D-SZ-fresh-scotland-2026-07-30-001-14", "geometry": {"type": "Polygon", "coordinates": [[[-2.2839211, 56.2855347], [-2.2839228, 56.2854449], [-2.2837613, 56.285444], [-2.2837596, 56.2855338], [-2.2839211, 56.2855347]]]}, "properties": {"kind": "detection", "det_id": "D-SZ-fresh-scotland-2026-07-30-001-14", "zone_id": "SZ-fresh-scotland-2026-07-30-001", "scene_id": "S2C_MSIL2A_20260730T113321_R080_T30VWH_20260730T150808", "datetime": "2026-07-30T11:33:21.025000Z", "n_pixels": 1, "area_m2": 100, "prob_max": 0.7686, "prob_mean": 0.7686, "threshold": 0.63, "in_strip": true, "artifact": null}}, {"type": "Feature", "id": "D-SZ-fresh-scotland-2026-07-30-002-40", "geometry": {"type": "Polygon", "coordinates": [[[-2.2696424, 56.2634385], [-2.2696442, 56.2633487], [-2.2694827, 56.2633477], [-2.269481, 56.2634376], [-2.2696424, 56.2634385]]]}, "properties": {"kind": "detection", "det_id": "D-SZ-fresh-scotland-2026-07-30-002-40", "zone_id": "SZ-fresh-scotland-2026-07-30-002", "scene_id": "S2C_MSIL2A_20260730T113321_R080_T30VWH_20260730T150808", "datetime": "2026-07-30T11:33:21.025000Z", "n_pixels": 1, "area_m2": 100, "prob_max": 0.8667, "prob_mean": 0.8667, "threshold": 0.63, "in_strip": true, "artifact": null}}, {"type": "Feature", "id": "D-SZ-fresh-scotland-2026-07-30-002-42", "geometry": {"type": "Polygon", "coordinates": [[[-2.2654609, 56.2626051], [-2.2654626, 56.2625153], [-2.2657854, 56.2625172], [-2.2657889, 56.2623375], [-2.265466, 56.2623356], [-2.2654678, 56.2622458], [-2.2656292, 56.2622467], [-2.2656309, 56.2621569], [-2.2654695, 56.262156], [-2.2654678, 56.2622458], [-2.2653063, 56.2622448], [-2.2652994, 56.2626042], [-2.2654609, 56.2626051]]]}, "properties": {"kind": "detection", "det_id": "D-SZ-fresh-scotland-2026-07-30-002-42", "zone_id": "SZ-fresh-scotland-2026-07-30-002", "scene_id": "S2C_MSIL2A_20260730T113321_R080_T30VWH_20260730T150808", "datetime": "2026-07-30T11:33:21.025000Z", "n_pixels": 9, "area_m2": 900, "prob_max": 0.9961, "prob_mean": 0.9264, "threshold": 0.63, "in_strip": true, "artifact": "ship"}}, {"type": "Feature", "id": "D-SZ-fresh-scotland-2026-07-30-002-43", "geometry": {"type": "Polygon", "coordinates": [[[-2.2706589, 56.2609288], [-2.2706606, 56.2608389], [-2.2704991, 56.260838], [-2.2705009, 56.2607481], [-2.2703394, 56.2607472], [-2.2703377, 56.260837], [-2.2704991, 56.260838], [-2.2704974, 56.2609278], [-2.2706589, 56.2609288]]]}, "properties": {"kind": "detection", "det_id": "D-SZ-fresh-scotland-2026-07-30-002-43", "zone_id": "SZ-fresh-scotland-2026-07-30-002", "scene_id": "S2C_MSIL2A_20260730T113321_R080_T30VWH_20260730T150808", "datetime": "2026-07-30T11:33:21.025000Z", "n_pixels": 2, "area_m2": 200, "prob_max": 0.702, "prob_mean": 0.6784, "threshold": 0.63, "in_strip": true, "artifact": "ship"}}, {"type": "Feature", "id": "D-SZ-fresh-scotland-2026-07-30-002-45", "geometry": {"type": "Polygon", "coordinates": [[[-2.2671249, 56.2600094], [-2.2671266, 56.2599196], [-2.2669652, 56.2599186], [-2.2669635, 56.2600084], [-2.2671249, 56.2600094]]]}, "properties": {"kind": "detection", "det_id": "D-SZ-fresh-scotland-2026-07-30-002-45", "zone_id": "SZ-fresh-scotland-2026-07-30-002", "scene_id": "S2C_MSIL2A_20260730T113321_R080_T30VWH_20260730T150808", "datetime": "2026-07-30T11:33:21.025000Z", "n_pixels": 1, "area_m2": 100, "prob_max": 0.8667, "prob_mean": 0.8667, "threshold": 0.63, "in_strip": true, "artifact": null}}, {"type": "Feature", "id": "D-SZ-fresh-scotland-2026-07-30-003-126", "geometry": {"type": "Polygon", "coordinates": [[[-2.5875214, 56.2034505], [-2.5875223, 56.2033607], [-2.5873611, 56.2033601], [-2.5873602, 56.20345], [-2.5875214, 56.2034505]]]}, "properties": {"kind": "detection", "det_id": "D-SZ-fresh-scotland-2026-07-30-003-126", "zone_id": "SZ-fresh-scotland-2026-07-30-003", "scene_id": "S2C_MSIL2A_20260730T113321_R080_T30VWH_20260730T150808", "datetime": "2026-07-30T11:33:21.025000Z", "n_pixels": 1, "area_m2": 100, "prob_max": 0.8667, "prob_mean": 0.8667, "threshold": 0.63, "in_strip": true, "artifact": null}}, {"type": "Feature", "id": "D-SZ-fresh-scotland-2026-07-30-003-129", "geometry": {"type": "Polygon", "coordinates": [[[-2.5913993, 56.2025649], [-2.5914012, 56.2023852], [-2.59124, 56.2023847], [-2.5912381, 56.2025644], [-2.5913993, 56.2025649]]]}, "properties": {"kind": "detection", "det_id": "D-SZ-fresh-scotland-2026-07-30-003-129", "zone_id": "SZ-fresh-scotland-2026-07-30-003", "scene_id": "S2C_MSIL2A_20260730T113321_R080_T30VWH_20260730T150808", "datetime": "2026-07-30T11:33:21.025000Z", "n_pixels": 2, "area_m2": 200, "prob_max": 0.8392, "prob_mean": 0.7412, "threshold": 0.63, "in_strip": true, "artifact": null}}, {"type": "Feature", "id": "D-SZ-fresh-scotland-2026-07-30-003-130", "geometry": {"type": "Polygon", "coordinates": [[[-2.5909167, 56.2024735], [-2.5909177, 56.2023836], [-2.5907565, 56.2023831], [-2.5907555, 56.2024729], [-2.5909167, 56.2024735]]]}, "properties": {"kind": "detection", "det_id": "D-SZ-fresh-scotland-2026-07-30-003-130", "zone_id": "SZ-fresh-scotland-2026-07-30-003", "scene_id": "S2C_MSIL2A_20260730T113321_R080_T30VWH_20260730T150808", "datetime": "2026-07-30T11:33:21.025000Z", "n_pixels": 1, "area_m2": 100, "prob_max": 0.7765, "prob_mean": 0.7765, "threshold": 0.63, "in_strip": true, "artifact": null}}, {"type": "Feature", "id": "D-SZ-fresh-scotland-2026-07-30-003-133", "geometry": {"type": "Polygon", "coordinates": [[[-2.5909196, 56.2022039], [-2.5909205, 56.2021141], [-2.5907594, 56.2021135], [-2.5907584, 56.2022034], [-2.5909196, 56.2022039]]]}, "properties": {"kind": "detection", "det_id": "D-SZ-fresh-scotland-2026-07-30-003-133", "zone_id": "SZ-fresh-scotland-2026-07-30-003", "scene_id": "S2C_MSIL2A_20260730T113321_R080_T30VWH_20260730T150808", "datetime": "2026-07-30T11:33:21.025000Z", "n_pixels": 1, "area_m2": 100, "prob_max": 0.6471, "prob_mean": 0.6471, "threshold": 0.63, "in_strip": true, "artifact": null}}, {"type": "Feature", "id": "D-SZ-fresh-scotland-2026-07-30-003-140", "geometry": {"type": "Polygon", "coordinates": [[[-2.5886785, 56.2007589], [-2.5886804, 56.2005792], [-2.5885192, 56.2005787], [-2.5885173, 56.2007584], [-2.5886785, 56.2007589]]]}, "properties": {"kind": "detection", "det_id": "D-SZ-fresh-scotland-2026-07-30-003-140", "zone_id": "SZ-fresh-scotland-2026-07-30-003", "scene_id": "S2C_MSIL2A_20260730T113321_R080_T30VWH_20260730T150808", "datetime": "2026-07-30T11:33:21.025000Z", "n_pixels": 2, "area_m2": 200, "prob_max": 0.7294, "prob_mean": 0.6843, "threshold": 0.63, "in_strip": true, "artifact": null}}, {"type": "Feature", "id": "D-SZ-fresh-scotland-2026-07-30-003-143", "geometry": {"type": "Polygon", "coordinates": [[[-2.5912658, 56.1999589], [-2.5912668, 56.199869], [-2.5911056, 56.1998685], [-2.5911047, 56.1999583], [-2.5912658, 56.1999589]]]}, "properties": {"kind": "detection", "det_id": "D-SZ-fresh-scotland-2026-07-30-003-143", "zone_id": "SZ-fresh-scotland-2026-07-30-003", "scene_id": "S2C_MSIL2A_20260730T113321_R080_T30VWH_20260730T150808", "datetime": "2026-07-30T11:33:21.025000Z", "n_pixels": 1, "area_m2": 100, "prob_max": 0.7725, "prob_mean": 0.7725, "threshold": 0.63, "in_strip": true, "artifact": null}}, {"type": "Feature", "id": "D-SZ-fresh-scotland-2026-07-30-004-162", "geometry": {"type": "Polygon", "coordinates": [[[-2.6399994, 56.1936413], [-2.6400003, 56.1935515], [-2.6398391, 56.193551], [-2.6398383, 56.1936409], [-2.6399994, 56.1936413]]]}, "properties": {"kind": "detection", "det_id": "D-SZ-fresh-scotland-2026-07-30-004-162", "zone_id": "SZ-fresh-scotland-2026-07-30-004", "scene_id": "S2C_MSIL2A_20260730T113321_R080_T30VWH_20260730T150808", "datetime": "2026-07-30T11:33:21.025000Z", "n_pixels": 1, "area_m2": 100, "prob_max": 0.9529, "prob_mean": 0.9529, "threshold": 0.63, "in_strip": true, "artifact": null}}, {"type": "Feature", "id": "D-SZ-fresh-scotland-2026-07-30-004-163", "geometry": {"type": "Polygon", "coordinates": [[[-2.6396797, 56.1933709], [-2.6396805, 56.193281], [-2.6395194, 56.1932805], [-2.6395185, 56.1933704], [-2.6396797, 56.1933709]]]}, "properties": {"kind": "detection", "det_id": "D-SZ-fresh-scotland-2026-07-30-004-163", "zone_id": "SZ-fresh-scotland-2026-07-30-004", "scene_id": "S2C_MSIL2A_20260730T113321_R080_T30VWH_20260730T150808", "datetime": "2026-07-30T11:33:21.025000Z", "n_pixels": 1, "area_m2": 100, "prob_max": 0.9686, "prob_mean": 0.9686, "threshold": 0.63, "in_strip": true, "artifact": null}}, {"type": "Feature", "id": "D-SZ-fresh-scotland-2026-07-30-004-164", "geometry": {"type": "Polygon", "coordinates": [[[-2.63372, 56.1930838], [-2.6337217, 56.1929041], [-2.6335606, 56.1929036], [-2.6335589, 56.1930833], [-2.63372, 56.1930838]]]}, "properties": {"kind": "detection", "det_id": "D-SZ-fresh-scotland-2026-07-30-004-164", "zone_id": "SZ-fresh-scotland-2026-07-30-004", "scene_id": "S2C_MSIL2A_20260730T113321_R080_T30VWH_20260730T150808", "datetime": "2026-07-30T11:33:21.025000Z", "n_pixels": 2, "area_m2": 200, "prob_max": 0.9843, "prob_mean": 0.9549, "threshold": 0.63, "in_strip": true, "artifact": null}}, {"type": "Feature", "id": "D-SZ-fresh-scotland-2026-07-30-004-165", "geometry": {"type": "Polygon", "coordinates": [[[-2.6401665, 56.1930129], [-2.6401673, 56.192923], [-2.6400062, 56.1929226], [-2.6400053, 56.1930124], [-2.6401665, 56.1930129]]]}, "properties": {"kind": "detection", "det_id": "D-SZ-fresh-scotland-2026-07-30-004-165", "zone_id": "SZ-fresh-scotland-2026-07-30-004", "scene_id": "S2C_MSIL2A_20260730T113321_R080_T30VWH_20260730T150808", "datetime": "2026-07-30T11:33:21.025000Z", "n_pixels": 1, "area_m2": 100, "prob_max": 0.8784, "prob_mean": 0.8784, "threshold": 0.63, "in_strip": true, "artifact": null}}, {"type": "Feature", "id": "D-SZ-fresh-scotland-2026-07-30-004-167", "geometry": {"type": "Polygon", "coordinates": [[[-2.6393641, 56.1926512], [-2.639365, 56.1925613], [-2.6392038, 56.1925608], [-2.639203, 56.1926507], [-2.6393641, 56.1926512]]]}, "properties": {"kind": "detection", "det_id": "D-SZ-fresh-scotland-2026-07-30-004-167", "zone_id": "SZ-fresh-scotland-2026-07-30-004", "scene_id": "S2C_MSIL2A_20260730T113321_R080_T30VWH_20260730T150808", "datetime": "2026-07-30T11:33:21.025000Z", "n_pixels": 1, "area_m2": 100, "prob_max": 0.7059, "prob_mean": 0.7059, "threshold": 0.63, "in_strip": true, "artifact": null}}, {"type": "Feature", "id": "D-SZ-fresh-scotland-2026-07-30-004-168", "geometry": {"type": "Polygon", "coordinates": [[[-2.6353391, 56.19228], [-2.6353399, 56.1921901], [-2.6351788, 56.1921896], [-2.6351779, 56.1922795], [-2.6353391, 56.19228]]]}, "properties": {"kind": "detection", "det_id": "D-SZ-fresh-scotland-2026-07-30-004-168", "zone_id": "SZ-fresh-scotland-2026-07-30-004", "scene_id": "S2C_MSIL2A_20260730T113321_R080_T30VWH_20260730T150808", "datetime": "2026-07-30T11:33:21.025000Z", "n_pixels": 1, "area_m2": 100, "prob_max": 0.8627, "prob_mean": 0.8627, "threshold": 0.63, "in_strip": true, "artifact": null}}, {"type": "Feature", "id": "D-SZ-fresh-scotland-2026-07-30-004-171", "geometry": {"type": "Polygon", "coordinates": [[[-2.6279355, 56.1913594], [-2.6279372, 56.1911797], [-2.6277761, 56.1911793], [-2.6277744, 56.191359], [-2.6279355, 56.1913594]]]}, "properties": {"kind": "detection", "det_id": "D-SZ-fresh-scotland-2026-07-30-004-171", "zone_id": "SZ-fresh-scotland-2026-07-30-004", "scene_id": "S2C_MSIL2A_20260730T113321_R080_T30VWH_20260730T150808", "datetime": "2026-07-30T11:33:21.025000Z", "n_pixels": 2, "area_m2": 200, "prob_max": 0.9569, "prob_mean": 0.9353, "threshold": 0.63, "in_strip": true, "artifact": null}}, {"type": "Feature", "id": "D-SZ-fresh-scotland-2026-07-30-004-175", "geometry": {"type": "Polygon", "coordinates": [[[-2.6332589, 56.1907464], [-2.6332597, 56.1906566], [-2.6330986, 56.1906561], [-2.6330977, 56.1907459], [-2.6332589, 56.1907464]]]}, "properties": {"kind": "detection", "det_id": "D-SZ-fresh-scotland-2026-07-30-004-175", "zone_id": "SZ-fresh-scotland-2026-07-30-004", "scene_id": "S2C_MSIL2A_20260730T113321_R080_T30VWH_20260730T150808", "datetime": "2026-07-30T11:33:21.025000Z", "n_pixels": 1, "area_m2": 100, "prob_max": 0.9333, "prob_mean": 0.9333, "threshold": 0.63, "in_strip": true, "artifact": null}}, {"type": "Feature", "id": "D-SZ-fresh-scotland-2026-07-30-004-177", "geometry": {"type": "Polygon", "coordinates": [[[-2.6330995, 56.1905662], [-2.6331003, 56.1904764], [-2.6327781, 56.1904754], [-2.6327772, 56.1905653], [-2.6330995, 56.1905662]]]}, "properties": {"kind": "detection", "det_id": "D-SZ-fresh-scotland-2026-07-30-004-177", "zone_id": "SZ-fresh-scotland-2026-07-30-004", "scene_id": "S2C_MSIL2A_20260730T113321_R080_T30VWH_20260730T150808", "datetime": "2026-07-30T11:33:21.025000Z", "n_pixels": 2, "area_m2": 200, "prob_max": 0.9922, "prob_mean": 0.8412, "threshold": 0.63, "in_strip": true, "artifact": null}}, {"type": "Feature", "id": "D-SZ-fresh-scotland-2026-07-30-004-179", "geometry": {"type": "Polygon", "coordinates": [[[-2.6318113, 56.1904726], [-2.6318121, 56.1903827], [-2.631651, 56.1903822], [-2.6316502, 56.1904721], [-2.6318113, 56.1904726]]]}, "properties": {"kind": "detection", "det_id": "D-SZ-fresh-scotland-2026-07-30-004-179", "zone_id": "SZ-fresh-scotland-2026-07-30-004", "scene_id": "S2C_MSIL2A_20260730T113321_R080_T30VWH_20260730T150808", "datetime": "2026-07-30T11:33:21.025000Z", "n_pixels": 1, "area_m2": 100, "prob_max": 0.7843, "prob_mean": 0.7843, "threshold": 0.63, "in_strip": true, "artifact": null}}, {"type": "Feature", "id": "D-SZ-fresh-scotland-2026-07-30-005-173", "geometry": {"type": "Polygon", "coordinates": [[[-2.2944127, 56.189457], [-2.2944143, 56.1893671], [-2.2940921, 56.1893653], [-2.2940904, 56.1894551], [-2.2944127, 56.189457]]]}, "properties": {"kind": "detection", "det_id": "D-SZ-fresh-scotland-2026-07-30-005-173", "zone_id": "SZ-fresh-scotland-2026-07-30-005", "scene_id": "S2C_MSIL2A_20260730T113321_R080_T30VWH_20260730T150808", "datetime": "2026-07-30T11:33:21.025000Z", "n_pixels": 2, "area_m2": 200, "prob_max": 0.8, "prob_mean": 0.7588, "threshold": 0.63, "in_strip": true, "artifact": null}}, {"type": "Feature", "id": "D-SZ-fresh-scotland-2026-07-30-005-174", "geometry": {"type": "Polygon", "coordinates": [[[-2.2903848, 56.1894339], [-2.2903881, 56.1892543], [-2.290227, 56.1892533], [-2.2902236, 56.189433], [-2.2903848, 56.1894339]]]}, "properties": {"kind": "detection", "det_id": "D-SZ-fresh-scotland-2026-07-30-005-174", "zone_id": "SZ-fresh-scotland-2026-07-30-005", "scene_id": "S2C_MSIL2A_20260730T113321_R080_T30VWH_20260730T150808", "datetime": "2026-07-30T11:33:21.025000Z", "n_pixels": 2, "area_m2": 200, "prob_max": 0.9255, "prob_mean": 0.8843, "threshold": 0.63, "in_strip": true, "artifact": null}}, {"type": "Feature", "id": "D-SZ-fresh-scotland-2026-07-30-005-185", "geometry": {"type": "Polygon", "coordinates": [[[-2.2889547, 56.1883475], [-2.2889563, 56.1882577], [-2.2887952, 56.1882568], [-2.2887935, 56.1883466], [-2.2889547, 56.1883475]]]}, "properties": {"kind": "detection", "det_id": "D-SZ-fresh-scotland-2026-07-30-005-185", "zone_id": "SZ-fresh-scotland-2026-07-30-005", "scene_id": "S2C_MSIL2A_20260730T113321_R080_T30VWH_20260730T150808", "datetime": "2026-07-30T11:33:21.025000Z", "n_pixels": 1, "area_m2": 100, "prob_max": 0.7137, "prob_mean": 0.7137, "threshold": 0.63, "in_strip": true, "artifact": null}}, {"type": "Feature", "id": "D-SZ-fresh-scotland-2026-07-30-005-186", "geometry": {"type": "Polygon", "coordinates": [[[-2.2886324, 56.1883457], [-2.2886341, 56.1882558], [-2.288473, 56.1882549], [-2.2884713, 56.1883447], [-2.2886324, 56.1883457]]]}, "properties": {"kind": "detection", "det_id": "D-SZ-fresh-scotland-2026-07-30-005-186", "zone_id": "SZ-fresh-scotland-2026-07-30-005", "scene_id": "S2C_MSIL2A_20260730T113321_R080_T30VWH_20260730T150808", "datetime": "2026-07-30T11:33:21.025000Z", "n_pixels": 1, "area_m2": 100, "prob_max": 0.898, "prob_mean": 0.898, "threshold": 0.63, "in_strip": true, "artifact": null}}, {"type": "Feature", "id": "D-SZ-fresh-scotland-2026-07-30-006-207", "geometry": {"type": "Polygon", "coordinates": [[[-2.6226781, 56.1852339], [-2.6226789, 56.185144], [-2.6225178, 56.1851435], [-2.622517, 56.1852334], [-2.6226781, 56.1852339]]]}, "properties": {"kind": "detection", "det_id": "D-SZ-fresh-scotland-2026-07-30-006-207", "zone_id": "SZ-fresh-scotland-2026-07-30-006", "scene_id": "S2C_MSIL2A_20260730T113321_R080_T30VWH_20260730T150808", "datetime": "2026-07-30T11:33:21.025000Z", "n_pixels": 1, "area_m2": 100, "prob_max": 0.9373, "prob_mean": 0.9373, "threshold": 0.63, "in_strip": true, "artifact": null}}, {"type": "Feature", "id": "D-SZ-fresh-scotland-2026-07-30-006-214", "geometry": {"type": "Polygon", "coordinates": [[[-2.6272013, 56.1839897], [-2.6272021, 56.1838999], [-2.627041, 56.1838994], [-2.6270436, 56.1836299], [-2.6268825, 56.1836294], [-2.6268791, 56.1839888], [-2.6272013, 56.1839897]]]}, "properties": {"kind": "detection", "det_id": "D-SZ-fresh-scotland-2026-07-30-006-214", "zone_id": "SZ-fresh-scotland-2026-07-30-006", "scene_id": "S2C_MSIL2A_20260730T113321_R080_T30VWH_20260730T150808", "datetime": "2026-07-30T11:33:21.025000Z", "n_pixels": 5, "area_m2": 500, "prob_max": 0.9294, "prob_mean": 0.8424, "threshold": 0.63, "in_strip": true, "artifact": null}}, {"type": "Feature", "id": "D-SZ-fresh-scotland-2026-07-30-006-219", "geometry": {"type": "Polygon", "coordinates": [[[-2.6307593, 56.1825629], [-2.6307602, 56.182473], [-2.6305991, 56.1824725], [-2.6305982, 56.1825624], [-2.6307593, 56.1825629]]]}, "properties": {"kind": "detection", "det_id": "D-SZ-fresh-scotland-2026-07-30-006-219", "zone_id": "SZ-fresh-scotland-2026-07-30-006", "scene_id": "S2C_MSIL2A_20260730T113321_R080_T30VWH_20260730T150808", "datetime": "2026-07-30T11:33:21.025000Z", "n_pixels": 1, "area_m2": 100, "prob_max": 0.949, "prob_mean": 0.949, "threshold": 0.63, "in_strip": true, "artifact": null}}, {"type": "Feature", "id": "D-SZ-fresh-scotland-2026-07-30-007-224", "geometry": {"type": "Polygon", "coordinates": [[[-2.6107962, 56.1812438], [-2.6107971, 56.1811539], [-2.610636, 56.1811534], [-2.6106351, 56.1812433], [-2.6107962, 56.1812438]]]}, "properties": {"kind": "detection", "det_id": "D-SZ-fresh-scotland-2026-07-30-007-224", "zone_id": "SZ-fresh-scotland-2026-07-30-007", "scene_id": "S2C_MSIL2A_20260730T113321_R080_T30VWH_20260730T150808", "datetime": "2026-07-30T11:33:21.025000Z", "n_pixels": 1, "area_m2": 100, "prob_max": 0.7098, "prob_mean": 0.7098, "threshold": 0.63, "in_strip": true, "artifact": null}}, {"type": "Feature", "id": "D-SZ-fresh-scotland-2026-07-30-007-233", "geometry": {"type": "Polygon", "coordinates": [[[-2.6106496, 56.1798057], [-2.6106505, 56.1797159], [-2.6103284, 56.1797149], [-2.6103275, 56.1798047], [-2.6106496, 56.1798057]]]}, "properties": {"kind": "detection", "det_id": "D-SZ-fresh-scotland-2026-07-30-007-233", "zone_id": "SZ-fresh-scotland-2026-07-30-007", "scene_id": "S2C_MSIL2A_20260730T113321_R080_T30VWH_20260730T150808", "datetime": "2026-07-30T11:33:21.025000Z", "n_pixels": 2, "area_m2": 200, "prob_max": 0.9922, "prob_mean": 0.9137, "threshold": 0.63, "in_strip": true, "artifact": null}}, {"type": "Feature", "id": "D-SZ-fresh-scotland-2026-07-30-007-234", "geometry": {"type": "Polygon", "coordinates": [[[-2.6101664, 56.1798042], [-2.6101682, 56.1796245], [-2.6100071, 56.179624], [-2.6100053, 56.1798037], [-2.6101664, 56.1798042]]]}, "properties": {"kind": "detection", "det_id": "D-SZ-fresh-scotland-2026-07-30-007-234", "zone_id": "SZ-fresh-scotland-2026-07-30-007", "scene_id": "S2C_MSIL2A_20260730T113321_R080_T30VWH_20260730T150808", "datetime": "2026-07-30T11:33:21.025000Z", "n_pixels": 2, "area_m2": 200, "prob_max": 0.9961, "prob_mean": 0.9902, "threshold": 0.63, "in_strip": true, "artifact": null}}, {"type": "Feature", "id": "D-SZ-fresh-scotland-2026-07-30-007-239", "geometry": {"type": "Polygon", "coordinates": [[[-2.6084036, 56.1789002], [-2.6084045, 56.1788103], [-2.6082434, 56.1788098], [-2.6082425, 56.1788997], [-2.6084036, 56.1789002]]]}, "properties": {"kind": "detection", "det_id": "D-SZ-fresh-scotland-2026-07-30-007-239", "zone_id": "SZ-fresh-scotland-2026-07-30-007", "scene_id": "S2C_MSIL2A_20260730T113321_R080_T30VWH_20260730T150808", "datetime": "2026-07-30T11:33:21.025000Z", "n_pixels": 1, "area_m2": 100, "prob_max": 0.7725, "prob_mean": 0.7725, "threshold": 0.63, "in_strip": true, "artifact": null}}, {"type": "Feature", "id": "D-SZ-fresh-scotland-2026-07-30-007-247", "geometry": {"type": "Polygon", "coordinates": [[[-2.6061577, 56.1779946], [-2.6061586, 56.1779047], [-2.6059975, 56.1779042], [-2.6059966, 56.177994], [-2.6061577, 56.1779946]]]}, "properties": {"kind": "detection", "det_id": "D-SZ-fresh-scotland-2026-07-30-007-247", "zone_id": "SZ-fresh-scotland-2026-07-30-007", "scene_id": "S2C_MSIL2A_20260730T113321_R080_T30VWH_20260730T150808", "datetime": "2026-07-30T11:33:21.025000Z", "n_pixels": 1, "area_m2": 100, "prob_max": 0.8196, "prob_mean": 0.8196, "threshold": 0.63, "in_strip": true, "artifact": null}}, {"type": "Feature", "id": "D-SZ-fresh-scotland-2026-07-30-008-297", "geometry": {"type": "Polygon", "coordinates": [[[-2.4804995, 56.167108], [-2.4805019, 56.1669284], [-2.4803409, 56.1669277], [-2.4803385, 56.1671074], [-2.4804995, 56.167108]]]}, "properties": {"kind": "detection", "det_id": "D-SZ-fresh-scotland-2026-07-30-008-297", "zone_id": "SZ-fresh-scotland-2026-07-30-008", "scene_id": "S2C_MSIL2A_20260730T113321_R080_T30VWH_20260730T150808", "datetime": "2026-07-30T11:33:21.025000Z", "n_pixels": 2, "area_m2": 200, "prob_max": 0.7608, "prob_mean": 0.7353, "threshold": 0.63, "in_strip": true, "artifact": null}}, {"type": "Feature", "id": "D-SZ-fresh-scotland-2026-07-30-008-298", "geometry": {"type": "Polygon", "coordinates": [[[-2.4798578, 56.1669256], [-2.4798602, 56.166746], [-2.4796992, 56.1667453], [-2.4796968, 56.166925], [-2.4798578, 56.1669256]]]}, "properties": {"kind": "detection", "det_id": "D-SZ-fresh-scotland-2026-07-30-008-298", "zone_id": "SZ-fresh-scotland-2026-07-30-008", "scene_id": "S2C_MSIL2A_20260730T113321_R080_T30VWH_20260730T150808", "datetime": "2026-07-30T11:33:21.025000Z", "n_pixels": 2, "area_m2": 200, "prob_max": 0.9294, "prob_mean": 0.849, "threshold": 0.63, "in_strip": true, "artifact": null}}, {"type": "Feature", "id": "D-SZ-fresh-scotland-2026-07-30-008-313", "geometry": {"type": "Polygon", "coordinates": [[[-2.4808494, 56.165043], [-2.4808519, 56.1648633], [-2.4806908, 56.1648626], [-2.4806884, 56.1650423], [-2.4808494, 56.165043]]]}, "properties": {"kind": "detection", "det_id": "D-SZ-fresh-scotland-2026-07-30-008-313", "zone_id": "SZ-fresh-scotland-2026-07-30-008", "scene_id": "S2C_MSIL2A_20260730T113321_R080_T30VWH_20260730T150808", "datetime": "2026-07-30T11:33:21.025000Z", "n_pixels": 2, "area_m2": 200, "prob_max": 0.9412, "prob_mean": 0.9373, "threshold": 0.63, "in_strip": true, "artifact": null}}, {"type": "Feature", "id": "D-SZ-fresh-scotland-2026-07-30-009-301", "geometry": {"type": "Polygon", "coordinates": [[[-2.4895254, 56.1665167], [-2.4895266, 56.1664269], [-2.4893656, 56.1664262], [-2.4893644, 56.166516], [-2.4895254, 56.1665167]]]}, "properties": {"kind": "detection", "det_id": "D-SZ-fresh-scotland-2026-07-30-009-301", "zone_id": "SZ-fresh-scotland-2026-07-30-009", "scene_id": "S2C_MSIL2A_20260730T113321_R080_T30VWH_20260730T150808", "datetime": "2026-07-30T11:33:21.025000Z", "n_pixels": 1, "area_m2": 100, "prob_max": 0.7412, "prob_mean": 0.7412, "threshold": 0.63, "in_strip": true, "artifact": null}}, {"type": "Feature", "id": "D-SZ-fresh-scotland-2026-07-30-009-316", "geometry": {"type": "Polygon", "coordinates": [[[-2.487134, 56.1647098], [-2.4871388, 56.1643505], [-2.4869778, 56.1643498], [-2.4869754, 56.1645295], [-2.4868143, 56.1645288], [-2.4868131, 56.1646187], [-2.4869742, 56.1646193], [-2.486973, 56.1647092], [-2.487134, 56.1647098]]]}, "properties": {"kind": "detection", "det_id": "D-SZ-fresh-scotland-2026-07-30-009-316", "zone_id": "SZ-fresh-scotland-2026-07-30-009", "scene_id": "S2C_MSIL2A_20260730T113321_R080_T30VWH_20260730T150808", "datetime": "2026-07-30T11:33:21.025000Z", "n_pixels": 5, "area_m2": 500, "prob_max": 0.9843, "prob_mean": 0.8902, "threshold": 0.63, "in_strip": true, "artifact": null}}, {"type": "Feature", "id": "D-SZ-fresh-scotland-2026-07-30-009-320", "geometry": {"type": "Polygon", "coordinates": [[[-2.4868215, 56.1639898], [-2.4868227, 56.1638999], [-2.4866617, 56.1638992], [-2.4866605, 56.1639891], [-2.4868215, 56.1639898]]]}, "properties": {"kind": "detection", "det_id": "D-SZ-fresh-scotland-2026-07-30-009-320", "zone_id": "SZ-fresh-scotland-2026-07-30-009", "scene_id": "S2C_MSIL2A_20260730T113321_R080_T30VWH_20260730T150808", "datetime": "2026-07-30T11:33:21.025000Z", "n_pixels": 1, "area_m2": 100, "prob_max": 0.6549, "prob_mean": 0.6549, "threshold": 0.63, "in_strip": true, "artifact": null}}, {"type": "Feature", "id": "D-SZ-fresh-scotland-2026-07-30-009-327", "geometry": {"type": "Polygon", "coordinates": [[[-2.4887656, 56.1630993], [-2.4887668, 56.1630095], [-2.4886058, 56.1630088], [-2.4886046, 56.1630987], [-2.4887656, 56.1630993]]]}, "properties": {"kind": "detection", "det_id": "D-SZ-fresh-scotland-2026-07-30-009-327", "zone_id": "SZ-fresh-scotland-2026-07-30-009", "scene_id": "S2C_MSIL2A_20260730T113321_R080_T30VWH_20260730T150808", "datetime": "2026-07-30T11:33:21.025000Z", "n_pixels": 1, "area_m2": 100, "prob_max": 0.7686, "prob_mean": 0.7686, "threshold": 0.63, "in_strip": true, "artifact": null}}, {"type": "Feature", "id": "D-SZ-fresh-scotland-2026-07-30-010-347", "geometry": {"type": "Polygon", "coordinates": [[[-2.4852775, 56.1590417], [-2.4852787, 56.1589518], [-2.4851177, 56.1589512], [-2.4851189, 56.1588613], [-2.4849579, 56.1588606], [-2.4849567, 56.1589505], [-2.4851177, 56.1589512], [-2.4851165, 56.159041], [-2.4852775, 56.1590417]]]}, "properties": {"kind": "detection", "det_id": "D-SZ-fresh-scotland-2026-07-30-010-347", "zone_id": "SZ-fresh-scotland-2026-07-30-010", "scene_id": "S2C_MSIL2A_20260730T113321_R080_T30VWH_20260730T150808", "datetime": "2026-07-30T11:33:21.025000Z", "n_pixels": 2, "area_m2": 200, "prob_max": 0.9608, "prob_mean": 0.8824, "threshold": 0.63, "in_strip": true, "artifact": null}}, {"type": "Feature", "id": "D-SZ-fresh-scotland-2026-07-30-010-351", "geometry": {"type": "Polygon", "coordinates": [[[-2.4751397, 56.1586396], [-2.475141, 56.1585498], [-2.47498, 56.1585491], [-2.4749787, 56.158639], [-2.4751397, 56.1586396]]]}, "properties": {"kind": "detection", "det_id": "D-SZ-fresh-scotland-2026-07-30-010-351", "zone_id": "SZ-fresh-scotland-2026-07-30-010", "scene_id": "S2C_MSIL2A_20260730T113321_R080_T30VWH_20260730T150808", "datetime": "2026-07-30T11:33:21.025000Z", "n_pixels": 1, "area_m2": 100, "prob_max": 0.9137, "prob_mean": 0.9137, "threshold": 0.63, "in_strip": true, "artifact": null}}, {"type": "Feature", "id": "D-SZ-fresh-scotland-2026-07-30-010-366", "geometry": {"type": "Polygon", "coordinates": [[[-2.4851501, 56.1565254], [-2.4851513, 56.1564355], [-2.4849903, 56.1564349], [-2.4849891, 56.1565247], [-2.4851501, 56.1565254]]]}, "properties": {"kind": "detection", "det_id": "D-SZ-fresh-scotland-2026-07-30-010-366", "zone_id": "SZ-fresh-scotland-2026-07-30-010", "scene_id": "S2C_MSIL2A_20260730T113321_R080_T30VWH_20260730T150808", "datetime": "2026-07-30T11:33:21.025000Z", "n_pixels": 1, "area_m2": 100, "prob_max": 0.8118, "prob_mean": 0.8118, "threshold": 0.63, "in_strip": true, "artifact": null}}, {"type": "Feature", "id": "D-SZ-fresh-scotland-2026-07-30-010-367", "geometry": {"type": "Polygon", "coordinates": [[[-2.4783888, 56.156497], [-2.4783924, 56.1562275], [-2.4782315, 56.1562268], [-2.4782302, 56.1563167], [-2.4780693, 56.156316], [-2.4780668, 56.1564957], [-2.4783888, 56.156497]]]}, "properties": {"kind": "detection", "det_id": "D-SZ-fresh-scotland-2026-07-30-010-367", "zone_id": "SZ-fresh-scotland-2026-07-30-010", "scene_id": "S2C_MSIL2A_20260730T113321_R080_T30VWH_20260730T150808", "datetime": "2026-07-30T11:33:21.025000Z", "n_pixels": 5, "area_m2": 500, "prob_max": 0.9725, "prob_mean": 0.811, "threshold": 0.63, "in_strip": true, "artifact": null}}, {"type": "Feature", "id": "D-SZ-fresh-scotland-2026-07-30-010-371", "geometry": {"type": "Polygon", "coordinates": [[[-2.4827426, 56.1559762], [-2.4827438, 56.1558864], [-2.4825828, 56.1558857], [-2.4825816, 56.1559756], [-2.4827426, 56.1559762]]]}, "properties": {"kind": "detection", "det_id": "D-SZ-fresh-scotland-2026-07-30-010-371", "zone_id": "SZ-fresh-scotland-2026-07-30-010", "scene_id": "S2C_MSIL2A_20260730T113321_R080_T30VWH_20260730T150808", "datetime": "2026-07-30T11:33:21.025000Z", "n_pixels": 1, "area_m2": 100, "prob_max": 0.6667, "prob_mean": 0.6667, "threshold": 0.63, "in_strip": true, "artifact": null}}, {"type": "Feature", "id": "D-SZ-fresh-scotland-2026-07-30-011-349", "geometry": {"type": "Polygon", "coordinates": [[[-2.504437, 56.1590301], [-2.5044382, 56.1589403], [-2.5041162, 56.158939], [-2.504115, 56.1590288], [-2.504437, 56.1590301]]]}, "properties": {"kind": "detection", "det_id": "D-SZ-fresh-scotland-2026-07-30-011-349", "zone_id": "SZ-fresh-scotland-2026-07-30-011", "scene_id": "S2C_MSIL2A_20260730T113321_R080_T30VWH_20260730T150808", "datetime": "2026-07-30T11:33:21.025000Z", "n_pixels": 2, "area_m2": 200, "prob_max": 0.9451, "prob_mean": 0.7941, "threshold": 0.63, "in_strip": true, "artifact": null}}, {"type": "Feature", "id": "D-SZ-fresh-scotland-2026-07-30-011-352", "geometry": {"type": "Polygon", "coordinates": [[[-2.494621, 56.158631], [-2.4946222, 56.1585411], [-2.4944612, 56.1585405], [-2.4944601, 56.1586303], [-2.494621, 56.158631]]]}, "properties": {"kind": "detection", "det_id": "D-SZ-fresh-scotland-2026-07-30-011-352", "zone_id": "SZ-fresh-scotland-2026-07-30-011", "scene_id": "S2C_MSIL2A_20260730T113321_R080_T30VWH_20260730T150808", "datetime": "2026-07-30T11:33:21.025000Z", "n_pixels": 1, "area_m2": 100, "prob_max": 0.8549, "prob_mean": 0.8549, "threshold": 0.63, "in_strip": true, "artifact": null}}, {"type": "Feature", "id": "D-SZ-fresh-scotland-2026-07-30-011-354", "geometry": {"type": "Polygon", "coordinates": [[[-2.4976881, 56.1580145], [-2.4976905, 56.1578349], [-2.4975295, 56.1578342], [-2.4975271, 56.1580139], [-2.4976881, 56.1580145]]]}, "properties": {"kind": "detection", "det_id": "D-SZ-fresh-scotland-2026-07-30-011-354", "zone_id": "SZ-fresh-scotland-2026-07-30-011", "scene_id": "S2C_MSIL2A_20260730T113321_R080_T30VWH_20260730T150808", "datetime": "2026-07-30T11:33:21.025000Z", "n_pixels": 2, "area_m2": 200, "prob_max": 0.9569, "prob_mean": 0.8667, "threshold": 0.63, "in_strip": true, "artifact": null}}, {"type": "Feature", "id": "D-SZ-fresh-scotland-2026-07-30-011-361", "geometry": {"type": "Polygon", "coordinates": [[[-2.5020418, 56.1574931], [-2.502043, 56.1574032], [-2.501882, 56.1574026], [-2.5018808, 56.1574924], [-2.5020418, 56.1574931]]]}, "properties": {"kind": "detection", "det_id": "D-SZ-fresh-scotland-2026-07-30-011-361", "zone_id": "SZ-fresh-scotland-2026-07-30-011", "scene_id": "S2C_MSIL2A_20260730T113321_R080_T30VWH_20260730T150808", "datetime": "2026-07-30T11:33:21.025000Z", "n_pixels": 1, "area_m2": 100, "prob_max": 0.7333, "prob_mean": 0.7333, "threshold": 0.63, "in_strip": true, "artifact": null}}, {"type": "Feature", "id": "D-SZ-fresh-scotland-2026-07-30-011-364", "geometry": {"type": "Polygon", "coordinates": [[[-2.4970582, 56.1569338], [-2.4970594, 56.156844], [-2.4968984, 56.1568433], [-2.4968973, 56.1569331], [-2.4970582, 56.1569338]]]}, "properties": {"kind": "detection", "det_id": "D-SZ-fresh-scotland-2026-07-30-011-364", "zone_id": "SZ-fresh-scotland-2026-07-30-011", "scene_id": "S2C_MSIL2A_20260730T113321_R080_T30VWH_20260730T150808", "datetime": "2026-07-30T11:33:21.025000Z", "n_pixels": 1, "area_m2": 100, "prob_max": 0.8392, "prob_mean": 0.8392, "threshold": 0.63, "in_strip": true, "artifact": null}}, {"type": "Feature", "id": "D-SZ-fresh-scotland-2026-07-30-012-353", "geometry": {"type": "Polygon", "coordinates": [[[-2.2826084, 56.1571331], [-2.2826101, 56.1570432], [-2.2824491, 56.1570423], [-2.2824474, 56.1571321], [-2.2826084, 56.1571331]]]}, "properties": {"kind": "detection", "det_id": "D-SZ-fresh-scotland-2026-07-30-012-353", "zone_id": "SZ-fresh-scotland-2026-07-30-012", "scene_id": "S2C_MSIL2A_20260730T113321_R080_T30VWH_20260730T150808", "datetime": "2026-07-30T11:33:21.025000Z", "n_pixels": 1, "area_m2": 100, "prob_max": 0.7843, "prob_mean": 0.7843, "threshold": 0.63, "in_strip": true, "artifact": null}}, {"type": "Feature", "id": "D-SZ-fresh-scotland-2026-07-30-012-355", "geometry": {"type": "Polygon", "coordinates": [[[-2.2827727, 56.1569543], [-2.2827744, 56.1568645], [-2.2826134, 56.1568635], [-2.2826117, 56.1569534], [-2.2827727, 56.1569543]]]}, "properties": {"kind": "detection", "det_id": "D-SZ-fresh-scotland-2026-07-30-012-355", "zone_id": "SZ-fresh-scotland-2026-07-30-012", "scene_id": "S2C_MSIL2A_20260730T113321_R080_T30VWH_20260730T150808", "datetime": "2026-07-30T11:33:21.025000Z", "n_pixels": 1, "area_m2": 100, "prob_max": 0.9333, "prob_mean": 0.9333, "threshold": 0.63, "in_strip": true, "artifact": null}}, {"type": "Feature", "id": "D-SZ-fresh-scotland-2026-07-30-012-358", "geometry": {"type": "Polygon", "coordinates": [[[-2.2827761, 56.1567746], [-2.2827777, 56.1566848], [-2.2824558, 56.1566829], [-2.2824591, 56.1565033], [-2.2822982, 56.1565023], [-2.2822948, 56.156682], [-2.2824558, 56.1566829], [-2.2824541, 56.1567728], [-2.2827761, 56.1567746]]]}, "properties": {"kind": "detection", "det_id": "D-SZ-fresh-scotland-2026-07-30-012-358", "zone_id": "SZ-fresh-scotland-2026-07-30-012", "scene_id": "S2C_MSIL2A_20260730T113321_R080_T30VWH_20260730T150808", "datetime": "2026-07-30T11:33:21.025000Z", "n_pixels": 4, "area_m2": 400, "prob_max": 0.9216, "prob_mean": 0.8471, "threshold": 0.63, "in_strip": true, "artifact": null}}, {"type": "Feature", "id": "D-SZ-fresh-scotland-2026-07-30-013-406", "geometry": {"type": "Polygon", "coordinates": [[[-2.5168237, 56.1470395], [-2.5168249, 56.1469496], [-2.5166639, 56.146949], [-2.5166628, 56.1470388], [-2.5168237, 56.1470395]]]}, "properties": {"kind": "detection", "det_id": "D-SZ-fresh-scotland-2026-07-30-013-406", "zone_id": "SZ-fresh-scotland-2026-07-30-013", "scene_id": "S2C_MSIL2A_20260730T113321_R080_T30VWH_20260730T150808", "datetime": "2026-07-30T11:33:21.025000Z", "n_pixels": 1, "area_m2": 100, "prob_max": 0.949, "prob_mean": 0.949, "threshold": 0.63, "in_strip": true, "artifact": null}}, {"type": "Feature", "id": "D-SZ-fresh-scotland-2026-07-30-013-409", "geometry": {"type": "Polygon", "coordinates": [[[-2.5208652, 56.1456176], [-2.5208686, 56.1453481], [-2.5207077, 56.1453475], [-2.5207065, 56.1454373], [-2.5205456, 56.1454367], [-2.5205445, 56.1455265], [-2.5207054, 56.1455272], [-2.5207043, 56.145617], [-2.5208652, 56.1456176]]]}, "properties": {"kind": "detection", "det_id": "D-SZ-fresh-scotland-2026-07-30-013-409", "zone_id": "SZ-fresh-scotland-2026-07-30-013", "scene_id": "S2C_MSIL2A_20260730T113321_R080_T30VWH_20260730T150808", "datetime": "2026-07-30T11:33:21.025000Z", "n_pixels": 4, "area_m2": 400, "prob_max": 0.949, "prob_mean": 0.8725, "threshold": 0.63, "in_strip": true, "artifact": null}}, {"type": "Feature", "id": "D-SZ-fresh-scotland-2026-07-30-014-444", "geometry": {"type": "Polygon", "coordinates": [[[-2.3715024, 56.1359633], [-2.3715053, 56.1357837], [-2.3713444, 56.1357828], [-2.3713415, 56.1359625], [-2.3715024, 56.1359633]]]}, "properties": {"kind": "detection", "det_id": "D-SZ-fresh-scotland-2026-07-30-014-444", "zone_id": "SZ-fresh-scotland-2026-07-30-014", "scene_id": "S2C_MSIL2A_20260730T113321_R080_T30VWH_20260730T150808", "datetime": "2026-07-30T11:33:21.025000Z", "n_pixels": 2, "area_m2": 200, "prob_max": 0.9725, "prob_mean": 0.8373, "threshold": 0.63, "in_strip": true, "artifact": null}}, {"type": "Feature", "id": "D-SZ-fresh-scotland-2026-07-30-014-445", "geometry": {"type": "Polygon", "coordinates": [[[-2.3703776, 56.1358678], [-2.3703791, 56.1357779], [-2.3702182, 56.1357771], [-2.3702167, 56.135867], [-2.3703776, 56.1358678]]]}, "properties": {"kind": "detection", "det_id": "D-SZ-fresh-scotland-2026-07-30-014-445", "zone_id": "SZ-fresh-scotland-2026-07-30-014", "scene_id": "S2C_MSIL2A_20260730T113321_R080_T30VWH_20260730T150808", "datetime": "2026-07-30T11:33:21.025000Z", "n_pixels": 1, "area_m2": 100, "prob_max": 0.7647, "prob_mean": 0.7647, "threshold": 0.63, "in_strip": true, "artifact": null}}, {"type": "Feature", "id": "D-SZ-fresh-scotland-2026-07-30-014-446", "geometry": {"type": "Polygon", "coordinates": [[[-2.3703805, 56.1356881], [-2.370382, 56.1355982], [-2.3702211, 56.1355974], [-2.3702196, 56.1356873], [-2.3703805, 56.1356881]]]}, "properties": {"kind": "detection", "det_id": "D-SZ-fresh-scotland-2026-07-30-014-446", "zone_id": "SZ-fresh-scotland-2026-07-30-014", "scene_id": "S2C_MSIL2A_20260730T113321_R080_T30VWH_20260730T150808", "datetime": "2026-07-30T11:33:21.025000Z", "n_pixels": 1, "area_m2": 100, "prob_max": 0.749, "prob_mean": 0.749, "threshold": 0.63, "in_strip": true, "artifact": null}}, {"type": "Feature", "id": "D-SZ-fresh-scotland-2026-07-30-014-450", "geometry": {"type": "Polygon", "coordinates": [[[-2.3744073, 56.135439], [-2.3744087, 56.1353491], [-2.3742478, 56.1353483], [-2.3742464, 56.1354382], [-2.3744073, 56.135439]]]}, "properties": {"kind": "detection", "det_id": "D-SZ-fresh-scotland-2026-07-30-014-450", "zone_id": "SZ-fresh-scotland-2026-07-30-014", "scene_id": "S2C_MSIL2A_20260730T113321_R080_T30VWH_20260730T150808", "datetime": "2026-07-30T11:33:21.025000Z", "n_pixels": 1, "area_m2": 100, "prob_max": 0.8314, "prob_mean": 0.8314, "threshold": 0.63, "in_strip": true, "artifact": null}}, {"type": "Feature", "id": "D-SZ-fresh-scotland-2026-07-30-015-469", "geometry": {"type": "Polygon", "coordinates": [[[-2.3291344, 56.1295409], [-2.329136, 56.1294511], [-2.3289751, 56.1294502], [-2.3289735, 56.1295401], [-2.3291344, 56.1295409]]]}, "properties": {"kind": "detection", "det_id": "D-SZ-fresh-scotland-2026-07-30-015-469", "zone_id": "SZ-fresh-scotland-2026-07-30-015", "scene_id": "S2C_MSIL2A_20260730T113321_R080_T30VWH_20260730T150808", "datetime": "2026-07-30T11:33:21.025000Z", "n_pixels": 1, "area_m2": 100, "prob_max": 0.8588, "prob_mean": 0.8588, "threshold": 0.63, "in_strip": true, "artifact": null}}, {"type": "Feature", "id": "D-SZ-fresh-scotland-2026-07-30-015-471", "geometry": {"type": "Polygon", "coordinates": [[[-2.3368622, 56.1292233], [-2.3368638, 56.1291334], [-2.3367029, 56.1291326], [-2.3367013, 56.1292224], [-2.3368622, 56.1292233]]]}, "properties": {"kind": "detection", "det_id": "D-SZ-fresh-scotland-2026-07-30-015-471", "zone_id": "SZ-fresh-scotland-2026-07-30-015", "scene_id": "S2C_MSIL2A_20260730T113321_R080_T30VWH_20260730T150808", "datetime": "2026-07-30T11:33:21.025000Z", "n_pixels": 1, "area_m2": 100, "prob_max": 0.9686, "prob_mean": 0.9686, "threshold": 0.63, "in_strip": true, "artifact": "ship"}}, {"type": "Feature", "id": "D-SZ-fresh-scotland-2026-07-30-015-472", "geometry": {"type": "Polygon", "coordinates": [[[-2.3286581, 56.129179], [-2.3286596, 56.1290891], [-2.3284988, 56.1290882], [-2.3284972, 56.1291781], [-2.3286581, 56.129179]]]}, "properties": {"kind": "detection", "det_id": "D-SZ-fresh-scotland-2026-07-30-015-472", "zone_id": "SZ-fresh-scotland-2026-07-30-015", "scene_id": "S2C_MSIL2A_20260730T113321_R080_T30VWH_20260730T150808", "datetime": "2026-07-30T11:33:21.025000Z", "n_pixels": 1, "area_m2": 100, "prob_max": 0.8784, "prob_mean": 0.8784, "threshold": 0.63, "in_strip": true, "artifact": null}}, {"type": "Feature", "id": "D-SZ-fresh-scotland-2026-07-30-015-475", "geometry": {"type": "Polygon", "coordinates": [[[-2.3323751, 56.1282108], [-2.3323782, 56.1280311], [-2.3322173, 56.1280302], [-2.3322142, 56.1282099], [-2.3323751, 56.1282108]]]}, "properties": {"kind": "detection", "det_id": "D-SZ-fresh-scotland-2026-07-30-015-475", "zone_id": "SZ-fresh-scotland-2026-07-30-015", "scene_id": "S2C_MSIL2A_20260730T113321_R080_T30VWH_20260730T150808", "datetime": "2026-07-30T11:33:21.025000Z", "n_pixels": 2, "area_m2": 200, "prob_max": 0.8039, "prob_mean": 0.7412, "threshold": 0.63, "in_strip": true, "artifact": null}}, {"type": "Feature", "id": "D-SZ-fresh-scotland-2026-07-30-015-478", "geometry": {"type": "Polygon", "coordinates": [[[-2.3360888, 56.1274221], [-2.3360904, 56.1273323], [-2.3357687, 56.1273305], [-2.3357671, 56.1274204], [-2.3360888, 56.1274221]]]}, "properties": {"kind": "detection", "det_id": "D-SZ-fresh-scotland-2026-07-30-015-478", "zone_id": "SZ-fresh-scotland-2026-07-30-015", "scene_id": "S2C_MSIL2A_20260730T113321_R080_T30VWH_20260730T150808", "datetime": "2026-07-30T11:33:21.025000Z", "n_pixels": 2, "area_m2": 200, "prob_max": 0.9373, "prob_mean": 0.7882, "threshold": 0.63, "in_strip": true, "artifact": null}}, {"type": "Feature", "id": "D-SZ-fresh-scotland-2026-07-30-015-480", "geometry": {"type": "Polygon", "coordinates": [[[-2.3359512, 56.1260736], [-2.3359527, 56.1259838], [-2.3357919, 56.1259829], [-2.3357903, 56.1260728], [-2.3359512, 56.1260736]]]}, "properties": {"kind": "detection", "det_id": "D-SZ-fresh-scotland-2026-07-30-015-480", "zone_id": "SZ-fresh-scotland-2026-07-30-015", "scene_id": "S2C_MSIL2A_20260730T113321_R080_T30VWH_20260730T150808", "datetime": "2026-07-30T11:33:21.025000Z", "n_pixels": 1, "area_m2": 100, "prob_max": 0.7176, "prob_mean": 0.7176, "threshold": 0.63, "in_strip": true, "artifact": null}}, {"type": "Feature", "id": "D-SZ-fresh-scotland-2026-07-30-016-519", "geometry": {"type": "Polygon", "coordinates": [[[-2.3581736, 56.1150497], [-2.3581751, 56.1149599], [-2.3580142, 56.114959], [-2.3580127, 56.1150489], [-2.3581736, 56.1150497]]]}, "properties": {"kind": "detection", "det_id": "D-SZ-fresh-scotland-2026-07-30-016-519", "zone_id": "SZ-fresh-scotland-2026-07-30-016", "scene_id": "S2C_MSIL2A_20260730T113321_R080_T30VWH_20260730T150808", "datetime": "2026-07-30T11:33:21.025000Z", "n_pixels": 1, "area_m2": 100, "prob_max": 0.8627, "prob_mean": 0.8627, "threshold": 0.63, "in_strip": true, "artifact": "ship"}}, {"type": "Feature", "id": "D-SZ-fresh-scotland-2026-07-30-016-520", "geometry": {"type": "Polygon", "coordinates": [[[-2.3578534, 56.1149582], [-2.3578549, 56.1148683], [-2.3576941, 56.1148675], [-2.3576926, 56.1149573], [-2.3578534, 56.1149582]]]}, "properties": {"kind": "detection", "det_id": "D-SZ-fresh-scotland-2026-07-30-016-520", "zone_id": "SZ-fresh-scotland-2026-07-30-016", "scene_id": "S2C_MSIL2A_20260730T113321_R080_T30VWH_20260730T150808", "datetime": "2026-07-30T11:33:21.025000Z", "n_pixels": 1, "area_m2": 100, "prob_max": 0.6627, "prob_mean": 0.6627, "threshold": 0.63, "in_strip": true, "artifact": "ship"}}, {"type": "Feature", "id": "D-SZ-fresh-scotland-2026-07-30-016-530", "geometry": {"type": "Polygon", "coordinates": [[[-2.3561266, 56.1124334], [-2.3561281, 56.1123436], [-2.3559673, 56.1123427], [-2.3559688, 56.1122529], [-2.355808, 56.112252], [-2.3558065, 56.1123419], [-2.3559673, 56.1123427], [-2.3559658, 56.1124326], [-2.3561266, 56.1124334]]]}, "properties": {"kind": "detection", "det_id": "D-SZ-fresh-scotland-2026-07-30-016-530", "zone_id": "SZ-fresh-scotland-2026-07-30-016", "scene_id": "S2C_MSIL2A_20260730T113321_R080_T30VWH_20260730T150808", "datetime": "2026-07-30T11:33:21.025000Z", "n_pixels": 2, "area_m2": 200, "prob_max": 0.8392, "prob_mean": 0.8314, "threshold": 0.63, "in_strip": true, "artifact": null}}, {"type": "Feature", "id": "D-SZ-fresh-scotland-2026-07-30-016-532", "geometry": {"type": "Polygon", "coordinates": [[[-2.3548432, 56.112247], [-2.3548447, 56.1121572], [-2.3546839, 56.1121563], [-2.3546824, 56.1122462], [-2.3548432, 56.112247]]]}, "properties": {"kind": "detection", "det_id": "D-SZ-fresh-scotland-2026-07-30-016-532", "zone_id": "SZ-fresh-scotland-2026-07-30-016", "scene_id": "S2C_MSIL2A_20260730T113321_R080_T30VWH_20260730T150808", "datetime": "2026-07-30T11:33:21.025000Z", "n_pixels": 1, "area_m2": 100, "prob_max": 0.6549, "prob_mean": 0.6549, "threshold": 0.63, "in_strip": true, "artifact": null}}, {"type": "Feature", "id": "D-SZ-fresh-scotland-2026-07-30-016-533", "geometry": {"type": "Polygon", "coordinates": [[[-2.3543714, 56.1116156], [-2.3543744, 56.1114359], [-2.3542136, 56.1114351], [-2.3542106, 56.1116147], [-2.3543714, 56.1116156]]]}, "properties": {"kind": "detection", "det_id": "D-SZ-fresh-scotland-2026-07-30-016-533", "zone_id": "SZ-fresh-scotland-2026-07-30-016", "scene_id": "S2C_MSIL2A_20260730T113321_R080_T30VWH_20260730T150808", "datetime": "2026-07-30T11:33:21.025000Z", "n_pixels": 2, "area_m2": 200, "prob_max": 0.9216, "prob_mean": 0.8333, "threshold": 0.63, "in_strip": true, "artifact": null}}, {"type": "Feature", "id": "D-SZ-fresh-scotland-2026-07-30-017-565", "geometry": {"type": "Polygon", "coordinates": [[[-2.584084, 56.1039771], [-2.5840859, 56.1037975], [-2.5842467, 56.103798], [-2.5842477, 56.1037082], [-2.5840869, 56.1037076], [-2.5840859, 56.1037975], [-2.5837644, 56.1037964], [-2.5837654, 56.1037065], [-2.5836046, 56.103706], [-2.5836036, 56.1037958], [-2.5837644, 56.1037964], [-2.5837634, 56.1038862], [-2.5839242, 56.1038868], [-2.5839232, 56.1039766], [-2.584084, 56.1039771]]]}, "properties": {"kind": "detection", "det_id": "D-SZ-fresh-scotland-2026-07-30-017-565", "zone_id": "SZ-fresh-scotland-2026-07-30-017", "scene_id": "S2C_MSIL2A_20260730T113321_R080_T30VWH_20260730T150808", "datetime": "2026-07-30T11:33:21.025000Z", "n_pixels": 5, "area_m2": 500, "prob_max": 0.8863, "prob_mean": 0.8298, "threshold": 0.63, "in_strip": true, "artifact": null}}, {"type": "Feature", "id": "D-SZ-fresh-scotland-2026-07-30-018-611", "geometry": {"type": "Polygon", "coordinates": [[[-2.360388, 56.088196], [-2.3603895, 56.0881062], [-2.3602288, 56.0881053], [-2.3602273, 56.0881952], [-2.360388, 56.088196]]]}, "properties": {"kind": "detection", "det_id": "D-SZ-fresh-scotland-2026-07-30-018-611", "zone_id": "SZ-fresh-scotland-2026-07-30-018", "scene_id": "S2C_MSIL2A_20260730T113321_R080_T30VWH_20260730T150808", "datetime": "2026-07-30T11:33:21.025000Z", "n_pixels": 1, "area_m2": 100, "prob_max": 0.9216, "prob_mean": 0.9216, "threshold": 0.63, "in_strip": true, "artifact": null}}, {"type": "Feature", "id": "D-SZ-fresh-scotland-2026-07-30-018-614", "geometry": {"type": "Polygon", "coordinates": [[[-2.3580015, 56.086746], [-2.3580029, 56.0866562], [-2.3581636, 56.086657], [-2.3581666, 56.0864773], [-2.3580059, 56.0864765], [-2.3580029, 56.0866562], [-2.3578423, 56.0866553], [-2.3578408, 56.0867452], [-2.3580015, 56.086746]]]}, "properties": {"kind": "detection", "det_id": "D-SZ-fresh-scotland-2026-07-30-018-614", "zone_id": "SZ-fresh-scotland-2026-07-30-018", "scene_id": "S2C_MSIL2A_20260730T113321_R080_T30VWH_20260730T150808", "datetime": "2026-07-30T11:33:21.025000Z", "n_pixels": 3, "area_m2": 300, "prob_max": 0.949, "prob_mean": 0.8706, "threshold": 0.63, "in_strip": true, "artifact": null}}, {"type": "Feature", "id": "D-SZ-fresh-scotland-2026-07-30-018-619", "geometry": {"type": "Polygon", "coordinates": [[[-2.3628384, 56.0857827], [-2.3628399, 56.0856929], [-2.3626792, 56.085692], [-2.3626778, 56.0857819], [-2.3628384, 56.0857827]]]}, "properties": {"kind": "detection", "det_id": "D-SZ-fresh-scotland-2026-07-30-018-619", "zone_id": "SZ-fresh-scotland-2026-07-30-018", "scene_id": "S2C_MSIL2A_20260730T113321_R080_T30VWH_20260730T150808", "datetime": "2026-07-30T11:33:21.025000Z", "n_pixels": 1, "area_m2": 100, "prob_max": 0.898, "prob_mean": 0.898, "threshold": 0.63, "in_strip": true, "artifact": null}}, {"type": "Feature", "id": "D-SZ-fresh-scotland-2026-07-30-018-623", "geometry": {"type": "Polygon", "coordinates": [[[-2.3562698, 56.0845806], [-2.3562713, 56.0844908], [-2.3561106, 56.0844899], [-2.3561091, 56.0845798], [-2.3562698, 56.0845806]]]}, "properties": {"kind": "detection", "det_id": "D-SZ-fresh-scotland-2026-07-30-018-623", "zone_id": "SZ-fresh-scotland-2026-07-30-018", "scene_id": "S2C_MSIL2A_20260730T113321_R080_T30VWH_20260730T150808", "datetime": "2026-07-30T11:33:21.025000Z", "n_pixels": 1, "area_m2": 100, "prob_max": 0.6471, "prob_mean": 0.6471, "threshold": 0.63, "in_strip": true, "artifact": null}}]}