{"type":"FeatureCollection","features":[{"type":"Feature","geometry":{"type":"Polygon","coordinates":[[[120.802501,14.694967],[120.802507,14.694425],[120.802599,14.694426],[120.80261,14.693342],[120.802703,14.693343],[120.802689,14.694788],[120.802596,14.694787],[120.802594,14.694968],[120.802501,14.694967]]]},"properties":{"id":"manila_2025-01-06_mdd_0","region":"manila","date":"2025-01-06","area_m2":2200.0,"mean_prob":0.536,"max_prob":0.5843,"model":"mdd","n_px":22,"px_area_m2":100.0,"confirmed":false,"confirmed_by":null,"lon":120.802622,"lat":14.694237}},{"type":"Feature","geometry":{"type":"Polygon","coordinates":[[[120.802803,14.692621],[120.802809,14.691988],[120.802902,14.691989],[120.802904,14.691809],[120.802997,14.69181],[120.802991,14.692442],[120.802898,14.692441],[120.802896,14.692622],[120.802803,14.692621]]]},"properties":{"id":"manila_2025-01-06_mdd_1","region":"manila","date":"2025-01-06","area_m2":1400.0,"mean_prob":0.5571,"max_prob":0.5961,"model":"mdd","n_px":14,"px_area_m2":100.0,"confirmed":false,"confirmed_by":null,"lon":120.8029,"lat":14.692215}},{"type":"Feature","geometry":{"type":"Polygon","coordinates":[[[120.802812,14.691717],[120.802816,14.691356],[120.802723,14.691355],[120.802728,14.690813],[120.802636,14.690812],[120.802641,14.69027],[120.802734,14.690271],[120.802732,14.690452],[120.802825,14.690453],[120.802823,14.690633],[120.802916,14.690634],[120.802905,14.691718],[120.802812,14.691717]]]},"properties":{"id":"manila_2025-01-06_mdd_2","region":"manila","date":"2025-01-06","area_m2":2800.0,"mean_prob":0.5416,"max_prob":0.5804,"model":"mdd","n_px":28,"px_area_m2":100.0,"confirmed":false,"confirmed_by":null,"lon":120.802793,"lat":14.690943}},{"type":"Feature","geometry":{"type":"Polygon","coordinates":[[[120.846161,14.691853],[120.846162,14.691763],[120.846347,14.691764],[120.846346,14.691855],[120.846161,14.691853]]]},"properties":{"id":"manila_2025-01-06_mdd_3","region":"manila","date":"2025-01-06","area_m2":200.0,"mean_prob":0.5078,"max_prob":0.5098,"model":"mdd","n_px":2,"px_area_m2":100.0,"confirmed":false,"confirmed_by":null,"lon":120.846254,"lat":14.691809}},{"type":"Feature","geometry":{"type":"Polygon","coordinates":[[[120.845233,14.691754],[120.845235,14.691573],[120.845328,14.691574],[120.845326,14.691755],[120.845233,14.691754]]]},"properties":{"id":"manila_2025-01-06_mdd_4","region":"manila","date":"2025-01-06","area_m2":200.0,"mean_prob":0.5078,"max_prob":0.5137,"model":"mdd","n_px":2,"px_area_m2":100.0,"confirmed":false,"confirmed_by":null,"lon":120.845281,"lat":14.691664}},{"type":"Feature","geometry":{"type":"Polygon","coordinates":[[[120.80246,14.689817],[120.802463,14.689455],[120.802556,14.689456],[120.802555,14.689546],[120.802648,14.689547],[120.802646,14.689728],[120.802554,14.689727],[120.802553,14.689817],[120.80246,14.689817]]]},"properties":{"id":"manila_2025-01-06_mdd_5","region":"manila","date":"2025-01-06","area_m2":600.0,"mean_prob":0.5229,"max_prob":0.549,"model":"mdd","n_px":6,"px_area_m2":100.0,"confirmed":false,"confirmed_by":null,"lon":120.802539,"lat":14.689637}},{"type":"Feature","geometry":{"type":"Polygon","coordinates":[[[120.802472,14.688552],[120.802481,14.687739],[120.802573,14.687739],[120.802565,14.688553],[120.802472,14.688552]]]},"properties":{"id":"manila_2025-01-06_mdd_6","region":"manila","date":"2025-01-06","area_m2":900.0,"mean_prob":0.542,"max_prob":0.5804,"model":"mdd","n_px":9,"px_area_m2":100.0,"confirmed":false,"confirmed_by":null,"lon":120.802523,"lat":14.688146}},{"type":"Feature","geometry":{"type":"Polygon","coordinates":[[[120.877762,14.687716],[120.877764,14.687536],[120.877857,14.687537],[120.877855,14.687717],[120.877762,14.687716]]]},"properties":{"id":"manila_2025-01-06_mdd_7","region":"manila","date":"2025-01-06","area_m2":200.0,"mean_prob":0.5059,"max_prob":0.5098,"model":"mdd","n_px":2,"px_area_m2":100.0,"confirmed":true,"confirmed_by":"lgbm","lon":120.87781,"lat":14.687627}},{"type":"Feature","geometry":{"type":"Polygon","coordinates":[[[120.80185,14.685835],[120.801854,14.685383],[120.801947,14.685384],[120.801943,14.685836],[120.80185,14.685835]]]},"properties":{"id":"manila_2025-01-06_mdd_8","region":"manila","date":"2025-01-06","area_m2":500.0,"mean_prob":0.5145,"max_prob":0.5216,"model":"mdd","n_px":5,"px_area_m2":100.0,"confirmed":false,"confirmed_by":null,"lon":120.801899,"lat":14.68561}},{"type":"Feature","geometry":{"type":"Polygon","coordinates":[[[120.801688,14.683484],[120.80169,14.683213],[120.801783,14.683214],[120.801781,14.683485],[120.801688,14.683484]]]},"properties":{"id":"manila_2025-01-06_mdd_9","region":"manila","date":"2025-01-06","area_m2":300.0,"mean_prob":0.5098,"max_prob":0.5176,"model":"mdd","n_px":3,"px_area_m2":100.0,"confirmed":false,"confirmed_by":null,"lon":120.801736,"lat":14.683349}},{"type":"Feature","geometry":{"type":"Polygon","coordinates":[[[120.801419,14.682488],[120.801421,14.682307],[120.801514,14.682308],[120.801512,14.682489],[120.801419,14.682488]]]},"properties":{"id":"manila_2025-01-06_mdd_10","region":"manila","date":"2025-01-06","area_m2":200.0,"mean_prob":0.5118,"max_prob":0.5137,"model":"mdd","n_px":2,"px_area_m2":100.0,"confirmed":false,"confirmed_by":null,"lon":120.801467,"lat":14.682398}},{"type":"Feature","geometry":{"type":"Polygon","coordinates":[[[120.800702,14.679951],[120.800706,14.67959],[120.800798,14.679591],[120.800795,14.679952],[120.800702,14.679951]]]},"properties":{"id":"manila_2025-01-06_mdd_11","region":"manila","date":"2025-01-06","area_m2":400.0,"mean_prob":0.502,"max_prob":0.502,"model":"mdd","n_px":4,"px_area_m2":100.0,"confirmed":false,"confirmed_by":null,"lon":120.80075,"lat":14.679771}},{"type":"Feature","geometry":{"type":"Polygon","coordinates":[[[120.800614,14.679498],[120.800616,14.679318],[120.800708,14.679319],[120.800707,14.679499],[120.800614,14.679498]]]},"properties":{"id":"manila_2025-01-06_mdd_12","region":"manila","date":"2025-01-06","area_m2":200.0,"mean_prob":0.5039,"max_prob":0.5059,"model":"mdd","n_px":2,"px_area_m2":100.0,"confirmed":false,"confirmed_by":null,"lon":120.800661,"lat":14.679409}},{"type":"Feature","geometry":{"type":"Polygon","coordinates":[[[120.80016,14.6785],[120.800161,14.67841],[120.800068,14.678409],[120.80007,14.678228],[120.799977,14.678227],[120.799979,14.678047],[120.800071,14.678048],[120.80007,14.678228],[120.800162,14.678229],[120.800161,14.67832],[120.800254,14.67832],[120.800252,14.678501],[120.80016,14.6785]]]},"properties":{"id":"manila_2025-01-06_mdd_13","region":"manila","date":"2025-01-06","area_m2":600.0,"mean_prob":0.5268,"max_prob":0.5373,"model":"mdd","n_px":6,"px_area_m2":100.0,"confirmed":false,"confirmed_by":null,"lon":120.800115,"lat":14.678289}},{"type":"Feature","geometry":{"type":"Polygon","coordinates":[[[120.799704,14.677683],[120.799706,14.677502],[120.799798,14.677503],[120.799797,14.677684],[120.799704,14.677683]]]},"properties":{"id":"manila_2025-01-06_mdd_14","region":"manila","date":"2025-01-06","area_m2":200.0,"mean_prob":0.502,"max_prob":0.502,"model":"mdd","n_px":2,"px_area_m2":100.0,"confirmed":false,"confirmed_by":null,"lon":120.799751,"lat":14.677593}},{"type":"Feature","geometry":{"type":"Polygon","coordinates":[[[120.799432,14.677048],[120.799433,14.676957],[120.79934,14.676956],[120.799341,14.676776],[120.799434,14.676777],[120.799433,14.676867],[120.799526,14.676868],[120.799524,14.677049],[120.799432,14.677048]]]},"properties":{"id":"manila_2025-01-06_mdd_15","region":"manila","date":"2025-01-06","area_m2":400.0,"mean_prob":0.5088,"max_prob":0.5176,"model":"mdd","n_px":4,"px_area_m2":100.0,"confirmed":false,"confirmed_by":null,"lon":120.799433,"lat":14.676912}},{"type":"Feature","geometry":{"type":"Polygon","coordinates":[[[120.925855,14.667187],[120.925856,14.667097],[120.926042,14.667098],[120.926041,14.667189],[120.925855,14.667187]]]},"properties":{"id":"manila_2025-01-06_mdd_16","region":"manila","date":"2025-01-06","area_m2":200.0,"mean_prob":0.5333,"max_prob":0.5373,"model":"mdd","n_px":2,"px_area_m2":100.0,"confirmed":false,"confirmed_by":null,"lon":120.925949,"lat":14.667143}}]}