{"type":"FeatureCollection","features":[{"type":"Feature","geometry":{"type":"Polygon","coordinates":[[[-43.110666,-22.708438],[-43.110665,-22.708528],[-43.110568,-22.708527],[-43.110565,-22.708708],[-43.110468,-22.708707],[-43.110467,-22.708797],[-43.11037,-22.708796],[-43.110368,-22.708886],[-43.110271,-22.708885],[-43.11027,-22.708975],[-43.110172,-22.708974],[-43.110171,-22.709064],[-43.110074,-22.709063],[-43.110073,-22.709153],[-43.109975,-22.709152],[-43.109973,-22.709333],[-43.109875,-22.709332],[-43.109874,-22.709422],[-43.10968,-22.70942],[-43.109683,-22.709149],[-43.109781,-22.70915],[-43.109782,-22.70906],[-43.109879,-22.709061],[-43.109882,-22.70888],[-43.109979,-22.708881],[-43.109981,-22.708701],[-43.110079,-22.708702],[-43.11008,-22.708612],[-43.110177,-22.708613],[-43.110179,-22.708523],[-43.110373,-22.708525],[-43.110374,-22.708435],[-43.110666,-22.708438]]]},"properties":{"id":"guanabara_2026-07-16_mdd_0","region":"guanabara","date":"2026-07-16","area_m2":3900.0,"mean_prob":0.564,"max_prob":0.6235,"model":"mdd","n_px":39,"px_area_m2":100.0,"artifact":"seam","confirmed":false,"confirmed_by":null,"lon":-43.110132,"lat":-22.708882}},{"type":"Feature","geometry":{"type":"Polygon","coordinates":[[[-43.039721,-22.728263],[-43.03972,-22.728353],[-43.040012,-22.728357],[-43.04001,-22.728447],[-43.040205,-22.728449],[-43.040204,-22.72854],[-43.040496,-22.728543],[-43.040495,-22.728634],[-43.040689,-22.728636],[-43.040688,-22.728726],[-43.040883,-22.728729],[-43.040881,-22.728819],[-43.041076,-22.728821],[-43.041075,-22.728912],[-43.041269,-22.728914],[-43.041268,-22.729004],[-43.041365,-22.729005],[-43.041364,-22.729096],[-43.041559,-22.729098],[-43.041557,-22.729188],[-43.041655,-22.72919],[-43.041653,-22.72928],[-43.041751,-22.729281],[-43.041749,-22.729371],[-43.041847,-22.729372],[-43.041846,-22.729463],[-43.041943,-22.729464],[-43.041942,-22.729554],[-43.042039,-22.729555],[-43.042035,-22.729826],[-43.041938,-22.729825],[-43.041936,-22.729915],[-43.041742,-22.729913],[-43.04174,-22.730003],[-43.041546,-22.730001],[-43.041547,-22.729911],[-43.041255,-22.729907],[-43.041256,-22.729817],[-43.041062,-22.729814],[-43.041063,-22.729724],[-43.040966,-22.729723],[-43.040967,-22.729633],[-43.040772,-22.72963],[-43.040774,-22.72954],[-43.040676,-22.729539],[-43.040678,-22.729448],[-43.040483,-22.729446],[-43.040484,-22.729356],[-43.040192,-22.729352],[-43.040194,-22.729262],[-43.039804,-22.729257],[-43.039805,-22.729167],[-43.039611,-22.729164],[-43.039612,-22.729074],[-43.039515,-22.729073],[-43.039526,-22.72826],[-43.039721,-22.728263]]]},"properties":{"id":"guanabara_2026-07-16_mdd_1","region":"guanabara","date":"2026-07-16","area_m2":22800.0,"mean_prob":0.5949,"max_prob":0.6902,"model":"mdd","n_px":228,"px_area_m2":100.0,"confirmed":false,"confirmed_by":null,"lon":-43.040705,"lat":-22.729146}},{"type":"Feature","geometry":{"type":"Polygon","coordinates":[[[-43.183671,-22.745045],[-43.183668,-22.745225],[-43.183571,-22.745224],[-43.18357,-22.745315],[-43.183472,-22.745313],[-43.18347,-22.745494],[-43.183373,-22.745493],[-43.183372,-22.745583],[-43.183274,-22.745582],[-43.183273,-22.745672],[-43.183176,-22.745671],[-43.183177,-22.745581],[-43.183274,-22.745582],[-43.183277,-22.745402],[-43.183374,-22.745403],[-43.183376,-22.745222],[-43.183474,-22.745223],[-43.183475,-22.745133],[-43.183572,-22.745134],[-43.183573,-22.745044],[-43.183671,-22.745045]]]},"properties":{"id":"guanabara_2026-07-16_mdd_2","region":"guanabara","date":"2026-07-16","area_m2":1000.0,"mean_prob":0.5184,"max_prob":0.5294,"model":"mdd","n_px":10,"px_area_m2":100.0,"confirmed":false,"confirmed_by":null,"lon":-43.183443,"lat":-22.74534}},{"type":"Feature","geometry":{"type":"Polygon","coordinates":[[[-43.051684,-22.74963],[-43.051682,-22.74972],[-43.052266,-22.749727],[-43.052265,-22.749817],[-43.052557,-22.749821],[-43.052556,-22.749911],[-43.052848,-22.749915],[-43.052847,-22.750005],[-43.053041,-22.750008],[-43.05304,-22.750098],[-43.053235,-22.7501],[-43.053233,-22.75019],[-43.053428,-22.750193],[-43.053427,-22.750283],[-43.053622,-22.750285],[-43.05362,-22.750376],[-43.053815,-22.750378],[-43.053814,-22.750468],[-43.053911,-22.75047],[-43.05391,-22.75056],[-43.054104,-22.750562],[-43.054103,-22.750653],[-43.053714,-22.750648],[-43.053715,-22.750558],[-43.053423,-22.750554],[-43.053424,-22.750464],[-43.053132,-22.75046],[-43.053134,-22.75037],[-43.052841,-22.750366],[-43.052843,-22.750276],[-43.052453,-22.750271],[-43.052455,-22.750181],[-43.052163,-22.750177],[-43.052164,-22.750087],[-43.051969,-22.750085],[-43.051971,-22.749994],[-43.051678,-22.749991],[-43.05168,-22.749901],[-43.051388,-22.749897],[-43.051389,-22.749807],[-43.051194,-22.749804],[-43.051196,-22.749714],[-43.051098,-22.749713],[-43.0511,-22.749623],[-43.051684,-22.74963]]]},"properties":{"id":"guanabara_2026-07-16_mdd_3","region":"guanabara","date":"2026-07-16","area_m2":9700.0,"mean_prob":0.5609,"max_prob":0.6275,"model":"mdd","n_px":97,"px_area_m2":100.0,"confirmed":true,"confirmed_by":"lgbm","lon":-43.052567,"lat":-22.750083}},{"type":"Feature","geometry":{"type":"Polygon","coordinates":[[[-43.078648,-22.763863],[-43.078647,-22.763953],[-43.078744,-22.763954],[-43.078743,-22.764045],[-43.07884,-22.764046],[-43.078839,-22.764136],[-43.078936,-22.764137],[-43.078935,-22.764228],[-43.079032,-22.764229],[-43.07903,-22.764409],[-43.079127,-22.76441],[-43.079126,-22.764501],[-43.079223,-22.764502],[-43.079222,-22.764592],[-43.079319,-22.764593],[-43.079318,-22.764684],[-43.079416,-22.764685],[-43.079414,-22.764775],[-43.079512,-22.764776],[-43.07951,-22.764867],[-43.079608,-22.764868],[-43.079606,-22.764958],[-43.079704,-22.764959],[-43.079703,-22.765049],[-43.0798,-22.765051],[-43.079799,-22.765141],[-43.079507,-22.765137],[-43.079508,-22.765047],[-43.079216,-22.765044],[-43.079217,-22.764953],[-43.07912,-22.764952],[-43.079121,-22.764862],[-43.079024,-22.764861],[-43.079025,-22.76477],[-43.078928,-22.764769],[-43.07893,-22.764589],[-43.078833,-22.764588],[-43.078834,-22.764497],[-43.078737,-22.764496],[-43.078738,-22.764406],[-43.078641,-22.764405],[-43.078643,-22.764224],[-43.078546,-22.764223],[-43.078547,-22.764133],[-43.07845,-22.764131],[-43.078453,-22.763861],[-43.078648,-22.763863]]]},"properties":{"id":"guanabara_2026-07-16_mdd_4","region":"guanabara","date":"2026-07-16","area_m2":5600.0,"mean_prob":0.5468,"max_prob":0.6,"model":"mdd","n_px":56,"px_area_m2":100.0,"confirmed":false,"confirmed_by":null,"lon":-43.079049,"lat":-22.764545}},{"type":"Feature","geometry":{"type":"Polygon","coordinates":[[[-43.080382,-22.765238],[-43.08038,-22.765329],[-43.080478,-22.76533],[-43.080476,-22.76542],[-43.080671,-22.765422],[-43.08067,-22.765513],[-43.080767,-22.765514],[-43.080766,-22.765604],[-43.080961,-22.765606],[-43.080959,-22.765697],[-43.081057,-22.765698],[-43.081055,-22.765788],[-43.081153,-22.765789],[-43.081152,-22.76588],[-43.081346,-22.765882],[-43.081345,-22.765972],[-43.081442,-22.765973],[-43.081441,-22.766064],[-43.081636,-22.766066],[-43.081635,-22.766156],[-43.081732,-22.766158],[-43.081731,-22.766248],[-43.081925,-22.76625],[-43.081924,-22.76634],[-43.082021,-22.766342],[-43.08202,-22.766432],[-43.082118,-22.766433],[-43.082116,-22.766523],[-43.082214,-22.766525],[-43.082211,-22.766705],[-43.082308,-22.766706],[-43.082307,-22.766797],[-43.082405,-22.766798],[-43.082403,-22.766888],[-43.082501,-22.766889],[-43.082499,-22.766979],[-43.082597,-22.766981],[-43.082595,-22.767071],[-43.082693,-22.767072],[-43.082692,-22.767162],[-43.082789,-22.767164],[-43.082788,-22.767254],[-43.082885,-22.767255],[-43.082883,-22.767436],[-43.08298,-22.767437],[-43.082979,-22.767527],[-43.083076,-22.767528],[-43.083075,-22.767618],[-43.083172,-22.76762],[-43.08317,-22.7678],[-43.083267,-22.767801],[-43.083263,-22.768072],[-43.083166,-22.768071],[-43.083167,-22.767981],[-43.08307,-22.76798],[-43.083071,-22.767889],[-43.082974,-22.767888],[-43.082976,-22.767708],[-43.082879,-22.767706],[-43.08288,-22.767616],[-43.082783,-22.767615],[-43.082784,-22.767525],[-43.082687,-22.767524],[-43.082689,-22.767343],[-43.082592,-22.767342],[-43.082593,-22.767251],[-43.082496,-22.76725],[-43.082497,-22.76716],[-43.0824,-22.767159],[-43.082401,-22.767069],[-43.082303,-22.767067],[-43.082305,-22.766977],[-43.082207,-22.766976],[-43.082209,-22.766886],[-43.082111,-22.766884],[-43.082114,-22.766704],[-43.082016,-22.766703],[-43.082018,-22.766612],[-43.08192,-22.766611],[-43.081922,-22.766521],[-43.081824,-22.76652],[-43.081825,-22.76643],[-43.081728,-22.766428],[-43.081729,-22.766338],[-43.081535,-22.766336],[-43.081536,-22.766245],[-43.081439,-22.766244],[-43.08144,-22.766154],[-43.081245,-22.766152],[-43.081246,-22.766061],[-43.081149,-22.76606],[-43.08115,-22.76597],[-43.080956,-22.765968],[-43.080957,-22.765877],[-43.080762,-22.765875],[-43.080763,-22.765785],[-43.080666,-22.765783],[-43.080667,-22.765693],[-43.08057,-22.765692],[-43.080571,-22.765602],[-43.080376,-22.765599],[-43.080378,-22.765509],[-43.08028,-22.765508],[-43.080282,-22.765418],[-43.080184,-22.765416],[-43.080186,-22.765326],[-43.080088,-22.765325],[-43.080089,-22.765235],[-43.080382,-22.765238]]]},"properties":{"id":"guanabara_2026-07-16_mdd_5","region":"guanabara","date":"2026-07-16","area_m2":9400.0,"mean_prob":0.5315,"max_prob":0.5647,"model":"mdd","n_px":94,"px_area_m2":100.0,"confirmed":false,"confirmed_by":null,"lon":-43.081814,"lat":-22.766523}},{"type":"Feature","geometry":{"type":"Polygon","coordinates":[[[-43.171823,-22.772001],[-43.171822,-22.772091],[-43.172017,-22.772094],[-43.172016,-22.772184],[-43.17221,-22.772186],[-43.172209,-22.772276],[-43.172306,-22.772278],[-43.172305,-22.772368],[-43.1725,-22.77237],[-43.172499,-22.77246],[-43.172596,-22.772461],[-43.172595,-22.772552],[-43.172692,-22.772553],[-43.172691,-22.772643],[-43.172788,-22.772644],[-43.172787,-22.772735],[-43.172982,-22.772737],[-43.172981,-22.772827],[-43.173175,-22.772829],[-43.173174,-22.77292],[-43.173466,-22.772923],[-43.173465,-22.773013],[-43.173855,-22.773018],[-43.173853,-22.773108],[-43.174146,-22.773111],[-43.174144,-22.773202],[-43.174242,-22.773203],[-43.174241,-22.773293],[-43.174338,-22.773294],[-43.174337,-22.773384],[-43.174434,-22.773386],[-43.174433,-22.773476],[-43.174238,-22.773474],[-43.174239,-22.773383],[-43.173752,-22.773378],[-43.173754,-22.773287],[-43.173364,-22.773283],[-43.173365,-22.773193],[-43.173171,-22.77319],[-43.173172,-22.7731],[-43.172977,-22.773098],[-43.172978,-22.773008],[-43.172784,-22.773005],[-43.172785,-22.772915],[-43.172687,-22.772914],[-43.172689,-22.772824],[-43.172591,-22.772823],[-43.172592,-22.772732],[-43.172495,-22.772731],[-43.172496,-22.772641],[-43.172399,-22.77264],[-43.1724,-22.77255],[-43.172303,-22.772548],[-43.172304,-22.772458],[-43.172109,-22.772456],[-43.17211,-22.772366],[-43.172013,-22.772364],[-43.172014,-22.772274],[-43.17182,-22.772272],[-43.171821,-22.772182],[-43.171626,-22.772179],[-43.171627,-22.772089],[-43.17153,-22.772088],[-43.171531,-22.771998],[-43.171823,-22.772001]]]},"properties":{"id":"guanabara_2026-07-16_mdd_6","region":"guanabara","date":"2026-07-16","area_m2":7900.0,"mean_prob":0.5604,"max_prob":0.6235,"model":"mdd","n_px":79,"px_area_m2":100.0,"artifact":"seam","confirmed":false,"confirmed_by":null,"lon":-43.173053,"lat":-22.772847}},{"type":"Feature","geometry":{"type":"Polygon","coordinates":[[[-43.176862,-22.773865],[-43.176861,-22.773955],[-43.177445,-22.773962],[-43.177443,-22.774142],[-43.176859,-22.774136],[-43.17686,-22.774045],[-43.17647,-22.774041],[-43.176472,-22.773951],[-43.176374,-22.77395],[-43.176375,-22.773859],[-43.176862,-22.773865]]]},"properties":{"id":"guanabara_2026-07-16_mdd_7","region":"guanabara","date":"2026-07-16","area_m2":2100.0,"mean_prob":0.5434,"max_prob":0.5843,"model":"mdd","n_px":21,"px_area_m2":100.0,"confirmed":false,"confirmed_by":null,"lon":-43.176932,"lat":-22.774005}},{"type":"Feature","geometry":{"type":"Polygon","coordinates":[[[-43.078495,-22.774787],[-43.078494,-22.774878],[-43.078591,-22.774879],[-43.07859,-22.774969],[-43.078687,-22.77497],[-43.078685,-22.775151],[-43.078782,-22.775152],[-43.07878,-22.775333],[-43.078877,-22.775334],[-43.078874,-22.775514],[-43.078972,-22.775516],[-43.078969,-22.775696],[-43.079067,-22.775697],[-43.079064,-22.775878],[-43.079161,-22.775879],[-43.079159,-22.77606],[-43.079256,-22.776061],[-43.079251,-22.776422],[-43.079057,-22.77642],[-43.079058,-22.776329],[-43.07896,-22.776328],[-43.078962,-22.776238],[-43.078864,-22.776237],[-43.078867,-22.776056],[-43.07877,-22.776055],[-43.078772,-22.775874],[-43.078675,-22.775873],[-43.078677,-22.775693],[-43.07858,-22.775692],[-43.078584,-22.775421],[-43.078486,-22.77542],[-43.07849,-22.775149],[-43.078393,-22.775147],[-43.078398,-22.774786],[-43.078495,-22.774787]]]},"properties":{"id":"guanabara_2026-07-16_mdd_8","region":"guanabara","date":"2026-07-16","area_m2":5900.0,"mean_prob":0.5696,"max_prob":0.6235,"model":"mdd","n_px":59,"px_area_m2":100.0,"confirmed":false,"confirmed_by":null,"lon":-43.07882,"lat":-22.775662}},{"type":"Feature","geometry":{"type":"Polygon","coordinates":[[[-43.141797,-22.846245],[-43.141793,-22.846516],[-43.141696,-22.846514],[-43.141697,-22.846424],[-43.1416,-22.846423],[-43.141602,-22.846242],[-43.141797,-22.846245]]]},"properties":{"id":"guanabara_2026-07-16_mdd_9","region":"guanabara","date":"2026-07-16","area_m2":500.0,"mean_prob":0.5247,"max_prob":0.549,"model":"mdd","n_px":5,"px_area_m2":100.0,"artifact":"ship","confirmed":false,"confirmed_by":null,"lon":-43.141708,"lat":-22.846361}},{"type":"Feature","geometry":{"type":"Polygon","coordinates":[[[-43.139238,-22.848111],[-43.139236,-22.848292],[-43.139333,-22.848293],[-43.139332,-22.848383],[-43.139137,-22.848381],[-43.139141,-22.84811],[-43.139238,-22.848111]]]},"properties":{"id":"guanabara_2026-07-16_mdd_10","region":"guanabara","date":"2026-07-16","area_m2":400.0,"mean_prob":0.5186,"max_prob":0.5333,"model":"mdd","n_px":4,"px_area_m2":100.0,"artifact":"ship","confirmed":false,"confirmed_by":null,"lon":-43.139212,"lat":-22.848269}},{"type":"Feature","geometry":{"type":"Polygon","coordinates":[[[-43.223012,-22.849701],[-43.223011,-22.849791],[-43.223108,-22.849792],[-43.223104,-22.850153],[-43.222909,-22.850151],[-43.222908,-22.850241],[-43.222615,-22.850238],[-43.222614,-22.850328],[-43.222322,-22.850325],[-43.222321,-22.850415],[-43.222028,-22.850412],[-43.222027,-22.850502],[-43.221735,-22.850499],[-43.221734,-22.850589],[-43.221539,-22.850587],[-43.221538,-22.850678],[-43.221148,-22.850673],[-43.221147,-22.850764],[-43.221049,-22.850762],[-43.221051,-22.850672],[-43.220953,-22.850671],[-43.220957,-22.8504],[-43.221054,-22.850401],[-43.221055,-22.850311],[-43.22125,-22.850313],[-43.221251,-22.850223],[-43.221349,-22.850224],[-43.22135,-22.850134],[-43.221545,-22.850136],[-43.221546,-22.850046],[-43.221838,-22.850049],[-43.221839,-22.849959],[-43.222132,-22.849962],[-43.222133,-22.849871],[-43.222328,-22.849874],[-43.222329,-22.849783],[-43.222524,-22.849786],[-43.222525,-22.849695],[-43.223012,-22.849701]]]},"properties":{"id":"guanabara_2026-07-16_mdd_11","region":"guanabara","date":"2026-07-16","area_m2":12100.0,"mean_prob":0.6262,"max_prob":0.7412,"model":"mdd","n_px":121,"px_area_m2":100.0,"confirmed":false,"confirmed_by":null,"lon":-43.222065,"lat":-22.850196}},{"type":"Feature","geometry":{"type":"Polygon","coordinates":[[[-43.20461,-22.885706],[-43.204609,-22.885797],[-43.204804,-22.885799],[-43.204802,-22.885979],[-43.204704,-22.885978],[-43.204703,-22.886069],[-43.204508,-22.886066],[-43.204507,-22.886157],[-43.203337,-22.886144],[-43.203336,-22.886234],[-43.203044,-22.886231],[-43.203045,-22.88614],[-43.20285,-22.886138],[-43.202853,-22.885957],[-43.203535,-22.885965],[-43.203536,-22.885875],[-43.203731,-22.885877],[-43.203732,-22.885787],[-43.204219,-22.885792],[-43.20422,-22.885702],[-43.20461,-22.885706]]]},"properties":{"id":"guanabara_2026-07-16_mdd_12","region":"guanabara","date":"2026-07-16","area_m2":6700.0,"mean_prob":0.5657,"max_prob":0.6745,"model":"mdd","n_px":67,"px_area_m2":100.0,"confirmed":true,"confirmed_by":"lgbm","lon":-43.203921,"lat":-22.885982}},{"type":"Feature","geometry":{"type":"Polygon","coordinates":[[[-43.111144,-22.920924],[-43.111143,-22.921015],[-43.111046,-22.921013],[-43.111044,-22.921104],[-43.110849,-22.921101],[-43.110848,-22.921192],[-43.110751,-22.92119],[-43.110749,-22.921281],[-43.110555,-22.921278],[-43.110553,-22.921369],[-43.110456,-22.921368],[-43.110455,-22.921458],[-43.11026,-22.921456],[-43.110258,-22.921546],[-43.110161,-22.921545],[-43.11016,-22.921635],[-43.109965,-22.921633],[-43.109963,-22.921723],[-43.109768,-22.921721],[-43.109767,-22.921811],[-43.109572,-22.921809],[-43.109571,-22.921899],[-43.109474,-22.921898],[-43.109472,-22.921988],[-43.109277,-22.921986],[-43.109276,-22.922076],[-43.109179,-22.922075],[-43.109177,-22.922165],[-43.10908,-22.922164],[-43.109079,-22.922254],[-43.108981,-22.922253],[-43.10898,-22.922343],[-43.108882,-22.922342],[-43.108881,-22.922432],[-43.108784,-22.922431],[-43.108783,-22.922522],[-43.108685,-22.92252],[-43.108684,-22.922611],[-43.108489,-22.922608],[-43.108488,-22.922699],[-43.10839,-22.922698],[-43.108389,-22.922788],[-43.108291,-22.922787],[-43.10829,-22.922877],[-43.108095,-22.922875],[-43.108094,-22.922965],[-43.107996,-22.922964],[-43.107995,-22.923054],[-43.107898,-22.923053],[-43.107897,-22.923143],[-43.107799,-22.923142],[-43.107798,-22.923232],[-43.1077,-22.923231],[-43.107699,-22.923321],[-43.107504,-22.923319],[-43.107503,-22.923409],[-43.107405,-22.923408],[-43.107404,-22.923498],[-43.107307,-22.923497],[-43.107305,-22.923588],[-43.10711,-22.923585],[-43.107109,-22.923676],[-43.107012,-22.923674],[-43.10701,-22.923765],[-43.106913,-22.923764],[-43.106912,-22.923854],[-43.106717,-22.923851],[-43.106716,-22.923942],[-43.106618,-22.923941],[-43.106617,-22.924031],[-43.106519,-22.92403],[-43.106518,-22.92412],[-43.106323,-22.924118],[-43.106322,-22.924208],[-43.106224,-22.924207],[-43.106223,-22.924297],[-43.106126,-22.924296],[-43.106124,-22.924386],[-43.106027,-22.924385],[-43.106026,-22.924475],[-43.105928,-22.924474],[-43.105927,-22.924564],[-43.105732,-22.924562],[-43.105731,-22.924652],[-43.105633,-22.924651],[-43.105632,-22.924742],[-43.105535,-22.92474],[-43.105533,-22.924831],[-43.105338,-22.924828],[-43.105337,-22.924919],[-43.10524,-22.924917],[-43.105238,-22.925008],[-43.105141,-22.925007],[-43.10514,-22.925097],[-43.105042,-22.925096],[-43.105041,-22.925186],[-43.104846,-22.925184],[-43.104845,-22.925274],[-43.104747,-22.925273],[-43.104746,-22.925363],[-43.104649,-22.925362],[-43.104647,-22.925452],[-43.10455,-22.925451],[-43.104549,-22.925541],[-43.104451,-22.92554],[-43.10445,-22.92563],[-43.104352,-22.925629],[-43.104351,-22.92572],[-43.104254,-22.925718],[-43.104252,-22.925809],[-43.104155,-22.925808],[-43.104154,-22.925898],[-43.104056,-22.925897],[-43.104055,-22.925987],[-43.103957,-22.925986],[-43.103956,-22.926076],[-43.103859,-22.926075],[-43.103856,-22.926255],[-43.103759,-22.926254],[-43.103758,-22.926345],[-43.10366,-22.926343],[-43.103659,-22.926434],[-43.103561,-22.926433],[-43.10356,-22.926523],[-43.103463,-22.926522],[-43.103461,-22.926612],[-43.103364,-22.926611],[-43.103363,-22.926701],[-43.103265,-22.9267],[-43.103264,-22.92679],[-43.103166,-22.926789],[-43.103163,-22.92706],[-43.103065,-22.927059],[-43.103061,-22.92733],[-43.102964,-22.927328],[-43.102963,-22.927419],[-43.102865,-22.927418],[-43.102864,-22.927508],[-43.102766,-22.927507],[-43.102765,-22.927597],[-43.102668,-22.927596],[-43.102666,-22.927686],[-43.102472,-22.927684],[-43.10247,-22.927774],[-43.102373,-22.927773],[-43.102372,-22.927863],[-43.102274,-22.927862],[-43.102277,-22.927681],[-43.102374,-22.927683],[-43.102377,-22.927502],[-43.102474,-22.927503],[-43.102475,-22.927413],[-43.102573,-22.927414],[-43.102575,-22.927233],[-43.102673,-22.927235],[-43.102674,-22.927144],[-43.102771,-22.927145],[-43.102774,-22.926965],[-43.102871,-22.926966],[-43.102874,-22.926786],[-43.102971,-22.926787],[-43.102973,-22.926696],[-43.10307,-22.926698],[-43.103073,-22.926517],[-43.10317,-22.926518],[-43.103171,-22.926428],[-43.103269,-22.926429],[-43.103271,-22.926248],[-43.103369,-22.92625],[-43.10337,-22.926159],[-43.103468,-22.92616],[-43.10347,-22.92598],[-43.103568,-22.925981],[-43.103569,-22.925891],[-43.103666,-22.925892],[-43.103668,-22.925802],[-43.103765,-22.925803],[-43.103768,-22.925622],[-43.103865,-22.925623],[-43.103866,-22.925533],[-43.104061,-22.925535],[-43.104063,-22.925445],[-43.10416,-22.925446],[-43.104161,-22.925356],[-43.104259,-22.925357],[-43.10426,-22.925267],[-43.104357,-22.925268],[-43.104359,-22.925178],[-43.104456,-22.925179],[-43.104457,-22.925089],[-43.104555,-22.92509],[-43.104556,-22.925],[-43.104751,-22.925002],[-43.104752,-22.924912],[-43.10485,-22.924913],[-43.104851,-22.924823],[-43.104949,-22.924824],[-43.10495,-22.924733],[-43.105047,-22.924735],[-43.105049,-22.924644],[-43.105146,-22.924645],[-43.105147,-22.924555],[-43.105245,-22.924556],[-43.105246,-22.924466],[-43.105343,-22.924467],[-43.105345,-22.924377],[-43.105442,-22.924378],[-43.105443,-22.924288],[-43.105541,-22.924289],[-43.105542,-22.924199],[-43.10564,-22.9242],[-43.105641,-22.92411],[-43.105738,-22.924111],[-43.10574,-22.92402],[-43.105837,-22.924022],[-43.105838,-22.923931],[-43.105936,-22.923932],[-43.105937,-22.923842],[-43.106035,-22.923843],[-43.106036,-22.923753],[-43.106231,-22.923755],[-43.106232,-22.923665],[-43.106329,-22.923666],[-43.106331,-22.923576],[-43.106526,-22.923578],[-43.106527,-22.923488],[-43.106624,-22.923489],[-43.106626,-22.923399],[-43.106723,-22.9234],[-43.106724,-22.92331],[-43.106919,-22.923312],[-43.106921,-22.923222],[-43.107018,-22.923223],[-43.107019,-22.923133],[-43.107117,-22.923134],[-43.107118,-22.923044],[-43.107215,-22.923045],[-43.107217,-22.922954],[-43.107314,-22.922956],[-43.107315,-22.922865],[-43.10751,-22.922868],[-43.107512,-22.922777],[-43.107609,-22.922778],[-43.10761,-22.922688],[-43.107805,-22.922691],[-43.107807,-22.9226],[-43.107904,-22.922601],[-43.107905,-22.922511],[-43.108003,-22.922512],[-43.108004,-22.922422],[-43.108101,-22.922423],[-43.108103,-22.922333],[-43.108298,-22.922335],[-43.108299,-22.922245],[-43.108396,-22.922246],[-43.108398,-22.922156],[-43.108495,-22.922157],[-43.108496,-22.922067],[-43.108594,-22.922068],[-43.108595,-22.921978],[-43.10879,-22.92198],[-43.108791,-22.92189],[-43.108889,-22.921891],[-43.10889,-22.9218],[-43.109085,-22.921803],[-43.109086,-22.921712],[-43.109281,-22.921715],[-43.109282,-22.921625],[-43.109477,-22.921627],[-43.109479,-22.921537],[-43.109674,-22.921539],[-43.109675,-22.921449],[-43.109772,-22.92145],[-43.109773,-22.921359],[-43.109968,-22.921362],[-43.10997,-22.921272],[-43.110067,-22.921273],[-43.110068,-22.921182],[-43.110166,-22.921184],[-43.110167,-22.921093],[-43.110265,-22.921094],[-43.110266,-22.921004],[-43.110753,-22.92101],[-43.110754,-22.92092],[-43.111144,-22.920924]]]},"properties":{"id":"guanabara_2026-07-16_mdd_13","region":"guanabara","date":"2026-07-16","area_m2":46700.0,"mean_prob":0.6125,"max_prob":0.7333,"model":"mdd","n_px":467,"px_area_m2":100.0,"artifact":"wake","confirmed":false,"confirmed_by":null,"lon":-43.106544,"lat":-22.92392}}]}