{"type":"FeatureCollection","features":[{"type":"Feature","geometry":{"type":"Polygon","coordinates":[[[72.702687,19.304222],[72.702689,19.304132],[72.702784,19.304133],[72.702785,19.304043],[72.702975,19.304045],[72.702973,19.304226],[72.702687,19.304222]]]},"properties":{"id":"mumbai_2025-01-31_mdd_0","region":"mumbai","date":"2025-01-31","area_m2":500.0,"mean_prob":0.5529,"max_prob":0.5725,"model":"mdd","n_px":5,"px_area_m2":100.0,"confirmed":false,"confirmed_by":null,"lon":72.70285,"lat":19.304143}},{"type":"Feature","geometry":{"type":"Polygon","coordinates":[[[72.727291,19.258468],[72.727294,19.258197],[72.727199,19.258196],[72.727202,19.258015],[72.727107,19.258014],[72.727114,19.257472],[72.727019,19.257471],[72.727028,19.256839],[72.726933,19.256838],[72.726939,19.256386],[72.726844,19.256385],[72.726849,19.256024],[72.726944,19.256025],[72.726947,19.255845],[72.726851,19.255843],[72.726858,19.255392],[72.726953,19.255393],[72.726949,19.255664],[72.727044,19.255665],[72.727037,19.256207],[72.727132,19.256208],[72.727119,19.257111],[72.727214,19.257112],[72.727207,19.257654],[72.727302,19.257655],[72.727298,19.257926],[72.727393,19.257927],[72.727386,19.258469],[72.727291,19.258468]]]},"properties":{"id":"mumbai_2025-01-31_mdd_1","region":"mumbai","date":"2025-01-31","area_m2":5800.0,"mean_prob":0.5192,"max_prob":0.5451,"model":"mdd","n_px":58,"px_area_m2":100.0,"confirmed":true,"confirmed_by":"lgbm","lon":72.727089,"lat":19.256936}},{"type":"Feature","geometry":{"type":"Polygon","coordinates":[[[72.772884,19.206192],[72.772887,19.206011],[72.772982,19.206012],[72.772984,19.205831],[72.773079,19.205833],[72.773081,19.205652],[72.773177,19.205653],[72.773179,19.205473],[72.773274,19.205474],[72.773275,19.205383],[72.77337,19.205385],[72.773369,19.205475],[72.773274,19.205474],[72.773272,19.205654],[72.773177,19.205653],[72.773174,19.205834],[72.773079,19.205833],[72.773077,19.206013],[72.772982,19.206012],[72.772979,19.206193],[72.772884,19.206192]]]},"properties":{"id":"mumbai_2025-01-31_mdd_2","region":"mumbai","date":"2025-01-31","area_m2":900.0,"mean_prob":0.5054,"max_prob":0.5098,"model":"mdd","n_px":9,"px_area_m2":100.0,"confirmed":false,"confirmed_by":null,"lon":72.773106,"lat":19.205788}},{"type":"Feature","geometry":{"type":"Polygon","coordinates":[[[72.758494,19.180636],[72.758498,19.180365],[72.758403,19.180364],[72.758405,19.180183],[72.75831,19.180182],[72.758312,19.180002],[72.758217,19.18],[72.75822,19.17982],[72.758125,19.179819],[72.758126,19.179728],[72.758031,19.179727],[72.758033,19.179547],[72.757938,19.179545],[72.75794,19.179455],[72.757845,19.179454],[72.757846,19.179364],[72.757751,19.179362],[72.757753,19.179182],[72.757848,19.179183],[72.757847,19.179273],[72.757942,19.179274],[72.757941,19.179365],[72.758036,19.179366],[72.758035,19.179456],[72.75813,19.179457],[72.758127,19.179638],[72.758222,19.179639],[72.758221,19.179729],[72.758316,19.179731],[72.758314,19.179911],[72.758409,19.179912],[72.758406,19.180093],[72.758501,19.180094],[72.758499,19.180275],[72.758594,19.180276],[72.758589,19.180637],[72.758494,19.180636]]]},"properties":{"id":"mumbai_2025-01-31_mdd_3","region":"mumbai","date":"2025-01-31","area_m2":2400.0,"mean_prob":0.5193,"max_prob":0.5373,"model":"mdd","n_px":24,"px_area_m2":100.0,"artifact":"seam","confirmed":false,"confirmed_by":null,"lon":72.758223,"lat":19.179861}},{"type":"Feature","geometry":{"type":"Polygon","coordinates":[[[72.720593,19.178724],[72.720594,19.178634],[72.720689,19.178635],[72.720691,19.178454],[72.720786,19.178455],[72.720783,19.178726],[72.720593,19.178724]]]},"properties":{"id":"mumbai_2025-01-31_mdd_4","region":"mumbai","date":"2025-01-31","area_m2":400.0,"mean_prob":0.5294,"max_prob":0.5529,"model":"mdd","n_px":4,"px_area_m2":100.0,"confirmed":false,"confirmed_by":null,"lon":72.720713,"lat":19.178613}},{"type":"Feature","geometry":{"type":"Polygon","coordinates":[[[72.770484,19.137247],[72.77049,19.136796],[72.770585,19.136797],[72.770587,19.136707],[72.770682,19.136708],[72.770683,19.136617],[72.770778,19.136619],[72.770779,19.136528],[72.770874,19.136529],[72.770875,19.136439],[72.771065,19.136441],[72.771067,19.136351],[72.771352,19.136355],[72.771353,19.136264],[72.772018,19.136272],[72.772017,19.136363],[72.772112,19.136364],[72.772111,19.136454],[72.772016,19.136453],[72.772013,19.136634],[72.771918,19.136632],[72.771917,19.136723],[72.771822,19.136722],[72.771819,19.136902],[72.771724,19.136901],[72.771723,19.136991],[72.771533,19.136989],[72.771532,19.137079],[72.771342,19.137077],[72.771341,19.137167],[72.771056,19.137164],[72.771054,19.137254],[72.770484,19.137247]]]},"properties":{"id":"mumbai_2025-01-31_mdd_5","region":"mumbai","date":"2025-01-31","area_m2":12200.0,"mean_prob":0.6112,"max_prob":0.7059,"model":"mdd","n_px":122,"px_area_m2":100.0,"confirmed":false,"confirmed_by":null,"lon":72.771244,"lat":19.136749}},{"type":"Feature","geometry":{"type":"Polygon","coordinates":[[[72.773383,19.13367],[72.773387,19.133399],[72.773482,19.1334],[72.773483,19.13331],[72.773673,19.133312],[72.773672,19.133402],[72.773577,19.133401],[72.773573,19.133672],[72.773383,19.13367]]]},"properties":{"id":"mumbai_2025-01-31_mdd_6","region":"mumbai","date":"2025-01-31","area_m2":800.0,"mean_prob":0.5152,"max_prob":0.5333,"model":"mdd","n_px":8,"px_area_m2":100.0,"artifact":"ship","confirmed":false,"confirmed_by":null,"lon":72.773505,"lat":19.13349}},{"type":"Feature","geometry":{"type":"Polygon","coordinates":[[[72.773524,19.130239],[72.773526,19.130149],[72.773621,19.13015],[72.773623,19.129969],[72.773718,19.12997],[72.773719,19.12988],[72.773814,19.129881],[72.773817,19.129701],[72.773912,19.129702],[72.773913,19.129612],[72.774008,19.129613],[72.77401,19.129432],[72.774105,19.129433],[72.774107,19.129343],[72.774202,19.129344],[72.774203,19.129254],[72.774298,19.129255],[72.774299,19.129165],[72.774394,19.129166],[72.774396,19.128985],[72.774491,19.128986],[72.774493,19.128896],[72.774588,19.128897],[72.774589,19.128807],[72.774684,19.128808],[72.774686,19.128627],[72.774781,19.128629],[72.774783,19.128538],[72.774878,19.128539],[72.774879,19.128449],[72.774974,19.12845],[72.774976,19.12827],[72.775071,19.128271],[72.775072,19.12818],[72.775167,19.128182],[72.775169,19.128091],[72.775264,19.128092],[72.775266,19.127912],[72.775361,19.127913],[72.775362,19.127823],[72.775457,19.127824],[72.775459,19.127733],[72.775554,19.127735],[72.775555,19.127644],[72.77565,19.127645],[72.775651,19.127555],[72.775746,19.127556],[72.775747,19.127466],[72.775937,19.127468],[72.775936,19.127559],[72.776031,19.12756],[72.776027,19.127831],[72.776122,19.127832],[72.776121,19.127922],[72.776216,19.127923],[72.776215,19.128014],[72.77631,19.128015],[72.776309,19.128105],[72.776214,19.128104],[72.776211,19.128285],[72.776116,19.128283],[72.776115,19.128374],[72.77602,19.128373],[72.776019,19.128463],[72.775829,19.128461],[72.775828,19.128551],[72.775733,19.12855],[72.775731,19.12864],[72.775541,19.128638],[72.77554,19.128728],[72.775445,19.128727],[72.775444,19.128817],[72.775349,19.128816],[72.775348,19.128906],[72.775253,19.128905],[72.775252,19.128995],[72.775157,19.128994],[72.775155,19.129085],[72.77506,19.129083],[72.775059,19.129174],[72.774964,19.129173],[72.774963,19.129263],[72.774868,19.129262],[72.774867,19.129352],[72.774772,19.129351],[72.77477,19.129441],[72.774675,19.12944],[72.774674,19.12953],[72.774579,19.129529],[72.774578,19.12962],[72.774483,19.129618],[72.774482,19.129709],[72.774387,19.129708],[72.774386,19.129798],[72.774291,19.129797],[72.774289,19.129887],[72.774194,19.129886],[72.774193,19.129976],[72.774003,19.129974],[72.774002,19.130064],[72.773907,19.130063],[72.773906,19.130153],[72.773716,19.130151],[72.773714,19.130241],[72.773524,19.130239]]]},"properties":{"id":"mumbai_2025-01-31_mdd_7","region":"mumbai","date":"2025-01-31","area_m2":22500.0,"mean_prob":0.6194,"max_prob":0.7412,"model":"mdd","n_px":225,"px_area_m2":100.0,"confirmed":false,"confirmed_by":null,"lon":72.775069,"lat":19.128735}},{"type":"Feature","geometry":{"type":"Polygon","coordinates":[[[72.813878,19.118439],[72.81388,19.118259],[72.813975,19.11826],[72.813973,19.11844],[72.813878,19.118439]]]},"properties":{"id":"mumbai_2025-01-31_mdd_8","region":"mumbai","date":"2025-01-31","area_m2":200.0,"mean_prob":0.5216,"max_prob":0.5373,"model":"mdd","n_px":2,"px_area_m2":100.0,"confirmed":false,"confirmed_by":null,"lon":72.813926,"lat":19.11835}}]}