{"type":"FeatureCollection","features":[{"type":"Feature","geometry":{"type":"Polygon","coordinates":[[[120.92487,14.71254],[120.924871,14.71245],[120.924964,14.712451],[120.924965,14.712361],[120.925058,14.712361],[120.92506,14.712181],[120.925152,14.712182],[120.925153,14.712091],[120.925246,14.712092],[120.925249,14.711731],[120.925342,14.711731],[120.925345,14.71146],[120.925438,14.711461],[120.925431,14.712184],[120.925338,14.712183],[120.925336,14.712364],[120.925243,14.712363],[120.925243,14.712453],[120.92515,14.712453],[120.925149,14.712543],[120.92487,14.71254]]]},"properties":{"id":"manila_2025-12-27_mdd_0","region":"manila","date":"2025-12-27","area_m2":2600.0,"mean_prob":0.5428,"max_prob":0.5961,"model":"mdd","n_px":26,"px_area_m2":100.0,"confirmed":false,"confirmed_by":null,"lon":120.925242,"lat":14.712109}},{"type":"Feature","geometry":{"type":"Polygon","coordinates":[[[120.718278,14.706984],[120.71828,14.706803],[120.718465,14.706805],[120.718463,14.706986],[120.718278,14.706984]]]},"properties":{"id":"manila_2025-12-27_mdd_1","region":"manila","date":"2025-12-27","area_m2":400.0,"mean_prob":0.5324,"max_prob":0.5451,"model":"mdd","n_px":4,"px_area_m2":100.0,"confirmed":false,"confirmed_by":null,"lon":120.718371,"lat":14.706894}},{"type":"Feature","geometry":{"type":"Polygon","coordinates":[[[120.718102,14.705988],[120.718104,14.705808],[120.718197,14.705809],[120.718196,14.705899],[120.718289,14.7059],[120.718288,14.70599],[120.718102,14.705988]]]},"properties":{"id":"manila_2025-12-27_mdd_2","region":"manila","date":"2025-12-27","area_m2":300.0,"mean_prob":0.5216,"max_prob":0.5373,"model":"mdd","n_px":3,"px_area_m2":100.0,"confirmed":false,"confirmed_by":null,"lon":120.71818,"lat":14.705914}},{"type":"Feature","geometry":{"type":"Polygon","coordinates":[[[120.892687,14.699509],[120.892688,14.699419],[120.892595,14.699418],[120.892597,14.699237],[120.89269,14.699238],[120.892693,14.698877],[120.892786,14.698877],[120.892785,14.699058],[120.892877,14.699059],[120.892873,14.699511],[120.892687,14.699509]]]},"properties":{"id":"manila_2025-12-27_mdd_3","region":"manila","date":"2025-12-27","area_m2":1400.0,"mean_prob":0.5571,"max_prob":0.6353,"model":"mdd","n_px":14,"px_area_m2":100.0,"confirmed":true,"confirmed_by":"lgbm","lon":120.892756,"lat":14.699245}},{"type":"Feature","geometry":{"type":"Polygon","coordinates":[[[120.892696,14.698606],[120.892699,14.698244],[120.892792,14.698245],[120.892789,14.698606],[120.892696,14.698606]]]},"properties":{"id":"manila_2025-12-27_mdd_4","region":"manila","date":"2025-12-27","area_m2":400.0,"mean_prob":0.5049,"max_prob":0.5098,"model":"mdd","n_px":4,"px_area_m2":100.0,"confirmed":false,"confirmed_by":null,"lon":120.892744,"lat":14.698425}},{"type":"Feature","geometry":{"type":"Polygon","coordinates":[[[120.892537,14.695803],[120.892541,14.695442],[120.892634,14.695442],[120.89263,14.695804],[120.892537,14.695803]]]},"properties":{"id":"manila_2025-12-27_mdd_5","region":"manila","date":"2025-12-27","area_m2":400.0,"mean_prob":0.5069,"max_prob":0.5098,"model":"mdd","n_px":4,"px_area_m2":100.0,"confirmed":false,"confirmed_by":null,"lon":120.892585,"lat":14.695623}},{"type":"Feature","geometry":{"type":"Polygon","coordinates":[[[120.910671,14.692533],[120.910671,14.692443],[120.910579,14.692442],[120.910582,14.692081],[120.910675,14.692081],[120.910677,14.691901],[120.910769,14.691902],[120.910771,14.691721],[120.910864,14.691722],[120.910856,14.692535],[120.910671,14.692533]]]},"properties":{"id":"manila_2025-12-27_mdd_6","region":"manila","date":"2025-12-27","area_m2":2000.0,"mean_prob":0.5376,"max_prob":0.5804,"model":"mdd","n_px":20,"px_area_m2":100.0,"confirmed":false,"confirmed_by":null,"lon":120.910744,"lat":14.692186}},{"type":"Feature","geometry":{"type":"Polygon","coordinates":[[[120.725,14.685275],[120.725001,14.685185],[120.725094,14.685186],[120.725095,14.685095],[120.725373,14.685098],[120.725374,14.685008],[120.72556,14.68501],[120.725559,14.6851],[120.725373,14.685098],[120.725372,14.685188],[120.72528,14.685188],[120.725279,14.685278],[120.725,14.685275]]]},"properties":{"id":"manila_2025-12-27_mdd_7","region":"manila","date":"2025-12-27","area_m2":800.0,"mean_prob":0.5181,"max_prob":0.5373,"model":"mdd","n_px":8,"px_area_m2":100.0,"confirmed":false,"confirmed_by":null,"lon":120.725257,"lat":14.685153}},{"type":"Feature","geometry":{"type":"Polygon","coordinates":[[[120.925285,14.668628],[120.925288,14.668357],[120.925566,14.668359],[120.925564,14.66854],[120.925471,14.668539],[120.925471,14.66863],[120.925285,14.668628]]]},"properties":{"id":"manila_2025-12-27_mdd_8","region":"manila","date":"2025-12-27","area_m2":800.0,"mean_prob":0.5618,"max_prob":0.6235,"model":"mdd","n_px":8,"px_area_m2":100.0,"confirmed":true,"confirmed_by":"lgbm","lon":120.925414,"lat":14.668482}},{"type":"Feature","geometry":{"type":"Polygon","coordinates":[[[120.924921,14.667902],[120.924921,14.667811],[120.924829,14.667811],[120.924829,14.66772],[120.925015,14.667722],[120.925013,14.667903],[120.924921,14.667902]]]},"properties":{"id":"manila_2025-12-27_mdd_9","region":"manila","date":"2025-12-27","area_m2":300.0,"mean_prob":0.519,"max_prob":0.5255,"model":"mdd","n_px":3,"px_area_m2":100.0,"confirmed":false,"confirmed_by":null,"lon":120.924937,"lat":14.667796}},{"type":"Feature","geometry":{"type":"Polygon","coordinates":[[[120.934518,14.644131],[120.934519,14.644041],[120.934612,14.644042],[120.934613,14.643951],[120.934798,14.643953],[120.934799,14.643863],[120.935078,14.643865],[120.935077,14.643956],[120.934984,14.643955],[120.934983,14.644045],[120.934798,14.644043],[120.934797,14.644134],[120.934518,14.644131]]]},"properties":{"id":"manila_2025-12-27_mdd_10","region":"manila","date":"2025-12-27","area_m2":1000.0,"mean_prob":0.5255,"max_prob":0.5569,"model":"mdd","n_px":10,"px_area_m2":100.0,"confirmed":false,"confirmed_by":null,"lon":120.934798,"lat":14.643998}},{"type":"Feature","geometry":{"type":"Polygon","coordinates":[[[120.822937,14.523932],[120.822939,14.523751],[120.823032,14.523752],[120.82303,14.523932],[120.822937,14.523932]]]},"properties":{"id":"manila_2025-12-27_mdd_11","region":"manila","date":"2025-12-27","area_m2":200.0,"mean_prob":0.5039,"max_prob":0.5059,"model":"mdd","n_px":2,"px_area_m2":100.0,"confirmed":false,"confirmed_by":null,"lon":120.822984,"lat":14.523842}},{"type":"Feature","geometry":{"type":"Polygon","coordinates":[[[120.823314,14.523303],[120.823315,14.523212],[120.823408,14.523213],[120.823409,14.523123],[120.823501,14.523124],[120.823503,14.522943],[120.823596,14.522944],[120.823597,14.522853],[120.82369,14.522854],[120.823691,14.522764],[120.823783,14.522765],[120.823786,14.522494],[120.823879,14.522495],[120.823881,14.522224],[120.823974,14.522224],[120.823971,14.522495],[120.823879,14.522495],[120.823876,14.522766],[120.823783,14.522765],[120.823782,14.522855],[120.82369,14.522854],[120.823688,14.523035],[120.823595,14.523034],[120.823594,14.523124],[120.823501,14.523124],[120.823501,14.523214],[120.823408,14.523213],[120.823407,14.523303],[120.823314,14.523303]]]},"properties":{"id":"manila_2025-12-27_mdd_12","region":"manila","date":"2025-12-27","area_m2":1300.0,"mean_prob":0.5086,"max_prob":0.5176,"model":"mdd","n_px":13,"px_area_m2":100.0,"confirmed":false,"confirmed_by":null,"lon":120.823708,"lat":14.522781}},{"type":"Feature","geometry":{"type":"Polygon","coordinates":[[[120.823975,14.522134],[120.823978,14.521863],[120.82407,14.521864],[120.824072,14.521683],[120.824165,14.521684],[120.824166,14.521594],[120.824258,14.521595],[120.824259,14.521504],[120.824352,14.521505],[120.824354,14.521324],[120.824447,14.521325],[120.824448,14.521235],[120.82454,14.521236],[120.824541,14.521145],[120.824634,14.521146],[120.824633,14.521237],[120.82454,14.521236],[120.824539,14.521326],[120.824447,14.521325],[120.824445,14.521506],[120.824352,14.521505],[120.82435,14.521686],[120.824258,14.521685],[120.824257,14.521775],[120.824164,14.521774],[120.824162,14.521955],[120.824069,14.521954],[120.824068,14.522135],[120.823975,14.522134]]]},"properties":{"id":"manila_2025-12-27_mdd_13","region":"manila","date":"2025-12-27","area_m2":1400.0,"mean_prob":0.5134,"max_prob":0.5294,"model":"mdd","n_px":14,"px_area_m2":100.0,"confirmed":false,"confirmed_by":null,"lon":120.824238,"lat":14.521665}},{"type":"Feature","geometry":{"type":"Polygon","coordinates":[[[120.824823,14.520787],[120.824825,14.520606],[120.824917,14.520607],[120.824918,14.520516],[120.825011,14.520517],[120.82501,14.520608],[120.824917,14.520607],[120.824916,14.520787],[120.824823,14.520787]]]},"properties":{"id":"manila_2025-12-27_mdd_14","region":"manila","date":"2025-12-27","area_m2":300.0,"mean_prob":0.5059,"max_prob":0.5137,"model":"mdd","n_px":3,"px_area_m2":100.0,"confirmed":false,"confirmed_by":null,"lon":120.824902,"lat":14.520652}},{"type":"Feature","geometry":{"type":"Polygon","coordinates":[[[120.83019,14.512523],[120.830192,14.512343],[120.830378,14.512344],[120.830379,14.512254],[120.830471,14.512255],[120.830472,14.512164],[120.830565,14.512165],[120.830566,14.512075],[120.830659,14.512076],[120.830659,14.511985],[120.830752,14.511986],[120.830753,14.511896],[120.830846,14.511897],[120.830847,14.511806],[120.830939,14.511807],[120.83094,14.511717],[120.831033,14.511718],[120.831034,14.511627],[120.831127,14.511628],[120.831128,14.511448],[120.831314,14.511449],[120.831315,14.511359],[120.831408,14.51136],[120.831408,14.511269],[120.831501,14.51127],[120.831502,14.51118],[120.831595,14.511181],[120.831596,14.511091],[120.831688,14.511091],[120.831689,14.511001],[120.831782,14.511002],[120.831783,14.510912],[120.831876,14.510912],[120.831877,14.510822],[120.831969,14.510823],[120.831971,14.510642],[120.832064,14.510643],[120.832065,14.510553],[120.832157,14.510554],[120.832158,14.510463],[120.832251,14.510464],[120.832249,14.510645],[120.832157,14.510644],[120.832155,14.510825],[120.832062,14.510824],[120.832061,14.510914],[120.831968,14.510913],[120.831967,14.511094],[120.831874,14.511093],[120.831873,14.511183],[120.83178,14.511183],[120.831779,14.511273],[120.831687,14.511272],[120.831686,14.511362],[120.831593,14.511362],[120.831592,14.511452],[120.831499,14.511451],[120.831499,14.511541],[120.831406,14.511541],[120.831405,14.511631],[120.831312,14.51163],[120.831311,14.51172],[120.831219,14.51172],[120.831218,14.51181],[120.831125,14.511809],[120.831124,14.511899],[120.831031,14.511899],[120.83103,14.511989],[120.830938,14.511988],[120.830937,14.512078],[120.830844,14.512078],[120.830843,14.512168],[120.83075,14.512167],[120.83075,14.512257],[120.830657,14.512256],[120.830656,14.512347],[120.830563,14.512346],[120.830562,14.512436],[120.830377,14.512435],[120.830376,14.512525],[120.83019,14.512523]]]},"properties":{"id":"manila_2025-12-27_mdd_15","region":"manila","date":"2025-12-27","area_m2":6300.0,"mean_prob":0.5496,"max_prob":0.6039,"model":"mdd","n_px":63,"px_area_m2":100.0,"confirmed":true,"confirmed_by":"lgbm","lon":120.831246,"lat":14.511581}},{"type":"Feature","geometry":{"type":"Polygon","coordinates":[[[120.832718,14.510107],[120.832719,14.510017],[120.832812,14.510017],[120.832813,14.509927],[120.832906,14.509928],[120.832906,14.509838],[120.832999,14.509838],[120.833,14.509748],[120.833093,14.509749],[120.833094,14.509659],[120.833279,14.50966],[120.83328,14.50957],[120.833373,14.509571],[120.833374,14.50948],[120.833559,14.509482],[120.83356,14.509392],[120.833745,14.509394],[120.833746,14.509303],[120.833932,14.509305],[120.833933,14.509215],[120.834118,14.509216],[120.834119,14.509126],[120.834212,14.509127],[120.834211,14.509217],[120.834118,14.509216],[120.834117,14.509307],[120.833932,14.509305],[120.833931,14.509395],[120.833745,14.509394],[120.833745,14.509484],[120.833652,14.509483],[120.833651,14.509573],[120.833466,14.509572],[120.833465,14.509662],[120.833279,14.50966],[120.833278,14.509751],[120.833186,14.50975],[120.833185,14.50984],[120.833092,14.509839],[120.833091,14.50993],[120.832906,14.509928],[120.832905,14.510018],[120.832812,14.510017],[120.832811,14.510108],[120.832718,14.510107]]]},"properties":{"id":"manila_2025-12-27_mdd_16","region":"manila","date":"2025-12-27","area_m2":2000.0,"mean_prob":0.5118,"max_prob":0.5333,"model":"mdd","n_px":20,"px_area_m2":100.0,"confirmed":false,"confirmed_by":null,"lon":120.833433,"lat":14.509594}},{"type":"Feature","geometry":{"type":"Polygon","coordinates":[[[120.834398,14.509038],[120.8344,14.508857],[120.834493,14.508858],[120.834494,14.508768],[120.834679,14.50877],[120.834677,14.50895],[120.834492,14.508949],[120.834491,14.509039],[120.834398,14.509038]]]},"properties":{"id":"manila_2025-12-27_mdd_17","region":"manila","date":"2025-12-27","area_m2":600.0,"mean_prob":0.5203,"max_prob":0.5451,"model":"mdd","n_px":6,"px_area_m2":100.0,"confirmed":true,"confirmed_by":"lgbm","lon":120.834539,"lat":14.508889}},{"type":"Feature","geometry":{"type":"Polygon","coordinates":[[[120.839041,14.508448],[120.839043,14.508268],[120.839229,14.508269],[120.83923,14.508179],[120.839322,14.50818],[120.839323,14.50809],[120.839509,14.508091],[120.83951,14.508001],[120.839602,14.508002],[120.839601,14.508092],[120.839509,14.508091],[120.839508,14.508182],[120.839415,14.508181],[120.839414,14.508271],[120.839321,14.50827],[120.839321,14.508361],[120.839228,14.50836],[120.839227,14.50845],[120.839041,14.508448]]]},"properties":{"id":"manila_2025-12-27_mdd_18","region":"manila","date":"2025-12-27","area_m2":1000.0,"mean_prob":0.5357,"max_prob":0.5765,"model":"mdd","n_px":10,"px_area_m2":100.0,"confirmed":true,"confirmed_by":"lgbm","lon":120.839284,"lat":14.508252}},{"type":"Feature","geometry":{"type":"Polygon","coordinates":[[[120.840068,14.507825],[120.840069,14.507735],[120.840161,14.507736],[120.840162,14.507646],[120.840348,14.507647],[120.840349,14.507557],[120.840441,14.507558],[120.840442,14.507467],[120.840535,14.507468],[120.840537,14.507288],[120.840629,14.507288],[120.84063,14.507198],[120.840723,14.507199],[120.840724,14.507109],[120.840817,14.507109],[120.840818,14.506929],[120.840911,14.50693],[120.840912,14.506839],[120.841005,14.50684],[120.841007,14.506659],[120.841099,14.50666],[120.8411,14.50657],[120.841193,14.506571],[120.841194,14.50648],[120.841287,14.506481],[120.841288,14.5063],[120.841381,14.506301],[120.841382,14.506211],[120.841475,14.506212],[120.841475,14.506121],[120.841568,14.506122],[120.84157,14.505942],[120.841663,14.505942],[120.841664,14.505852],[120.841756,14.505853],[120.841757,14.505763],[120.84185,14.505763],[120.841852,14.505583],[120.841944,14.505584],[120.841945,14.505493],[120.842131,14.505495],[120.842132,14.505405],[120.842224,14.505405],[120.842225,14.505315],[120.842318,14.505316],[120.842319,14.505226],[120.842504,14.505227],[120.842505,14.505137],[120.842598,14.505138],[120.842599,14.505047],[120.842692,14.505048],[120.842692,14.504958],[120.842785,14.504959],[120.842786,14.504868],[120.842879,14.504869],[120.842878,14.50496],[120.842785,14.504959],[120.842784,14.505049],[120.842692,14.505048],[120.842691,14.505139],[120.842598,14.505138],[120.842597,14.505228],[120.842504,14.505227],[120.842504,14.505318],[120.842411,14.505317],[120.84241,14.505407],[120.842317,14.505406],[120.842316,14.505497],[120.842224,14.505496],[120.842223,14.505586],[120.84213,14.505585],[120.842129,14.505676],[120.842036,14.505675],[120.842035,14.505765],[120.841943,14.505764],[120.841942,14.505855],[120.841849,14.505854],[120.841848,14.505944],[120.841755,14.505943],[120.841755,14.506034],[120.841662,14.506033],[120.841661,14.506123],[120.841568,14.506122],[120.841566,14.506303],[120.841474,14.506302],[120.841473,14.506393],[120.84138,14.506392],[120.841379,14.506482],[120.841287,14.506481],[120.841285,14.506662],[120.841192,14.506661],[120.84119,14.506842],[120.841098,14.506841],[120.841097,14.506931],[120.841004,14.50693],[120.841002,14.507111],[120.840909,14.50711],[120.840909,14.507201],[120.840816,14.5072],[120.840815,14.50729],[120.840722,14.507289],[120.84072,14.50747],[120.840628,14.507469],[120.840627,14.507559],[120.840534,14.507559],[120.840533,14.507649],[120.84044,14.507648],[120.84044,14.507738],[120.840347,14.507738],[120.840346,14.507828],[120.840068,14.507825]]]},"properties":{"id":"manila_2025-12-27_mdd_19","region":"manila","date":"2025-12-27","area_m2":6200.0,"mean_prob":0.5266,"max_prob":0.5569,"model":"mdd","n_px":62,"px_area_m2":100.0,"confirmed":false,"confirmed_by":null,"lon":120.841359,"lat":14.506454}},{"type":"Feature","geometry":{"type":"Polygon","coordinates":[[[120.843161,14.50451],[120.843161,14.50442],[120.843254,14.504421],[120.843256,14.50424],[120.843349,14.504241],[120.84335,14.504151],[120.843442,14.504152],[120.843444,14.503971],[120.843537,14.503972],[120.843538,14.503881],[120.84363,14.503882],[120.843632,14.503702],[120.843818,14.503703],[120.843816,14.503884],[120.843723,14.503883],[120.843722,14.503973],[120.84363,14.503973],[120.843629,14.504063],[120.843536,14.504062],[120.843534,14.504243],[120.843441,14.504242],[120.843441,14.504332],[120.843348,14.504331],[120.843347,14.504422],[120.843254,14.504421],[120.843253,14.504511],[120.843161,14.50451]]]},"properties":{"id":"manila_2025-12-27_mdd_20","region":"manila","date":"2025-12-27","area_m2":1500.0,"mean_prob":0.5197,"max_prob":0.5451,"model":"mdd","n_px":15,"px_area_m2":100.0,"confirmed":false,"confirmed_by":null,"lon":120.84352,"lat":14.504065}},{"type":"Feature","geometry":{"type":"Polygon","coordinates":[[[120.855091,14.498475],[120.855091,14.498385],[120.855184,14.498386],[120.855185,14.498295],[120.855278,14.498296],[120.855277,14.498387],[120.855184,14.498386],[120.855183,14.498476],[120.855091,14.498475]]]},"properties":{"id":"manila_2025-12-27_mdd_21","region":"manila","date":"2025-12-27","area_m2":200.0,"mean_prob":0.5118,"max_prob":0.5137,"model":"mdd","n_px":2,"px_area_m2":100.0,"confirmed":false,"confirmed_by":null,"lon":120.855184,"lat":14.498386}},{"type":"Feature","geometry":{"type":"Polygon","coordinates":[[[120.855279,14.498206],[120.855279,14.498116],[120.855372,14.498116],[120.855374,14.497936],[120.855467,14.497937],[120.855468,14.497846],[120.85556,14.497847],[120.855559,14.497937],[120.855467,14.497937],[120.855465,14.498117],[120.855372,14.498116],[120.855371,14.498207],[120.855279,14.498206]]]},"properties":{"id":"manila_2025-12-27_mdd_22","region":"manila","date":"2025-12-27","area_m2":400.0,"mean_prob":0.5039,"max_prob":0.5059,"model":"mdd","n_px":4,"px_area_m2":100.0,"confirmed":false,"confirmed_by":null,"lon":120.855419,"lat":14.498027}},{"type":"Feature","geometry":{"type":"Polygon","coordinates":[[[120.855749,14.497487],[120.855751,14.497307],[120.855844,14.497308],[120.855845,14.497127],[120.855938,14.497128],[120.855941,14.496857],[120.856034,14.496857],[120.856035,14.496677],[120.856221,14.496678],[120.85622,14.496769],[120.856127,14.496768],[120.856125,14.496949],[120.856033,14.496948],[120.856031,14.497129],[120.855938,14.497128],[120.855936,14.497308],[120.855844,14.497308],[120.855842,14.497488],[120.855749,14.497487]]]},"properties":{"id":"manila_2025-12-27_mdd_23","region":"manila","date":"2025-12-27","area_m2":1100.0,"mean_prob":0.513,"max_prob":0.5216,"model":"mdd","n_px":11,"px_area_m2":100.0,"confirmed":false,"confirmed_by":null,"lon":120.855977,"lat":14.497034}},{"type":"Feature","geometry":{"type":"Polygon","coordinates":[[[120.860509,14.494368],[120.86051,14.494278],[120.860696,14.49428],[120.860696,14.494189],[120.860882,14.494191],[120.860883,14.4941],[120.861068,14.494102],[120.861067,14.494193],[120.860975,14.494192],[120.860974,14.494282],[120.860696,14.49428],[120.860695,14.49437],[120.860509,14.494368]]]},"properties":{"id":"manila_2025-12-27_mdd_24","region":"manila","date":"2025-12-27","area_m2":700.0,"mean_prob":0.5154,"max_prob":0.5333,"model":"mdd","n_px":7,"px_area_m2":100.0,"confirmed":false,"confirmed_by":null,"lon":120.860809,"lat":14.494235}},{"type":"Feature","geometry":{"type":"Polygon","coordinates":[[[120.861161,14.494103],[120.861162,14.494013],[120.861255,14.494014],[120.861256,14.493923],[120.861441,14.493925],[120.86144,14.494015],[120.861255,14.494014],[120.861254,14.494104],[120.861161,14.494103]]]},"properties":{"id":"manila_2025-12-27_mdd_25","region":"manila","date":"2025-12-27","area_m2":300.0,"mean_prob":0.5059,"max_prob":0.5098,"model":"mdd","n_px":3,"px_area_m2":100.0,"confirmed":false,"confirmed_by":null,"lon":120.861301,"lat":14.493999}},{"type":"Feature","geometry":{"type":"Polygon","coordinates":[[[120.862185,14.493751],[120.862185,14.493661],[120.862278,14.493661],[120.862279,14.493571],[120.862465,14.493573],[120.862465,14.493482],[120.862744,14.493485],[120.862745,14.493395],[120.863023,14.493397],[120.863022,14.493487],[120.862929,14.493487],[120.862928,14.493577],[120.862743,14.493575],[120.862742,14.493666],[120.862556,14.493664],[120.862556,14.493754],[120.862185,14.493751]]]},"properties":{"id":"manila_2025-12-27_mdd_26","region":"manila","date":"2025-12-27","area_m2":1700.0,"mean_prob":0.5338,"max_prob":0.5686,"model":"mdd","n_px":17,"px_area_m2":100.0,"confirmed":false,"confirmed_by":null,"lon":120.862598,"lat":14.493582}},{"type":"Feature","geometry":{"type":"Polygon","coordinates":[[[120.863115,14.493398],[120.863116,14.493308],[120.863302,14.493309],[120.863301,14.4934],[120.863115,14.493398]]]},"properties":{"id":"manila_2025-12-27_mdd_27","region":"manila","date":"2025-12-27","area_m2":200.0,"mean_prob":0.5078,"max_prob":0.5098,"model":"mdd","n_px":2,"px_area_m2":100.0,"confirmed":false,"confirmed_by":null,"lon":120.863209,"lat":14.493354}}]}