{"type": "FeatureCollection", "features": [{"type": "Feature", "id": "SZ-drift-mumbai-2025-12-19-000", "geometry": {"type": "Polygon", "coordinates": [[[72.900635, 19.085598], [72.900635, 19.314433], [72.659206, 19.314433], [72.659206, 19.085598], [72.900635, 19.085598]]]}, "properties": {"kind": "detection_zone", "layer_kind": "scene_zone", "zone_id": "SZ-drift-mumbai-2025-12-19-000", "scene_key": "drift-mumbai-2025-12-19", "scene_kind": "drift", "scene_id": "S2A_MSIL2A_20251219T054301_R005_T43QBB_20251219T083315", "region": "mumbai", "title": "Мумбаи (устье Ульхаса, крики Васаи и Малад) · вся вырезка", "mission": "Sentinel-2", "datetime": "2025-12-19T05:43:01.024000Z", "detection_status": "not_detected", "status": "not_detected", "concentration_status": "unavailable", "wind_high": false, "quantity": {"status": "not_confirmed", "label": "концентрация по снимку не подтверждена", "detail": "перевод площади в штуки не показываем: нет калибровочных пар (см. docs/QUANTITY.md)"}, "flags": [], "n_cozar_filaments": 0, "verification": null, "measured": {"zone_area_km2": 643.149, "suspicious_area_m2": 1200, "n_pixels": 12, "n_objects": 11, "water_km2": 304.927, "lwd_m2_km2": 3.94, "lwd_note": null, "quality": {"valid_water_fraction": 0.486, "cloud_fraction": 0.187, "glint_fraction": 0.0}, "model": {"weights": "weights/lgbm", "file": "weights/lgbm/model.txt", "sha256": "0eeebf43fcccd8c7c07f053b7ec723229d1a3c9b92d12eec1bdb269258c51470", "sha256_short": "0eeebf43fccc", "trained_at": "2026-09-25T01:35:55Z", "threshold": 0.63, "harmonize": "none", "class": "MARIDA Marine Debris (любой плавающий мусор, не только пластик)"}}, "probable": {"prob_max": 1.0, "prob_mean": null, "signs": null, "n_cozar_filaments": 0}, "field_nearby": {"items": [{"source": "ADIS (4TU.ResearchData, судовая камера)", "segment_id": 300006, "ship": "Antsiva", "date": "2022-02-09", "days_from_scene": -1409, "distance_km": 4813.4, "lon": 55.23624, "lat": -21.01039, "n_items": 0, "area_km2": 0.0496, "size_class": "> 5 см", "c_items_km2": 0.0, "ci95_lo": 0.0, "ci95_hi": 74.33, "ci95_method": "точный интервал Пуассона для N, делённый на A", "raw_10cm_items_km2": 0.0, "authors_cal_10cm_items_km2": 0.0, "authors_cal_10cm_lo95": null, "authors_cal_10cm_hi95": null}, {"source": "ADIS (4TU.ResearchData, судовая камера)", "segment_id": 300002, "ship": "Antsiva", "date": "2022-02-09", "days_from_scene": -1409, "distance_km": 4816.3, "lon": 55.20634, "lat": -21.02717, "n_items": 0, "area_km2": 0.0925, "size_class": "> 5 см", "c_items_km2": 0.0, "ci95_lo": 0.0, "ci95_hi": 39.89, "ci95_method": "точный интервал Пуассона для N, делённый на A", "raw_10cm_items_km2": 0.0, "authors_cal_10cm_items_km2": 0.0, "authors_cal_10cm_lo95": null, "authors_cal_10cm_hi95": null}, {"source": "ADIS (4TU.ResearchData, судовая камера)", "segment_id": 300001, "ship": "Antsiva", "date": "2022-02-09", "days_from_scene": -1409, "distance_km": 4822.2, "lon": 55.21375, "lat": -21.08772, "n_items": 0, "area_km2": 0.2, "size_class": "> 5 см", "c_items_km2": 0.0, "ci95_lo": 0.0, "ci95_hi": 18.45, "ci95_method": "точный интервал Пуассона для N, делённый на A", "raw_10cm_items_km2": 0.0, "authors_cal_10cm_items_km2": 0.0, "authors_cal_10cm_lo95": null, "authors_cal_10cm_hi95": null}], "nearest_organizer_sample": {"sample_id": "MPL-0922", "source_id": "S4_BLACK_SEA_DOORS3", "distance_km": 4112.4}, "note": "Измерение ≠ оценка: это независимые полевые счёты C = N/A в другое время и в другом месте; со сценой они не связаны и не калибруют её. Ближайший отрезок ADIS — за 4813 км: только для порядка величин."}}}]}