{"type": "FeatureCollection", "features": [{"type": "Feature", "id": "SZ-fresh-cozar_demo-2026-08-09-000", "geometry": {"type": "Polygon", "coordinates": [[[-1.477257, 35.383396], [-1.477257, 35.612629], [-1.75692, 35.612629], [-1.75692, 35.383396], [-1.477257, 35.383396]]]}, "properties": {"kind": "detection_zone", "layer_kind": "scene_zone", "zone_id": "SZ-fresh-cozar_demo-2026-08-09-000", "scene_key": "fresh-cozar_demo-2026-08-09", "scene_kind": "fresh_s2", "scene_id": "S2A_MSIL2A_20260809T105051_R051_T30SXE_20260809T190509", "region": "cozar_demo", "title": "Альборанское море (акватория демо Cózar 2024) · вся вырезка", "mission": "Sentinel-2", "datetime": "2026-08-09T10:50:51.024000Z", "detection_status": "not_detected", "status": "not_detected", "concentration_status": "unavailable", "wind_high": false, "quantity": {"status": "not_confirmed", "label": "концентрация по снимку не подтверждена", "detail": "перевод площади в штуки не показываем: нет калибровочных пар (см. docs/QUANTITY.md)"}, "flags": [], "n_cozar_filaments": 0, "verification": null, "measured": {"zone_area_km2": 645.352, "suspicious_area_m2": 0, "n_pixels": 0, "n_objects": 0, "water_km2": 502.0, "lwd_m2_km2": 0.0, "lwd_note": null, "quality": {"valid_water_fraction": 0.8, "cloud_fraction": 0.193, "glint_fraction": 0.0}, "model": {"weights": "weights/lgbm", "file": "weights/lgbm/model.txt", "sha256": "0eeebf43fcccd8c7c07f053b7ec723229d1a3c9b92d12eec1bdb269258c51470", "sha256_short": "0eeebf43fccc", "trained_at": "2026-09-25T01:36:30Z", "threshold": 0.63, "harmonize": "none", "class": "MARIDA Marine Debris (любой плавающий мусор, не только пластик)"}}, "probable": {"prob_max": 0.031, "prob_mean": null, "signs": null, "n_cozar_filaments": 0}, "field_nearby": {"items": [{"source": "ADIS (4TU.ResearchData, судовая камера)", "segment_id": 437373, "ship": "R/V SOCIB", "date": "2023-05-09", "days_from_scene": -1188, "distance_km": 521.2, "lon": 1.45866, "lat": 39.48127, "n_items": 0, "area_km2": 0.2799, "size_class": "> 5 см", "c_items_km2": 0.0, "ci95_lo": 0.0, "ci95_hi": 13.18, "ci95_method": "точный интервал Пуассона для N, делённый на A", "raw_10cm_items_km2": 0.0, "authors_cal_10cm_items_km2": 0.0, "authors_cal_10cm_lo95": null, "authors_cal_10cm_hi95": null}, {"source": "ADIS (4TU.ResearchData, судовая камера)", "segment_id": 437372, "ship": "R/V SOCIB", "date": "2023-05-09", "days_from_scene": -1188, "distance_km": 524.6, "lon": 1.52399, "lat": 39.48282, "n_items": 0, "area_km2": 0.1103, "size_class": "> 5 см", "c_items_km2": 0.0, "ci95_lo": 0.0, "ci95_hi": 33.44, "ci95_method": "точный интервал Пуассона для N, делённый на A", "raw_10cm_items_km2": 0.0, "authors_cal_10cm_items_km2": 0.0, "authors_cal_10cm_lo95": null, "authors_cal_10cm_hi95": null}, {"source": "ADIS (4TU.ResearchData, судовая камера)", "segment_id": 437314, "ship": "R/V SOCIB", "date": "2023-04-26", "days_from_scene": -1201, "distance_km": 525.6, "lon": 1.38936, "lat": 39.56288, "n_items": 0, "area_km2": 0.105, "size_class": "> 5 см", "c_items_km2": 0.0, "ci95_lo": 0.0, "ci95_hi": 35.15, "ci95_method": "точный интервал Пуассона для N, делённый на A", "raw_10cm_items_km2": 0.0, "authors_cal_10cm_items_km2": 0.0, "authors_cal_10cm_lo95": null, "authors_cal_10cm_hi95": null}], "nearest_organizer_sample": {"sample_id": "MPL-0175", "source_id": "S3_SE_NORTH_SEA", "distance_km": 2140.3}, "note": "Измерение ≠ оценка: это независимые полевые счёты C = N/A в другое время и в другом месте; со сценой они не связаны и не калибруют её. Ближайший отрезок ADIS — за 521 км: только для порядка величин."}, "acquired_at": "2026-08-09T10:50:51.024000Z", "acquisition_date": "2026-08-09", "processed_at": "2026-09-26T19:46:26Z", "human_checked": false, "auto_label": "автоматически, не проверено человеком"}}]}