{"type": "FeatureCollection", "features": [{"type": "Feature", "id": "SZ-live-jakarta-2019-05-30-000", "geometry": {"type": "Polygon", "coordinates": [[[106.613614, -6.003809], [106.613614, -5.776395], [106.386508, -5.776395], [106.386508, -6.003809], [106.613614, -6.003809]]]}, "properties": {"kind": "detection_zone", "layer_kind": "scene_zone", "zone_id": "SZ-live-jakarta-2019-05-30-000", "scene_key": "live-jakarta-2019-05-30", "scene_kind": "live", "scene_id": "S2B_48MXU_20190530_0_L2A", "region": "jakarta", "title": "Джакартский залив · вся вырезка", "mission": "Sentinel-2", "datetime": "2019-05-30T03:19:51.937000Z", "detection_status": "not_detected", "status": "not_detected", "concentration_status": "unavailable", "wind_high": false, "quantity": {"status": "not_confirmed", "label": "концентрация по снимку не подтверждена", "detail": "перевод площади в штуки не показываем: нет калибровочных пар (см. docs/QUANTITY.md)"}, "flags": [], "n_cozar_filaments": 0, "measured": {"zone_area_km2": 632.461, "suspicious_area_m2": 200, "n_pixels": 2, "n_objects": 2, "water_km2": 607.623, "lwd_m2_km2": 0.33, "lwd_note": null, "quality": {"valid_water_fraction": 0.966, "cloud_fraction": 0.025, "glint_fraction": 0.0}, "model": {"weights": "weights/lgbm", "file": "weights/lgbm/model.txt", "sha256": "0eeebf43fcccd8c7c07f053b7ec723229d1a3c9b92d12eec1bdb269258c51470", "sha256_short": "0eeebf43fccc", "trained_at": "2026-09-25T01:35:55Z", "threshold": 0.63, "harmonize": "none", "class": "MARIDA Marine Debris (любой плавающий мусор, не только пластик)"}}, "probable": {"prob_max": 0.969, "prob_mean": null, "signs": null, "n_cozar_filaments": 0}, "field_nearby": {"items": [{"source": "ADIS (4TU.ResearchData, судовая камера)", "segment_id": 299932, "ship": "Antsiva", "date": "2022-02-05", "days_from_scene": 982, "distance_km": 5584.9, "lon": 61.51495, "lat": -28.72991, "n_items": 0, "area_km2": 0.1999, "size_class": "> 5 см", "c_items_km2": 0.0, "ci95_lo": 0.0, "ci95_hi": 18.45, "ci95_method": "точный интервал Пуассона для N, делённый на A", "raw_10cm_items_km2": 0.0, "authors_cal_10cm_items_km2": 0.0, "authors_cal_10cm_lo95": null, "authors_cal_10cm_hi95": null}, {"source": "ADIS (4TU.ResearchData, судовая камера)", "segment_id": 299754, "ship": "Antsiva", "date": "2022-02-03", "days_from_scene": 980, "distance_km": 5588.4, "lon": 63.022, "lat": -31.55208, "n_items": 0, "area_km2": 0.0769, "size_class": "> 5 см", "c_items_km2": 0.0, "ci95_lo": 0.0, "ci95_hi": 47.95, "ci95_method": "точный интервал Пуассона для N, делённый на A", "raw_10cm_items_km2": 0.0, "authors_cal_10cm_items_km2": 0.0, "authors_cal_10cm_lo95": null, "authors_cal_10cm_hi95": null}, {"source": "ADIS (4TU.ResearchData, судовая камера)", "segment_id": 299753, "ship": "Antsiva", "date": "2022-02-03", "days_from_scene": 980, "distance_km": 5589.2, "lon": 63.01827, "lat": -31.56061, "n_items": 0, "area_km2": 0.0094, "size_class": "> 5 см", "c_items_km2": 0.0, "ci95_lo": 0.0, "ci95_hi": 390.52, "ci95_method": "точный интервал Пуассона для N, делённый на A", "raw_10cm_items_km2": 0.0, "authors_cal_10cm_items_km2": 0.0, "authors_cal_10cm_lo95": null, "authors_cal_10cm_hi95": null}], "nearest_organizer_sample": {"sample_id": "MPL-0922", "source_id": "S4_BLACK_SEA_DOORS3", "distance_km": 8904.8}, "note": "Измерение ≠ оценка: это независимые полевые счёты C = N/A в другое время и в другом месте; со сценой они не связаны и не калибруют её. Ближайший отрезок ADIS — за 5585 км: только для порядка величин."}}}]}