{"type": "FeatureCollection", "features": [{"type": "Feature", "id": "SZ-fresh-tiber-2026-09-16-000", "geometry": {"type": "Polygon", "coordinates": [[[12.375052, 41.603774], [12.375052, 41.836157], [12.064181, 41.836157], [12.064181, 41.603774], [12.375052, 41.603774]]]}, "properties": {"kind": "detection_zone", "layer_kind": "scene_zone", "zone_id": "SZ-fresh-tiber-2026-09-16-000", "scene_key": "fresh-tiber-2026-09-16", "scene_kind": "fresh_s2", "scene_id": "S2B_MSIL2A_20260916T100029_R122_T33TTG_20260916T142453", "region": "tiber", "title": "Средиземное море: устье Тибра (Рим, Остия) · вся вырезка", "mission": "Sentinel-2", "datetime": "2026-09-16T10:00:29.024000Z", "detection_status": "not_detected", "status": "not_detected", "concentration_status": "unavailable", "wind_high": false, "quantity": {"status": "not_confirmed", "label": "концентрация по снимку не подтверждена", "detail": "перевод площади в штуки не показываем: нет калибровочных пар (см. docs/QUANTITY.md)"}, "flags": [], "n_cozar_filaments": 0, "verification": null, "measured": {"zone_area_km2": 667.673, "suspicious_area_m2": 1200, "n_pixels": 12, "n_objects": 12, "water_km2": 468.249, "lwd_m2_km2": 2.56, "lwd_note": null, "quality": {"valid_water_fraction": 0.746, "cloud_fraction": 0.0, "glint_fraction": 0.0}, "model": {"weights": "weights/lgbm", "file": "weights/lgbm/model.txt", "sha256": "0eeebf43fcccd8c7c07f053b7ec723229d1a3c9b92d12eec1bdb269258c51470", "sha256_short": "0eeebf43fccc", "trained_at": "2026-09-25T01:36:30Z", "threshold": 0.63, "harmonize": "none", "class": "MARIDA Marine Debris (любой плавающий мусор, не только пластик)"}}, "probable": {"prob_max": 0.941, "prob_mean": null, "signs": null, "n_cozar_filaments": 0}, "field_nearby": {"items": [{"source": "ADIS (4TU.ResearchData, судовая камера)", "segment_id": 335970, "ship": "Dallaporta", "date": "2021-09-30", "days_from_scene": -1812, "distance_km": 188.0, "lon": 9.98153, "lat": 41.96887, "n_items": 0, "area_km2": 0.2062, "size_class": "> 5 см", "c_items_km2": 0.0, "ci95_lo": 0.0, "ci95_hi": 17.89, "ci95_method": "точный интервал Пуассона для N, делённый на A", "raw_10cm_items_km2": 0.0, "authors_cal_10cm_items_km2": 0.0, "authors_cal_10cm_lo95": null, "authors_cal_10cm_hi95": null}, {"source": "ADIS (4TU.ResearchData, судовая камера)", "segment_id": 335969, "ship": "Dallaporta", "date": "2021-09-30", "days_from_scene": -1812, "distance_km": 189.4, "lon": 9.95289, "lat": 41.90414, "n_items": 0, "area_km2": 0.3998, "size_class": "> 5 см", "c_items_km2": 0.0, "ci95_lo": 0.0, "ci95_hi": 9.23, "ci95_method": "точный интервал Пуассона для N, делённый на A", "raw_10cm_items_km2": 0.0, "authors_cal_10cm_items_km2": 0.0, "authors_cal_10cm_lo95": null, "authors_cal_10cm_hi95": null}, {"source": "ADIS (4TU.ResearchData, судовая камера)", "segment_id": 335968, "ship": "Dallaporta", "date": "2021-09-30", "days_from_scene": -1812, "distance_km": 191.8, "lon": 9.91536, "lat": 41.81854, "n_items": 0, "area_km2": 0.3999, "size_class": "> 5 см", "c_items_km2": 0.0, "ci95_lo": 0.0, "ci95_hi": 9.22, "ci95_method": "точный интервал Пуассона для N, делённый на A", "raw_10cm_items_km2": 0.0, "authors_cal_10cm_items_km2": 0.0, "authors_cal_10cm_lo95": null, "authors_cal_10cm_hi95": null}], "nearest_organizer_sample": {"sample_id": "MPL-0194", "source_id": "S3_SE_NORTH_SEA", "distance_km": 1400.1}, "note": "Измерение ≠ оценка: это независимые полевые счёты C = N/A в другое время и в другом месте; со сценой они не связаны и не калибруют её. Ближайший отрезок ADIS — за 188 км: только для порядка величин."}, "acquired_at": "2026-09-16T10:00:29.024000Z", "acquisition_date": "2026-09-16", "processed_at": null, "human_checked": false, "auto_label": "автоматически, не проверено человеком"}}]}