{"type": "FeatureCollection", "features": [{"type": "Feature", "id": "D-SZ-fresh-bali-2026-08-09-001-9", "geometry": {"type": "Polygon", "coordinates": [[[115.2380945, -8.7471385], [115.2380932, -8.7474097], [115.2381841, -8.7474101], [115.2381845, -8.7473197], [115.2382754, -8.7473201], [115.2382758, -8.7472297], [115.2383667, -8.7472301], [115.2383671, -8.7471397], [115.2380945, -8.7471385]]]}, "properties": {"kind": "detection", "det_id": "D-SZ-fresh-bali-2026-08-09-001-9", "zone_id": "SZ-fresh-bali-2026-08-09-001", "scene_id": "S2B_MSIL2A_20260809T021529_R003_T50LLR_20260809T055242", "datetime": "2026-08-09T02:15:29.024000Z", "n_pixels": 6, "area_m2": 600, "prob_max": 0.9765, "prob_mean": 0.8412, "threshold": 0.63, "in_strip": true, "artifact": "ship"}}]}