{"type": "FeatureCollection", "features": [{"type": "Feature", "id": "SZ-fresh-manila-2026-09-13-000", "geometry": {"type": "Polygon", "coordinates": [[[120.937274, 14.485488], [120.937274, 14.714259], [120.702351, 14.714259], [120.702351, 14.485488], [120.937274, 14.485488]]]}, "properties": {"kind": "detection_zone", "layer_kind": "scene_zone", "zone_id": "SZ-fresh-manila-2026-09-13-000", "scene_key": "fresh-manila-2026-09-13", "scene_kind": "fresh_s2", "scene_id": "S2C_MSIL2A_20260913T021531_R003_T51PTS_20260913T055012", "region": "manila", "title": "Манильский залив · вся вырезка", "mission": "Sentinel-2", "datetime": "2026-09-13T02:15:31.025000Z", "detection_status": "not_detected", "status": "not_detected", "concentration_status": "unavailable", "wind_high": false, "quantity": {"status": "not_confirmed", "label": "концентрация по снимку не подтверждена", "detail": "перевод площади в штуки не показываем: нет калибровочных пар (см. docs/QUANTITY.md)"}, "flags": [], "n_cozar_filaments": 0, "verification": null, "measured": {"zone_area_km2": 640.718, "suspicious_area_m2": 800, "n_pixels": 8, "n_objects": 7, "water_km2": 367.937, "lwd_m2_km2": 2.17, "lwd_note": null, "quality": {"valid_water_fraction": 0.585, "cloud_fraction": 0.387, "glint_fraction": 0.0}, "model": {"weights": "weights/lgbm", "file": "weights/lgbm/model.txt", "sha256": "0eeebf43fcccd8c7c07f053b7ec723229d1a3c9b92d12eec1bdb269258c51470", "sha256_short": "0eeebf43fccc", "trained_at": "2026-09-25T01:36:30Z", "threshold": 0.63, "harmonize": "none", "class": "MARIDA Marine Debris (любой плавающий мусор, не только пластик)"}}, "probable": {"prob_max": 0.976, "prob_mean": null, "signs": null, "n_cozar_filaments": 0}, "field_nearby": {"items": [{"source": "ADIS (4TU.ResearchData, судовая камера)", "segment_id": 339924, "ship": "R/V Tinro", "date": "2022-02-07", "days_from_scene": -1679, "distance_km": 3554.1, "lon": 139.33376, "lat": 41.2048, "n_items": 0, "area_km2": 0.8103, "size_class": "> 5 см", "c_items_km2": 0.0, "ci95_lo": 0.0, "ci95_hi": 4.55, "ci95_method": "точный интервал Пуассона для N, делённый на A", "raw_10cm_items_km2": 0.0, "authors_cal_10cm_items_km2": 0.0, "authors_cal_10cm_lo95": null, "authors_cal_10cm_hi95": null}, {"source": "ADIS (4TU.ResearchData, судовая камера)", "segment_id": 339927, "ship": "R/V Tinro", "date": "2022-02-07", "days_from_scene": -1679, "distance_km": 3564.5, "lon": 139.59261, "lat": 41.14731, "n_items": 0, "area_km2": 0.8108, "size_class": "> 5 см", "c_items_km2": 0.0, "ci95_lo": 0.0, "ci95_hi": 4.55, "ci95_method": "точный интервал Пуассона для N, делённый на A", "raw_10cm_items_km2": 0.0, "authors_cal_10cm_items_km2": 0.0, "authors_cal_10cm_lo95": null, "authors_cal_10cm_hi95": null}, {"source": "ADIS (4TU.ResearchData, судовая камера)", "segment_id": 339928, "ship": "R/V Tinro", "date": "2022-02-07", "days_from_scene": -1679, "distance_km": 3569.3, "lon": 139.70705, "lat": 41.12296, "n_items": 0, "area_km2": 0.8112, "size_class": "> 5 см", "c_items_km2": 0.0, "ci95_lo": 0.0, "ci95_hi": 4.55, "ci95_method": "точный интервал Пуассона для N, делённый на A", "raw_10cm_items_km2": 0.0, "authors_cal_10cm_items_km2": 0.0, "authors_cal_10cm_lo95": null, "authors_cal_10cm_hi95": null}], "nearest_organizer_sample": {"sample_id": "MPL-0923", "source_id": "S4_BLACK_SEA_DOORS3", "distance_km": 9041.9}, "note": "Измерение ≠ оценка: это независимые полевые счёты C = N/A в другое время и в другом месте; со сценой они не связаны и не калибруют её. Ближайший отрезок ADIS — за 3554 км: только для порядка величин."}, "acquired_at": "2026-09-13T02:15:31.025000Z", "acquisition_date": "2026-09-13", "processed_at": "2026-09-26T19:16:24Z", "human_checked": false, "auto_label": "автоматически, не проверено человеком"}}]}