{"type": "FeatureCollection", "features": [{"type": "Feature", "id": "SZ-fresh-durban-2026-09-21-000", "geometry": {"type": "Polygon", "coordinates": [[[31.221377, -29.944936], [31.221377, -29.714976], [30.958242, -29.714976], [30.958242, -29.944936], [31.221377, -29.944936]]]}, "properties": {"kind": "detection_zone", "layer_kind": "scene_zone", "zone_id": "SZ-fresh-durban-2026-09-21-000", "scene_key": "fresh-durban-2026-09-21", "scene_kind": "fresh_s2", "scene_id": "S2A_MSIL2A_20260921T074021_R092_T36JUN_20260921T130517", "region": "durban", "title": "Дурбан · вся вырезка", "mission": "Sentinel-2", "datetime": "2026-09-21T07:40:21.025000Z", "detection_status": "not_detected", "status": "not_detected", "concentration_status": "unavailable", "wind_high": false, "quantity": {"status": "not_confirmed", "label": "концентрация по снимку не подтверждена", "detail": "перевод площади в штуки не показываем: нет калибровочных пар (см. docs/QUANTITY.md)"}, "flags": [], "n_cozar_filaments": 0, "verification": null, "measured": {"zone_area_km2": 648.289, "suspicious_area_m2": 1200, "n_pixels": 12, "n_objects": 8, "water_km2": 145.806, "lwd_m2_km2": 8.23, "lwd_note": null, "quality": {"valid_water_fraction": 0.232, "cloud_fraction": 0.317, "glint_fraction": 0.0}, "model": {"weights": "weights/lgbm", "file": "weights/lgbm/model.txt", "sha256": "0eeebf43fcccd8c7c07f053b7ec723229d1a3c9b92d12eec1bdb269258c51470", "sha256_short": "0eeebf43fccc", "trained_at": "2026-09-25T01:36:30Z", "threshold": 0.63, "harmonize": "none", "class": "MARIDA Marine Debris (любой плавающий мусор, не только пластик)"}}, "probable": {"prob_max": 0.996, "prob_mean": null, "signs": null, "n_cozar_filaments": 0}, "field_nearby": {"items": [{"source": "ADIS (4TU.ResearchData, судовая камера)", "segment_id": 279754, "ship": "Antsiva", "date": "2022-01-26", "days_from_scene": -1699, "distance_km": 1380.1, "lon": 45.33987, "lat": -30.76971, "n_items": 0, "area_km2": 0.2, "size_class": "> 5 см", "c_items_km2": 0.0, "ci95_lo": 0.0, "ci95_hi": 18.45, "ci95_method": "точный интервал Пуассона для N, делённый на A", "raw_10cm_items_km2": 0.0, "authors_cal_10cm_items_km2": 0.0, "authors_cal_10cm_lo95": null, "authors_cal_10cm_hi95": null}, {"source": "ADIS (4TU.ResearchData, судовая камера)", "segment_id": 299831, "ship": "Antsiva", "date": "2022-01-26", "days_from_scene": -1699, "distance_km": 1380.1, "lon": 45.33982, "lat": -30.77093, "n_items": 0, "area_km2": 0.2, "size_class": "> 5 см", "c_items_km2": 0.0, "ci95_lo": 0.0, "ci95_hi": 18.45, "ci95_method": "точный интервал Пуассона для N, делённый на A", "raw_10cm_items_km2": 0.0, "authors_cal_10cm_items_km2": 0.0, "authors_cal_10cm_lo95": null, "authors_cal_10cm_hi95": null}, {"source": "ADIS (4TU.ResearchData, судовая камера)", "segment_id": 299830, "ship": "Antsiva", "date": "2022-01-26", "days_from_scene": -1699, "distance_km": 1381.8, "lon": 45.36527, "lat": -30.68732, "n_items": 1, "area_km2": 0.1999, "size_class": "> 5 см", "c_items_km2": 5.0, "ci95_lo": 0.13, "ci95_hi": 27.87, "ci95_method": "точный интервал Пуассона для N, делённый на A", "raw_10cm_items_km2": 5.0, "authors_cal_10cm_items_km2": 12.32, "authors_cal_10cm_lo95": 2.17, "authors_cal_10cm_hi95": 70.04}], "nearest_organizer_sample": {"sample_id": "MPL-0922", "source_id": "S4_BLACK_SEA_DOORS3", "distance_km": 7961.8}, "note": "Измерение ≠ оценка: это независимые полевые счёты C = N/A в другое время и в другом месте; со сценой они не связаны и не калибруют её. Ближайший отрезок ADIS — за 1380 км: только для порядка величин."}, "acquired_at": "2026-09-21T07:40:21.025000Z", "acquisition_date": "2026-09-21", "processed_at": "2026-09-26T19:07:12Z", "human_checked": false, "auto_label": "автоматически, не проверено человеком"}}]}