{"type":"FeatureCollection","features":[{"type":"Feature","geometry":{"type":"Polygon","coordinates":[[[-88.161836,15.909134],[-88.161836,15.909044],[-88.161742,15.909044],[-88.161742,15.908954],[-88.161648,15.908954],[-88.161649,15.909135],[-88.161836,15.909134]]]},"properties":{"id":"honduras_2025-12-28_lgbm_0","region":"honduras","date":"2025-12-28","area_m2":300.0,"mean_prob":0.8641,"max_prob":0.9098,"model":"lgbm","n_px":3,"px_area_m2":100.0,"confirmed":false,"confirmed_by":null,"lon":-88.161727,"lat":15.909059}},{"type":"Feature","geometry":{"type":"Polygon","coordinates":[[[-88.149094,15.902242],[-88.149093,15.902152],[-88.149,15.902152],[-88.148999,15.902062],[-88.148906,15.902062],[-88.148906,15.902153],[-88.149,15.902152],[-88.149,15.902243],[-88.149094,15.902242]]]},"properties":{"id":"honduras_2025-12-28_lgbm_1","region":"honduras","date":"2025-12-28","area_m2":200.0,"mean_prob":0.7529,"max_prob":0.7882,"model":"lgbm","n_px":2,"px_area_m2":100.0,"confirmed":false,"confirmed_by":null,"lon":-88.149,"lat":15.902152}},{"type":"Feature","geometry":{"type":"Polygon","coordinates":[[[-88.146651,15.899724],[-88.14665,15.899543],[-88.146463,15.899544],[-88.146464,15.899635],[-88.146557,15.899634],[-88.146558,15.899725],[-88.146651,15.899724]]]},"properties":{"id":"honduras_2025-12-28_lgbm_2","region":"honduras","date":"2025-12-28","area_m2":300.0,"mean_prob":0.8758,"max_prob":0.9922,"model":"lgbm","n_px":3,"px_area_m2":100.0,"confirmed":false,"confirmed_by":null,"lon":-88.146573,"lat":15.899619}},{"type":"Feature","geometry":{"type":"Polygon","coordinates":[[[-88.143363,15.896397],[-88.143363,15.896307],[-88.143176,15.896308],[-88.143176,15.896398],[-88.143363,15.896397]]]},"properties":{"id":"honduras_2025-12-28_lgbm_3","region":"honduras","date":"2025-12-28","area_m2":200.0,"mean_prob":0.7922,"max_prob":0.8706,"model":"lgbm","n_px":2,"px_area_m2":100.0,"confirmed":false,"confirmed_by":null,"lon":-88.143269,"lat":15.896352}},{"type":"Feature","geometry":{"type":"Polygon","coordinates":[[[-88.142896,15.896309],[-88.142895,15.896219],[-88.142708,15.89622],[-88.142709,15.89631],[-88.142896,15.896309]]]},"properties":{"id":"honduras_2025-12-28_lgbm_4","region":"honduras","date":"2025-12-28","area_m2":200.0,"mean_prob":0.6843,"max_prob":0.6863,"model":"lgbm","n_px":2,"px_area_m2":100.0,"confirmed":false,"confirmed_by":null,"lon":-88.142802,"lat":15.896265}},{"type":"Feature","geometry":{"type":"Polygon","coordinates":[[[-88.138874,15.895336],[-88.138873,15.895246],[-88.138687,15.895247],[-88.138687,15.895337],[-88.138874,15.895336]]]},"properties":{"id":"honduras_2025-12-28_lgbm_5","region":"honduras","date":"2025-12-28","area_m2":200.0,"mean_prob":0.8216,"max_prob":0.9529,"model":"lgbm","n_px":2,"px_area_m2":100.0,"confirmed":false,"confirmed_by":null,"lon":-88.13878,"lat":15.895291}},{"type":"Feature","geometry":{"type":"Polygon","coordinates":[[[-88.128774,15.893039],[-88.128773,15.892949],[-88.128586,15.89295],[-88.128587,15.89304],[-88.128774,15.893039]]]},"properties":{"id":"honduras_2025-12-28_lgbm_6","region":"honduras","date":"2025-12-28","area_m2":200.0,"mean_prob":0.7176,"max_prob":0.7765,"model":"lgbm","n_px":2,"px_area_m2":100.0,"confirmed":false,"confirmed_by":null,"lon":-88.12868,"lat":15.892994}},{"type":"Feature","geometry":{"type":"Polygon","coordinates":[[[-88.120274,15.892902],[-88.120273,15.892722],[-88.120086,15.892723],[-88.120086,15.892813],[-88.12018,15.892813],[-88.12018,15.892903],[-88.120274,15.892902]]]},"properties":{"id":"honduras_2025-12-28_lgbm_7","region":"honduras","date":"2025-12-28","area_m2":300.0,"mean_prob":0.817,"max_prob":0.898,"model":"lgbm","n_px":3,"px_area_m2":100.0,"confirmed":false,"confirmed_by":null,"lon":-88.120195,"lat":15.892797}},{"type":"Feature","geometry":{"type":"Polygon","coordinates":[[[-88.132041,15.892751],[-88.13204,15.89257],[-88.131853,15.892571],[-88.131854,15.892752],[-88.132041,15.892751]]]},"properties":{"id":"honduras_2025-12-28_lgbm_8","region":"honduras","date":"2025-12-28","area_m2":400.0,"mean_prob":0.8049,"max_prob":0.9647,"model":"lgbm","n_px":4,"px_area_m2":100.0,"confirmed":false,"confirmed_by":null,"lon":-88.131947,"lat":15.892661}},{"type":"Feature","geometry":{"type":"Polygon","coordinates":[[[-88.110263,15.889881],[-88.110263,15.88979],[-88.110076,15.889791],[-88.110076,15.889882],[-88.110263,15.889881]]]},"properties":{"id":"honduras_2025-12-28_lgbm_9","region":"honduras","date":"2025-12-28","area_m2":200.0,"mean_prob":0.7686,"max_prob":0.7961,"model":"lgbm","n_px":2,"px_area_m2":100.0,"confirmed":false,"confirmed_by":null,"lon":-88.110169,"lat":15.889836}},{"type":"Feature","geometry":{"type":"Polygon","coordinates":[[[-88.265282,15.841667],[-88.265281,15.841576],[-88.265094,15.841577],[-88.265095,15.841668],[-88.265282,15.841667]]]},"properties":{"id":"honduras_2025-12-28_lgbm_10","region":"honduras","date":"2025-12-28","area_m2":200.0,"mean_prob":0.9039,"max_prob":0.9412,"model":"lgbm","n_px":2,"px_area_m2":100.0,"confirmed":false,"confirmed_by":null,"lon":-88.265188,"lat":15.841622}},{"type":"Feature","geometry":{"type":"Polygon","coordinates":[[[-88.119866,15.835959],[-88.119865,15.835868],[-88.119959,15.835868],[-88.119958,15.835777],[-88.119771,15.835778],[-88.119772,15.835869],[-88.119678,15.835869],[-88.119679,15.83596],[-88.119866,15.835959]]]},"properties":{"id":"honduras_2025-12-28_lgbm_11","region":"honduras","date":"2025-12-28","area_m2":400.0,"mean_prob":0.799,"max_prob":0.9765,"model":"lgbm","n_px":4,"px_area_m2":100.0,"confirmed":false,"confirmed_by":null,"lon":-88.119819,"lat":15.835868}},{"type":"Feature","geometry":{"type":"Polygon","coordinates":[[[-88.124713,15.834578],[-88.124713,15.834487],[-88.124806,15.834487],[-88.124806,15.834396],[-88.124899,15.834396],[-88.124899,15.834306],[-88.124992,15.834305],[-88.124992,15.834215],[-88.124898,15.834215],[-88.124899,15.834306],[-88.124805,15.834306],[-88.124806,15.834396],[-88.124712,15.834397],[-88.124713,15.834487],[-88.12462,15.834488],[-88.12462,15.834578],[-88.124713,15.834578]]]},"properties":{"id":"honduras_2025-12-28_lgbm_12","region":"honduras","date":"2025-12-28","area_m2":400.0,"mean_prob":0.85,"max_prob":0.9882,"model":"lgbm","n_px":4,"px_area_m2":100.0,"confirmed":false,"confirmed_by":null,"lon":-88.124806,"lat":15.834396}},{"type":"Feature","geometry":{"type":"Polygon","coordinates":[[[-88.135714,15.831447],[-88.135713,15.831266],[-88.135806,15.831266],[-88.135806,15.831175],[-88.136086,15.831174],[-88.136086,15.831084],[-88.135712,15.831085],[-88.135713,15.831176],[-88.135619,15.831176],[-88.13562,15.831267],[-88.135526,15.831267],[-88.135527,15.831448],[-88.135714,15.831447]]]},"properties":{"id":"honduras_2025-12-28_lgbm_13","region":"honduras","date":"2025-12-28","area_m2":1000.0,"mean_prob":0.9584,"max_prob":0.9882,"model":"lgbm","n_px":10,"px_area_m2":100.0,"confirmed":false,"confirmed_by":null,"lon":-88.13575,"lat":15.831239}},{"type":"Feature","geometry":{"type":"Polygon","coordinates":[[[-88.146357,15.83121],[-88.146357,15.83112],[-88.146263,15.83112],[-88.146263,15.83103],[-88.146169,15.83103],[-88.14617,15.831121],[-88.145983,15.831122],[-88.145984,15.831212],[-88.146357,15.83121]]]},"properties":{"id":"honduras_2025-12-28_lgbm_14","region":"honduras","date":"2025-12-28","area_m2":500.0,"mean_prob":0.9624,"max_prob":0.9961,"model":"lgbm","n_px":5,"px_area_m2":100.0,"confirmed":true,"confirmed_by":"mdd","lon":-88.146179,"lat":15.831148}},{"type":"Feature","geometry":{"type":"Polygon","coordinates":[[[-88.144676,15.831219],[-88.144676,15.831129],[-88.144489,15.83113],[-88.14449,15.83122],[-88.144676,15.831219]]]},"properties":{"id":"honduras_2025-12-28_lgbm_15","region":"honduras","date":"2025-12-28","area_m2":200.0,"mean_prob":0.9882,"max_prob":0.9961,"model":"lgbm","n_px":2,"px_area_m2":100.0,"confirmed":false,"confirmed_by":null,"lon":-88.144583,"lat":15.831174}},{"type":"Feature","geometry":{"type":"Polygon","coordinates":[[[-88.14757,15.831023],[-88.147569,15.830933],[-88.147663,15.830932],[-88.147662,15.830842],[-88.147475,15.830843],[-88.147476,15.830933],[-88.147289,15.830934],[-88.14729,15.831025],[-88.14757,15.831023]]]},"properties":{"id":"honduras_2025-12-28_lgbm_16","region":"honduras","date":"2025-12-28","area_m2":500.0,"mean_prob":0.9663,"max_prob":1.0,"model":"lgbm","n_px":5,"px_area_m2":100.0,"confirmed":false,"confirmed_by":null,"lon":-88.147485,"lat":15.830942}},{"type":"Feature","geometry":{"type":"Polygon","coordinates":[[[-88.142715,15.831049],[-88.142714,15.830868],[-88.14262,15.830868],[-88.142621,15.830959],[-88.142527,15.830959],[-88.142528,15.83105],[-88.142715,15.831049]]]},"properties":{"id":"honduras_2025-12-28_lgbm_17","region":"honduras","date":"2025-12-28","area_m2":300.0,"mean_prob":0.902,"max_prob":0.9961,"model":"lgbm","n_px":3,"px_area_m2":100.0,"confirmed":false,"confirmed_by":null,"lon":-88.142636,"lat":15.830974}},{"type":"Feature","geometry":{"type":"Polygon","coordinates":[[[-88.147102,15.830935],[-88.147102,15.830845],[-88.146915,15.830846],[-88.146916,15.830936],[-88.147102,15.830935]]]},"properties":{"id":"honduras_2025-12-28_lgbm_18","region":"honduras","date":"2025-12-28","area_m2":200.0,"mean_prob":0.9941,"max_prob":0.9961,"model":"lgbm","n_px":2,"px_area_m2":100.0,"confirmed":false,"confirmed_by":null,"lon":-88.147009,"lat":15.83089}},{"type":"Feature","geometry":{"type":"Polygon","coordinates":[[[-88.148969,15.830835],[-88.148968,15.830654],[-88.148875,15.830655],[-88.148876,15.830835],[-88.148969,15.830835]]]},"properties":{"id":"honduras_2025-12-28_lgbm_19","region":"honduras","date":"2025-12-28","area_m2":200.0,"mean_prob":0.9529,"max_prob":0.9804,"model":"lgbm","n_px":2,"px_area_m2":100.0,"confirmed":true,"confirmed_by":"mdd","lon":-88.148922,"lat":15.830745}},{"type":"Feature","geometry":{"type":"Polygon","coordinates":[[[-88.149342,15.830743],[-88.149341,15.830562],[-88.149248,15.830562],[-88.149248,15.830653],[-88.149155,15.830653],[-88.149155,15.830563],[-88.149061,15.830563],[-88.149062,15.830744],[-88.149342,15.830743]]]},"properties":{"id":"honduras_2025-12-28_lgbm_20","region":"honduras","date":"2025-12-28","area_m2":500.0,"mean_prob":0.8714,"max_prob":1.0,"model":"lgbm","n_px":5,"px_area_m2":100.0,"confirmed":true,"confirmed_by":"mdd","lon":-88.149202,"lat":15.830662}},{"type":"Feature","geometry":{"type":"Polygon","coordinates":[[[-88.113668,15.829663],[-88.113668,15.829482],[-88.113574,15.829483],[-88.113575,15.829664],[-88.113668,15.829663]]]},"properties":{"id":"honduras_2025-12-28_lgbm_21","region":"honduras","date":"2025-12-28","area_m2":200.0,"mean_prob":0.9196,"max_prob":0.9529,"model":"lgbm","n_px":2,"px_area_m2":100.0,"confirmed":false,"confirmed_by":null,"lon":-88.113621,"lat":15.829573}},{"type":"Feature","geometry":{"type":"Polygon","coordinates":[[[-88.150917,15.828565],[-88.150917,15.828474],[-88.151104,15.828473],[-88.151103,15.828383],[-88.151196,15.828383],[-88.151196,15.828292],[-88.151102,15.828293],[-88.151103,15.828383],[-88.150823,15.828385],[-88.150824,15.828565],[-88.150917,15.828565]]]},"properties":{"id":"honduras_2025-12-28_lgbm_22","region":"honduras","date":"2025-12-28","area_m2":500.0,"mean_prob":0.9137,"max_prob":1.0,"model":"lgbm","n_px":5,"px_area_m2":100.0,"confirmed":false,"confirmed_by":null,"lon":-88.150982,"lat":15.828429}},{"type":"Feature","geometry":{"type":"Polygon","coordinates":[[[-88.275811,15.823257],[-88.27581,15.823166],[-88.275623,15.823167],[-88.275624,15.823258],[-88.275811,15.823257]]]},"properties":{"id":"honduras_2025-12-28_lgbm_23","region":"honduras","date":"2025-12-28","area_m2":200.0,"mean_prob":0.9706,"max_prob":0.9882,"model":"lgbm","n_px":2,"px_area_m2":100.0,"confirmed":false,"confirmed_by":null,"lon":-88.275717,"lat":15.823212}},{"type":"Feature","geometry":{"type":"Polygon","coordinates":[[[-88.273477,15.82327],[-88.273476,15.82318],[-88.273663,15.823179],[-88.273662,15.823088],[-88.273382,15.82309],[-88.273383,15.823271],[-88.273477,15.82327]]]},"properties":{"id":"honduras_2025-12-28_lgbm_24","region":"honduras","date":"2025-12-28","area_m2":400.0,"mean_prob":0.9755,"max_prob":0.9922,"model":"lgbm","n_px":4,"px_area_m2":100.0,"confirmed":false,"confirmed_by":null,"lon":-88.273499,"lat":15.823157}},{"type":"Feature","geometry":{"type":"Polygon","coordinates":[[[-88.273196,15.823272],[-88.273196,15.823182],[-88.272916,15.823183],[-88.272916,15.823274],[-88.273196,15.823272]]]},"properties":{"id":"honduras_2025-12-28_lgbm_25","region":"honduras","date":"2025-12-28","area_m2":300.0,"mean_prob":0.8654,"max_prob":1.0,"model":"lgbm","n_px":3,"px_area_m2":100.0,"confirmed":false,"confirmed_by":null,"lon":-88.273056,"lat":15.823228}},{"type":"Feature","geometry":{"type":"Polygon","coordinates":[[[-88.272076,15.823279],[-88.272076,15.823188],[-88.272169,15.823188],[-88.272168,15.823097],[-88.271982,15.823098],[-88.271982,15.823189],[-88.271795,15.82319],[-88.271795,15.823099],[-88.271702,15.8231],[-88.271703,15.823281],[-88.272076,15.823279]]]},"properties":{"id":"honduras_2025-12-28_lgbm_26","region":"honduras","date":"2025-12-28","area_m2":700.0,"mean_prob":0.8683,"max_prob":0.9961,"model":"lgbm","n_px":7,"px_area_m2":100.0,"confirmed":false,"confirmed_by":null,"lon":-88.271922,"lat":15.823196}},{"type":"Feature","geometry":{"type":"Polygon","coordinates":[[[-88.275156,15.82317],[-88.275156,15.82308],[-88.275343,15.823079],[-88.275342,15.822988],[-88.275155,15.822989],[-88.275156,15.82308],[-88.274969,15.823081],[-88.27497,15.823171],[-88.275156,15.82317]]]},"properties":{"id":"honduras_2025-12-28_lgbm_27","region":"honduras","date":"2025-12-28","area_m2":400.0,"mean_prob":0.9539,"max_prob":0.9922,"model":"lgbm","n_px":4,"px_area_m2":100.0,"confirmed":false,"confirmed_by":null,"lon":-88.275156,"lat":15.82308}},{"type":"Feature","geometry":{"type":"Polygon","coordinates":[[[-88.27441,15.823174],[-88.274408,15.822994],[-88.274222,15.822995],[-88.274222,15.823085],[-88.273849,15.823087],[-88.273849,15.823178],[-88.27441,15.823174]]]},"properties":{"id":"honduras_2025-12-28_lgbm_28","region":"honduras","date":"2025-12-28","area_m2":800.0,"mean_prob":0.9044,"max_prob":0.9961,"model":"lgbm","n_px":8,"px_area_m2":100.0,"confirmed":false,"confirmed_by":null,"lon":-88.274176,"lat":15.823108}},{"type":"Feature","geometry":{"type":"Polygon","coordinates":[[[-88.271142,15.823194],[-88.271141,15.823103],[-88.270861,15.823105],[-88.270862,15.823195],[-88.271142,15.823194]]]},"properties":{"id":"honduras_2025-12-28_lgbm_29","region":"honduras","date":"2025-12-28","area_m2":300.0,"mean_prob":0.9477,"max_prob":0.9961,"model":"lgbm","n_px":3,"px_area_m2":100.0,"confirmed":false,"confirmed_by":null,"lon":-88.271002,"lat":15.823149}},{"type":"Feature","geometry":{"type":"Polygon","coordinates":[[[-88.270301,15.823108],[-88.270301,15.823018],[-88.270114,15.823019],[-88.270114,15.823109],[-88.270301,15.823108]]]},"properties":{"id":"honduras_2025-12-28_lgbm_30","region":"honduras","date":"2025-12-28","area_m2":200.0,"mean_prob":0.7078,"max_prob":0.7412,"model":"lgbm","n_px":2,"px_area_m2":100.0,"confirmed":false,"confirmed_by":null,"lon":-88.270208,"lat":15.823064}},{"type":"Feature","geometry":{"type":"Polygon","coordinates":[[[-88.269461,15.823113],[-88.26946,15.823023],[-88.269647,15.823022],[-88.269647,15.822931],[-88.269366,15.822933],[-88.269368,15.823114],[-88.269461,15.823113]]]},"properties":{"id":"honduras_2025-12-28_lgbm_31","region":"honduras","date":"2025-12-28","area_m2":400.0,"mean_prob":0.9098,"max_prob":0.9922,"model":"lgbm","n_px":4,"px_area_m2":100.0,"confirmed":false,"confirmed_by":null,"lon":-88.269484,"lat":15.823}},{"type":"Feature","geometry":{"type":"Polygon","coordinates":[[[-88.278423,15.82297],[-88.278422,15.82288],[-88.278142,15.822881],[-88.278142,15.822791],[-88.278048,15.822792],[-88.278049,15.822882],[-88.278142,15.822881],[-88.278143,15.822972],[-88.278423,15.82297]]]},"properties":{"id":"honduras_2025-12-28_lgbm_32","region":"honduras","date":"2025-12-28","area_m2":400.0,"mean_prob":0.9029,"max_prob":1.0,"model":"lgbm","n_px":4,"px_area_m2":100.0,"confirmed":false,"confirmed_by":null,"lon":-88.278236,"lat":15.822903}},{"type":"Feature","geometry":{"type":"Polygon","coordinates":[[[-88.277956,15.822973],[-88.277956,15.822882],[-88.277769,15.822884],[-88.277769,15.822974],[-88.277956,15.822973]]]},"properties":{"id":"honduras_2025-12-28_lgbm_33","region":"honduras","date":"2025-12-28","area_m2":200.0,"mean_prob":0.9902,"max_prob":0.9961,"model":"lgbm","n_px":2,"px_area_m2":100.0,"confirmed":false,"confirmed_by":null,"lon":-88.277862,"lat":15.822928}},{"type":"Feature","geometry":{"type":"Polygon","coordinates":[[[-88.279449,15.822874],[-88.279449,15.822783],[-88.279262,15.822784],[-88.279263,15.822875],[-88.279449,15.822874]]]},"properties":{"id":"honduras_2025-12-28_lgbm_34","region":"honduras","date":"2025-12-28","area_m2":200.0,"mean_prob":0.9902,"max_prob":0.9922,"model":"lgbm","n_px":2,"px_area_m2":100.0,"confirmed":false,"confirmed_by":null,"lon":-88.279356,"lat":15.822829}},{"type":"Feature","geometry":{"type":"Polygon","coordinates":[[[-88.26731,15.822493],[-88.267309,15.822312],[-88.267215,15.822313],[-88.267216,15.822494],[-88.26731,15.822493]]]},"properties":{"id":"honduras_2025-12-28_lgbm_35","region":"honduras","date":"2025-12-28","area_m2":200.0,"mean_prob":0.9922,"max_prob":0.9961,"model":"lgbm","n_px":2,"px_area_m2":100.0,"confirmed":true,"confirmed_by":"mdd","lon":-88.267262,"lat":15.822403}},{"type":"Feature","geometry":{"type":"Polygon","coordinates":[[[-88.282433,15.822223],[-88.282432,15.822133],[-88.282526,15.822132],[-88.282525,15.822042],[-88.282432,15.822043],[-88.282432,15.822133],[-88.282339,15.822134],[-88.28234,15.822224],[-88.282433,15.822223]]]},"properties":{"id":"honduras_2025-12-28_lgbm_36","region":"honduras","date":"2025-12-28","area_m2":200.0,"mean_prob":0.7961,"max_prob":0.9176,"model":"lgbm","n_px":2,"px_area_m2":100.0,"confirmed":false,"confirmed_by":null,"lon":-88.282432,"lat":15.822133}},{"type":"Feature","geometry":{"type":"Polygon","coordinates":[[[-88.159755,15.822823],[-88.159754,15.822733],[-88.159567,15.822734],[-88.159568,15.822824],[-88.159755,15.822823]]]},"properties":{"id":"honduras_2025-12-28_lgbm_37","region":"honduras","date":"2025-12-28","area_m2":200.0,"mean_prob":0.8667,"max_prob":0.8824,"model":"lgbm","n_px":2,"px_area_m2":100.0,"confirmed":false,"confirmed_by":null,"lon":-88.159661,"lat":15.822779}},{"type":"Feature","geometry":{"type":"Polygon","coordinates":[[[-88.263293,15.822155],[-88.263292,15.822064],[-88.263386,15.822064],[-88.263385,15.821974],[-88.263198,15.821975],[-88.2632,15.822155],[-88.263293,15.822155]]]},"properties":{"id":"honduras_2025-12-28_lgbm_38","region":"honduras","date":"2025-12-28","area_m2":300.0,"mean_prob":0.9477,"max_prob":0.9961,"model":"lgbm","n_px":3,"px_area_m2":100.0,"confirmed":true,"confirmed_by":"mdd","lon":-88.263277,"lat":15.822049}},{"type":"Feature","geometry":{"type":"Polygon","coordinates":[[[-88.158074,15.822742],[-88.158073,15.822651],[-88.158166,15.822651],[-88.158166,15.822561],[-88.157886,15.822562],[-88.157886,15.822652],[-88.157793,15.822653],[-88.157794,15.822743],[-88.158074,15.822742]]]},"properties":{"id":"honduras_2025-12-28_lgbm_39","region":"honduras","date":"2025-12-28","area_m2":600.0,"mean_prob":0.8752,"max_prob":1.0,"model":"lgbm","n_px":6,"px_area_m2":100.0,"confirmed":false,"confirmed_by":null,"lon":-88.15798,"lat":15.822652}},{"type":"Feature","geometry":{"type":"Polygon","coordinates":[[[-88.283551,15.821946],[-88.283551,15.821855],[-88.283271,15.821857],[-88.283271,15.821947],[-88.283551,15.821946]]]},"properties":{"id":"honduras_2025-12-28_lgbm_40","region":"honduras","date":"2025-12-28","area_m2":300.0,"mean_prob":0.9699,"max_prob":0.9765,"model":"lgbm","n_px":3,"px_area_m2":100.0,"confirmed":true,"confirmed_by":"mdd","lon":-88.283411,"lat":15.821901}},{"type":"Feature","geometry":{"type":"Polygon","coordinates":[[[-88.158446,15.822469],[-88.158444,15.822288],[-88.158351,15.822288],[-88.158352,15.822469],[-88.158446,15.822469]]]},"properties":{"id":"honduras_2025-12-28_lgbm_41","region":"honduras","date":"2025-12-28","area_m2":200.0,"mean_prob":0.9922,"max_prob":0.9922,"model":"lgbm","n_px":2,"px_area_m2":100.0,"confirmed":false,"confirmed_by":null,"lon":-88.158398,"lat":15.822379}},{"type":"Feature","geometry":{"type":"Polygon","coordinates":[[[-88.293257,15.821346],[-88.293257,15.821255],[-88.293163,15.821256],[-88.293163,15.821165],[-88.29307,15.821166],[-88.29307,15.821256],[-88.292883,15.821257],[-88.292884,15.821348],[-88.293257,15.821346]]]},"properties":{"id":"honduras_2025-12-28_lgbm_42","region":"honduras","date":"2025-12-28","area_m2":500.0,"mean_prob":0.9608,"max_prob":0.9922,"model":"lgbm","n_px":5,"px_area_m2":100.0,"confirmed":false,"confirmed_by":null,"lon":-88.29308,"lat":15.821283}},{"type":"Feature","geometry":{"type":"Polygon","coordinates":[[[-88.304366,15.821189],[-88.304365,15.821008],[-88.304179,15.821009],[-88.30418,15.82119],[-88.304366,15.821189]]]},"properties":{"id":"honduras_2025-12-28_lgbm_43","region":"honduras","date":"2025-12-28","area_m2":400.0,"mean_prob":0.9971,"max_prob":1.0,"model":"lgbm","n_px":4,"px_area_m2":100.0,"confirmed":false,"confirmed_by":null,"lon":-88.304273,"lat":15.821099}},{"type":"Feature","geometry":{"type":"Polygon","coordinates":[[[-88.285973,15.820937],[-88.285972,15.820847],[-88.286065,15.820846],[-88.286065,15.820756],[-88.285971,15.820756],[-88.285972,15.820847],[-88.285785,15.820848],[-88.285786,15.820938],[-88.285973,15.820937]]]},"properties":{"id":"honduras_2025-12-28_lgbm_44","region":"honduras","date":"2025-12-28","area_m2":300.0,"mean_prob":0.8601,"max_prob":0.9294,"model":"lgbm","n_px":3,"px_area_m2":100.0,"confirmed":true,"confirmed_by":"mdd","lon":-88.285925,"lat":15.820862}},{"type":"Feature","geometry":{"type":"Polygon","coordinates":[[[-88.295867,15.820607],[-88.295866,15.820517],[-88.29596,15.820516],[-88.295959,15.820426],[-88.295866,15.820426],[-88.295866,15.820517],[-88.29568,15.820518],[-88.29568,15.820608],[-88.295867,15.820607]]]},"properties":{"id":"honduras_2025-12-28_lgbm_45","region":"honduras","date":"2025-12-28","area_m2":300.0,"mean_prob":0.885,"max_prob":0.9961,"model":"lgbm","n_px":3,"px_area_m2":100.0,"confirmed":true,"confirmed_by":"mdd","lon":-88.29582,"lat":15.820532}},{"type":"Feature","geometry":{"type":"Polygon","coordinates":[[[-88.301654,15.820482],[-88.301654,15.820392],[-88.301467,15.820393],[-88.301468,15.820483],[-88.301654,15.820482]]]},"properties":{"id":"honduras_2025-12-28_lgbm_46","region":"honduras","date":"2025-12-28","area_m2":200.0,"mean_prob":0.9941,"max_prob":0.9961,"model":"lgbm","n_px":2,"px_area_m2":100.0,"confirmed":true,"confirmed_by":"mdd","lon":-88.301561,"lat":15.820437}},{"type":"Feature","geometry":{"type":"Polygon","coordinates":[[[-88.299881,15.820493],[-88.29988,15.820312],[-88.299693,15.820313],[-88.299694,15.820494],[-88.299881,15.820493]]]},"properties":{"id":"honduras_2025-12-28_lgbm_47","region":"honduras","date":"2025-12-28","area_m2":400.0,"mean_prob":1.0,"max_prob":1.0,"model":"lgbm","n_px":4,"px_area_m2":100.0,"confirmed":true,"confirmed_by":"mdd","lon":-88.299787,"lat":15.820403}},{"type":"Feature","geometry":{"type":"Polygon","coordinates":[[[-88.177477,15.819745],[-88.177476,15.819655],[-88.177569,15.819654],[-88.177569,15.819564],[-88.177382,15.819565],[-88.177383,15.819655],[-88.177289,15.819656],[-88.17729,15.819746],[-88.177477,15.819745]]]},"properties":{"id":"honduras_2025-12-28_lgbm_48","region":"honduras","date":"2025-12-28","area_m2":400.0,"mean_prob":0.948,"max_prob":1.0,"model":"lgbm","n_px":4,"px_area_m2":100.0,"confirmed":false,"confirmed_by":null,"lon":-88.177429,"lat":15.819655}},{"type":"Feature","geometry":{"type":"Polygon","coordinates":[[[-88.289974,15.818834],[-88.289973,15.818744],[-88.289786,15.818745],[-88.289787,15.818835],[-88.289974,15.818834]]]},"properties":{"id":"honduras_2025-12-28_lgbm_49","region":"honduras","date":"2025-12-28","area_m2":200.0,"mean_prob":0.8137,"max_prob":0.8784,"model":"lgbm","n_px":2,"px_area_m2":100.0,"confirmed":true,"confirmed_by":"mdd","lon":-88.28988,"lat":15.81879}},{"type":"Feature","geometry":{"type":"Polygon","coordinates":[[[-88.178221,15.819379],[-88.178221,15.819289],[-88.178314,15.819288],[-88.178314,15.819198],[-88.1785,15.819197],[-88.1785,15.819107],[-88.17822,15.819108],[-88.17822,15.819199],[-88.178127,15.819199],[-88.178128,15.81938],[-88.178221,15.819379]]]},"properties":{"id":"honduras_2025-12-28_lgbm_50","region":"honduras","date":"2025-12-28","area_m2":600.0,"mean_prob":0.9196,"max_prob":0.9961,"model":"lgbm","n_px":6,"px_area_m2":100.0,"confirmed":false,"confirmed_by":null,"lon":-88.178283,"lat":15.819213}},{"type":"Feature","geometry":{"type":"Polygon","coordinates":[[[-88.164217,15.819365],[-88.164215,15.819184],[-88.164122,15.819184],[-88.164123,15.819365],[-88.164217,15.819365]]]},"properties":{"id":"honduras_2025-12-28_lgbm_51","region":"honduras","date":"2025-12-28","area_m2":200.0,"mean_prob":0.898,"max_prob":0.902,"model":"lgbm","n_px":2,"px_area_m2":100.0,"confirmed":false,"confirmed_by":null,"lon":-88.164169,"lat":15.819274}},{"type":"Feature","geometry":{"type":"Polygon","coordinates":[[[-88.163936,15.819366],[-88.163936,15.819276],[-88.163749,15.819277],[-88.16375,15.819367],[-88.163936,15.819366]]]},"properties":{"id":"honduras_2025-12-28_lgbm_52","region":"honduras","date":"2025-12-28","area_m2":200.0,"mean_prob":0.9941,"max_prob":1.0,"model":"lgbm","n_px":2,"px_area_m2":100.0,"confirmed":false,"confirmed_by":null,"lon":-88.163843,"lat":15.819321}},{"type":"Feature","geometry":{"type":"Polygon","coordinates":[[[-88.291745,15.818462],[-88.291745,15.818372],[-88.291838,15.818371],[-88.291837,15.818281],[-88.291744,15.818282],[-88.291745,15.818372],[-88.291651,15.818372],[-88.291652,15.818463],[-88.291745,15.818462]]]},"properties":{"id":"honduras_2025-12-28_lgbm_53","region":"honduras","date":"2025-12-28","area_m2":200.0,"mean_prob":0.9627,"max_prob":0.9804,"model":"lgbm","n_px":2,"px_area_m2":100.0,"confirmed":true,"confirmed_by":"mdd","lon":-88.291745,"lat":15.818372}},{"type":"Feature","geometry":{"type":"Polygon","coordinates":[[[-88.178779,15.819015],[-88.178779,15.818924],[-88.178872,15.818924],[-88.178871,15.818743],[-88.178778,15.818744],[-88.178778,15.818834],[-88.178685,15.818834],[-88.178686,15.818925],[-88.178592,15.818925],[-88.178593,15.819016],[-88.178779,15.819015]]]},"properties":{"id":"honduras_2025-12-28_lgbm_54","region":"honduras","date":"2025-12-28","area_m2":500.0,"mean_prob":0.9129,"max_prob":0.9961,"model":"lgbm","n_px":5,"px_area_m2":100.0,"confirmed":false,"confirmed_by":null,"lon":-88.178751,"lat":15.818897}},{"type":"Feature","geometry":{"type":"Polygon","coordinates":[[[-88.170276,15.817795],[-88.170276,15.817705],[-88.170462,15.817704],[-88.170462,15.817614],[-88.170742,15.817612],[-88.170741,15.817522],[-88.170835,15.817521],[-88.170834,15.817431],[-88.170648,15.817432],[-88.170648,15.817522],[-88.170461,15.817523],[-88.170462,15.817614],[-88.170088,15.817616],[-88.170089,15.817796],[-88.170276,15.817795]]]},"properties":{"id":"honduras_2025-12-28_lgbm_55","region":"honduras","date":"2025-12-28","area_m2":1100.0,"mean_prob":0.9647,"max_prob":1.0,"model":"lgbm","n_px":11,"px_area_m2":100.0,"confirmed":false,"confirmed_by":null,"lon":-88.170432,"lat":15.817618}},{"type":"Feature","geometry":{"type":"Polygon","coordinates":[[[-88.181758,15.817462],[-88.181757,15.817281],[-88.181664,15.817282],[-88.181664,15.817372],[-88.181571,15.817373],[-88.181571,15.817463],[-88.181758,15.817462]]]},"properties":{"id":"honduras_2025-12-28_lgbm_56","region":"honduras","date":"2025-12-28","area_m2":300.0,"mean_prob":0.8118,"max_prob":0.9961,"model":"lgbm","n_px":3,"px_area_m2":100.0,"confirmed":false,"confirmed_by":null,"lon":-88.18168,"lat":15.817387}},{"type":"Feature","geometry":{"type":"Polygon","coordinates":[[[-88.171672,15.817065],[-88.171672,15.816974],[-88.171765,15.816974],[-88.171765,15.816883],[-88.171485,15.816885],[-88.171486,15.817066],[-88.171672,15.817065]]]},"properties":{"id":"honduras_2025-12-28_lgbm_57","region":"honduras","date":"2025-12-28","area_m2":500.0,"mean_prob":0.9145,"max_prob":0.9922,"model":"lgbm","n_px":5,"px_area_m2":100.0,"confirmed":false,"confirmed_by":null,"lon":-88.171607,"lat":15.816966}},{"type":"Feature","geometry":{"type":"Polygon","coordinates":[[[-88.182689,15.816915],[-88.182688,15.816824],[-88.182408,15.816826],[-88.182408,15.816916],[-88.182689,15.816915]]]},"properties":{"id":"honduras_2025-12-28_lgbm_58","region":"honduras","date":"2025-12-28","area_m2":300.0,"mean_prob":0.9843,"max_prob":0.9961,"model":"lgbm","n_px":3,"px_area_m2":100.0,"confirmed":false,"confirmed_by":null,"lon":-88.182548,"lat":15.81687}},{"type":"Feature","geometry":{"type":"Polygon","coordinates":[[[-88.172232,15.816971],[-88.172232,15.816881],[-88.172045,15.816882],[-88.172045,15.816972],[-88.172232,15.816971]]]},"properties":{"id":"honduras_2025-12-28_lgbm_59","region":"honduras","date":"2025-12-28","area_m2":200.0,"mean_prob":0.7824,"max_prob":0.8824,"model":"lgbm","n_px":2,"px_area_m2":100.0,"confirmed":false,"confirmed_by":null,"lon":-88.172139,"lat":15.816927}},{"type":"Feature","geometry":{"type":"Polygon","coordinates":[[[-88.171952,15.816973],[-88.171951,15.816792],[-88.171858,15.816792],[-88.171859,15.816973],[-88.171952,15.816973]]]},"properties":{"id":"honduras_2025-12-28_lgbm_60","region":"honduras","date":"2025-12-28","area_m2":200.0,"mean_prob":0.8882,"max_prob":0.8941,"model":"lgbm","n_px":2,"px_area_m2":100.0,"confirmed":false,"confirmed_by":null,"lon":-88.171905,"lat":15.816883}},{"type":"Feature","geometry":{"type":"Polygon","coordinates":[[[-88.18362,15.816458],[-88.183619,15.816367],[-88.183806,15.816366],[-88.183805,15.816276],[-88.183618,15.816277],[-88.183619,15.816367],[-88.183526,15.816368],[-88.183526,15.816458],[-88.18362,15.816458]]]},"properties":{"id":"honduras_2025-12-28_lgbm_61","region":"honduras","date":"2025-12-28","area_m2":300.0,"mean_prob":0.9346,"max_prob":0.9961,"model":"lgbm","n_px":3,"px_area_m2":100.0,"confirmed":false,"confirmed_by":null,"lon":-88.183666,"lat":15.816352}},{"type":"Feature","geometry":{"type":"Polygon","coordinates":[[[-88.200049,15.816096],[-88.200049,15.816006],[-88.200142,15.816005],[-88.200142,15.815915],[-88.200048,15.815915],[-88.200049,15.816006],[-88.199955,15.816006],[-88.199956,15.816097],[-88.200049,15.816096]]]},"properties":{"id":"honduras_2025-12-28_lgbm_62","region":"honduras","date":"2025-12-28","area_m2":200.0,"mean_prob":0.949,"max_prob":0.9686,"model":"lgbm","n_px":2,"px_area_m2":100.0,"confirmed":false,"confirmed_by":null,"lon":-88.200049,"lat":15.816006}},{"type":"Feature","geometry":{"type":"Polygon","coordinates":[[[-88.193981,15.81613],[-88.19398,15.815949],[-88.193793,15.81595],[-88.193793,15.815859],[-88.193699,15.81586],[-88.1937,15.816041],[-88.193794,15.81604],[-88.193794,15.816131],[-88.193981,15.81613]]]},"properties":{"id":"honduras_2025-12-28_lgbm_63","region":"honduras","date":"2025-12-28","area_m2":600.0,"mean_prob":0.968,"max_prob":1.0,"model":"lgbm","n_px":6,"px_area_m2":100.0,"confirmed":false,"confirmed_by":null,"lon":-88.19384,"lat":15.81601}},{"type":"Feature","geometry":{"type":"Polygon","coordinates":[[[-88.19342,15.816042],[-88.19342,15.815952],[-88.193326,15.815952],[-88.193326,15.815862],[-88.193232,15.815863],[-88.193234,15.816043],[-88.19342,15.816042]]]},"properties":{"id":"honduras_2025-12-28_lgbm_64","region":"honduras","date":"2025-12-28","area_m2":300.0,"mean_prob":0.9804,"max_prob":0.9961,"model":"lgbm","n_px":3,"px_area_m2":100.0,"confirmed":false,"confirmed_by":null,"lon":-88.193311,"lat":15.815968}},{"type":"Feature","geometry":{"type":"Polygon","coordinates":[[[-88.200515,15.815913],[-88.200514,15.815732],[-88.200327,15.815733],[-88.200328,15.815914],[-88.200515,15.815913]]]},"properties":{"id":"honduras_2025-12-28_lgbm_65","region":"honduras","date":"2025-12-28","area_m2":400.0,"mean_prob":0.8814,"max_prob":1.0,"model":"lgbm","n_px":4,"px_area_m2":100.0,"confirmed":false,"confirmed_by":null,"lon":-88.200421,"lat":15.815823}},{"type":"Feature","geometry":{"type":"Polygon","coordinates":[[[-88.197994,15.815836],[-88.197993,15.815656],[-88.197899,15.815656],[-88.1979,15.815837],[-88.197994,15.815836]]]},"properties":{"id":"honduras_2025-12-28_lgbm_66","region":"honduras","date":"2025-12-28","area_m2":200.0,"mean_prob":1.0,"max_prob":1.0,"model":"lgbm","n_px":2,"px_area_m2":100.0,"confirmed":true,"confirmed_by":"mdd","lon":-88.197947,"lat":15.815746}},{"type":"Feature","geometry":{"type":"Polygon","coordinates":[[[-88.185295,15.815635],[-88.185294,15.815454],[-88.185388,15.815454],[-88.185387,15.815363],[-88.1852,15.815364],[-88.185201,15.815455],[-88.185108,15.815455],[-88.185109,15.815636],[-88.185295,15.815635]]]},"properties":{"id":"honduras_2025-12-28_lgbm_67","region":"honduras","date":"2025-12-28","area_m2":600.0,"mean_prob":0.9876,"max_prob":1.0,"model":"lgbm","n_px":6,"px_area_m2":100.0,"confirmed":false,"confirmed_by":null,"lon":-88.185232,"lat":15.8155}},{"type":"Feature","geometry":{"type":"Polygon","coordinates":[[[-88.203123,15.814904],[-88.203123,15.814814],[-88.202936,15.814815],[-88.202937,15.814905],[-88.203123,15.814904]]]},"properties":{"id":"honduras_2025-12-28_lgbm_68","region":"honduras","date":"2025-12-28","area_m2":200.0,"mean_prob":0.998,"max_prob":1.0,"model":"lgbm","n_px":2,"px_area_m2":100.0,"confirmed":true,"confirmed_by":"mdd","lon":-88.20303,"lat":15.814859}},{"type":"Feature","geometry":{"type":"Polygon","coordinates":[[[-88.196308,15.814942],[-88.196307,15.814761],[-88.196214,15.814761],[-88.196215,15.814942],[-88.196308,15.814942]]]},"properties":{"id":"honduras_2025-12-28_lgbm_69","region":"honduras","date":"2025-12-28","area_m2":200.0,"mean_prob":0.9745,"max_prob":0.9922,"model":"lgbm","n_px":2,"px_area_m2":100.0,"confirmed":true,"confirmed_by":"mdd","lon":-88.196261,"lat":15.814852}},{"type":"Feature","geometry":{"type":"Polygon","coordinates":[[[-88.189116,15.814349],[-88.189115,15.814168],[-88.189021,15.814168],[-88.189021,15.814078],[-88.188927,15.814078],[-88.188928,15.814259],[-88.189022,15.814259],[-88.189022,15.814349],[-88.189116,15.814349]]]},"properties":{"id":"honduras_2025-12-28_lgbm_70","region":"honduras","date":"2025-12-28","area_m2":400.0,"mean_prob":0.9069,"max_prob":1.0,"model":"lgbm","n_px":4,"px_area_m2":100.0,"confirmed":false,"confirmed_by":null,"lon":-88.189021,"lat":15.814213}},{"type":"Feature","geometry":{"type":"Polygon","coordinates":[[[-88.186687,15.814181],[-88.186687,15.814091],[-88.1865,15.814092],[-88.186501,15.814182],[-88.186687,15.814181]]]},"properties":{"id":"honduras_2025-12-28_lgbm_71","region":"honduras","date":"2025-12-28","area_m2":200.0,"mean_prob":0.9824,"max_prob":0.9961,"model":"lgbm","n_px":2,"px_area_m2":100.0,"confirmed":false,"confirmed_by":null,"lon":-88.186594,"lat":15.814136}},{"type":"Feature","geometry":{"type":"Polygon","coordinates":[[[-88.188367,15.813991],[-88.188366,15.813901],[-88.188273,15.813901],[-88.188272,15.813811],[-88.188086,15.813812],[-88.188086,15.813902],[-88.187899,15.813903],[-88.1879,15.813994],[-88.18818,15.813992],[-88.188179,15.813902],[-88.188273,15.813901],[-88.188273,15.813992],[-88.188367,15.813991]]]},"properties":{"id":"honduras_2025-12-28_lgbm_72","region":"honduras","date":"2025-12-28","area_m2":600.0,"mean_prob":0.8967,"max_prob":0.9961,"model":"lgbm","n_px":6,"px_area_m2":100.0,"confirmed":false,"confirmed_by":null,"lon":-88.188133,"lat":15.813917}},{"type":"Feature","geometry":{"type":"Polygon","coordinates":[[[-88.18706,15.813998],[-88.187059,15.813908],[-88.187152,15.813907],[-88.187152,15.813817],[-88.187059,15.813817],[-88.187059,15.813908],[-88.186872,15.813909],[-88.186873,15.813999],[-88.18706,15.813998]]]},"properties":{"id":"honduras_2025-12-28_lgbm_73","region":"honduras","date":"2025-12-28","area_m2":300.0,"mean_prob":0.7922,"max_prob":0.8863,"model":"lgbm","n_px":3,"px_area_m2":100.0,"confirmed":false,"confirmed_by":null,"lon":-88.187013,"lat":15.813923}},{"type":"Feature","geometry":{"type":"Polygon","coordinates":[[[-88.21039,15.812333],[-88.21039,15.812242],[-88.210203,15.812243],[-88.210203,15.812334],[-88.21039,15.812333]]]},"properties":{"id":"honduras_2025-12-28_lgbm_74","region":"honduras","date":"2025-12-28","area_m2":200.0,"mean_prob":0.8588,"max_prob":0.9765,"model":"lgbm","n_px":2,"px_area_m2":100.0,"confirmed":false,"confirmed_by":null,"lon":-88.210297,"lat":15.812288}},{"type":"Feature","geometry":{"type":"Polygon","coordinates":[[[-88.211595,15.81079],[-88.211594,15.810699],[-88.211688,15.810699],[-88.211686,15.810518],[-88.2115,15.810519],[-88.211501,15.81079],[-88.211595,15.81079]]]},"properties":{"id":"honduras_2025-12-28_lgbm_75","region":"honduras","date":"2025-12-28","area_m2":500.0,"mean_prob":0.9278,"max_prob":0.9961,"model":"lgbm","n_px":5,"px_area_m2":100.0,"confirmed":false,"confirmed_by":null,"lon":-88.211584,"lat":15.810636}},{"type":"Feature","geometry":{"type":"Polygon","coordinates":[[[-88.213364,15.809966],[-88.213363,15.809876],[-88.21327,15.809876],[-88.213269,15.809786],[-88.213176,15.809786],[-88.213176,15.809877],[-88.21327,15.809876],[-88.21327,15.809967],[-88.213364,15.809966]]]},"properties":{"id":"honduras_2025-12-28_lgbm_76","region":"honduras","date":"2025-12-28","area_m2":200.0,"mean_prob":0.9039,"max_prob":0.9961,"model":"lgbm","n_px":2,"px_area_m2":100.0,"confirmed":false,"confirmed_by":null,"lon":-88.21327,"lat":15.809876}},{"type":"Feature","geometry":{"type":"Polygon","coordinates":[[[-88.221459,15.805492],[-88.221459,15.805401],[-88.221365,15.805402],[-88.221364,15.805221],[-88.221271,15.805222],[-88.221272,15.805493],[-88.221459,15.805492]]]},"properties":{"id":"honduras_2025-12-28_lgbm_77","region":"honduras","date":"2025-12-28","area_m2":400.0,"mean_prob":0.8098,"max_prob":0.9843,"model":"lgbm","n_px":4,"px_area_m2":100.0,"confirmed":true,"confirmed_by":"mdd","lon":-88.221342,"lat":15.805379}},{"type":"Feature","geometry":{"type":"Polygon","coordinates":[[[-88.222764,15.805213],[-88.222764,15.805123],[-88.222577,15.805124],[-88.222578,15.805214],[-88.222764,15.805213]]]},"properties":{"id":"honduras_2025-12-28_lgbm_78","region":"honduras","date":"2025-12-28","area_m2":200.0,"mean_prob":0.8294,"max_prob":0.9843,"model":"lgbm","n_px":2,"px_area_m2":100.0,"confirmed":true,"confirmed_by":"mdd","lon":-88.222671,"lat":15.805169}},{"type":"Feature","geometry":{"type":"Polygon","coordinates":[[[-88.209694,15.758013],[-88.209694,15.757923],[-88.209787,15.757922],[-88.209786,15.757741],[-88.2096,15.757743],[-88.209601,15.758014],[-88.209694,15.758013]]]},"properties":{"id":"honduras_2025-12-28_lgbm_79","region":"honduras","date":"2025-12-28","area_m2":500.0,"mean_prob":0.9969,"max_prob":1.0,"model":"lgbm","n_px":5,"px_area_m2":100.0,"confirmed":false,"confirmed_by":null,"lon":-88.209684,"lat":15.75786}},{"type":"Feature","geometry":{"type":"Polygon","coordinates":[[[-88.213213,15.753293],[-88.213212,15.753113],[-88.213119,15.753113],[-88.21312,15.753294],[-88.213213,15.753293]]]},"properties":{"id":"honduras_2025-12-28_lgbm_80","region":"honduras","date":"2025-12-28","area_m2":200.0,"mean_prob":1.0,"max_prob":1.0,"model":"lgbm","n_px":2,"px_area_m2":100.0,"confirmed":false,"confirmed_by":null,"lon":-88.213166,"lat":15.753203}},{"type":"Feature","geometry":{"type":"Polygon","coordinates":[[[-88.215623,15.750387],[-88.215622,15.750297],[-88.215715,15.750297],[-88.215715,15.750206],[-88.215808,15.750206],[-88.215808,15.750115],[-88.215901,15.750115],[-88.2159,15.749934],[-88.215807,15.749935],[-88.215807,15.750025],[-88.215714,15.750025],[-88.215715,15.750206],[-88.215622,15.750207],[-88.215622,15.750297],[-88.215529,15.750298],[-88.215529,15.750388],[-88.215623,15.750387]]]},"properties":{"id":"honduras_2025-12-28_lgbm_81","region":"honduras","date":"2025-12-28","area_m2":600.0,"mean_prob":0.8608,"max_prob":1.0,"model":"lgbm","n_px":6,"px_area_m2":100.0,"confirmed":false,"confirmed_by":null,"lon":-88.215746,"lat":15.750146}},{"type":"Feature","geometry":{"type":"Polygon","coordinates":[[[-88.219716,15.748105],[-88.219715,15.748015],[-88.219808,15.748014],[-88.219808,15.747924],[-88.219621,15.747925],[-88.219622,15.748015],[-88.219528,15.748016],[-88.219529,15.748106],[-88.219716,15.748105]]]},"properties":{"id":"honduras_2025-12-28_lgbm_82","region":"honduras","date":"2025-12-28","area_m2":400.0,"mean_prob":0.9912,"max_prob":1.0,"model":"lgbm","n_px":4,"px_area_m2":100.0,"confirmed":false,"confirmed_by":null,"lon":-88.219668,"lat":15.748015}},{"type":"Feature","geometry":{"type":"Polygon","coordinates":[[[-88.221108,15.746832],[-88.221107,15.746651],[-88.221014,15.746651],[-88.221015,15.746832],[-88.221108,15.746832]]]},"properties":{"id":"honduras_2025-12-28_lgbm_83","region":"honduras","date":"2025-12-28","area_m2":200.0,"mean_prob":0.9882,"max_prob":0.9961,"model":"lgbm","n_px":2,"px_area_m2":100.0,"confirmed":false,"confirmed_by":null,"lon":-88.221061,"lat":15.746742}},{"type":"Feature","geometry":{"type":"Polygon","coordinates":[[[-88.221849,15.745833],[-88.221848,15.745743],[-88.221941,15.745742],[-88.221941,15.745652],[-88.221848,15.745652],[-88.221848,15.745743],[-88.221755,15.745743],[-88.221755,15.745834],[-88.221849,15.745833]]]},"properties":{"id":"honduras_2025-12-28_lgbm_84","region":"honduras","date":"2025-12-28","area_m2":200.0,"mean_prob":0.9686,"max_prob":0.9961,"model":"lgbm","n_px":2,"px_area_m2":100.0,"confirmed":false,"confirmed_by":null,"lon":-88.221848,"lat":15.745743}}]}