{"type": "FeatureCollection", "features": [{"type": "Feature", "id": "D-SZ-live-honduras-2019-01-12-001-1", "geometry": {"type": "Polygon", "coordinates": [[[-88.1775911, 15.8556288], [-88.1775906, 15.8555384], [-88.1774038, 15.8555394], [-88.1774044, 15.8556298], [-88.1775911, 15.8556288]]]}, "properties": {"kind": "detection", "det_id": "D-SZ-live-honduras-2019-01-12-001-1", "zone_id": "SZ-live-honduras-2019-01-12-001", "scene_id": "S2A_16PCC_20190112_0_L2A", "datetime": "2019-01-12T16:29:07.159000Z", "n_pixels": 2, "area_m2": 200, "prob_max": 0.851, "prob_mean": 0.7784, "threshold": 0.63, "in_strip": true, "artifact": null}}, {"type": "Feature", "id": "D-SZ-live-honduras-2019-01-12-001-2", "geometry": {"type": "Polygon", "coordinates": [[[-88.1799209, 15.8548026], [-88.1799203, 15.8547122], [-88.1800137, 15.8547117], [-88.1800132, 15.8546213], [-88.1799198, 15.8546218], [-88.1799203, 15.8547122], [-88.179827, 15.8547127], [-88.1798275, 15.8548031], [-88.1799209, 15.8548026]]]}, "properties": {"kind": "detection", "det_id": "D-SZ-live-honduras-2019-01-12-001-2", "zone_id": "SZ-live-honduras-2019-01-12-001", "scene_id": "S2A_16PCC_20190112_0_L2A", "datetime": "2019-01-12T16:29:07.159000Z", "n_pixels": 2, "area_m2": 200, "prob_max": 0.9569, "prob_mean": 0.8333, "threshold": 0.63, "in_strip": true, "artifact": null}}, {"type": "Feature", "id": "D-SZ-live-honduras-2019-01-12-001-3", "geometry": {"type": "Polygon", "coordinates": [[[-88.1817863, 15.8544309], [-88.1817858, 15.8543405], [-88.1816924, 15.854341], [-88.1816929, 15.8544314], [-88.1817863, 15.8544309]]]}, "properties": {"kind": "detection", "det_id": "D-SZ-live-honduras-2019-01-12-001-3", "zone_id": "SZ-live-honduras-2019-01-12-001", "scene_id": "S2A_16PCC_20190112_0_L2A", "datetime": "2019-01-12T16:29:07.159000Z", "n_pixels": 1, "area_m2": 100, "prob_max": 0.7451, "prob_mean": 0.7451, "threshold": 0.63, "in_strip": true, "artifact": null}}, {"type": "Feature", "id": "D-SZ-live-honduras-2019-01-12-002-10", "geometry": {"type": "Polygon", "coordinates": [[[-88.2034875, 15.7659114], [-88.2034864, 15.7657306], [-88.2033931, 15.7657311], [-88.2033936, 15.7658215], [-88.2033003, 15.765822], [-88.2033008, 15.7659124], [-88.2034875, 15.7659114]]]}, "properties": {"kind": "detection", "det_id": "D-SZ-live-honduras-2019-01-12-002-10", "zone_id": "SZ-live-honduras-2019-01-12-002", "scene_id": "S2A_16PCC_20190112_0_L2A", "datetime": "2019-01-12T16:29:07.159000Z", "n_pixels": 3, "area_m2": 300, "prob_max": 0.9961, "prob_mean": 0.9399, "threshold": 0.63, "in_strip": true, "artifact": null}}, {"type": "Feature", "id": "D-SZ-live-honduras-2019-01-12-002-11", "geometry": {"type": "Polygon", "coordinates": [[[-88.2043195, 15.7645509], [-88.2043185, 15.7643702], [-88.2042251, 15.7643707], [-88.2042262, 15.7645514], [-88.2043195, 15.7645509]]]}, "properties": {"kind": "detection", "det_id": "D-SZ-live-honduras-2019-01-12-002-11", "zone_id": "SZ-live-honduras-2019-01-12-002", "scene_id": "S2A_16PCC_20190112_0_L2A", "datetime": "2019-01-12T16:29:07.159000Z", "n_pixels": 2, "area_m2": 200, "prob_max": 0.8941, "prob_mean": 0.7745, "threshold": 0.63, "in_strip": true, "artifact": null}}, {"type": "Feature", "id": "D-SZ-live-honduras-2019-01-12-002-12", "geometry": {"type": "Polygon", "coordinates": [[[-88.2050598, 15.7634622], [-88.2050587, 15.7632814], [-88.2049654, 15.7632819], [-88.2049659, 15.7633723], [-88.2048726, 15.7633728], [-88.2048731, 15.7634632], [-88.2050598, 15.7634622]]]}, "properties": {"kind": "detection", "det_id": "D-SZ-live-honduras-2019-01-12-002-12", "zone_id": "SZ-live-honduras-2019-01-12-002", "scene_id": "S2A_16PCC_20190112_0_L2A", "datetime": "2019-01-12T16:29:07.159000Z", "n_pixels": 3, "area_m2": 300, "prob_max": 0.9333, "prob_mean": 0.8706, "threshold": 0.63, "in_strip": true, "artifact": null}}, {"type": "Feature", "id": "D-SZ-live-honduras-2019-01-12-002-13", "geometry": {"type": "Polygon", "coordinates": [[[-88.2057046, 15.7620124], [-88.2057041, 15.761922], [-88.2056108, 15.7619225], [-88.2056113, 15.7620129], [-88.2057046, 15.7620124]]]}, "properties": {"kind": "detection", "det_id": "D-SZ-live-honduras-2019-01-12-002-13", "zone_id": "SZ-live-honduras-2019-01-12-002", "scene_id": "S2A_16PCC_20190112_0_L2A", "datetime": "2019-01-12T16:29:07.159000Z", "n_pixels": 1, "area_m2": 100, "prob_max": 0.8784, "prob_mean": 0.8784, "threshold": 0.63, "in_strip": true, "artifact": null}}, {"type": "Feature", "id": "D-SZ-live-honduras-2019-01-12-002-14", "geometry": {"type": "Polygon", "coordinates": [[[-88.2060705, 15.7607449], [-88.20607, 15.7606545], [-88.2059766, 15.760655], [-88.2059772, 15.7607454], [-88.2060705, 15.7607449]]]}, "properties": {"kind": "detection", "det_id": "D-SZ-live-honduras-2019-01-12-002-14", "zone_id": "SZ-live-honduras-2019-01-12-002", "scene_id": "S2A_16PCC_20190112_0_L2A", "datetime": "2019-01-12T16:29:07.159000Z", "n_pixels": 1, "area_m2": 100, "prob_max": 0.8471, "prob_mean": 0.8471, "threshold": 0.63, "in_strip": true, "artifact": null}}]}