{"type": "FeatureCollection", "features": [{"type": "Feature", "id": "D-SZ-fresh-honduras-2026-07-29-001-3", "geometry": {"type": "Polygon", "coordinates": [[[-88.2068147, 15.7761069], [-88.2068141, 15.7760165], [-88.2066274, 15.7760175], [-88.206628, 15.7761079], [-88.2068147, 15.7761069]]]}, "properties": {"kind": "detection", "det_id": "D-SZ-fresh-honduras-2026-07-29-001-3", "zone_id": "SZ-fresh-honduras-2026-07-29-001", "scene_id": "S2B_MSIL2A_20260729T160829_R140_T16PCC_20260729T195943", "datetime": "2026-07-29T16:08:29.024000Z", "n_pixels": 2, "area_m2": 200, "prob_max": 1.0, "prob_mean": 0.9098, "threshold": 0.63, "in_strip": true, "artifact": null}}, {"type": "Feature", "id": "D-SZ-fresh-honduras-2026-07-29-001-4", "geometry": {"type": "Polygon", "coordinates": [[[-88.2079332, 15.7758295], [-88.2079321, 15.7756487], [-88.2077454, 15.7756498], [-88.2077465, 15.7758305], [-88.2079332, 15.7758295]]]}, "properties": {"kind": "detection", "det_id": "D-SZ-fresh-honduras-2026-07-29-001-4", "zone_id": "SZ-fresh-honduras-2026-07-29-001", "scene_id": "S2B_MSIL2A_20260729T160829_R140_T16PCC_20260729T195943", "datetime": "2026-07-29T16:08:29.024000Z", "n_pixels": 4, "area_m2": 400, "prob_max": 0.9922, "prob_mean": 0.9108, "threshold": 0.63, "in_strip": true, "artifact": null}}, {"type": "Feature", "id": "D-SZ-fresh-honduras-2026-07-29-001-5", "geometry": {"type": "Polygon", "coordinates": [[[-88.2061597, 15.7758394], [-88.2061591, 15.775749], [-88.2060658, 15.7757495], [-88.2060663, 15.7758399], [-88.2061597, 15.7758394]]]}, "properties": {"kind": "detection", "det_id": "D-SZ-fresh-honduras-2026-07-29-001-5", "zone_id": "SZ-fresh-honduras-2026-07-29-001", "scene_id": "S2B_MSIL2A_20260729T160829_R140_T16PCC_20260729T195943", "datetime": "2026-07-29T16:08:29.024000Z", "n_pixels": 1, "area_m2": 100, "prob_max": 0.9725, "prob_mean": 0.9725, "threshold": 0.63, "in_strip": true, "artifact": null}}]}