{"type":"FeatureCollection","features":[{"type":"Feature","geometry":{"type":"Polygon","coordinates":[[[120.929601,14.713035],[120.929602,14.712944],[120.929787,14.712946],[120.929786,14.713036],[120.929601,14.713035]]]},"properties":{"id":"manila_2019-05-13_lgbm_0","region":"manila","date":"2019-05-13","area_m2":200.0,"mean_prob":0.8294,"max_prob":0.9961,"model":"lgbm","n_px":2,"px_area_m2":100.0,"confirmed":false,"confirmed_by":null,"lon":120.929694,"lat":14.71299}},{"type":"Feature","geometry":{"type":"Polygon","coordinates":[[[120.889696,14.711319],[120.889698,14.711138],[120.889791,14.711139],[120.889789,14.71132],[120.889696,14.711319]]]},"properties":{"id":"manila_2019-05-13_lgbm_1","region":"manila","date":"2019-05-13","area_m2":200.0,"mean_prob":0.8765,"max_prob":0.9451,"model":"lgbm","n_px":2,"px_area_m2":100.0,"confirmed":false,"confirmed_by":null,"lon":120.889743,"lat":14.711229}},{"type":"Feature","geometry":{"type":"Polygon","coordinates":[[[120.828264,14.708673],[120.828265,14.708583],[120.828173,14.708582],[120.828173,14.708492],[120.828266,14.708493],[120.828265,14.708583],[120.828358,14.708584],[120.828357,14.708674],[120.828264,14.708673]]]},"properties":{"id":"manila_2019-05-13_lgbm_2","region":"manila","date":"2019-05-13","area_m2":200.0,"mean_prob":0.951,"max_prob":0.9922,"model":"lgbm","n_px":2,"px_area_m2":100.0,"confirmed":false,"confirmed_by":null,"lon":120.828265,"lat":14.708583}},{"type":"Feature","geometry":{"type":"Polygon","coordinates":[[[120.923694,14.709367],[120.923695,14.709187],[120.923788,14.709187],[120.923786,14.709368],[120.923694,14.709367]]]},"properties":{"id":"manila_2019-05-13_lgbm_3","region":"manila","date":"2019-05-13","area_m2":200.0,"mean_prob":0.9941,"max_prob":0.9961,"model":"lgbm","n_px":2,"px_area_m2":100.0,"confirmed":false,"confirmed_by":null,"lon":120.923741,"lat":14.709277}},{"type":"Feature","geometry":{"type":"Polygon","coordinates":[[[120.827803,14.708398],[120.827804,14.708308],[120.827711,14.708307],[120.827712,14.708216],[120.827805,14.708217],[120.827804,14.708308],[120.827897,14.708308],[120.827898,14.708218],[120.82799,14.708219],[120.82799,14.708309],[120.828082,14.70831],[120.828081,14.7084],[120.827803,14.708398]]]},"properties":{"id":"manila_2019-05-13_lgbm_4","region":"manila","date":"2019-05-13","area_m2":500.0,"mean_prob":0.8502,"max_prob":1.0,"model":"lgbm","n_px":5,"px_area_m2":100.0,"confirmed":false,"confirmed_by":null,"lon":120.827906,"lat":14.708318}},{"type":"Feature","geometry":{"type":"Polygon","coordinates":[[[120.828472,14.706416],[120.828474,14.706236],[120.82866,14.706237],[120.828658,14.706418],[120.828472,14.706416]]]},"properties":{"id":"manila_2019-05-13_lgbm_5","region":"manila","date":"2019-05-13","area_m2":400.0,"mean_prob":0.9765,"max_prob":1.0,"model":"lgbm","n_px":4,"px_area_m2":100.0,"confirmed":true,"confirmed_by":"mdd","lon":120.828566,"lat":14.706327}},{"type":"Feature","geometry":{"type":"Polygon","coordinates":[[[120.789122,14.705412],[120.789124,14.705231],[120.789217,14.705232],[120.789215,14.705413],[120.789122,14.705412]]]},"properties":{"id":"manila_2019-05-13_lgbm_6","region":"manila","date":"2019-05-13","area_m2":200.0,"mean_prob":0.9529,"max_prob":0.9608,"model":"lgbm","n_px":2,"px_area_m2":100.0,"confirmed":false,"confirmed_by":null,"lon":120.789169,"lat":14.705322}},{"type":"Feature","geometry":{"type":"Polygon","coordinates":[[[120.842861,14.697063],[120.842862,14.696882],[120.842955,14.696883],[120.842953,14.697064],[120.842861,14.697063]]]},"properties":{"id":"manila_2019-05-13_lgbm_7","region":"manila","date":"2019-05-13","area_m2":200.0,"mean_prob":0.8294,"max_prob":1.0,"model":"lgbm","n_px":2,"px_area_m2":100.0,"confirmed":true,"confirmed_by":"mdd","lon":120.842908,"lat":14.696973}},{"type":"Feature","geometry":{"type":"Polygon","coordinates":[[[120.842279,14.680612],[120.84228,14.680522],[120.842466,14.680524],[120.842465,14.680614],[120.842279,14.680612]]]},"properties":{"id":"manila_2019-05-13_lgbm_8","region":"manila","date":"2019-05-13","area_m2":200.0,"mean_prob":0.9922,"max_prob":1.0,"model":"lgbm","n_px":2,"px_area_m2":100.0,"confirmed":false,"confirmed_by":null,"lon":120.842373,"lat":14.680568}},{"type":"Feature","geometry":{"type":"Polygon","coordinates":[[[120.85988,14.674721],[120.859881,14.674631],[120.860067,14.674633],[120.860066,14.674723],[120.85988,14.674721]]]},"properties":{"id":"manila_2019-05-13_lgbm_9","region":"manila","date":"2019-05-13","area_m2":200.0,"mean_prob":0.9157,"max_prob":0.9882,"model":"lgbm","n_px":2,"px_area_m2":100.0,"confirmed":false,"confirmed_by":null,"lon":120.859974,"lat":14.674677}},{"type":"Feature","geometry":{"type":"Polygon","coordinates":[[[120.906677,14.67325],[120.906678,14.673069],[120.906771,14.67307],[120.90677,14.673251],[120.906677,14.67325]]]},"properties":{"id":"manila_2019-05-13_lgbm_10","region":"manila","date":"2019-05-13","area_m2":200.0,"mean_prob":0.9882,"max_prob":0.9922,"model":"lgbm","n_px":2,"px_area_m2":100.0,"confirmed":false,"confirmed_by":null,"lon":120.906724,"lat":14.67316}},{"type":"Feature","geometry":{"type":"Polygon","coordinates":[[[120.86942,14.667309],[120.869421,14.667219],[120.869606,14.66722],[120.869605,14.667311],[120.86942,14.667309]]]},"properties":{"id":"manila_2019-05-13_lgbm_11","region":"manila","date":"2019-05-13","area_m2":200.0,"mean_prob":0.8275,"max_prob":0.9765,"model":"lgbm","n_px":2,"px_area_m2":100.0,"confirmed":false,"confirmed_by":null,"lon":120.869513,"lat":14.667265}},{"type":"Feature","geometry":{"type":"Polygon","coordinates":[[[120.840928,14.666956],[120.840929,14.666865],[120.841115,14.666867],[120.841114,14.666957],[120.840928,14.666956]]]},"properties":{"id":"manila_2019-05-13_lgbm_12","region":"manila","date":"2019-05-13","area_m2":200.0,"mean_prob":1.0,"max_prob":1.0,"model":"lgbm","n_px":2,"px_area_m2":100.0,"confirmed":false,"confirmed_by":null,"lon":120.841022,"lat":14.666911}},{"type":"Feature","geometry":{"type":"Polygon","coordinates":[[[120.841772,14.66615],[120.841773,14.66597],[120.841866,14.66597],[120.841865,14.666061],[120.841958,14.666062],[120.841957,14.666152],[120.841772,14.66615]]]},"properties":{"id":"manila_2019-05-13_lgbm_13","region":"manila","date":"2019-05-13","area_m2":300.0,"mean_prob":0.9059,"max_prob":0.9255,"model":"lgbm","n_px":3,"px_area_m2":100.0,"confirmed":false,"confirmed_by":null,"lon":120.84185,"lat":14.666076}},{"type":"Feature","geometry":{"type":"Polygon","coordinates":[[[120.842084,14.662629],[120.842085,14.662539],[120.842271,14.662541],[120.84227,14.662631],[120.842084,14.662629]]]},"properties":{"id":"manila_2019-05-13_lgbm_14","region":"manila","date":"2019-05-13","area_m2":200.0,"mean_prob":0.9686,"max_prob":0.9804,"model":"lgbm","n_px":2,"px_area_m2":100.0,"confirmed":false,"confirmed_by":null,"lon":120.842178,"lat":14.662585}},{"type":"Feature","geometry":{"type":"Polygon","coordinates":[[[120.841808,14.662446],[120.841809,14.662356],[120.841994,14.662357],[120.841993,14.662448],[120.841808,14.662446]]]},"properties":{"id":"manila_2019-05-13_lgbm_15","region":"manila","date":"2019-05-13","area_m2":200.0,"mean_prob":0.9706,"max_prob":0.9961,"model":"lgbm","n_px":2,"px_area_m2":100.0,"confirmed":false,"confirmed_by":null,"lon":120.841901,"lat":14.662402}},{"type":"Feature","geometry":{"type":"Polygon","coordinates":[[[120.802006,14.660898],[120.802007,14.660808],[120.801821,14.660806],[120.801825,14.660445],[120.801918,14.660446],[120.801921,14.660084],[120.802107,14.660086],[120.802103,14.660447],[120.802196,14.660448],[120.802193,14.66081],[120.8021,14.660809],[120.802099,14.660899],[120.802006,14.660898]],[[120.802008,14.660718],[120.802101,14.660718],[120.802103,14.660538],[120.80201,14.660537],[120.802008,14.660718]]]},"properties":{"id":"manila_2019-05-13_lgbm_16","region":"manila","date":"2019-05-13","area_m2":2300.0,"mean_prob":0.9306,"max_prob":1.0,"model":"lgbm","n_px":23,"px_area_m2":100.0,"confirmed":true,"confirmed_by":"mdd","lon":120.802008,"lat":14.660511}},{"type":"Feature","geometry":{"type":"Polygon","coordinates":[[[120.840707,14.661171],[120.840707,14.66108],[120.840615,14.661079],[120.840616,14.660899],[120.840709,14.6609],[120.840708,14.66099],[120.840801,14.660991],[120.840799,14.661171],[120.840707,14.661171]]]},"properties":{"id":"manila_2019-05-13_lgbm_17","region":"manila","date":"2019-05-13","area_m2":400.0,"mean_prob":0.9931,"max_prob":1.0,"model":"lgbm","n_px":4,"px_area_m2":100.0,"confirmed":false,"confirmed_by":null,"lon":120.840708,"lat":14.661035}},{"type":"Feature","geometry":{"type":"Polygon","coordinates":[[[120.840432,14.660807],[120.840433,14.660626],[120.840526,14.660627],[120.840524,14.660808],[120.840432,14.660807]]]},"properties":{"id":"manila_2019-05-13_lgbm_18","region":"manila","date":"2019-05-13","area_m2":200.0,"mean_prob":0.9157,"max_prob":0.9961,"model":"lgbm","n_px":2,"px_area_m2":100.0,"confirmed":false,"confirmed_by":null,"lon":120.840479,"lat":14.660717}},{"type":"Feature","geometry":{"type":"Polygon","coordinates":[[[120.83988,14.660259],[120.839882,14.660079],[120.839975,14.66008],[120.839973,14.66026],[120.83988,14.660259]]]},"properties":{"id":"manila_2019-05-13_lgbm_19","region":"manila","date":"2019-05-13","area_m2":200.0,"mean_prob":0.8647,"max_prob":0.902,"model":"lgbm","n_px":2,"px_area_m2":100.0,"confirmed":false,"confirmed_by":null,"lon":120.839927,"lat":14.660169}},{"type":"Feature","geometry":{"type":"Polygon","coordinates":[[[120.801926,14.659632],[120.801929,14.659361],[120.802021,14.659362],[120.802022,14.659272],[120.802115,14.659273],[120.802113,14.659454],[120.802021,14.659453],[120.802019,14.659633],[120.801926,14.659632]]]},"properties":{"id":"manila_2019-05-13_lgbm_20","region":"manila","date":"2019-05-13","area_m2":500.0,"mean_prob":0.9749,"max_prob":0.9961,"model":"lgbm","n_px":5,"px_area_m2":100.0,"confirmed":true,"confirmed_by":"mdd","lon":120.802011,"lat":14.659444}},{"type":"Feature","geometry":{"type":"Polygon","coordinates":[[[120.907191,14.658255],[120.907191,14.658164],[120.907377,14.658166],[120.907376,14.658256],[120.907191,14.658255]]]},"properties":{"id":"manila_2019-05-13_lgbm_21","region":"manila","date":"2019-05-13","area_m2":200.0,"mean_prob":0.9588,"max_prob":0.9961,"model":"lgbm","n_px":2,"px_area_m2":100.0,"confirmed":false,"confirmed_by":null,"lon":120.907284,"lat":14.65821}},{"type":"Feature","geometry":{"type":"Polygon","coordinates":[[[120.900806,14.656209],[120.900807,14.656028],[120.9009,14.656029],[120.900898,14.65621],[120.900806,14.656209]]]},"properties":{"id":"manila_2019-05-13_lgbm_22","region":"manila","date":"2019-05-13","area_m2":200.0,"mean_prob":0.9686,"max_prob":0.9882,"model":"lgbm","n_px":2,"px_area_m2":100.0,"confirmed":false,"confirmed_by":null,"lon":120.900853,"lat":14.656119}},{"type":"Feature","geometry":{"type":"Polygon","coordinates":[[[120.86641,14.652191],[120.866412,14.652011],[120.866598,14.652012],[120.866596,14.652193],[120.86641,14.652191]]]},"properties":{"id":"manila_2019-05-13_lgbm_23","region":"manila","date":"2019-05-13","area_m2":400.0,"mean_prob":0.999,"max_prob":1.0,"model":"lgbm","n_px":4,"px_area_m2":100.0,"confirmed":false,"confirmed_by":null,"lon":120.866504,"lat":14.652102}},{"type":"Feature","geometry":{"type":"Polygon","coordinates":[[[120.880225,14.644004],[120.880228,14.643733],[120.880321,14.643734],[120.88032,14.643825],[120.880413,14.643825],[120.880412,14.643916],[120.880319,14.643915],[120.880318,14.644005],[120.880225,14.644004]]]},"properties":{"id":"manila_2019-05-13_lgbm_24","region":"manila","date":"2019-05-13","area_m2":400.0,"mean_prob":0.9706,"max_prob":1.0,"model":"lgbm","n_px":4,"px_area_m2":100.0,"confirmed":false,"confirmed_by":null,"lon":120.880296,"lat":14.64387}},{"type":"Feature","geometry":{"type":"Polygon","coordinates":[[[120.880976,14.643108],[120.880978,14.642927],[120.881071,14.642928],[120.881069,14.643109],[120.880976,14.643108]]]},"properties":{"id":"manila_2019-05-13_lgbm_25","region":"manila","date":"2019-05-13","area_m2":200.0,"mean_prob":0.9471,"max_prob":1.0,"model":"lgbm","n_px":2,"px_area_m2":100.0,"confirmed":false,"confirmed_by":null,"lon":120.881024,"lat":14.643018}},{"type":"Feature","geometry":{"type":"Polygon","coordinates":[[[120.880979,14.642837],[120.88098,14.642746],[120.881073,14.642747],[120.881074,14.642657],[120.881166,14.642658],[120.881165,14.642838],[120.880979,14.642837]]]},"properties":{"id":"manila_2019-05-13_lgbm_26","region":"manila","date":"2019-05-13","area_m2":300.0,"mean_prob":0.9948,"max_prob":0.9961,"model":"lgbm","n_px":3,"px_area_m2":100.0,"confirmed":false,"confirmed_by":null,"lon":120.881088,"lat":14.642762}},{"type":"Feature","geometry":{"type":"Polygon","coordinates":[[[120.914036,14.641057],[120.914038,14.640876],[120.914131,14.640877],[120.914129,14.641058],[120.914036,14.641057]]]},"properties":{"id":"manila_2019-05-13_lgbm_27","region":"manila","date":"2019-05-13","area_m2":200.0,"mean_prob":0.749,"max_prob":0.8235,"model":"lgbm","n_px":2,"px_area_m2":100.0,"confirmed":false,"confirmed_by":null,"lon":120.914083,"lat":14.640967}},{"type":"Feature","geometry":{"type":"Polygon","coordinates":[[[120.928146,14.640731],[120.928147,14.640641],[120.928333,14.640643],[120.928332,14.640733],[120.928146,14.640731]]]},"properties":{"id":"manila_2019-05-13_lgbm_28","region":"manila","date":"2019-05-13","area_m2":200.0,"mean_prob":0.9725,"max_prob":0.9961,"model":"lgbm","n_px":2,"px_area_m2":100.0,"confirmed":false,"confirmed_by":null,"lon":120.928239,"lat":14.640687}},{"type":"Feature","geometry":{"type":"Polygon","coordinates":[[[120.922787,14.638244],[120.922788,14.638153],[120.922973,14.638155],[120.922972,14.638245],[120.922787,14.638244]]]},"properties":{"id":"manila_2019-05-13_lgbm_29","region":"manila","date":"2019-05-13","area_m2":200.0,"mean_prob":0.9157,"max_prob":0.9804,"model":"lgbm","n_px":2,"px_area_m2":100.0,"confirmed":false,"confirmed_by":null,"lon":120.92288,"lat":14.638199}},{"type":"Feature","geometry":{"type":"Polygon","coordinates":[[[120.844779,14.63383],[120.84478,14.633739],[120.844966,14.633741],[120.844965,14.633831],[120.844779,14.63383]]]},"properties":{"id":"manila_2019-05-13_lgbm_30","region":"manila","date":"2019-05-13","area_m2":200.0,"mean_prob":0.9922,"max_prob":0.9922,"model":"lgbm","n_px":2,"px_area_m2":100.0,"confirmed":false,"confirmed_by":null,"lon":120.844872,"lat":14.633785}},{"type":"Feature","geometry":{"type":"Polygon","coordinates":[[[120.87467,14.63302],[120.874671,14.63293],[120.874856,14.632931],[120.874855,14.633022],[120.87467,14.63302]]]},"properties":{"id":"manila_2019-05-13_lgbm_31","region":"manila","date":"2019-05-13","area_m2":200.0,"mean_prob":0.6843,"max_prob":0.6902,"model":"lgbm","n_px":2,"px_area_m2":100.0,"confirmed":false,"confirmed_by":null,"lon":120.874763,"lat":14.632976}},{"type":"Feature","geometry":{"type":"Polygon","coordinates":[[[120.917084,14.632771],[120.917085,14.632681],[120.917271,14.632682],[120.91727,14.632773],[120.917084,14.632771]]]},"properties":{"id":"manila_2019-05-13_lgbm_32","region":"manila","date":"2019-05-13","area_m2":200.0,"mean_prob":0.9706,"max_prob":0.9765,"model":"lgbm","n_px":2,"px_area_m2":100.0,"confirmed":false,"confirmed_by":null,"lon":120.917177,"lat":14.632727}},{"type":"Feature","geometry":{"type":"Polygon","coordinates":[[[120.908022,14.629346],[120.908023,14.629166],[120.908116,14.629166],[120.908114,14.629347],[120.908022,14.629346]]]},"properties":{"id":"manila_2019-05-13_lgbm_33","region":"manila","date":"2019-05-13","area_m2":200.0,"mean_prob":0.7569,"max_prob":0.7804,"model":"lgbm","n_px":2,"px_area_m2":100.0,"confirmed":false,"confirmed_by":null,"lon":120.908069,"lat":14.629256}},{"type":"Feature","geometry":{"type":"Polygon","coordinates":[[[120.844108,14.626504],[120.844109,14.626414],[120.844295,14.626416],[120.844294,14.626506],[120.844108,14.626504]]]},"properties":{"id":"manila_2019-05-13_lgbm_34","region":"manila","date":"2019-05-13","area_m2":200.0,"mean_prob":0.9176,"max_prob":0.9961,"model":"lgbm","n_px":2,"px_area_m2":100.0,"confirmed":false,"confirmed_by":null,"lon":120.844202,"lat":14.62646}},{"type":"Feature","geometry":{"type":"Polygon","coordinates":[[[120.854986,14.624436],[120.854987,14.624346],[120.854894,14.624345],[120.854895,14.624255],[120.854988,14.624255],[120.854987,14.624346],[120.85508,14.624347],[120.855079,14.624437],[120.854986,14.624436]]]},"properties":{"id":"manila_2019-05-13_lgbm_35","region":"manila","date":"2019-05-13","area_m2":200.0,"mean_prob":0.9941,"max_prob":0.9961,"model":"lgbm","n_px":2,"px_area_m2":100.0,"confirmed":false,"confirmed_by":null,"lon":120.854987,"lat":14.624346}},{"type":"Feature","geometry":{"type":"Polygon","coordinates":[[[120.845967,14.616672],[120.845969,14.616492],[120.846062,14.616493],[120.846063,14.616402],[120.846156,14.616403],[120.846156,14.616313],[120.846342,14.616314],[120.846341,14.616405],[120.846248,14.616404],[120.846246,14.616675],[120.845967,14.616672]]]},"properties":{"id":"manila_2019-05-13_lgbm_36","region":"manila","date":"2019-05-13","area_m2":1000.0,"mean_prob":0.9106,"max_prob":0.9922,"model":"lgbm","n_px":10,"px_area_m2":100.0,"confirmed":true,"confirmed_by":"mdd","lon":120.846145,"lat":14.616511}},{"type":"Feature","geometry":{"type":"Polygon","coordinates":[[[120.846438,14.615954],[120.846439,14.615864],[120.846532,14.615864],[120.846533,14.615774],[120.846626,14.615775],[120.846627,14.615594],[120.846813,14.615596],[120.846811,14.615777],[120.846718,14.615776],[120.846718,14.615866],[120.846625,14.615865],[120.846624,14.615956],[120.846438,14.615954]]]},"properties":{"id":"manila_2019-05-13_lgbm_37","region":"manila","date":"2019-05-13","area_m2":800.0,"mean_prob":0.9299,"max_prob":1.0,"model":"lgbm","n_px":8,"px_area_m2":100.0,"confirmed":true,"confirmed_by":"mdd","lon":120.846649,"lat":14.615775}},{"type":"Feature","geometry":{"type":"Polygon","coordinates":[[[120.846909,14.615235],[120.84691,14.615145],[120.847003,14.615146],[120.847004,14.615056],[120.847097,14.615056],[120.847095,14.615237],[120.846909,14.615235]]]},"properties":{"id":"manila_2019-05-13_lgbm_38","region":"manila","date":"2019-05-13","area_m2":300.0,"mean_prob":0.9569,"max_prob":0.9882,"model":"lgbm","n_px":3,"px_area_m2":100.0,"confirmed":false,"confirmed_by":null,"lon":120.847018,"lat":14.615161}},{"type":"Feature","geometry":{"type":"Polygon","coordinates":[[[120.71702,14.613367],[120.717021,14.613277],[120.716928,14.613276],[120.716929,14.613185],[120.717115,14.613187],[120.717113,14.613368],[120.71702,14.613367]]]},"properties":{"id":"manila_2019-05-13_lgbm_39","region":"manila","date":"2019-05-13","area_m2":300.0,"mean_prob":0.9817,"max_prob":0.9961,"model":"lgbm","n_px":3,"px_area_m2":100.0,"confirmed":false,"confirmed_by":null,"lon":120.717037,"lat":14.613262}},{"type":"Feature","geometry":{"type":"Polygon","coordinates":[[[120.847661,14.614248],[120.847662,14.614158],[120.847755,14.614159],[120.847756,14.614069],[120.847849,14.614069],[120.84785,14.613979],[120.847942,14.61398],[120.847941,14.61407],[120.847849,14.614069],[120.847847,14.61425],[120.847661,14.614248]]]},"properties":{"id":"manila_2019-05-13_lgbm_40","region":"manila","date":"2019-05-13","area_m2":400.0,"mean_prob":0.9069,"max_prob":0.9961,"model":"lgbm","n_px":4,"px_area_m2":100.0,"confirmed":false,"confirmed_by":null,"lon":120.847802,"lat":14.614137}},{"type":"Feature","geometry":{"type":"Polygon","coordinates":[[[120.824095,14.613939],[120.824096,14.613759],[120.824189,14.613759],[120.824187,14.61394],[120.824095,14.613939]]]},"properties":{"id":"manila_2019-05-13_lgbm_41","region":"manila","date":"2019-05-13","area_m2":200.0,"mean_prob":0.8235,"max_prob":0.851,"model":"lgbm","n_px":2,"px_area_m2":100.0,"confirmed":false,"confirmed_by":null,"lon":120.824142,"lat":14.613849}},{"type":"Feature","geometry":{"type":"Polygon","coordinates":[[[120.849995,14.612824],[120.849996,14.612734],[120.850181,14.612736],[120.850182,14.612645],[120.850275,14.612646],[120.850274,14.612736],[120.850181,14.612736],[120.850181,14.612826],[120.849995,14.612824]]]},"properties":{"id":"manila_2019-05-13_lgbm_42","region":"manila","date":"2019-05-13","area_m2":300.0,"mean_prob":0.9464,"max_prob":0.9804,"model":"lgbm","n_px":3,"px_area_m2":100.0,"confirmed":false,"confirmed_by":null,"lon":120.850135,"lat":14.61275}},{"type":"Feature","geometry":{"type":"Polygon","coordinates":[[[120.919679,14.613456],[120.91968,14.613366],[120.919865,14.613368],[120.919865,14.613458],[120.919679,14.613456]]]},"properties":{"id":"manila_2019-05-13_lgbm_43","region":"manila","date":"2019-05-13","area_m2":200.0,"mean_prob":0.902,"max_prob":0.902,"model":"lgbm","n_px":2,"px_area_m2":100.0,"confirmed":false,"confirmed_by":null,"lon":120.919772,"lat":14.613412}},{"type":"Feature","geometry":{"type":"Polygon","coordinates":[[[120.850846,14.611206],[120.850848,14.611025],[120.85094,14.611026],[120.850939,14.611206],[120.850846,14.611206]]]},"properties":{"id":"manila_2019-05-13_lgbm_44","region":"manila","date":"2019-05-13","area_m2":200.0,"mean_prob":0.8118,"max_prob":0.9647,"model":"lgbm","n_px":2,"px_area_m2":100.0,"confirmed":false,"confirmed_by":null,"lon":120.850893,"lat":14.611116}},{"type":"Feature","geometry":{"type":"Polygon","coordinates":[[[120.850391,14.610298],[120.850393,14.610117],[120.8503,14.610116],[120.850305,14.609574],[120.850398,14.609575],[120.850395,14.609846],[120.850488,14.609847],[120.850487,14.609937],[120.85058,14.609938],[120.850576,14.610299],[120.850391,14.610298]]]},"properties":{"id":"manila_2019-05-13_lgbm_45","region":"manila","date":"2019-05-13","area_m2":1500.0,"mean_prob":0.971,"max_prob":1.0,"model":"lgbm","n_px":15,"px_area_m2":100.0,"confirmed":true,"confirmed_by":"mdd","lon":120.850428,"lat":14.609994}},{"type":"Feature","geometry":{"type":"Polygon","coordinates":[[[120.851603,14.609676],[120.851605,14.609496],[120.851883,14.609498],[120.851882,14.609589],[120.85179,14.609588],[120.851789,14.609678],[120.851603,14.609676]]]},"properties":{"id":"manila_2019-05-13_lgbm_46","region":"manila","date":"2019-05-13","area_m2":500.0,"mean_prob":0.9169,"max_prob":1.0,"model":"lgbm","n_px":5,"px_area_m2":100.0,"confirmed":false,"confirmed_by":null,"lon":120.851725,"lat":14.609578}},{"type":"Feature","geometry":{"type":"Polygon","coordinates":[[[120.850213,14.609483],[120.850216,14.609212],[120.850123,14.609211],[120.850125,14.60903],[120.850032,14.609029],[120.850034,14.608849],[120.850126,14.60885],[120.850126,14.60894],[120.850218,14.608941],[120.850217,14.609122],[120.850309,14.609122],[120.850306,14.609484],[120.850213,14.609483]]]},"properties":{"id":"manila_2019-05-13_lgbm_47","region":"manila","date":"2019-05-13","area_m2":900.0,"mean_prob":0.9312,"max_prob":1.0,"model":"lgbm","n_px":9,"px_area_m2":100.0,"confirmed":false,"confirmed_by":null,"lon":120.850191,"lat":14.609146}},{"type":"Feature","geometry":{"type":"Polygon","coordinates":[[[120.853094,14.609058],[120.853096,14.608877],[120.853188,14.608878],[120.853187,14.608968],[120.85328,14.608969],[120.853279,14.609059],[120.853094,14.609058]]]},"properties":{"id":"manila_2019-05-13_lgbm_48","region":"manila","date":"2019-05-13","area_m2":300.0,"mean_prob":0.8471,"max_prob":0.9569,"model":"lgbm","n_px":3,"px_area_m2":100.0,"confirmed":false,"confirmed_by":null,"lon":120.853172,"lat":14.608983}},{"type":"Feature","geometry":{"type":"Polygon","coordinates":[[[120.853372,14.60906],[120.853373,14.60897],[120.853466,14.608971],[120.853467,14.60888],[120.853652,14.608882],[120.853651,14.609063],[120.853372,14.60906]]]},"properties":{"id":"manila_2019-05-13_lgbm_49","region":"manila","date":"2019-05-13","area_m2":500.0,"mean_prob":0.9208,"max_prob":1.0,"model":"lgbm","n_px":5,"px_area_m2":100.0,"confirmed":false,"confirmed_by":null,"lon":120.853531,"lat":14.60898}},{"type":"Feature","geometry":{"type":"Polygon","coordinates":[[[120.851428,14.608591],[120.851429,14.6085],[120.851707,14.608503],[120.851708,14.608412],[120.851801,14.608413],[120.851799,14.608594],[120.851428,14.608591]]]},"properties":{"id":"manila_2019-05-13_lgbm_50","region":"manila","date":"2019-05-13","area_m2":500.0,"mean_prob":0.9694,"max_prob":1.0,"model":"lgbm","n_px":5,"px_area_m2":100.0,"confirmed":false,"confirmed_by":null,"lon":120.851642,"lat":14.608529}},{"type":"Feature","geometry":{"type":"Polygon","coordinates":[[[120.854212,14.608616],[120.854213,14.608435],[120.854399,14.608437],[120.854398,14.608527],[120.854305,14.608527],[120.854304,14.608617],[120.854212,14.608616]]]},"properties":{"id":"manila_2019-05-13_lgbm_51","region":"manila","date":"2019-05-13","area_m2":300.0,"mean_prob":0.8641,"max_prob":0.9765,"model":"lgbm","n_px":3,"px_area_m2":100.0,"confirmed":false,"confirmed_by":null,"lon":120.85429,"lat":14.608511}},{"type":"Feature","geometry":{"type":"Polygon","coordinates":[[[120.812836,14.60769],[120.812837,14.607509],[120.81293,14.60751],[120.812928,14.60769],[120.812836,14.60769]]]},"properties":{"id":"manila_2019-05-13_lgbm_52","region":"manila","date":"2019-05-13","area_m2":200.0,"mean_prob":0.8725,"max_prob":0.9059,"model":"lgbm","n_px":2,"px_area_m2":100.0,"confirmed":false,"confirmed_by":null,"lon":120.812883,"lat":14.6076}},{"type":"Feature","geometry":{"type":"Polygon","coordinates":[[[120.808665,14.607199],[120.808666,14.607108],[120.808851,14.60711],[120.808851,14.6072],[120.808665,14.607199]]]},"properties":{"id":"manila_2019-05-13_lgbm_53","region":"manila","date":"2019-05-13","area_m2":200.0,"mean_prob":0.9255,"max_prob":0.9294,"model":"lgbm","n_px":2,"px_area_m2":100.0,"confirmed":false,"confirmed_by":null,"lon":120.808758,"lat":14.607154}},{"type":"Feature","geometry":{"type":"Polygon","coordinates":[[[120.806886,14.599502],[120.806887,14.599321],[120.80698,14.599322],[120.806978,14.599502],[120.806886,14.599502]]]},"properties":{"id":"manila_2019-05-13_lgbm_54","region":"manila","date":"2019-05-13","area_m2":200.0,"mean_prob":0.9863,"max_prob":0.9961,"model":"lgbm","n_px":2,"px_area_m2":100.0,"confirmed":false,"confirmed_by":null,"lon":120.806933,"lat":14.599412}},{"type":"Feature","geometry":{"type":"Polygon","coordinates":[[[120.785254,14.591436],[120.785256,14.591256],[120.785442,14.591257],[120.785441,14.591348],[120.785534,14.591349],[120.785533,14.591439],[120.785254,14.591436]]]},"properties":{"id":"manila_2019-05-13_lgbm_55","region":"manila","date":"2019-05-13","area_m2":500.0,"mean_prob":0.9161,"max_prob":0.9922,"model":"lgbm","n_px":5,"px_area_m2":100.0,"confirmed":false,"confirmed_by":null,"lon":120.785376,"lat":14.591356}},{"type":"Feature","geometry":{"type":"Polygon","coordinates":[[[120.842247,14.588988],[120.842248,14.588898],[120.842434,14.5889],[120.842433,14.58899],[120.842247,14.588988]]]},"properties":{"id":"manila_2019-05-13_lgbm_56","region":"manila","date":"2019-05-13","area_m2":200.0,"mean_prob":0.8804,"max_prob":0.9412,"model":"lgbm","n_px":2,"px_area_m2":100.0,"confirmed":false,"confirmed_by":null,"lon":120.84234,"lat":14.588944}},{"type":"Feature","geometry":{"type":"Polygon","coordinates":[[[120.774073,14.586902],[120.774074,14.586812],[120.77426,14.586814],[120.774259,14.586904],[120.774073,14.586902]]]},"properties":{"id":"manila_2019-05-13_lgbm_57","region":"manila","date":"2019-05-13","area_m2":200.0,"mean_prob":0.9176,"max_prob":0.9647,"model":"lgbm","n_px":2,"px_area_m2":100.0,"confirmed":false,"confirmed_by":null,"lon":120.774167,"lat":14.586858}},{"type":"Feature","geometry":{"type":"Polygon","coordinates":[[[120.811595,14.58301],[120.811596,14.58292],[120.811782,14.582922],[120.811781,14.583012],[120.811595,14.58301]]]},"properties":{"id":"manila_2019-05-13_lgbm_58","region":"manila","date":"2019-05-13","area_m2":200.0,"mean_prob":0.9392,"max_prob":0.9412,"model":"lgbm","n_px":2,"px_area_m2":100.0,"confirmed":false,"confirmed_by":null,"lon":120.811688,"lat":14.582966}},{"type":"Feature","geometry":{"type":"Polygon","coordinates":[[[120.831638,14.582745],[120.831639,14.582655],[120.831825,14.582657],[120.831824,14.582747],[120.831638,14.582745]]]},"properties":{"id":"manila_2019-05-13_lgbm_59","region":"manila","date":"2019-05-13","area_m2":200.0,"mean_prob":0.8216,"max_prob":0.8667,"model":"lgbm","n_px":2,"px_area_m2":100.0,"confirmed":false,"confirmed_by":null,"lon":120.831731,"lat":14.582701}},{"type":"Feature","geometry":{"type":"Polygon","coordinates":[[[120.801511,14.580115],[120.801512,14.580024],[120.801419,14.580023],[120.80142,14.579933],[120.801513,14.579934],[120.801512,14.580024],[120.801605,14.580025],[120.801604,14.580115],[120.801511,14.580115]]]},"properties":{"id":"manila_2019-05-13_lgbm_60","region":"manila","date":"2019-05-13","area_m2":200.0,"mean_prob":0.9373,"max_prob":0.9686,"model":"lgbm","n_px":2,"px_area_m2":100.0,"confirmed":false,"confirmed_by":null,"lon":120.801512,"lat":14.580024}},{"type":"Feature","geometry":{"type":"Polygon","coordinates":[[[120.853193,14.579692],[120.853195,14.579511],[120.853288,14.579512],[120.853286,14.579693],[120.853193,14.579692]]]},"properties":{"id":"manila_2019-05-13_lgbm_61","region":"manila","date":"2019-05-13","area_m2":200.0,"mean_prob":0.9922,"max_prob":0.9961,"model":"lgbm","n_px":2,"px_area_m2":100.0,"confirmed":false,"confirmed_by":null,"lon":120.85324,"lat":14.579602}},{"type":"Feature","geometry":{"type":"Polygon","coordinates":[[[120.863493,14.579605],[120.863493,14.579515],[120.863401,14.579514],[120.863402,14.579424],[120.863587,14.579426],[120.863585,14.579606],[120.863493,14.579605]]]},"properties":{"id":"manila_2019-05-13_lgbm_62","region":"manila","date":"2019-05-13","area_m2":300.0,"mean_prob":0.8379,"max_prob":0.9608,"model":"lgbm","n_px":3,"px_area_m2":100.0,"confirmed":false,"confirmed_by":null,"lon":120.863509,"lat":14.5795}},{"type":"Feature","geometry":{"type":"Polygon","coordinates":[[[120.84249,14.573629],[120.84249,14.573539],[120.842398,14.573538],[120.842399,14.573448],[120.842584,14.573449],[120.842583,14.57354],[120.842676,14.573541],[120.842675,14.573631],[120.84249,14.573629]]]},"properties":{"id":"manila_2019-05-13_lgbm_63","region":"manila","date":"2019-05-13","area_m2":400.0,"mean_prob":0.8716,"max_prob":0.9922,"model":"lgbm","n_px":4,"px_area_m2":100.0,"confirmed":false,"confirmed_by":null,"lon":120.842537,"lat":14.573539}},{"type":"Feature","geometry":{"type":"Polygon","coordinates":[[[120.835073,14.573019],[120.835075,14.572838],[120.835261,14.57284],[120.83526,14.57293],[120.835167,14.572929],[120.835166,14.573019],[120.835073,14.573019]]]},"properties":{"id":"manila_2019-05-13_lgbm_64","region":"manila","date":"2019-05-13","area_m2":300.0,"mean_prob":0.9477,"max_prob":0.9882,"model":"lgbm","n_px":3,"px_area_m2":100.0,"confirmed":false,"confirmed_by":null,"lon":120.835152,"lat":14.572914}},{"type":"Feature","geometry":{"type":"Polygon","coordinates":[[[120.869957,14.573068],[120.869958,14.572978],[120.870144,14.572979],[120.870143,14.57307],[120.869957,14.573068]]]},"properties":{"id":"manila_2019-05-13_lgbm_65","region":"manila","date":"2019-05-13","area_m2":200.0,"mean_prob":0.8784,"max_prob":0.9333,"model":"lgbm","n_px":2,"px_area_m2":100.0,"confirmed":false,"confirmed_by":null,"lon":120.870051,"lat":14.573024}},{"type":"Feature","geometry":{"type":"Polygon","coordinates":[[[120.843241,14.572642],[120.843242,14.572552],[120.843428,14.572554],[120.843427,14.572644],[120.843241,14.572642]]]},"properties":{"id":"manila_2019-05-13_lgbm_66","region":"manila","date":"2019-05-13","area_m2":200.0,"mean_prob":0.8451,"max_prob":0.8745,"model":"lgbm","n_px":2,"px_area_m2":100.0,"confirmed":false,"confirmed_by":null,"lon":120.843335,"lat":14.572598}},{"type":"Feature","geometry":{"type":"Polygon","coordinates":[[[120.875087,14.570314],[120.875088,14.570133],[120.875274,14.570135],[120.875272,14.570315],[120.875087,14.570314]]]},"properties":{"id":"manila_2019-05-13_lgbm_67","region":"manila","date":"2019-05-13","area_m2":400.0,"mean_prob":0.9324,"max_prob":0.9529,"model":"lgbm","n_px":4,"px_area_m2":100.0,"confirmed":false,"confirmed_by":null,"lon":120.87518,"lat":14.570224}},{"type":"Feature","geometry":{"type":"Polygon","coordinates":[[[120.884283,14.569132],[120.884285,14.568951],[120.884377,14.568952],[120.884376,14.569133],[120.884283,14.569132]]]},"properties":{"id":"manila_2019-05-13_lgbm_68","region":"manila","date":"2019-05-13","area_m2":200.0,"mean_prob":0.7941,"max_prob":0.8745,"model":"lgbm","n_px":2,"px_area_m2":100.0,"confirmed":false,"confirmed_by":null,"lon":120.88433,"lat":14.569042}},{"type":"Feature","geometry":{"type":"Polygon","coordinates":[[[120.810822,14.567371],[120.810823,14.567281],[120.810915,14.567282],[120.810916,14.567191],[120.811009,14.567192],[120.811008,14.567283],[120.810915,14.567282],[120.810915,14.567372],[120.810822,14.567371]]]},"properties":{"id":"manila_2019-05-13_lgbm_69","region":"manila","date":"2019-05-13","area_m2":200.0,"mean_prob":0.8098,"max_prob":0.8902,"model":"lgbm","n_px":2,"px_area_m2":100.0,"confirmed":false,"confirmed_by":null,"lon":120.810915,"lat":14.567282}},{"type":"Feature","geometry":{"type":"Polygon","coordinates":[[[120.840137,14.567554],[120.840138,14.567373],[120.840231,14.567374],[120.840229,14.567554],[120.840137,14.567554]]]},"properties":{"id":"manila_2019-05-13_lgbm_70","region":"manila","date":"2019-05-13","area_m2":200.0,"mean_prob":0.8255,"max_prob":0.9529,"model":"lgbm","n_px":2,"px_area_m2":100.0,"confirmed":false,"confirmed_by":null,"lon":120.840184,"lat":14.567464}},{"type":"Feature","geometry":{"type":"Polygon","coordinates":[[[120.887216,14.563104],[120.887217,14.563014],[120.887403,14.563016],[120.887404,14.562925],[120.887496,14.562926],[120.887496,14.563016],[120.887403,14.563016],[120.887402,14.563106],[120.887216,14.563104]]]},"properties":{"id":"manila_2019-05-13_lgbm_71","region":"manila","date":"2019-05-13","area_m2":300.0,"mean_prob":0.9059,"max_prob":0.9451,"model":"lgbm","n_px":3,"px_area_m2":100.0,"confirmed":false,"confirmed_by":null,"lon":120.887356,"lat":14.56303}},{"type":"Feature","geometry":{"type":"Polygon","coordinates":[[[120.811712,14.561777],[120.811713,14.561687],[120.811898,14.561689],[120.811897,14.561779],[120.811712,14.561777]]]},"properties":{"id":"manila_2019-05-13_lgbm_72","region":"manila","date":"2019-05-13","area_m2":200.0,"mean_prob":0.9706,"max_prob":0.9725,"model":"lgbm","n_px":2,"px_area_m2":100.0,"confirmed":false,"confirmed_by":null,"lon":120.811805,"lat":14.561733}},{"type":"Feature","geometry":{"type":"Polygon","coordinates":[[[120.835461,14.561818],[120.835462,14.561727],[120.835647,14.561729],[120.835647,14.561819],[120.835461,14.561818]]]},"properties":{"id":"manila_2019-05-13_lgbm_73","region":"manila","date":"2019-05-13","area_m2":200.0,"mean_prob":0.7118,"max_prob":0.7647,"model":"lgbm","n_px":2,"px_area_m2":100.0,"confirmed":false,"confirmed_by":null,"lon":120.835554,"lat":14.561773}},{"type":"Feature","geometry":{"type":"Polygon","coordinates":[[[120.932742,14.556101],[120.932744,14.555921],[120.932837,14.555921],[120.932836,14.556012],[120.932929,14.556013],[120.932928,14.556103],[120.932742,14.556101]]]},"properties":{"id":"manila_2019-05-13_lgbm_74","region":"manila","date":"2019-05-13","area_m2":300.0,"mean_prob":0.9307,"max_prob":0.9765,"model":"lgbm","n_px":3,"px_area_m2":100.0,"confirmed":false,"confirmed_by":null,"lon":120.93282,"lat":14.556027}},{"type":"Feature","geometry":{"type":"Polygon","coordinates":[[[120.792301,14.554637],[120.792302,14.554547],[120.792209,14.554546],[120.79221,14.554456],[120.792396,14.554458],[120.792394,14.554638],[120.792301,14.554637]]]},"properties":{"id":"manila_2019-05-13_lgbm_75","region":"manila","date":"2019-05-13","area_m2":300.0,"mean_prob":0.8889,"max_prob":0.9765,"model":"lgbm","n_px":3,"px_area_m2":100.0,"confirmed":false,"confirmed_by":null,"lon":120.792318,"lat":14.554532}},{"type":"Feature","geometry":{"type":"Polygon","coordinates":[[[120.885622,14.555138],[120.885624,14.554957],[120.88581,14.554959],[120.885808,14.55514],[120.885622,14.555138]]]},"properties":{"id":"manila_2019-05-13_lgbm_76","region":"manila","date":"2019-05-13","area_m2":400.0,"mean_prob":0.8137,"max_prob":0.9216,"model":"lgbm","n_px":4,"px_area_m2":100.0,"confirmed":false,"confirmed_by":null,"lon":120.885716,"lat":14.555049}},{"type":"Feature","geometry":{"type":"Polygon","coordinates":[[[120.817907,14.554426],[120.817908,14.554336],[120.818093,14.554337],[120.818093,14.554428],[120.817907,14.554426]]]},"properties":{"id":"manila_2019-05-13_lgbm_77","region":"manila","date":"2019-05-13","area_m2":200.0,"mean_prob":0.8412,"max_prob":0.9843,"model":"lgbm","n_px":2,"px_area_m2":100.0,"confirmed":false,"confirmed_by":null,"lon":120.818,"lat":14.554382}},{"type":"Feature","geometry":{"type":"Polygon","coordinates":[[[120.933871,14.554485],[120.933872,14.554304],[120.934058,14.554306],[120.934057,14.554396],[120.933964,14.554395],[120.933963,14.554486],[120.933871,14.554485]]]},"properties":{"id":"manila_2019-05-13_lgbm_78","region":"manila","date":"2019-05-13","area_m2":300.0,"mean_prob":0.9843,"max_prob":1.0,"model":"lgbm","n_px":3,"px_area_m2":100.0,"confirmed":false,"confirmed_by":null,"lon":120.933949,"lat":14.55438}},{"type":"Feature","geometry":{"type":"Polygon","coordinates":[[[120.788359,14.549902],[120.78836,14.549811],[120.788546,14.549813],[120.788545,14.549903],[120.788359,14.549902]]]},"properties":{"id":"manila_2019-05-13_lgbm_79","region":"manila","date":"2019-05-13","area_m2":200.0,"mean_prob":0.8725,"max_prob":0.9529,"model":"lgbm","n_px":2,"px_area_m2":100.0,"confirmed":false,"confirmed_by":null,"lon":120.788453,"lat":14.549857}},{"type":"Feature","geometry":{"type":"Polygon","coordinates":[[[120.88558,14.549897],[120.885581,14.549716],[120.885674,14.549717],[120.885672,14.549897],[120.88558,14.549897]]]},"properties":{"id":"manila_2019-05-13_lgbm_80","region":"manila","date":"2019-05-13","area_m2":200.0,"mean_prob":0.7118,"max_prob":0.7529,"model":"lgbm","n_px":2,"px_area_m2":100.0,"confirmed":false,"confirmed_by":null,"lon":120.885627,"lat":14.549807}},{"type":"Feature","geometry":{"type":"Polygon","coordinates":[[[120.801637,14.548671],[120.801638,14.548581],[120.801823,14.548583],[120.801822,14.548673],[120.801637,14.548671]]]},"properties":{"id":"manila_2019-05-13_lgbm_81","region":"manila","date":"2019-05-13","area_m2":200.0,"mean_prob":0.7765,"max_prob":0.9059,"model":"lgbm","n_px":2,"px_area_m2":100.0,"confirmed":false,"confirmed_by":null,"lon":120.80173,"lat":14.548627}},{"type":"Feature","geometry":{"type":"Polygon","coordinates":[[[120.88434,14.543651],[120.884342,14.54347],[120.884249,14.543469],[120.884251,14.543288],[120.884344,14.543289],[120.884342,14.54347],[120.884435,14.543471],[120.884433,14.543651],[120.88434,14.543651]]]},"properties":{"id":"manila_2019-05-13_lgbm_82","region":"manila","date":"2019-05-13","area_m2":400.0,"mean_prob":0.8451,"max_prob":0.9608,"model":"lgbm","n_px":4,"px_area_m2":100.0,"confirmed":false,"confirmed_by":null,"lon":120.884342,"lat":14.54347}},{"type":"Feature","geometry":{"type":"Polygon","coordinates":[[[120.883609,14.542469],[120.883612,14.542198],[120.883705,14.542199],[120.883702,14.54247],[120.883609,14.542469]]]},"properties":{"id":"manila_2019-05-13_lgbm_83","region":"manila","date":"2019-05-13","area_m2":300.0,"mean_prob":0.9007,"max_prob":0.9725,"model":"lgbm","n_px":3,"px_area_m2":100.0,"confirmed":true,"confirmed_by":"mdd","lon":120.883657,"lat":14.542334}},{"type":"Feature","geometry":{"type":"Polygon","coordinates":[[[120.882793,14.540474],[120.882794,14.540384],[120.88298,14.540385],[120.882979,14.540476],[120.882793,14.540474]]]},"properties":{"id":"manila_2019-05-13_lgbm_84","region":"manila","date":"2019-05-13","area_m2":200.0,"mean_prob":0.9157,"max_prob":0.9569,"model":"lgbm","n_px":2,"px_area_m2":100.0,"confirmed":false,"confirmed_by":null,"lon":120.882887,"lat":14.54043}},{"type":"Feature","geometry":{"type":"Polygon","coordinates":[[[120.882433,14.539386],[120.882434,14.539296],[120.882619,14.539298],[120.882618,14.539388],[120.882433,14.539386]]]},"properties":{"id":"manila_2019-05-13_lgbm_85","region":"manila","date":"2019-05-13","area_m2":200.0,"mean_prob":0.9294,"max_prob":0.9333,"model":"lgbm","n_px":2,"px_area_m2":100.0,"confirmed":false,"confirmed_by":null,"lon":120.882526,"lat":14.539342}},{"type":"Feature","geometry":{"type":"Polygon","coordinates":[[[120.882169,14.537848],[120.882171,14.537667],[120.882264,14.537668],[120.882263,14.537758],[120.882356,14.537759],[120.882355,14.537849],[120.882169,14.537848]]]},"properties":{"id":"manila_2019-05-13_lgbm_86","region":"manila","date":"2019-05-13","area_m2":300.0,"mean_prob":0.9765,"max_prob":0.9961,"model":"lgbm","n_px":3,"px_area_m2":100.0,"confirmed":false,"confirmed_by":null,"lon":120.882247,"lat":14.537773}},{"type":"Feature","geometry":{"type":"Polygon","coordinates":[[[120.882179,14.536854],[120.882179,14.536763],[120.882087,14.536763],[120.882088,14.536672],[120.88218,14.536673],[120.882179,14.536763],[120.882272,14.536764],[120.882271,14.536855],[120.882179,14.536854]]]},"properties":{"id":"manila_2019-05-13_lgbm_87","region":"manila","date":"2019-05-13","area_m2":200.0,"mean_prob":0.8882,"max_prob":0.9451,"model":"lgbm","n_px":2,"px_area_m2":100.0,"confirmed":false,"confirmed_by":null,"lon":120.882179,"lat":14.536763}},{"type":"Feature","geometry":{"type":"Polygon","coordinates":[[[120.823725,14.528728],[120.823727,14.528547],[120.823819,14.528548],[120.823818,14.528729],[120.823725,14.528728]]]},"properties":{"id":"manila_2019-05-13_lgbm_88","region":"manila","date":"2019-05-13","area_m2":200.0,"mean_prob":0.7353,"max_prob":0.8118,"model":"lgbm","n_px":2,"px_area_m2":100.0,"confirmed":false,"confirmed_by":null,"lon":120.823772,"lat":14.528638}},{"type":"Feature","geometry":{"type":"Polygon","coordinates":[[[120.878765,14.525166],[120.878767,14.524986],[120.87886,14.524986],[120.878858,14.525167],[120.878765,14.525166]]]},"properties":{"id":"manila_2019-05-13_lgbm_89","region":"manila","date":"2019-05-13","area_m2":200.0,"mean_prob":0.7275,"max_prob":0.7843,"model":"lgbm","n_px":2,"px_area_m2":100.0,"confirmed":false,"confirmed_by":null,"lon":120.878812,"lat":14.525076}},{"type":"Feature","geometry":{"type":"Polygon","coordinates":[[[120.80773,14.523428],[120.807732,14.523248],[120.807917,14.523249],[120.807917,14.52334],[120.807824,14.523339],[120.807823,14.523429],[120.80773,14.523428]]]},"properties":{"id":"manila_2019-05-13_lgbm_90","region":"manila","date":"2019-05-13","area_m2":300.0,"mean_prob":0.919,"max_prob":1.0,"model":"lgbm","n_px":3,"px_area_m2":100.0,"confirmed":false,"confirmed_by":null,"lon":120.807808,"lat":14.523324}},{"type":"Feature","geometry":{"type":"Polygon","coordinates":[[[120.741181,14.518731],[120.741182,14.51864],[120.74109,14.518639],[120.74109,14.518549],[120.741183,14.51855],[120.741182,14.51864],[120.741275,14.518641],[120.741274,14.518732],[120.741181,14.518731]]]},"properties":{"id":"manila_2019-05-13_lgbm_91","region":"manila","date":"2019-05-13","area_m2":200.0,"mean_prob":0.8098,"max_prob":0.9725,"model":"lgbm","n_px":2,"px_area_m2":100.0,"confirmed":true,"confirmed_by":"mdd","lon":120.741182,"lat":14.51864}},{"type":"Feature","geometry":{"type":"Polygon","coordinates":[[[120.738237,14.516443],[120.738238,14.516353],[120.738145,14.516352],[120.738146,14.516262],[120.738238,14.516263],[120.738238,14.516353],[120.73833,14.516354],[120.738329,14.516444],[120.738237,14.516443]]]},"properties":{"id":"manila_2019-05-13_lgbm_92","region":"manila","date":"2019-05-13","area_m2":200.0,"mean_prob":0.8098,"max_prob":0.8275,"model":"lgbm","n_px":2,"px_area_m2":100.0,"confirmed":false,"confirmed_by":null,"lon":120.738238,"lat":14.516353}},{"type":"Feature","geometry":{"type":"Polygon","coordinates":[[[120.867521,14.517564],[120.867523,14.517384],[120.867616,14.517384],[120.867614,14.517565],[120.867521,14.517564]]]},"properties":{"id":"manila_2019-05-13_lgbm_93","region":"manila","date":"2019-05-13","area_m2":200.0,"mean_prob":0.8216,"max_prob":0.9216,"model":"lgbm","n_px":2,"px_area_m2":100.0,"confirmed":false,"confirmed_by":null,"lon":120.867569,"lat":14.517474}},{"type":"Feature","geometry":{"type":"Polygon","coordinates":[[[120.840999,14.517051],[120.840999,14.51696],[120.840907,14.516959],[120.840908,14.516869],[120.841,14.51687],[120.840999,14.51696],[120.841092,14.516961],[120.841091,14.517051],[120.840999,14.517051]]]},"properties":{"id":"manila_2019-05-13_lgbm_94","region":"manila","date":"2019-05-13","area_m2":200.0,"mean_prob":0.9294,"max_prob":0.9961,"model":"lgbm","n_px":2,"px_area_m2":100.0,"confirmed":false,"confirmed_by":null,"lon":120.840999,"lat":14.51696}},{"type":"Feature","geometry":{"type":"Polygon","coordinates":[[[120.739355,14.515912],[120.739356,14.515822],[120.739263,14.515821],[120.739264,14.515731],[120.73945,14.515732],[120.739449,14.515823],[120.739541,14.515824],[120.73954,14.515914],[120.739355,14.515912]]]},"properties":{"id":"manila_2019-05-13_lgbm_95","region":"manila","date":"2019-05-13","area_m2":400.0,"mean_prob":0.8755,"max_prob":0.9961,"model":"lgbm","n_px":4,"px_area_m2":100.0,"confirmed":false,"confirmed_by":null,"lon":120.739402,"lat":14.515822}},{"type":"Feature","geometry":{"type":"Polygon","coordinates":[[[120.737224,14.515711],[120.737225,14.515621],[120.737132,14.51562],[120.737133,14.515529],[120.737226,14.51553],[120.737225,14.515621],[120.737317,14.515621],[120.737317,14.515712],[120.737224,14.515711]]]},"properties":{"id":"manila_2019-05-13_lgbm_96","region":"manila","date":"2019-05-13","area_m2":200.0,"mean_prob":0.9667,"max_prob":1.0,"model":"lgbm","n_px":2,"px_area_m2":100.0,"confirmed":false,"confirmed_by":null,"lon":120.737225,"lat":14.515621}},{"type":"Feature","geometry":{"type":"Polygon","coordinates":[[[120.736869,14.514081],[120.73687,14.513991],[120.737056,14.513993],[120.737055,14.514083],[120.736869,14.514081]]]},"properties":{"id":"manila_2019-05-13_lgbm_97","region":"manila","date":"2019-05-13","area_m2":200.0,"mean_prob":0.8588,"max_prob":0.9843,"model":"lgbm","n_px":2,"px_area_m2":100.0,"confirmed":false,"confirmed_by":null,"lon":120.736963,"lat":14.514037}},{"type":"Feature","geometry":{"type":"Polygon","coordinates":[[[120.868422,14.500946],[120.868424,14.500765],[120.868517,14.500766],[120.868515,14.500947],[120.868422,14.500946]]]},"properties":{"id":"manila_2019-05-13_lgbm_98","region":"manila","date":"2019-05-13","area_m2":200.0,"mean_prob":0.9098,"max_prob":0.9451,"model":"lgbm","n_px":2,"px_area_m2":100.0,"confirmed":false,"confirmed_by":null,"lon":120.86847,"lat":14.500856}},{"type":"Feature","geometry":{"type":"Polygon","coordinates":[[[120.843406,14.498368],[120.843407,14.498188],[120.8435,14.498188],[120.843498,14.498369],[120.843406,14.498368]]]},"properties":{"id":"manila_2019-05-13_lgbm_99","region":"manila","date":"2019-05-13","area_m2":200.0,"mean_prob":0.7157,"max_prob":0.7216,"model":"lgbm","n_px":2,"px_area_m2":100.0,"confirmed":false,"confirmed_by":null,"lon":120.843453,"lat":14.498278}}]}