{"type": "FeatureCollection", "features": [{"type": "Feature", "id": "D-SZ-fresh-jakarta-2026-07-19-001-14", "geometry": {"type": "Polygon", "coordinates": [[[106.5410126, -5.9133275], [106.5410128, -5.9134179], [106.5408322, -5.9134184], [106.5408325, -5.9135088], [106.5410131, -5.9135083], [106.5410128, -5.9134179], [106.5411935, -5.9134174], [106.5411932, -5.913327], [106.5410126, -5.9133275]]]}, "properties": {"kind": "detection", "det_id": "D-SZ-fresh-jakarta-2026-07-19-001-14", "zone_id": "SZ-fresh-jakarta-2026-07-19-001", "scene_id": "S2A_MSIL2A_20260719T030151_R032_T48MXU_20260719T105952", "datetime": "2026-07-19T03:01:51.024000Z", "n_pixels": 4, "area_m2": 400, "prob_max": 0.9451, "prob_mean": 0.8608, "threshold": 0.63, "in_strip": true, "artifact": null}}, {"type": "Feature", "id": "D-SZ-fresh-jakarta-2026-07-19-001-15", "geometry": {"type": "Polygon", "coordinates": [[[106.5404712, -5.9135098], [106.5404715, -5.9136003], [106.5405618, -5.9136], [106.5405615, -5.9135096], [106.5404712, -5.9135098]]]}, "properties": {"kind": "detection", "det_id": "D-SZ-fresh-jakarta-2026-07-19-001-15", "zone_id": "SZ-fresh-jakarta-2026-07-19-001", "scene_id": "S2A_MSIL2A_20260719T030151_R032_T48MXU_20260719T105952", "datetime": "2026-07-19T03:01:51.024000Z", "n_pixels": 1, "area_m2": 100, "prob_max": 0.6784, "prob_mean": 0.6784, "threshold": 0.63, "in_strip": true, "artifact": null}}, {"type": "Feature", "id": "D-SZ-fresh-jakarta-2026-07-19-001-16", "geometry": {"type": "Polygon", "coordinates": [[[106.5385759, -5.9139672], [106.5385762, -5.9140577], [106.5386665, -5.9140574], [106.5386662, -5.913967], [106.5385759, -5.9139672]]]}, "properties": {"kind": "detection", "det_id": "D-SZ-fresh-jakarta-2026-07-19-001-16", "zone_id": "SZ-fresh-jakarta-2026-07-19-001", "scene_id": "S2A_MSIL2A_20260719T030151_R032_T48MXU_20260719T105952", "datetime": "2026-07-19T03:01:51.024000Z", "n_pixels": 1, "area_m2": 100, "prob_max": 0.7529, "prob_mean": 0.7529, "threshold": 0.63, "in_strip": true, "artifact": null}}, {"type": "Feature", "id": "D-SZ-fresh-jakarta-2026-07-19-001-17", "geometry": {"type": "Polygon", "coordinates": [[[106.5429114, -5.9141361], [106.5429119, -5.9143169], [106.5430022, -5.9143167], [106.5430017, -5.9141358], [106.5429114, -5.9141361]]]}, "properties": {"kind": "detection", "det_id": "D-SZ-fresh-jakarta-2026-07-19-001-17", "zone_id": "SZ-fresh-jakarta-2026-07-19-001", "scene_id": "S2A_MSIL2A_20260719T030151_R032_T48MXU_20260719T105952", "datetime": "2026-07-19T03:01:51.024000Z", "n_pixels": 2, "area_m2": 200, "prob_max": 0.7333, "prob_mean": 0.7314, "threshold": 0.63, "in_strip": true, "artifact": null}}, {"type": "Feature", "id": "D-SZ-fresh-jakarta-2026-07-19-001-18", "geometry": {"type": "Polygon", "coordinates": [[[106.538035, -5.9143305], [106.5380353, -5.9144209], [106.537945, -5.9144212], [106.5379452, -5.9145116], [106.5380355, -5.9145113], [106.5380353, -5.9144209], [106.5381256, -5.9144207], [106.5381253, -5.9143302], [106.538035, -5.9143305]]]}, "properties": {"kind": "detection", "det_id": "D-SZ-fresh-jakarta-2026-07-19-001-18", "zone_id": "SZ-fresh-jakarta-2026-07-19-001", "scene_id": "S2A_MSIL2A_20260719T030151_R032_T48MXU_20260719T105952", "datetime": "2026-07-19T03:01:51.024000Z", "n_pixels": 2, "area_m2": 200, "prob_max": 0.8588, "prob_mean": 0.7471, "threshold": 0.63, "in_strip": true, "artifact": null}}, {"type": "Feature", "id": "D-SZ-fresh-jakarta-2026-07-19-001-19", "geometry": {"type": "Polygon", "coordinates": [[[106.5374944, -5.9147841], [106.5374949, -5.914965], [106.5375852, -5.9149647], [106.5375847, -5.9147839], [106.5374944, -5.9147841]]]}, "properties": {"kind": "detection", "det_id": "D-SZ-fresh-jakarta-2026-07-19-001-19", "zone_id": "SZ-fresh-jakarta-2026-07-19-001", "scene_id": "S2A_MSIL2A_20260719T030151_R032_T48MXU_20260719T105952", "datetime": "2026-07-19T03:01:51.024000Z", "n_pixels": 2, "area_m2": 200, "prob_max": 0.702, "prob_mean": 0.7, "threshold": 0.63, "in_strip": true, "artifact": null}}, {"type": "Feature", "id": "D-SZ-fresh-jakarta-2026-07-19-001-20", "geometry": {"type": "Polygon", "coordinates": [[[106.5445395, -5.9150359], [106.5445398, -5.9151263], [106.5446301, -5.915126], [106.5446298, -5.9150356], [106.5445395, -5.9150359]]]}, "properties": {"kind": "detection", "det_id": "D-SZ-fresh-jakarta-2026-07-19-001-20", "zone_id": "SZ-fresh-jakarta-2026-07-19-001", "scene_id": "S2A_MSIL2A_20260719T030151_R032_T48MXU_20260719T105952", "datetime": "2026-07-19T03:01:51.024000Z", "n_pixels": 1, "area_m2": 100, "prob_max": 0.7686, "prob_mean": 0.7686, "threshold": 0.63, "in_strip": true, "artifact": null}}, {"type": "Feature", "id": "D-SZ-fresh-jakarta-2026-07-19-001-21", "geometry": {"type": "Polygon", "coordinates": [[[106.5509519, -5.9151084], [106.5509522, -5.9151988], [106.5510425, -5.9151986], [106.5510422, -5.9151082], [106.5509519, -5.9151084]]]}, "properties": {"kind": "detection", "det_id": "D-SZ-fresh-jakarta-2026-07-19-001-21", "zone_id": "SZ-fresh-jakarta-2026-07-19-001", "scene_id": "S2A_MSIL2A_20260719T030151_R032_T48MXU_20260719T105952", "datetime": "2026-07-19T03:01:51.024000Z", "n_pixels": 1, "area_m2": 100, "prob_max": 0.851, "prob_mean": 0.851, "threshold": 0.63, "in_strip": true, "artifact": null}}, {"type": "Feature", "id": "D-SZ-fresh-jakarta-2026-07-19-001-22", "geometry": {"type": "Polygon", "coordinates": [[[106.5365037, -5.9157816], [106.536504, -5.915872], [106.5365943, -5.9158718], [106.536594, -5.9157814], [106.5365037, -5.9157816]]]}, "properties": {"kind": "detection", "det_id": "D-SZ-fresh-jakarta-2026-07-19-001-22", "zone_id": "SZ-fresh-jakarta-2026-07-19-001", "scene_id": "S2A_MSIL2A_20260719T030151_R032_T48MXU_20260719T105952", "datetime": "2026-07-19T03:01:51.024000Z", "n_pixels": 1, "area_m2": 100, "prob_max": 0.6314, "prob_mean": 0.6314, "threshold": 0.63, "in_strip": true, "artifact": null}}, {"type": "Feature", "id": "D-SZ-fresh-jakarta-2026-07-19-001-23", "geometry": {"type": "Polygon", "coordinates": [[[106.5470703, -5.9157523], [106.5470705, -5.9158427], [106.5471608, -5.9158424], [106.5471606, -5.915752], [106.5470703, -5.9157523]]]}, "properties": {"kind": "detection", "det_id": "D-SZ-fresh-jakarta-2026-07-19-001-23", "zone_id": "SZ-fresh-jakarta-2026-07-19-001", "scene_id": "S2A_MSIL2A_20260719T030151_R032_T48MXU_20260719T105952", "datetime": "2026-07-19T03:01:51.024000Z", "n_pixels": 1, "area_m2": 100, "prob_max": 0.7529, "prob_mean": 0.7529, "threshold": 0.63, "in_strip": true, "artifact": null}}, {"type": "Feature", "id": "D-SZ-fresh-jakarta-2026-07-19-001-24", "geometry": {"type": "Polygon", "coordinates": [[[106.5474315, -5.9157513], [106.5474318, -5.9158417], [106.5475221, -5.9158414], [106.5475218, -5.915751], [106.5474315, -5.9157513]]]}, "properties": {"kind": "detection", "det_id": "D-SZ-fresh-jakarta-2026-07-19-001-24", "zone_id": "SZ-fresh-jakarta-2026-07-19-001", "scene_id": "S2A_MSIL2A_20260719T030151_R032_T48MXU_20260719T105952", "datetime": "2026-07-19T03:01:51.024000Z", "n_pixels": 1, "area_m2": 100, "prob_max": 0.6863, "prob_mean": 0.6863, "threshold": 0.63, "in_strip": true, "artifact": null}}, {"type": "Feature", "id": "D-SZ-fresh-jakarta-2026-07-19-001-25", "geometry": {"type": "Polygon", "coordinates": [[[106.5456255, -5.9158467], [106.5456258, -5.9159371], [106.5458064, -5.9159366], [106.5458062, -5.9158462], [106.5456255, -5.9158467]]]}, "properties": {"kind": "detection", "det_id": "D-SZ-fresh-jakarta-2026-07-19-001-25", "zone_id": "SZ-fresh-jakarta-2026-07-19-001", "scene_id": "S2A_MSIL2A_20260719T030151_R032_T48MXU_20260719T105952", "datetime": "2026-07-19T03:01:51.024000Z", "n_pixels": 2, "area_m2": 200, "prob_max": 0.8627, "prob_mean": 0.8333, "threshold": 0.63, "in_strip": true, "artifact": null}}, {"type": "Feature", "id": "D-SZ-fresh-jakarta-2026-07-19-001-26", "geometry": {"type": "Polygon", "coordinates": [[[106.5477027, -5.9158409], [106.547703, -5.9159314], [106.5477933, -5.9159311], [106.547793, -5.9158407], [106.5477027, -5.9158409]]]}, "properties": {"kind": "detection", "det_id": "D-SZ-fresh-jakarta-2026-07-19-001-26", "zone_id": "SZ-fresh-jakarta-2026-07-19-001", "scene_id": "S2A_MSIL2A_20260719T030151_R032_T48MXU_20260719T105952", "datetime": "2026-07-19T03:01:51.024000Z", "n_pixels": 1, "area_m2": 100, "prob_max": 0.7843, "prob_mean": 0.7843, "threshold": 0.63, "in_strip": true, "artifact": null}}, {"type": "Feature", "id": "D-SZ-fresh-jakarta-2026-07-19-001-27", "geometry": {"type": "Polygon", "coordinates": [[[106.5466192, -5.9159344], [106.5466195, -5.9160248], [106.5468001, -5.9160243], [106.5467998, -5.9159339], [106.5466192, -5.9159344]]]}, "properties": {"kind": "detection", "det_id": "D-SZ-fresh-jakarta-2026-07-19-001-27", "zone_id": "SZ-fresh-jakarta-2026-07-19-001", "scene_id": "S2A_MSIL2A_20260719T030151_R032_T48MXU_20260719T105952", "datetime": "2026-07-19T03:01:51.024000Z", "n_pixels": 2, "area_m2": 200, "prob_max": 0.949, "prob_mean": 0.902, "threshold": 0.63, "in_strip": true, "artifact": null}}, {"type": "Feature", "id": "D-SZ-fresh-jakarta-2026-07-19-001-28", "geometry": {"type": "Polygon", "coordinates": [[[106.5481545, -5.9159301], [106.5481548, -5.9160205], [106.5482451, -5.9160203], [106.5482453, -5.9161107], [106.5483356, -5.9161105], [106.5483354, -5.91602], [106.5482451, -5.9160203], [106.5482448, -5.9159298], [106.5481545, -5.9159301]]]}, "properties": {"kind": "detection", "det_id": "D-SZ-fresh-jakarta-2026-07-19-001-28", "zone_id": "SZ-fresh-jakarta-2026-07-19-001", "scene_id": "S2A_MSIL2A_20260719T030151_R032_T48MXU_20260719T105952", "datetime": "2026-07-19T03:01:51.024000Z", "n_pixels": 2, "area_m2": 200, "prob_max": 0.9294, "prob_mean": 0.9235, "threshold": 0.63, "in_strip": true, "artifact": null}}, {"type": "Feature", "id": "D-SZ-fresh-jakarta-2026-07-19-001-29", "geometry": {"type": "Polygon", "coordinates": [[[106.5460776, -5.9160263], [106.5460778, -5.9161168], [106.5465294, -5.9161155], [106.5465292, -5.9160251], [106.5460776, -5.9160263]]]}, "properties": {"kind": "detection", "det_id": "D-SZ-fresh-jakarta-2026-07-19-001-29", "zone_id": "SZ-fresh-jakarta-2026-07-19-001", "scene_id": "S2A_MSIL2A_20260719T030151_R032_T48MXU_20260719T105952", "datetime": "2026-07-19T03:01:51.024000Z", "n_pixels": 5, "area_m2": 500, "prob_max": 0.8235, "prob_mean": 0.749, "threshold": 0.63, "in_strip": true, "artifact": null}}, {"type": "Feature", "id": "D-SZ-fresh-jakarta-2026-07-19-001-30", "geometry": {"type": "Polygon", "coordinates": [[[106.5361435, -5.9161443], [106.5361437, -5.9162348], [106.536234, -5.9162345], [106.5362338, -5.9161441], [106.5361435, -5.9161443]]]}, "properties": {"kind": "detection", "det_id": "D-SZ-fresh-jakarta-2026-07-19-001-30", "zone_id": "SZ-fresh-jakarta-2026-07-19-001", "scene_id": "S2A_MSIL2A_20260719T030151_R032_T48MXU_20260719T105952", "datetime": "2026-07-19T03:01:51.024000Z", "n_pixels": 1, "area_m2": 100, "prob_max": 0.9529, "prob_mean": 0.9529, "threshold": 0.63, "in_strip": true, "artifact": null}}, {"type": "Feature", "id": "D-SZ-fresh-jakarta-2026-07-19-001-31", "geometry": {"type": "Polygon", "coordinates": [[[106.5361445, -5.9165061], [106.5361447, -5.9165965], [106.536235, -5.9165962], [106.5362348, -5.9165058], [106.5361445, -5.9165061]]]}, "properties": {"kind": "detection", "det_id": "D-SZ-fresh-jakarta-2026-07-19-001-31", "zone_id": "SZ-fresh-jakarta-2026-07-19-001", "scene_id": "S2A_MSIL2A_20260719T030151_R032_T48MXU_20260719T105952", "datetime": "2026-07-19T03:01:51.024000Z", "n_pixels": 1, "area_m2": 100, "prob_max": 0.7059, "prob_mean": 0.7059, "threshold": 0.63, "in_strip": true, "artifact": null}}, {"type": "Feature", "id": "D-SZ-fresh-jakarta-2026-07-19-001-32", "geometry": {"type": "Polygon", "coordinates": [[[106.5360546, -5.9166872], [106.5360549, -5.9167776], [106.5361452, -5.9167774], [106.536145, -5.9166869], [106.5360546, -5.9166872]]]}, "properties": {"kind": "detection", "det_id": "D-SZ-fresh-jakarta-2026-07-19-001-32", "zone_id": "SZ-fresh-jakarta-2026-07-19-001", "scene_id": "S2A_MSIL2A_20260719T030151_R032_T48MXU_20260719T105952", "datetime": "2026-07-19T03:01:51.024000Z", "n_pixels": 1, "area_m2": 100, "prob_max": 0.6902, "prob_mean": 0.6902, "threshold": 0.63, "in_strip": true, "artifact": null}}, {"type": "Feature", "id": "D-SZ-fresh-jakarta-2026-07-19-001-33", "geometry": {"type": "Polygon", "coordinates": [[[106.5505067, -5.9173704], [106.5505069, -5.9174609], [106.5506875, -5.9174604], [106.5506873, -5.9173699], [106.5505067, -5.9173704]]]}, "properties": {"kind": "detection", "det_id": "D-SZ-fresh-jakarta-2026-07-19-001-33", "zone_id": "SZ-fresh-jakarta-2026-07-19-001", "scene_id": "S2A_MSIL2A_20260719T030151_R032_T48MXU_20260719T105952", "datetime": "2026-07-19T03:01:51.024000Z", "n_pixels": 2, "area_m2": 200, "prob_max": 0.8392, "prob_mean": 0.8118, "threshold": 0.63, "in_strip": true, "artifact": null}}, {"type": "Feature", "id": "D-SZ-fresh-jakarta-2026-07-19-001-34", "geometry": {"type": "Polygon", "coordinates": [[[106.534794, -5.9180471], [106.5347943, -5.9181376], [106.5348846, -5.9181373], [106.5348843, -5.9180469], [106.534794, -5.9180471]]]}, "properties": {"kind": "detection", "det_id": "D-SZ-fresh-jakarta-2026-07-19-001-34", "zone_id": "SZ-fresh-jakarta-2026-07-19-001", "scene_id": "S2A_MSIL2A_20260719T030151_R032_T48MXU_20260719T105952", "datetime": "2026-07-19T03:01:51.024000Z", "n_pixels": 1, "area_m2": 100, "prob_max": 0.8, "prob_mean": 0.8, "threshold": 0.63, "in_strip": true, "artifact": null}}, {"type": "Feature", "id": "D-SZ-fresh-jakarta-2026-07-19-001-35", "geometry": {"type": "Polygon", "coordinates": [[[106.5515019, -5.9180007], [106.5515021, -5.9180911], [106.5515924, -5.9180908], [106.5515922, -5.9180004], [106.5515019, -5.9180007]]]}, "properties": {"kind": "detection", "det_id": "D-SZ-fresh-jakarta-2026-07-19-001-35", "zone_id": "SZ-fresh-jakarta-2026-07-19-001", "scene_id": "S2A_MSIL2A_20260719T030151_R032_T48MXU_20260719T105952", "datetime": "2026-07-19T03:01:51.024000Z", "n_pixels": 1, "area_m2": 100, "prob_max": 0.7255, "prob_mean": 0.7255, "threshold": 0.63, "in_strip": true, "artifact": null}}, {"type": "Feature", "id": "D-SZ-fresh-jakarta-2026-07-19-001-37", "geometry": {"type": "Polygon", "coordinates": [[[106.5513223, -5.9183629], [106.5513228, -5.9185437], [106.5514131, -5.9185435], [106.5514126, -5.9183626], [106.5513223, -5.9183629]]]}, "properties": {"kind": "detection", "det_id": "D-SZ-fresh-jakarta-2026-07-19-001-37", "zone_id": "SZ-fresh-jakarta-2026-07-19-001", "scene_id": "S2A_MSIL2A_20260719T030151_R032_T48MXU_20260719T105952", "datetime": "2026-07-19T03:01:51.024000Z", "n_pixels": 2, "area_m2": 200, "prob_max": 0.7882, "prob_mean": 0.7529, "threshold": 0.63, "in_strip": true, "artifact": null}}, {"type": "Feature", "id": "D-SZ-fresh-jakarta-2026-07-19-001-40", "geometry": {"type": "Polygon", "coordinates": [[[106.534074, -5.9189534], [106.5340742, -5.9190439], [106.5341646, -5.9190436], [106.5341643, -5.9189532], [106.534074, -5.9189534]]]}, "properties": {"kind": "detection", "det_id": "D-SZ-fresh-jakarta-2026-07-19-001-40", "zone_id": "SZ-fresh-jakarta-2026-07-19-001", "scene_id": "S2A_MSIL2A_20260719T030151_R032_T48MXU_20260719T105952", "datetime": "2026-07-19T03:01:51.024000Z", "n_pixels": 1, "area_m2": 100, "prob_max": 0.8392, "prob_mean": 0.8392, "threshold": 0.63, "in_strip": true, "artifact": null}}, {"type": "Feature", "id": "D-SZ-fresh-jakarta-2026-07-19-001-41", "geometry": {"type": "Polygon", "coordinates": [[[106.5339844, -5.919225], [106.5339847, -5.9193154], [106.534075, -5.9193152], [106.5340747, -5.9192247], [106.5339844, -5.919225]]]}, "properties": {"kind": "detection", "det_id": "D-SZ-fresh-jakarta-2026-07-19-001-41", "zone_id": "SZ-fresh-jakarta-2026-07-19-001", "scene_id": "S2A_MSIL2A_20260719T030151_R032_T48MXU_20260719T105952", "datetime": "2026-07-19T03:01:51.024000Z", "n_pixels": 1, "area_m2": 100, "prob_max": 0.8314, "prob_mean": 0.8314, "threshold": 0.63, "in_strip": true, "artifact": null}}, {"type": "Feature", "id": "D-SZ-fresh-jakarta-2026-07-19-001-42", "geometry": {"type": "Polygon", "coordinates": [[[106.5338048, -5.9195872], [106.5338053, -5.9197681], [106.5338956, -5.9197678], [106.5338951, -5.919587], [106.5338048, -5.9195872]]]}, "properties": {"kind": "detection", "det_id": "D-SZ-fresh-jakarta-2026-07-19-001-42", "zone_id": "SZ-fresh-jakarta-2026-07-19-001", "scene_id": "S2A_MSIL2A_20260719T030151_R032_T48MXU_20260719T105952", "datetime": "2026-07-19T03:01:51.024000Z", "n_pixels": 2, "area_m2": 200, "prob_max": 0.9843, "prob_mean": 0.9686, "threshold": 0.63, "in_strip": true, "artifact": null}}, {"type": "Feature", "id": "D-SZ-fresh-jakarta-2026-07-19-001-44", "geometry": {"type": "Polygon", "coordinates": [[[106.5330848, -5.9204935], [106.533085, -5.9205839], [106.5331753, -5.9205837], [106.5331751, -5.9204933], [106.5330848, -5.9204935]]]}, "properties": {"kind": "detection", "det_id": "D-SZ-fresh-jakarta-2026-07-19-001-44", "zone_id": "SZ-fresh-jakarta-2026-07-19-001", "scene_id": "S2A_MSIL2A_20260719T030151_R032_T48MXU_20260719T105952", "datetime": "2026-07-19T03:01:51.024000Z", "n_pixels": 1, "area_m2": 100, "prob_max": 0.9098, "prob_mean": 0.9098, "threshold": 0.63, "in_strip": true, "artifact": null}}, {"type": "Feature", "id": "D-SZ-fresh-jakarta-2026-07-19-001-45", "geometry": {"type": "Polygon", "coordinates": [[[106.5328143, -5.9206751], [106.5328146, -5.9207656], [106.5329049, -5.9207653], [106.5329047, -5.9206749], [106.5328143, -5.9206751]]]}, "properties": {"kind": "detection", "det_id": "D-SZ-fresh-jakarta-2026-07-19-001-45", "zone_id": "SZ-fresh-jakarta-2026-07-19-001", "scene_id": "S2A_MSIL2A_20260719T030151_R032_T48MXU_20260719T105952", "datetime": "2026-07-19T03:01:51.024000Z", "n_pixels": 1, "area_m2": 100, "prob_max": 0.6392, "prob_mean": 0.6392, "threshold": 0.63, "in_strip": true, "artifact": null}}, {"type": "Feature", "id": "D-SZ-fresh-jakarta-2026-07-19-001-46", "geometry": {"type": "Polygon", "coordinates": [[[106.5325444, -5.9210376], [106.5325446, -5.921128], [106.532635, -5.9211278], [106.5326347, -5.9210373], [106.5325444, -5.9210376]]]}, "properties": {"kind": "detection", "det_id": "D-SZ-fresh-jakarta-2026-07-19-001-46", "zone_id": "SZ-fresh-jakarta-2026-07-19-001", "scene_id": "S2A_MSIL2A_20260719T030151_R032_T48MXU_20260719T105952", "datetime": "2026-07-19T03:01:51.024000Z", "n_pixels": 1, "area_m2": 100, "prob_max": 0.8471, "prob_mean": 0.8471, "threshold": 0.63, "in_strip": true, "artifact": null}}, {"type": "Feature", "id": "D-SZ-fresh-jakarta-2026-07-19-001-47", "geometry": {"type": "Polygon", "coordinates": [[[106.5324546, -5.9212187], [106.5324553, -5.92149], [106.5325456, -5.9214897], [106.5325449, -5.9212185], [106.5324546, -5.9212187]]]}, "properties": {"kind": "detection", "det_id": "D-SZ-fresh-jakarta-2026-07-19-001-47", "zone_id": "SZ-fresh-jakarta-2026-07-19-001", "scene_id": "S2A_MSIL2A_20260719T030151_R032_T48MXU_20260719T105952", "datetime": "2026-07-19T03:01:51.024000Z", "n_pixels": 3, "area_m2": 300, "prob_max": 0.9294, "prob_mean": 0.8157, "threshold": 0.63, "in_strip": true, "artifact": null}}, {"type": "Feature", "id": "D-SZ-fresh-jakarta-2026-07-19-001-49", "geometry": {"type": "Polygon", "coordinates": [[[106.532275, -5.9215809], [106.5322752, -5.9216714], [106.5321849, -5.9216716], [106.5321851, -5.921762], [106.5322754, -5.9217618], [106.5322752, -5.9216714], [106.5323655, -5.9216711], [106.5323653, -5.9215807], [106.532275, -5.9215809]]]}, "properties": {"kind": "detection", "det_id": "D-SZ-fresh-jakarta-2026-07-19-001-49", "zone_id": "SZ-fresh-jakarta-2026-07-19-001", "scene_id": "S2A_MSIL2A_20260719T030151_R032_T48MXU_20260719T105952", "datetime": "2026-07-19T03:01:51.024000Z", "n_pixels": 2, "area_m2": 200, "prob_max": 0.8431, "prob_mean": 0.8059, "threshold": 0.63, "in_strip": true, "artifact": null}}, {"type": "Feature", "id": "D-SZ-fresh-jakarta-2026-07-19-001-51", "geometry": {"type": "Polygon", "coordinates": [[[106.5318246, -5.9220343], [106.5318249, -5.9221248], [106.5319152, -5.9221245], [106.5319149, -5.9220341], [106.5318246, -5.9220343]]]}, "properties": {"kind": "detection", "det_id": "D-SZ-fresh-jakarta-2026-07-19-001-51", "zone_id": "SZ-fresh-jakarta-2026-07-19-001", "scene_id": "S2A_MSIL2A_20260719T030151_R032_T48MXU_20260719T105952", "datetime": "2026-07-19T03:01:51.024000Z", "n_pixels": 1, "area_m2": 100, "prob_max": 0.6824, "prob_mean": 0.6824, "threshold": 0.63, "in_strip": true, "artifact": null}}, {"type": "Feature", "id": "D-SZ-fresh-jakarta-2026-07-19-001-52", "geometry": {"type": "Polygon", "coordinates": [[[106.5314639, -5.9222162], [106.5314644, -5.9223971], [106.5315547, -5.9223968], [106.5315542, -5.9222159], [106.5314639, -5.9222162]]]}, "properties": {"kind": "detection", "det_id": "D-SZ-fresh-jakarta-2026-07-19-001-52", "zone_id": "SZ-fresh-jakarta-2026-07-19-001", "scene_id": "S2A_MSIL2A_20260719T030151_R032_T48MXU_20260719T105952", "datetime": "2026-07-19T03:01:51.024000Z", "n_pixels": 2, "area_m2": 200, "prob_max": 0.9647, "prob_mean": 0.9627, "threshold": 0.63, "in_strip": true, "artifact": null}}, {"type": "Feature", "id": "D-SZ-fresh-jakarta-2026-07-19-001-53", "geometry": {"type": "Polygon", "coordinates": [[[106.5304709, -5.9223998], [106.5304712, -5.9224902], [106.5305615, -5.92249], [106.5305612, -5.9223995], [106.5304709, -5.9223998]]]}, "properties": {"kind": "detection", "det_id": "D-SZ-fresh-jakarta-2026-07-19-001-53", "zone_id": "SZ-fresh-jakarta-2026-07-19-001", "scene_id": "S2A_MSIL2A_20260719T030151_R032_T48MXU_20260719T105952", "datetime": "2026-07-19T03:01:51.024000Z", "n_pixels": 1, "area_m2": 100, "prob_max": 0.6549, "prob_mean": 0.6549, "threshold": 0.63, "in_strip": true, "artifact": null}}, {"type": "Feature", "id": "D-SZ-fresh-jakarta-2026-07-19-001-54", "geometry": {"type": "Polygon", "coordinates": [[[106.5312837, -5.9223975], [106.531284, -5.922488], [106.5311937, -5.9224882], [106.5311939, -5.9225787], [106.5312842, -5.9225784], [106.531284, -5.922488], [106.5313743, -5.9224877], [106.5313741, -5.9223973], [106.5312837, -5.9223975]]]}, "properties": {"kind": "detection", "det_id": "D-SZ-fresh-jakarta-2026-07-19-001-54", "zone_id": "SZ-fresh-jakarta-2026-07-19-001", "scene_id": "S2A_MSIL2A_20260719T030151_R032_T48MXU_20260719T105952", "datetime": "2026-07-19T03:01:51.024000Z", "n_pixels": 2, "area_m2": 200, "prob_max": 0.8549, "prob_mean": 0.8314, "threshold": 0.63, "in_strip": true, "artifact": null}}, {"type": "Feature", "id": "D-SZ-fresh-jakarta-2026-07-19-001-56", "geometry": {"type": "Polygon", "coordinates": [[[106.5299298, -5.9226726], [106.52993, -5.922763], [106.5300203, -5.9227628], [106.5300201, -5.9226723], [106.5299298, -5.9226726]]]}, "properties": {"kind": "detection", "det_id": "D-SZ-fresh-jakarta-2026-07-19-001-56", "zone_id": "SZ-fresh-jakarta-2026-07-19-001", "scene_id": "S2A_MSIL2A_20260719T030151_R032_T48MXU_20260719T105952", "datetime": "2026-07-19T03:01:51.024000Z", "n_pixels": 1, "area_m2": 100, "prob_max": 0.9882, "prob_mean": 0.9882, "threshold": 0.63, "in_strip": true, "artifact": null}}, {"type": "Feature", "id": "D-SZ-fresh-jakarta-2026-07-19-001-57", "geometry": {"type": "Polygon", "coordinates": [[[106.5297494, -5.9227635], [106.5297496, -5.9228539], [106.5296593, -5.9228542], [106.5296596, -5.9229446], [106.5297499, -5.9229444], [106.5297496, -5.9228539], [106.52984, -5.9228537], [106.5298397, -5.9227633], [106.5297494, -5.9227635]]]}, "properties": {"kind": "detection", "det_id": "D-SZ-fresh-jakarta-2026-07-19-001-57", "zone_id": "SZ-fresh-jakarta-2026-07-19-001", "scene_id": "S2A_MSIL2A_20260719T030151_R032_T48MXU_20260719T105952", "datetime": "2026-07-19T03:01:51.024000Z", "n_pixels": 2, "area_m2": 200, "prob_max": 0.8824, "prob_mean": 0.7667, "threshold": 0.63, "in_strip": true, "artifact": null}}, {"type": "Feature", "id": "D-SZ-fresh-jakarta-2026-07-19-001-58", "geometry": {"type": "Polygon", "coordinates": [[[106.5289373, -5.923037], [106.5289376, -5.9231275], [106.5291182, -5.923127], [106.5291179, -5.9230365], [106.5289373, -5.923037]]]}, "properties": {"kind": "detection", "det_id": "D-SZ-fresh-jakarta-2026-07-19-001-58", "zone_id": "SZ-fresh-jakarta-2026-07-19-001", "scene_id": "S2A_MSIL2A_20260719T030151_R032_T48MXU_20260719T105952", "datetime": "2026-07-19T03:01:51.024000Z", "n_pixels": 2, "area_m2": 200, "prob_max": 0.8902, "prob_mean": 0.8255, "threshold": 0.63, "in_strip": true, "artifact": null}}, {"type": "Feature", "id": "D-SZ-fresh-jakarta-2026-07-19-001-59", "geometry": {"type": "Polygon", "coordinates": [[[106.5292986, -5.9230361], [106.5292988, -5.9231265], [106.5294795, -5.923126], [106.5294792, -5.9230356], [106.5292986, -5.9230361]]]}, "properties": {"kind": "detection", "det_id": "D-SZ-fresh-jakarta-2026-07-19-001-59", "zone_id": "SZ-fresh-jakarta-2026-07-19-001", "scene_id": "S2A_MSIL2A_20260719T030151_R032_T48MXU_20260719T105952", "datetime": "2026-07-19T03:01:51.024000Z", "n_pixels": 2, "area_m2": 200, "prob_max": 0.8235, "prob_mean": 0.7686, "threshold": 0.63, "in_strip": true, "artifact": null}}, {"type": "Feature", "id": "D-SZ-fresh-jakarta-2026-07-19-001-61", "geometry": {"type": "Polygon", "coordinates": [[[106.5283962, -5.9233098], [106.5283964, -5.9234003], [106.5284867, -5.9234], [106.5284865, -5.9233096], [106.5283962, -5.9233098]]]}, "properties": {"kind": "detection", "det_id": "D-SZ-fresh-jakarta-2026-07-19-001-61", "zone_id": "SZ-fresh-jakarta-2026-07-19-001", "scene_id": "S2A_MSIL2A_20260719T030151_R032_T48MXU_20260719T105952", "datetime": "2026-07-19T03:01:51.024000Z", "n_pixels": 1, "area_m2": 100, "prob_max": 0.8392, "prob_mean": 0.8392, "threshold": 0.63, "in_strip": true, "artifact": null}}, {"type": "Feature", "id": "D-SZ-fresh-jakarta-2026-07-19-001-62", "geometry": {"type": "Polygon", "coordinates": [[[106.527855, -5.9235826], [106.5278553, -5.9236731], [106.5279456, -5.9236728], [106.5279454, -5.9235824], [106.527855, -5.9235826]]]}, "properties": {"kind": "detection", "det_id": "D-SZ-fresh-jakarta-2026-07-19-001-62", "zone_id": "SZ-fresh-jakarta-2026-07-19-001", "scene_id": "S2A_MSIL2A_20260719T030151_R032_T48MXU_20260719T105952", "datetime": "2026-07-19T03:01:51.024000Z", "n_pixels": 1, "area_m2": 100, "prob_max": 0.9451, "prob_mean": 0.9451, "threshold": 0.63, "in_strip": true, "artifact": null}}, {"type": "Feature", "id": "D-SZ-fresh-jakarta-2026-07-19-001-65", "geometry": {"type": "Polygon", "coordinates": [[[106.5267725, -5.9240378], [106.5267728, -5.9241282], [106.5268631, -5.9241279], [106.5268628, -5.9240375], [106.5267725, -5.9240378]]]}, "properties": {"kind": "detection", "det_id": "D-SZ-fresh-jakarta-2026-07-19-001-65", "zone_id": "SZ-fresh-jakarta-2026-07-19-001", "scene_id": "S2A_MSIL2A_20260719T030151_R032_T48MXU_20260719T105952", "datetime": "2026-07-19T03:01:51.024000Z", "n_pixels": 1, "area_m2": 100, "prob_max": 0.8196, "prob_mean": 0.8196, "threshold": 0.63, "in_strip": true, "artifact": null}}, {"type": "Feature", "id": "D-SZ-fresh-jakarta-2026-07-19-001-66", "geometry": {"type": "Polygon", "coordinates": [[[106.5266827, -5.9242189], [106.5266829, -5.9243093], [106.5265926, -5.9243096], [106.5265929, -5.9244], [106.5266832, -5.9243997], [106.5266829, -5.9243093], [106.5267733, -5.9243091], [106.526773, -5.9242186], [106.5266827, -5.9242189]]]}, "properties": {"kind": "detection", "det_id": "D-SZ-fresh-jakarta-2026-07-19-001-66", "zone_id": "SZ-fresh-jakarta-2026-07-19-001", "scene_id": "S2A_MSIL2A_20260719T030151_R032_T48MXU_20260719T105952", "datetime": "2026-07-19T03:01:51.024000Z", "n_pixels": 2, "area_m2": 200, "prob_max": 0.9137, "prob_mean": 0.8784, "threshold": 0.63, "in_strip": true, "artifact": null}}, {"type": "Feature", "id": "D-SZ-fresh-jakarta-2026-07-19-001-67", "geometry": {"type": "Polygon", "coordinates": [[[106.5262321, -5.9245818], [106.5262324, -5.9246723], [106.526142, -5.9246725], [106.5261425, -5.9248534], [106.5262329, -5.9248531], [106.5262326, -5.9247627], [106.5263229, -5.9247625], [106.5263224, -5.9245816], [106.5262321, -5.9245818]]]}, "properties": {"kind": "detection", "det_id": "D-SZ-fresh-jakarta-2026-07-19-001-67", "zone_id": "SZ-fresh-jakarta-2026-07-19-001", "scene_id": "S2A_MSIL2A_20260719T030151_R032_T48MXU_20260719T105952", "datetime": "2026-07-19T03:01:51.024000Z", "n_pixels": 4, "area_m2": 400, "prob_max": 0.9059, "prob_mean": 0.8265, "threshold": 0.63, "in_strip": true, "artifact": null}}, {"type": "Feature", "id": "D-SZ-fresh-jakarta-2026-07-19-001-68", "geometry": {"type": "Polygon", "coordinates": [[[106.5256011, -5.9250357], [106.5256014, -5.9251262], [106.5256917, -5.9251259], [106.5256915, -5.9250355], [106.5256011, -5.9250357]]]}, "properties": {"kind": "detection", "det_id": "D-SZ-fresh-jakarta-2026-07-19-001-68", "zone_id": "SZ-fresh-jakarta-2026-07-19-001", "scene_id": "S2A_MSIL2A_20260719T030151_R032_T48MXU_20260719T105952", "datetime": "2026-07-19T03:01:51.024000Z", "n_pixels": 1, "area_m2": 100, "prob_max": 0.8627, "prob_mean": 0.8627, "threshold": 0.63, "in_strip": true, "artifact": null}}, {"type": "Feature", "id": "D-SZ-fresh-jakarta-2026-07-19-002-36", "geometry": {"type": "Polygon", "coordinates": [[[106.388573, -5.9187941], [106.3885732, -5.9188845], [106.3886635, -5.9188843], [106.3886633, -5.9187939], [106.388573, -5.9187941]]]}, "properties": {"kind": "detection", "det_id": "D-SZ-fresh-jakarta-2026-07-19-002-36", "zone_id": "SZ-fresh-jakarta-2026-07-19-002", "scene_id": "S2A_MSIL2A_20260719T030151_R032_T48MXU_20260719T105952", "datetime": "2026-07-19T03:01:51.024000Z", "n_pixels": 1, "area_m2": 100, "prob_max": 0.6667, "prob_mean": 0.6667, "threshold": 0.63, "in_strip": true, "artifact": null}}, {"type": "Feature", "id": "D-SZ-fresh-jakarta-2026-07-19-002-38", "geometry": {"type": "Polygon", "coordinates": [[[106.3892057, -5.9189734], [106.3892059, -5.9190638], [106.3892962, -5.9190636], [106.3892964, -5.919154], [106.3893868, -5.9191538], [106.3893865, -5.9190634], [106.3892962, -5.9190636], [106.389296, -5.9189732], [106.3892057, -5.9189734]]]}, "properties": {"kind": "detection", "det_id": "D-SZ-fresh-jakarta-2026-07-19-002-38", "zone_id": "SZ-fresh-jakarta-2026-07-19-002", "scene_id": "S2A_MSIL2A_20260719T030151_R032_T48MXU_20260719T105952", "datetime": "2026-07-19T03:01:51.024000Z", "n_pixels": 2, "area_m2": 200, "prob_max": 0.8039, "prob_mean": 0.7686, "threshold": 0.63, "in_strip": true, "artifact": null}}, {"type": "Feature", "id": "D-SZ-fresh-jakarta-2026-07-19-002-39", "geometry": {"type": "Polygon", "coordinates": [[[106.3894771, -5.9191536], [106.3894773, -5.919244], [106.3896579, -5.9192436], [106.3896577, -5.9191531], [106.3894771, -5.9191536]]]}, "properties": {"kind": "detection", "det_id": "D-SZ-fresh-jakarta-2026-07-19-002-39", "zone_id": "SZ-fresh-jakarta-2026-07-19-002", "scene_id": "S2A_MSIL2A_20260719T030151_R032_T48MXU_20260719T105952", "datetime": "2026-07-19T03:01:51.024000Z", "n_pixels": 2, "area_m2": 200, "prob_max": 0.9216, "prob_mean": 0.8294, "threshold": 0.63, "in_strip": true, "artifact": null}}, {"type": "Feature", "id": "D-SZ-fresh-jakarta-2026-07-19-003-74", "geometry": {"type": "Polygon", "coordinates": [[[106.5669832, -5.9314312], [106.5669835, -5.9315217], [106.5668029, -5.9315222], [106.5668031, -5.9316126], [106.5669837, -5.9316121], [106.5669835, -5.9315217], [106.5670738, -5.9315214], [106.5670736, -5.931431], [106.5669832, -5.9314312]]]}, "properties": {"kind": "detection", "det_id": "D-SZ-fresh-jakarta-2026-07-19-003-74", "zone_id": "SZ-fresh-jakarta-2026-07-19-003", "scene_id": "S2A_MSIL2A_20260719T030151_R032_T48MXU_20260719T105952", "datetime": "2026-07-19T03:01:51.024000Z", "n_pixels": 3, "area_m2": 300, "prob_max": 0.9725, "prob_mean": 0.8784, "threshold": 0.63, "in_strip": true, "artifact": null}}, {"type": "Feature", "id": "D-SZ-fresh-jakarta-2026-07-19-003-75", "geometry": {"type": "Polygon", "coordinates": [[[106.5677057, -5.9314292], [106.567706, -5.9315196], [106.5677963, -5.9315194], [106.5677961, -5.9314289], [106.5677057, -5.9314292]]]}, "properties": {"kind": "detection", "det_id": "D-SZ-fresh-jakarta-2026-07-19-003-75", "zone_id": "SZ-fresh-jakarta-2026-07-19-003", "scene_id": "S2A_MSIL2A_20260719T030151_R032_T48MXU_20260719T105952", "datetime": "2026-07-19T03:01:51.024000Z", "n_pixels": 1, "area_m2": 100, "prob_max": 0.6863, "prob_mean": 0.6863, "threshold": 0.63, "in_strip": true, "artifact": null}}, {"type": "Feature", "id": "D-SZ-fresh-jakarta-2026-07-19-003-77", "geometry": {"type": "Polygon", "coordinates": [[[106.5661707, -5.931524], [106.5661709, -5.9316144], [106.5662612, -5.9316141], [106.566261, -5.9315237], [106.5661707, -5.931524]]]}, "properties": {"kind": "detection", "det_id": "D-SZ-fresh-jakarta-2026-07-19-003-77", "zone_id": "SZ-fresh-jakarta-2026-07-19-003", "scene_id": "S2A_MSIL2A_20260719T030151_R032_T48MXU_20260719T105952", "datetime": "2026-07-19T03:01:51.024000Z", "n_pixels": 1, "area_m2": 100, "prob_max": 0.8627, "prob_mean": 0.8627, "threshold": 0.63, "in_strip": true, "artifact": null}}, {"type": "Feature", "id": "D-SZ-fresh-jakarta-2026-07-19-004-76", "geometry": {"type": "Polygon", "coordinates": [[[106.5770984, -5.9314025], [106.5770986, -5.931493], [106.5771889, -5.9314927], [106.5771887, -5.9314023], [106.5770984, -5.9314025]]]}, "properties": {"kind": "detection", "det_id": "D-SZ-fresh-jakarta-2026-07-19-004-76", "zone_id": "SZ-fresh-jakarta-2026-07-19-004", "scene_id": "S2A_MSIL2A_20260719T030151_R032_T48MXU_20260719T105952", "datetime": "2026-07-19T03:01:51.024000Z", "n_pixels": 1, "area_m2": 100, "prob_max": 0.7373, "prob_mean": 0.7373, "threshold": 0.63, "in_strip": true, "artifact": null}}, {"type": "Feature", "id": "D-SZ-fresh-jakarta-2026-07-19-004-78", "geometry": {"type": "Polygon", "coordinates": [[[106.5808923, -5.931663], [106.5808926, -5.9317534], [106.5809829, -5.9317532], [106.5809826, -5.9316627], [106.5808923, -5.931663]]]}, "properties": {"kind": "detection", "det_id": "D-SZ-fresh-jakarta-2026-07-19-004-78", "zone_id": "SZ-fresh-jakarta-2026-07-19-004", "scene_id": "S2A_MSIL2A_20260719T030151_R032_T48MXU_20260719T105952", "datetime": "2026-07-19T03:01:51.024000Z", "n_pixels": 1, "area_m2": 100, "prob_max": 0.7176, "prob_mean": 0.7176, "threshold": 0.63, "in_strip": true, "artifact": null}}, {"type": "Feature", "id": "D-SZ-fresh-jakarta-2026-07-19-004-79", "geometry": {"type": "Polygon", "coordinates": [[[106.582518, -5.9316583], [106.5825182, -5.9317488], [106.5826085, -5.9317485], [106.5826083, -5.9316581], [106.582518, -5.9316583]]]}, "properties": {"kind": "detection", "det_id": "D-SZ-fresh-jakarta-2026-07-19-004-79", "zone_id": "SZ-fresh-jakarta-2026-07-19-004", "scene_id": "S2A_MSIL2A_20260719T030151_R032_T48MXU_20260719T105952", "datetime": "2026-07-19T03:01:51.024000Z", "n_pixels": 1, "area_m2": 100, "prob_max": 0.7725, "prob_mean": 0.7725, "threshold": 0.63, "in_strip": true, "artifact": null}}, {"type": "Feature", "id": "D-SZ-fresh-jakarta-2026-07-19-004-80", "geometry": {"type": "Polygon", "coordinates": [[[106.5812585, -5.9333801], [106.5812587, -5.9334705], [106.581349, -5.9334703], [106.5813488, -5.9333798], [106.5812585, -5.9333801]]]}, "properties": {"kind": "detection", "det_id": "D-SZ-fresh-jakarta-2026-07-19-004-80", "zone_id": "SZ-fresh-jakarta-2026-07-19-004", "scene_id": "S2A_MSIL2A_20260719T030151_R032_T48MXU_20260719T105952", "datetime": "2026-07-19T03:01:51.024000Z", "n_pixels": 1, "area_m2": 100, "prob_max": 0.8471, "prob_mean": 0.8471, "threshold": 0.63, "in_strip": true, "artifact": null}}, {"type": "Feature", "id": "D-SZ-fresh-jakarta-2026-07-19-004-81", "geometry": {"type": "Polygon", "coordinates": [[[106.5831553, -5.9334651], [106.5831556, -5.9335555], [106.5832459, -5.9335553], [106.5832456, -5.9334649], [106.5831553, -5.9334651]]]}, "properties": {"kind": "detection", "det_id": "D-SZ-fresh-jakarta-2026-07-19-004-81", "zone_id": "SZ-fresh-jakarta-2026-07-19-004", "scene_id": "S2A_MSIL2A_20260719T030151_R032_T48MXU_20260719T105952", "datetime": "2026-07-19T03:01:51.024000Z", "n_pixels": 1, "area_m2": 100, "prob_max": 0.7961, "prob_mean": 0.7961, "threshold": 0.63, "in_strip": true, "artifact": null}}, {"type": "Feature", "id": "D-SZ-fresh-jakarta-2026-07-19-004-82", "geometry": {"type": "Polygon", "coordinates": [[[106.5786401, -5.9336589], [106.5786404, -5.9337493], [106.5787307, -5.933749], [106.5787304, -5.9336586], [106.5786401, -5.9336589]]]}, "properties": {"kind": "detection", "det_id": "D-SZ-fresh-jakarta-2026-07-19-004-82", "zone_id": "SZ-fresh-jakarta-2026-07-19-004", "scene_id": "S2A_MSIL2A_20260719T030151_R032_T48MXU_20260719T105952", "datetime": "2026-07-19T03:01:51.024000Z", "n_pixels": 1, "area_m2": 100, "prob_max": 0.6667, "prob_mean": 0.6667, "threshold": 0.63, "in_strip": true, "artifact": null}}, {"type": "Feature", "id": "D-SZ-fresh-jakarta-2026-07-19-005-85", "geometry": {"type": "Polygon", "coordinates": [[[106.5782068, -5.9400806], [106.5782071, -5.940171], [106.5782974, -5.9401708], [106.5782972, -5.9400803], [106.5782068, -5.9400806]]]}, "properties": {"kind": "detection", "det_id": "D-SZ-fresh-jakarta-2026-07-19-005-85", "zone_id": "SZ-fresh-jakarta-2026-07-19-005", "scene_id": "S2A_MSIL2A_20260719T030151_R032_T48MXU_20260719T105952", "datetime": "2026-07-19T03:01:51.024000Z", "n_pixels": 1, "area_m2": 100, "prob_max": 0.6549, "prob_mean": 0.6549, "threshold": 0.63, "in_strip": true, "artifact": null}}, {"type": "Feature", "id": "D-SZ-fresh-jakarta-2026-07-19-005-86", "geometry": {"type": "Polygon", "coordinates": [[[106.5764011, -5.9402666], [106.5764013, -5.940357], [106.5762207, -5.9403576], [106.5762209, -5.940448], [106.5764919, -5.9404472], [106.5764916, -5.9403568], [106.5765819, -5.9403565], [106.5765817, -5.9402661], [106.5764011, -5.9402666]]]}, "properties": {"kind": "detection", "det_id": "D-SZ-fresh-jakarta-2026-07-19-005-86", "zone_id": "SZ-fresh-jakarta-2026-07-19-005", "scene_id": "S2A_MSIL2A_20260719T030151_R032_T48MXU_20260719T105952", "datetime": "2026-07-19T03:01:51.024000Z", "n_pixels": 5, "area_m2": 500, "prob_max": 0.9843, "prob_mean": 0.8675, "threshold": 0.63, "in_strip": true, "artifact": null}}, {"type": "Feature", "id": "D-SZ-fresh-jakarta-2026-07-19-005-87", "geometry": {"type": "Polygon", "coordinates": [[[106.5784783, -5.9402607], [106.5784786, -5.9403511], [106.5785689, -5.9403509], [106.5785686, -5.9402604], [106.5784783, -5.9402607]]]}, "properties": {"kind": "detection", "det_id": "D-SZ-fresh-jakarta-2026-07-19-005-87", "zone_id": "SZ-fresh-jakarta-2026-07-19-005", "scene_id": "S2A_MSIL2A_20260719T030151_R032_T48MXU_20260719T105952", "datetime": "2026-07-19T03:01:51.024000Z", "n_pixels": 1, "area_m2": 100, "prob_max": 0.6902, "prob_mean": 0.6902, "threshold": 0.63, "in_strip": true, "artifact": null}}, {"type": "Feature", "id": "D-SZ-fresh-jakarta-2026-07-19-005-88", "geometry": {"type": "Polygon", "coordinates": [[[106.579021, -5.9405304], [106.5790212, -5.9406209], [106.5791115, -5.9406206], [106.5791113, -5.9405302], [106.579021, -5.9405304]]]}, "properties": {"kind": "detection", "det_id": "D-SZ-fresh-jakarta-2026-07-19-005-88", "zone_id": "SZ-fresh-jakarta-2026-07-19-005", "scene_id": "S2A_MSIL2A_20260719T030151_R032_T48MXU_20260719T105952", "datetime": "2026-07-19T03:01:51.024000Z", "n_pixels": 1, "area_m2": 100, "prob_max": 0.7765, "prob_mean": 0.7765, "threshold": 0.63, "in_strip": true, "artifact": null}}, {"type": "Feature", "id": "D-SZ-fresh-jakarta-2026-07-19-005-89", "geometry": {"type": "Polygon", "coordinates": [[[106.5754992, -5.9407213], [106.5754994, -5.9408118], [106.5754091, -5.940812], [106.5754094, -5.9409025], [106.5754997, -5.9409022], [106.5754994, -5.9408118], [106.5755898, -5.9408115], [106.5755895, -5.9407211], [106.5754992, -5.9407213]]]}, "properties": {"kind": "detection", "det_id": "D-SZ-fresh-jakarta-2026-07-19-005-89", "zone_id": "SZ-fresh-jakarta-2026-07-19-005", "scene_id": "S2A_MSIL2A_20260719T030151_R032_T48MXU_20260719T105952", "datetime": "2026-07-19T03:01:51.024000Z", "n_pixels": 2, "area_m2": 200, "prob_max": 0.6784, "prob_mean": 0.6627, "threshold": 0.63, "in_strip": true, "artifact": null}}, {"type": "Feature", "id": "D-SZ-fresh-jakarta-2026-07-19-005-90", "geometry": {"type": "Polygon", "coordinates": [[[106.575229, -5.9409934], [106.5752293, -5.9410838], [106.5753196, -5.9410836], [106.5753193, -5.9409931], [106.575229, -5.9409934]]]}, "properties": {"kind": "detection", "det_id": "D-SZ-fresh-jakarta-2026-07-19-005-90", "zone_id": "SZ-fresh-jakarta-2026-07-19-005", "scene_id": "S2A_MSIL2A_20260719T030151_R032_T48MXU_20260719T105952", "datetime": "2026-07-19T03:01:51.024000Z", "n_pixels": 1, "area_m2": 100, "prob_max": 0.7961, "prob_mean": 0.7961, "threshold": 0.63, "in_strip": true, "artifact": null}}, {"type": "Feature", "id": "D-SZ-fresh-jakarta-2026-07-19-005-91", "geometry": {"type": "Polygon", "coordinates": [[[106.5795641, -5.940981], [106.5795644, -5.9410715], [106.5796547, -5.9410712], [106.5796545, -5.9409808], [106.5795641, -5.940981]]]}, "properties": {"kind": "detection", "det_id": "D-SZ-fresh-jakarta-2026-07-19-005-91", "zone_id": "SZ-fresh-jakarta-2026-07-19-005", "scene_id": "S2A_MSIL2A_20260719T030151_R032_T48MXU_20260719T105952", "datetime": "2026-07-19T03:01:51.024000Z", "n_pixels": 1, "area_m2": 100, "prob_max": 0.8667, "prob_mean": 0.8667, "threshold": 0.63, "in_strip": true, "artifact": null}}, {"type": "Feature", "id": "D-SZ-fresh-jakarta-2026-07-19-005-92", "geometry": {"type": "Polygon", "coordinates": [[[106.5798359, -5.9412515], [106.5798361, -5.941342], [106.5799264, -5.9413417], [106.5799262, -5.9412513], [106.5798359, -5.9412515]]]}, "properties": {"kind": "detection", "det_id": "D-SZ-fresh-jakarta-2026-07-19-005-92", "zone_id": "SZ-fresh-jakarta-2026-07-19-005", "scene_id": "S2A_MSIL2A_20260719T030151_R032_T48MXU_20260719T105952", "datetime": "2026-07-19T03:01:51.024000Z", "n_pixels": 1, "area_m2": 100, "prob_max": 0.8627, "prob_mean": 0.8627, "threshold": 0.63, "in_strip": true, "artifact": null}}, {"type": "Feature", "id": "D-SZ-fresh-jakarta-2026-07-19-005-93", "geometry": {"type": "Polygon", "coordinates": [[[106.5801982, -5.9416122], [106.5801984, -5.9417026], [106.5802887, -5.9417024], [106.580289, -5.9417928], [106.5803793, -5.9417926], [106.5803788, -5.9416117], [106.5801982, -5.9416122]]]}, "properties": {"kind": "detection", "det_id": "D-SZ-fresh-jakarta-2026-07-19-005-93", "zone_id": "SZ-fresh-jakarta-2026-07-19-005", "scene_id": "S2A_MSIL2A_20260719T030151_R032_T48MXU_20260719T105952", "datetime": "2026-07-19T03:01:51.024000Z", "n_pixels": 3, "area_m2": 300, "prob_max": 0.8078, "prob_mean": 0.7216, "threshold": 0.63, "in_strip": true, "artifact": null}}, {"type": "Feature", "id": "D-SZ-fresh-jakarta-2026-07-19-005-97", "geometry": {"type": "Polygon", "coordinates": [[[106.5806505, -5.9418822], [106.5806508, -5.9419726], [106.5807411, -5.9419724], [106.5807408, -5.941882], [106.5806505, -5.9418822]]]}, "properties": {"kind": "detection", "det_id": "D-SZ-fresh-jakarta-2026-07-19-005-97", "zone_id": "SZ-fresh-jakarta-2026-07-19-005", "scene_id": "S2A_MSIL2A_20260719T030151_R032_T48MXU_20260719T105952", "datetime": "2026-07-19T03:01:51.024000Z", "n_pixels": 1, "area_m2": 100, "prob_max": 0.9255, "prob_mean": 0.9255, "threshold": 0.63, "in_strip": true, "artifact": null}}, {"type": "Feature", "id": "D-SZ-fresh-jakarta-2026-07-19-005-99", "geometry": {"type": "Polygon", "coordinates": [[[106.5812837, -5.9422421], [106.581284, -5.9423325], [106.5813743, -5.9423323], [106.5813741, -5.9422419], [106.5812837, -5.9422421]]]}, "properties": {"kind": "detection", "det_id": "D-SZ-fresh-jakarta-2026-07-19-005-99", "zone_id": "SZ-fresh-jakarta-2026-07-19-005", "scene_id": "S2A_MSIL2A_20260719T030151_R032_T48MXU_20260719T105952", "datetime": "2026-07-19T03:01:51.024000Z", "n_pixels": 1, "area_m2": 100, "prob_max": 0.9725, "prob_mean": 0.9725, "threshold": 0.63, "in_strip": true, "artifact": null}}, {"type": "Feature", "id": "D-SZ-fresh-jakarta-2026-07-19-005-100", "geometry": {"type": "Polygon", "coordinates": [[[106.5743302, -5.9425333], [106.5743307, -5.9427141], [106.5745114, -5.9427136], [106.5745111, -5.9426232], [106.5744208, -5.9426234], [106.5744206, -5.942533], [106.5743302, -5.9425333]]]}, "properties": {"kind": "detection", "det_id": "D-SZ-fresh-jakarta-2026-07-19-005-100", "zone_id": "SZ-fresh-jakarta-2026-07-19-005", "scene_id": "S2A_MSIL2A_20260719T030151_R032_T48MXU_20260719T105952", "datetime": "2026-07-19T03:01:51.024000Z", "n_pixels": 3, "area_m2": 300, "prob_max": 0.9725, "prob_mean": 0.881, "threshold": 0.63, "in_strip": true, "artifact": null}}, {"type": "Feature", "id": "D-SZ-fresh-jakarta-2026-07-19-005-101", "geometry": {"type": "Polygon", "coordinates": [[[106.5837259, -5.9435011], [106.5837264, -5.943682], [106.5838167, -5.9436817], [106.5838162, -5.9435009], [106.5837259, -5.9435011]]]}, "properties": {"kind": "detection", "det_id": "D-SZ-fresh-jakarta-2026-07-19-005-101", "zone_id": "SZ-fresh-jakarta-2026-07-19-005", "scene_id": "S2A_MSIL2A_20260719T030151_R032_T48MXU_20260719T105952", "datetime": "2026-07-19T03:01:51.024000Z", "n_pixels": 2, "area_m2": 200, "prob_max": 0.902, "prob_mean": 0.8922, "threshold": 0.63, "in_strip": true, "artifact": null}}, {"type": "Feature", "id": "D-SZ-fresh-jakarta-2026-07-19-005-102", "geometry": {"type": "Polygon", "coordinates": [[[106.5864353, -5.9434934], [106.5864356, -5.9435838], [106.5865259, -5.9435835], [106.5865256, -5.9434931], [106.5864353, -5.9434934]]]}, "properties": {"kind": "detection", "det_id": "D-SZ-fresh-jakarta-2026-07-19-005-102", "zone_id": "SZ-fresh-jakarta-2026-07-19-005", "scene_id": "S2A_MSIL2A_20260719T030151_R032_T48MXU_20260719T105952", "datetime": "2026-07-19T03:01:51.024000Z", "n_pixels": 1, "area_m2": 100, "prob_max": 0.8627, "prob_mean": 0.8627, "threshold": 0.63, "in_strip": true, "artifact": null}}, {"type": "Feature", "id": "D-SZ-fresh-jakarta-2026-07-19-005-103", "geometry": {"type": "Polygon", "coordinates": [[[106.5867966, -5.9434923], [106.5867968, -5.9435828], [106.5869775, -5.9435822], [106.5869772, -5.9434918], [106.5867966, -5.9434923]]]}, "properties": {"kind": "detection", "det_id": "D-SZ-fresh-jakarta-2026-07-19-005-103", "zone_id": "SZ-fresh-jakarta-2026-07-19-005", "scene_id": "S2A_MSIL2A_20260719T030151_R032_T48MXU_20260719T105952", "datetime": "2026-07-19T03:01:51.024000Z", "n_pixels": 2, "area_m2": 200, "prob_max": 0.9765, "prob_mean": 0.9373, "threshold": 0.63, "in_strip": true, "artifact": null}}, {"type": "Feature", "id": "D-SZ-fresh-jakarta-2026-07-19-005-104", "geometry": {"type": "Polygon", "coordinates": [[[106.5839068, -5.943591], [106.583907, -5.9436815], [106.5840876, -5.943681], [106.5840879, -5.9437714], [106.5842685, -5.9437709], [106.5842683, -5.9436804], [106.5840876, -5.943681], [106.5840874, -5.9435905], [106.5839068, -5.943591]]]}, "properties": {"kind": "detection", "det_id": "D-SZ-fresh-jakarta-2026-07-19-005-104", "zone_id": "SZ-fresh-jakarta-2026-07-19-005", "scene_id": "S2A_MSIL2A_20260719T030151_R032_T48MXU_20260719T105952", "datetime": "2026-07-19T03:01:51.024000Z", "n_pixels": 4, "area_m2": 400, "prob_max": 0.9529, "prob_mean": 0.8775, "threshold": 0.63, "in_strip": true, "artifact": null}}, {"type": "Feature", "id": "D-SZ-fresh-jakarta-2026-07-19-005-105", "geometry": {"type": "Polygon", "coordinates": [[[106.5857131, -5.9435859], [106.5857133, -5.9436763], [106.5858939, -5.9436758], [106.5858937, -5.9435853], [106.5857131, -5.9435859]]]}, "properties": {"kind": "detection", "det_id": "D-SZ-fresh-jakarta-2026-07-19-005-105", "zone_id": "SZ-fresh-jakarta-2026-07-19-005", "scene_id": "S2A_MSIL2A_20260719T030151_R032_T48MXU_20260719T105952", "datetime": "2026-07-19T03:01:51.024000Z", "n_pixels": 2, "area_m2": 200, "prob_max": 0.9294, "prob_mean": 0.8078, "threshold": 0.63, "in_strip": true, "artifact": null}}, {"type": "Feature", "id": "D-SZ-fresh-jakarta-2026-07-19-005-106", "geometry": {"type": "Polygon", "coordinates": [[[106.5872484, -5.9435815], [106.5872487, -5.9436719], [106.5875196, -5.9436711], [106.5875194, -5.9435807], [106.5872484, -5.9435815]]]}, "properties": {"kind": "detection", "det_id": "D-SZ-fresh-jakarta-2026-07-19-005-106", "zone_id": "SZ-fresh-jakarta-2026-07-19-005", "scene_id": "S2A_MSIL2A_20260719T030151_R032_T48MXU_20260719T105952", "datetime": "2026-07-19T03:01:51.024000Z", "n_pixels": 3, "area_m2": 300, "prob_max": 0.949, "prob_mean": 0.919, "threshold": 0.63, "in_strip": true, "artifact": null}}, {"type": "Feature", "id": "D-SZ-fresh-jakarta-2026-07-19-005-107", "geometry": {"type": "Polygon", "coordinates": [[[106.5876099, -5.9436708], [106.5876102, -5.9437613], [106.5877005, -5.943761], [106.5877002, -5.9436706], [106.5876099, -5.9436708]]]}, "properties": {"kind": "detection", "det_id": "D-SZ-fresh-jakarta-2026-07-19-005-107", "zone_id": "SZ-fresh-jakarta-2026-07-19-005", "scene_id": "S2A_MSIL2A_20260719T030151_R032_T48MXU_20260719T105952", "datetime": "2026-07-19T03:01:51.024000Z", "n_pixels": 1, "area_m2": 100, "prob_max": 0.8549, "prob_mean": 0.8549, "threshold": 0.63, "in_strip": true, "artifact": null}}, {"type": "Feature", "id": "D-SZ-fresh-jakarta-2026-07-19-005-109", "geometry": {"type": "Polygon", "coordinates": [[[106.58463, -5.9438603], [106.5846303, -5.9439507], [106.5847206, -5.9439504], [106.5847204, -5.94386], [106.58463, -5.9438603]]]}, "properties": {"kind": "detection", "det_id": "D-SZ-fresh-jakarta-2026-07-19-005-109", "zone_id": "SZ-fresh-jakarta-2026-07-19-005", "scene_id": "S2A_MSIL2A_20260719T030151_R032_T48MXU_20260719T105952", "datetime": "2026-07-19T03:01:51.024000Z", "n_pixels": 1, "area_m2": 100, "prob_max": 0.8784, "prob_mean": 0.8784, "threshold": 0.63, "in_strip": true, "artifact": null}}, {"type": "Feature", "id": "D-SZ-fresh-jakarta-2026-07-19-005-110", "geometry": {"type": "Polygon", "coordinates": [[[106.5851719, -5.9438587], [106.5851722, -5.9439491], [106.5852625, -5.9439489], [106.5852623, -5.9438584], [106.5851719, -5.9438587]]]}, "properties": {"kind": "detection", "det_id": "D-SZ-fresh-jakarta-2026-07-19-005-110", "zone_id": "SZ-fresh-jakarta-2026-07-19-005", "scene_id": "S2A_MSIL2A_20260719T030151_R032_T48MXU_20260719T105952", "datetime": "2026-07-19T03:01:51.024000Z", "n_pixels": 1, "area_m2": 100, "prob_max": 0.8902, "prob_mean": 0.8902, "threshold": 0.63, "in_strip": true, "artifact": null}}]}