{"type": "FeatureCollection", "features": [{"type": "Feature", "id": "SZ-fresh-jakarta-2026-07-19-001", "geometry": {"type": "Polygon", "coordinates": [[[106.541009, -5.911971], [106.539655, -5.912427], [106.539386, -5.91288], [106.538662, -5.912611], [106.538121, -5.912702], [106.536679, -5.913701], [106.536229, -5.914516], [106.535688, -5.914699], [106.535057, -5.915333], [106.53479, -5.916691], [106.533708, -5.917236], [106.533529, -5.917779], [106.532988, -5.918143], [106.53254, -5.919319], [106.531728, -5.919864], [106.531009, -5.921042], [106.530016, -5.921135], [106.526769, -5.922772], [106.526317, -5.922773], [106.525146, -5.923861], [106.524785, -5.923953], [106.524246, -5.925039], [106.52452, -5.925943], [106.525153, -5.926393], [106.526147, -5.926391], [106.527049, -5.925936], [106.527949, -5.924939], [106.529935, -5.924391], [106.530656, -5.923846], [106.531739, -5.923843], [106.532371, -5.92348], [106.533632, -5.922301], [106.533811, -5.921667], [106.534261, -5.921395], [106.534351, -5.921033], [106.534982, -5.920579], [106.53543, -5.919311], [106.53615, -5.918586], [106.536149, -5.918134], [106.536961, -5.91786], [106.53777, -5.916321], [106.538401, -5.916048], [106.539752, -5.914687], [106.540475, -5.914957], [106.541649, -5.914682], [106.542102, -5.915404], [106.542916, -5.915673], [106.543367, -5.915582], [106.54373, -5.916214], [106.544453, -5.916393], [106.544816, -5.917025], [106.54563, -5.917384], [106.546533, -5.917472], [106.547616, -5.917198], [106.548339, -5.917467], [106.549242, -5.917103], [106.549244, -5.917917], [106.549697, -5.918548], [106.550059, -5.918638], [106.55006, -5.918999], [106.550513, -5.919631], [106.551417, -5.9199], [106.552499, -5.919354], [106.552947, -5.917997], [106.552674, -5.917184], [106.551588, -5.916463], [106.552129, -5.916009], [106.552397, -5.915195], [106.552305, -5.914652], [106.551852, -5.914021], [106.550948, -5.913752], [106.549866, -5.914298], [106.549598, -5.915203], [106.550052, -5.916196], [106.549601, -5.916378], [106.549599, -5.915564], [106.549055, -5.914842], [106.547518, -5.914395], [106.546435, -5.914669], [106.545803, -5.91458], [106.54544, -5.913948], [106.544626, -5.913679], [106.544265, -5.913771], [106.543812, -5.913048], [106.542998, -5.912779], [106.542366, -5.912872], [106.542003, -5.91224], [106.541009, -5.911971]]]}, "properties": {"kind": "detection_zone", "layer_kind": "scene_zone", "zone_id": "SZ-fresh-jakarta-2026-07-19-001", "scene_key": "fresh-jakarta-2026-07-19", "scene_kind": "fresh_s2", "scene_id": "S2A_MSIL2A_20260719T030151_R032_T48MXU_20260719T105952", "region": "jakarta", "title": "Джакартский залив · зона 1", "mission": "Sentinel-2", "datetime": "2026-07-19T03:01:51.024000Z", "detection_status": "insufficient_data", "status": "insufficient_data", "concentration_status": "unavailable", "quantity": {"status": "not_confirmed", "label": "концентрация по снимку не подтверждена", "detail": "перевод площади в штуки не показываем: нет калибровочных пар (см. docs/QUANTITY.md)"}, "verification": "false_alarm_signs", "training_scene": null, "flags": ["shallow", "glint"], "n_cozar_filaments": 0, "crop_file": "crops/SZ-fresh-jakarta-2026-07-19-001.jpg", "wind_high": false, "measured": {"zone_area_km2": 1.1744, "suspicious_area_m2": 7300, "n_pixels": 73, "n_objects": 45, "water_km2": 1.1804, "lwd_m2_km2": 6184.3, "lwd_note": null, "quality": {"valid_water_fraction": 1.0, "cloud_fraction": 0.0, "glint_fraction": 0.0}, "model": {"weights": "weights/lgbm", "file": "weights/lgbm/model.txt", "sha256": "0eeebf43fcccd8c7c07f053b7ec723229d1a3c9b92d12eec1bdb269258c51470", "sha256_short": "0eeebf43fccc", "trained_at": "2026-09-25T01:36:30Z", "threshold": 0.63, "harmonize": "none", "class": "MARIDA Marine Debris (любой плавающий мусор, не только пластик)"}}, "probable": {"prob_max": 0.988, "prob_mean": 0.808, "signs": {"foam": {"flag": false, "white_ratio_b2_b8": -0.021, "wind10m_ms": 3.3, "rule": "прирост B2 над водой ≥ 0.8 прироста B8 («белый» спектр) или ветер ≥ 7.0 м/с"}, "glint": {"flag": true, "b11_water_median": 0.0206, "glint_share": 0.0, "rule": "медиана B11 воды зоны > 0.01 или ≥ 20 % пикселей зоны — блик (маска качества)"}, "ship": {"flag": false, "share": 0, "bright_target_px_within_500m": 0, "rule": "≥ 30 % пикселей — у яркой цели или кильватера (reports/artifacts.md) или яркая цель с откликом в SWIR (судно, лодка: B11 ≥ 0,015) ближе 500 м, или малый яркий объект (≤ 40 пикс.) с B11 ≥ 0,01 ближе 500 м (лодка с кильватером)"}, "coast": {"flag": false, "land_px_within_300m": 0, "rule": "суша (маска качества) ближе 300 м — прибой, кромка берега"}, "shallow": {"flag": true, "b3_water_zone": 0.0831, "b3_ratio_to_scene_water": 0.98, "rule": "медиана B3 воды зоны ≥ 2× медианы воды снимка и ≥ 0,03, или B4 воды зоны ≥ 0,02 и (≥ 2× воды снимка или B8 ≥ 0,013) — мелководье, яркое дно, илистая банка"}, "seam": {"flag": false, "share": 0, "rule": "≥ 30 % пикселей — прямая линия вдоль трека/границы яркости (шов)"}, "cloud": {"flag": false, "cloud_fraction": 0.0, "rule": "облака или тени облаков (маска качества) ≥ 20 % зоны"}, "diag": {"dist_land_m": null, "dist_bright_m": null, "n_bright_px_500m": 0, "b11_bright_max_500m": null, "b4_water_zone": 0.0555, "b8_water_zone": 0.0388, "b11_det_median": 0.0269, "b8_det_median": 0.066, "water_scene_b3": 0.0845, "water_scene_b4": 0.0567, "n_det_px": 73, "n_obj": 45}, "note": "эвристики, не классификатор; на размеченных данных не проверены"}, "n_cozar_filaments": 0}, "field_nearby": {"items": [{"source": "ADIS (4TU.ResearchData, судовая камера)", "segment_id": 299932, "ship": "Antsiva", "date": "2022-02-05", "days_from_scene": -1625, "distance_km": 5584.9, "lon": 61.51495, "lat": -28.72991, "n_items": 0, "area_km2": 0.1999, "size_class": "> 5 см", "c_items_km2": 0.0, "ci95_lo": 0.0, "ci95_hi": 18.45, "ci95_method": "точный интервал Пуассона для N, делённый на A", "raw_10cm_items_km2": 0.0, "authors_cal_10cm_items_km2": 0.0, "authors_cal_10cm_lo95": null, "authors_cal_10cm_hi95": null}, {"source": "ADIS (4TU.ResearchData, судовая камера)", "segment_id": 299754, "ship": "Antsiva", "date": "2022-02-03", "days_from_scene": -1627, "distance_km": 5588.4, "lon": 63.022, "lat": -31.55208, "n_items": 0, "area_km2": 0.0769, "size_class": "> 5 см", "c_items_km2": 0.0, "ci95_lo": 0.0, "ci95_hi": 47.95, "ci95_method": "точный интервал Пуассона для N, делённый на A", "raw_10cm_items_km2": 0.0, "authors_cal_10cm_items_km2": 0.0, "authors_cal_10cm_lo95": null, "authors_cal_10cm_hi95": null}, {"source": "ADIS (4TU.ResearchData, судовая камера)", "segment_id": 299753, "ship": "Antsiva", "date": "2022-02-03", "days_from_scene": -1627, "distance_km": 5589.2, "lon": 63.01827, "lat": -31.56061, "n_items": 0, "area_km2": 0.0094, "size_class": "> 5 см", "c_items_km2": 0.0, "ci95_lo": 0.0, "ci95_hi": 390.52, "ci95_method": "точный интервал Пуассона для N, делённый на A", "raw_10cm_items_km2": 0.0, "authors_cal_10cm_items_km2": 0.0, "authors_cal_10cm_lo95": null, "authors_cal_10cm_hi95": null}], "nearest_organizer_sample": {"sample_id": "MPL-0922", "source_id": "S4_BLACK_SEA_DOORS3", "distance_km": 8904.8}, "note": "Измерение ≠ оценка: это независимые полевые счёты C = N/A в другое время и в другом месте; со сценой они не связаны и не калибруют её. Ближайший отрезок ADIS — за 5585 км: только для порядка величин."}}}, {"type": "Feature", "id": "SZ-fresh-jakarta-2026-07-19-002", "geometry": {"type": "Polygon", "coordinates": [[[106.38857, -5.917438], [106.387757, -5.917711], [106.387307, -5.918345], [106.387218, -5.918888], [106.387491, -5.919701], [106.389029, -5.920511], [106.389661, -5.9206], [106.390474, -5.920327], [106.391013, -5.91924], [106.39074, -5.918336], [106.389744, -5.917706], [106.38857, -5.917438]]]}, "properties": {"kind": "detection_zone", "layer_kind": "scene_zone", "zone_id": "SZ-fresh-jakarta-2026-07-19-002", "scene_key": "fresh-jakarta-2026-07-19", "scene_kind": "fresh_s2", "scene_id": "S2A_MSIL2A_20260719T030151_R032_T48MXU_20260719T105952", "region": "jakarta", "title": "Джакартский залив · зона 2", "mission": "Sentinel-2", "datetime": "2026-07-19T03:01:51.024000Z", "detection_status": "insufficient_data", "status": "insufficient_data", "concentration_status": "unavailable", "quantity": {"status": "not_confirmed", "label": "концентрация по снимку не подтверждена", "detail": "перевод площади в штуки не показываем: нет калибровочных пар (см. docs/QUANTITY.md)"}, "verification": "false_alarm_signs", "training_scene": null, "flags": ["shallow", "glint"], "n_cozar_filaments": 0, "crop_file": "crops/SZ-fresh-jakarta-2026-07-19-002.jpg", "wind_high": false, "measured": {"zone_area_km2": 0.1067, "suspicious_area_m2": 500, "n_pixels": 5, "n_objects": 3, "water_km2": 0.1063, "lwd_m2_km2": 4703.7, "lwd_note": null, "quality": {"valid_water_fraction": 1.0, "cloud_fraction": 0.0, "glint_fraction": 0.0}, "model": {"weights": "weights/lgbm", "file": "weights/lgbm/model.txt", "sha256": "0eeebf43fcccd8c7c07f053b7ec723229d1a3c9b92d12eec1bdb269258c51470", "sha256_short": "0eeebf43fccc", "trained_at": "2026-09-25T01:36:30Z", "threshold": 0.63, "harmonize": "none", "class": "MARIDA Marine Debris (любой плавающий мусор, не только пластик)"}}, "probable": {"prob_max": 0.922, "prob_mean": 0.773, "signs": {"foam": {"flag": false, "white_ratio_b2_b8": 0.118, "wind10m_ms": 3.3, "rule": "прирост B2 над водой ≥ 0.8 прироста B8 («белый» спектр) или ветер ≥ 7.0 м/с"}, "glint": {"flag": true, "b11_water_median": 0.0187, "glint_share": 0.0, "rule": "медиана B11 воды зоны > 0.01 или ≥ 20 % пикселей зоны — блик (маска качества)"}, "ship": {"flag": false, "share": 0, "bright_target_px_within_500m": 0, "rule": "≥ 30 % пикселей — у яркой цели или кильватера (reports/artifacts.md) или яркая цель с откликом в SWIR (судно, лодка: B11 ≥ 0,015) ближе 500 м, или малый яркий объект (≤ 40 пикс.) с B11 ≥ 0,01 ближе 500 м (лодка с кильватером)"}, "coast": {"flag": false, "land_px_within_300m": 0, "rule": "суша (маска качества) ближе 300 м — прибой, кромка берега"}, "shallow": {"flag": true, "b3_water_zone": 0.0854, "b3_ratio_to_scene_water": 1.01, "rule": "медиана B3 воды зоны ≥ 2× медианы воды снимка и ≥ 0,03, или B4 воды зоны ≥ 0,02 и (≥ 2× воды снимка или B8 ≥ 0,013) — мелководье, яркое дно, илистая банка"}, "seam": {"flag": false, "share": 0, "rule": "≥ 30 % пикселей — прямая линия вдоль трека/границы яркости (шов)"}, "cloud": {"flag": false, "cloud_fraction": 0.0, "rule": "облака или тени облаков (маска качества) ≥ 20 % зоны"}, "diag": {"dist_land_m": null, "dist_bright_m": null, "n_bright_px_500m": 0, "b11_bright_max_500m": null, "b4_water_zone": 0.0539, "b8_water_zone": 0.036, "b11_det_median": 0.026, "b8_det_median": 0.0656, "water_scene_b3": 0.0845, "water_scene_b4": 0.0567, "n_det_px": 5, "n_obj": 3}, "note": "эвристики, не классификатор; на размеченных данных не проверены"}, "n_cozar_filaments": 0}, "field_nearby": {"items": [{"source": "ADIS (4TU.ResearchData, судовая камера)", "segment_id": 299932, "ship": "Antsiva", "date": "2022-02-05", "days_from_scene": -1625, "distance_km": 5584.9, "lon": 61.51495, "lat": -28.72991, "n_items": 0, "area_km2": 0.1999, "size_class": "> 5 см", "c_items_km2": 0.0, "ci95_lo": 0.0, "ci95_hi": 18.45, "ci95_method": "точный интервал Пуассона для N, делённый на A", "raw_10cm_items_km2": 0.0, "authors_cal_10cm_items_km2": 0.0, "authors_cal_10cm_lo95": null, "authors_cal_10cm_hi95": null}, {"source": "ADIS (4TU.ResearchData, судовая камера)", "segment_id": 299754, "ship": "Antsiva", "date": "2022-02-03", "days_from_scene": -1627, "distance_km": 5588.4, "lon": 63.022, "lat": -31.55208, "n_items": 0, "area_km2": 0.0769, "size_class": "> 5 см", "c_items_km2": 0.0, "ci95_lo": 0.0, "ci95_hi": 47.95, "ci95_method": "точный интервал Пуассона для N, делённый на A", "raw_10cm_items_km2": 0.0, "authors_cal_10cm_items_km2": 0.0, "authors_cal_10cm_lo95": null, "authors_cal_10cm_hi95": null}, {"source": "ADIS (4TU.ResearchData, судовая камера)", "segment_id": 299753, "ship": "Antsiva", "date": "2022-02-03", "days_from_scene": -1627, "distance_km": 5589.2, "lon": 63.01827, "lat": -31.56061, "n_items": 0, "area_km2": 0.0094, "size_class": "> 5 см", "c_items_km2": 0.0, "ci95_lo": 0.0, "ci95_hi": 390.52, "ci95_method": "точный интервал Пуассона для N, делённый на A", "raw_10cm_items_km2": 0.0, "authors_cal_10cm_items_km2": 0.0, "authors_cal_10cm_lo95": null, "authors_cal_10cm_hi95": null}], "nearest_organizer_sample": {"sample_id": "MPL-0922", "source_id": "S4_BLACK_SEA_DOORS3", "distance_km": 8904.8}, "note": "Измерение ≠ оценка: это независимые полевые счёты C = N/A в другое время и в другом месте; со сценой они не связаны и не калибруют её. Ближайший отрезок ADIS — за 5585 км: только для порядка величин."}}}, {"type": "Feature", "id": "SZ-fresh-jakarta-2026-07-19-003", "geometry": {"type": "Polygon", "coordinates": [[[106.568244, -5.930162], [106.565716, -5.930259], [106.565085, -5.930713], [106.564816, -5.931618], [106.565361, -5.932702], [106.566988, -5.932969], [106.568251, -5.932784], [106.568882, -5.93233], [106.569151, -5.931516], [106.568878, -5.930612], [106.568244, -5.930162]]]}, "properties": {"kind": "detection_zone", "layer_kind": "scene_zone", "zone_id": "SZ-fresh-jakarta-2026-07-19-003", "scene_key": "fresh-jakarta-2026-07-19", "scene_kind": "fresh_s2", "scene_id": "S2A_MSIL2A_20260719T030151_R032_T48MXU_20260719T105952", "region": "jakarta", "title": "Джакартский залив · зона 3", "mission": "Sentinel-2", "datetime": "2026-07-19T03:01:51.024000Z", "detection_status": "insufficient_data", "status": "insufficient_data", "concentration_status": "unavailable", "quantity": {"status": "not_confirmed", "label": "концентрация по снимку не подтверждена", "detail": "перевод площади в штуки не показываем: нет калибровочных пар (см. docs/QUANTITY.md)"}, "verification": "false_alarm_signs", "training_scene": null, "flags": ["shallow", "glint"], "n_cozar_filaments": 0, "crop_file": "crops/SZ-fresh-jakarta-2026-07-19-003.jpg", "wind_high": false, "measured": {"zone_area_km2": 0.1208, "suspicious_area_m2": 500, "n_pixels": 5, "n_objects": 3, "water_km2": 0.1217, "lwd_m2_km2": 4108.5, "lwd_note": null, "quality": {"valid_water_fraction": 1.0, "cloud_fraction": 0.0, "glint_fraction": 0.0}, "model": {"weights": "weights/lgbm", "file": "weights/lgbm/model.txt", "sha256": "0eeebf43fcccd8c7c07f053b7ec723229d1a3c9b92d12eec1bdb269258c51470", "sha256_short": "0eeebf43fccc", "trained_at": "2026-09-25T01:36:30Z", "threshold": 0.63, "harmonize": "none", "class": "MARIDA Marine Debris (любой плавающий мусор, не только пластик)"}}, "probable": {"prob_max": 0.973, "prob_mean": 0.837, "signs": {"foam": {"flag": false, "white_ratio_b2_b8": -0.08, "wind10m_ms": 3.3, "rule": "прирост B2 над водой ≥ 0.8 прироста B8 («белый» спектр) или ветер ≥ 7.0 м/с"}, "glint": {"flag": true, "b11_water_median": 0.0205, "glint_share": 0.0, "rule": "медиана B11 воды зоны > 0.01 или ≥ 20 % пикселей зоны — блик (маска качества)"}, "ship": {"flag": false, "share": 0, "bright_target_px_within_500m": 0, "rule": "≥ 30 % пикселей — у яркой цели или кильватера (reports/artifacts.md) или яркая цель с откликом в SWIR (судно, лодка: B11 ≥ 0,015) ближе 500 м, или малый яркий объект (≤ 40 пикс.) с B11 ≥ 0,01 ближе 500 м (лодка с кильватером)"}, "coast": {"flag": false, "land_px_within_300m": 0, "rule": "суша (маска качества) ближе 300 м — прибой, кромка берега"}, "shallow": {"flag": true, "b3_water_zone": 0.0813, "b3_ratio_to_scene_water": 0.96, "rule": "медиана B3 воды зоны ≥ 2× медианы воды снимка и ≥ 0,03, или B4 воды зоны ≥ 0,02 и (≥ 2× воды снимка или B8 ≥ 0,013) — мелководье, яркое дно, илистая банка"}, "seam": {"flag": false, "share": 0, "rule": "≥ 30 % пикселей — прямая линия вдоль трека/границы яркости (шов)"}, "cloud": {"flag": false, "cloud_fraction": 0.0, "rule": "облака или тени облаков (маска качества) ≥ 20 % зоны"}, "diag": {"dist_land_m": null, "dist_bright_m": null, "n_bright_px_500m": 0, "b11_bright_max_500m": null, "b4_water_zone": 0.053, "b8_water_zone": 0.0371, "b11_det_median": 0.0254, "b8_det_median": 0.0625, "water_scene_b3": 0.0845, "water_scene_b4": 0.0567, "n_det_px": 5, "n_obj": 3}, "note": "эвристики, не классификатор; на размеченных данных не проверены"}, "n_cozar_filaments": 0}, "field_nearby": {"items": [{"source": "ADIS (4TU.ResearchData, судовая камера)", "segment_id": 299932, "ship": "Antsiva", "date": "2022-02-05", "days_from_scene": -1625, "distance_km": 5584.9, "lon": 61.51495, "lat": -28.72991, "n_items": 0, "area_km2": 0.1999, "size_class": "> 5 см", "c_items_km2": 0.0, "ci95_lo": 0.0, "ci95_hi": 18.45, "ci95_method": "точный интервал Пуассона для N, делённый на A", "raw_10cm_items_km2": 0.0, "authors_cal_10cm_items_km2": 0.0, "authors_cal_10cm_lo95": null, "authors_cal_10cm_hi95": null}, {"source": "ADIS (4TU.ResearchData, судовая камера)", "segment_id": 299754, "ship": "Antsiva", "date": "2022-02-03", "days_from_scene": -1627, "distance_km": 5588.4, "lon": 63.022, "lat": -31.55208, "n_items": 0, "area_km2": 0.0769, "size_class": "> 5 см", "c_items_km2": 0.0, "ci95_lo": 0.0, "ci95_hi": 47.95, "ci95_method": "точный интервал Пуассона для N, делённый на A", "raw_10cm_items_km2": 0.0, "authors_cal_10cm_items_km2": 0.0, "authors_cal_10cm_lo95": null, "authors_cal_10cm_hi95": null}, {"source": "ADIS (4TU.ResearchData, судовая камера)", "segment_id": 299753, "ship": "Antsiva", "date": "2022-02-03", "days_from_scene": -1627, "distance_km": 5589.2, "lon": 63.01827, "lat": -31.56061, "n_items": 0, "area_km2": 0.0094, "size_class": "> 5 см", "c_items_km2": 0.0, "ci95_lo": 0.0, "ci95_hi": 390.52, "ci95_method": "точный интервал Пуассона для N, делённый на A", "raw_10cm_items_km2": 0.0, "authors_cal_10cm_items_km2": 0.0, "authors_cal_10cm_lo95": null, "authors_cal_10cm_hi95": null}], "nearest_organizer_sample": {"sample_id": "MPL-0922", "source_id": "S4_BLACK_SEA_DOORS3", "distance_km": 8904.8}, "note": "Измерение ≠ оценка: это независимые полевые счёты C = N/A в другое время и в другом месте; со сценой они не связаны и не калибруют её. Ближайший отрезок ADIS — за 5585 км: только для порядка величин."}}}, {"type": "Feature", "id": "SZ-fresh-jakarta-2026-07-19-004", "geometry": {"type": "Polygon", "coordinates": [[[106.577095, -5.930046], [106.576012, -5.930592], [106.575744, -5.931497], [106.576289, -5.93258], [106.577102, -5.932849], [106.577644, -5.932757], [106.577286, -5.933753], [106.577831, -5.934837], [106.578644, -5.935106], [106.579186, -5.935014], [106.579817, -5.93456], [106.579996, -5.933926], [106.580449, -5.934558], [106.581263, -5.934827], [106.582255, -5.934462], [106.582708, -5.934823], [106.58325, -5.934912], [106.584332, -5.934366], [106.584601, -5.933551], [106.584509, -5.933009], [106.583784, -5.932288], [106.583871, -5.931202], [106.583418, -5.930571], [106.582604, -5.930302], [106.581883, -5.930575], [106.580979, -5.930306], [106.580076, -5.93058], [106.579538, -5.931667], [106.579629, -5.932209], [106.580083, -5.93275], [106.579903, -5.933203], [106.579812, -5.932842], [106.579178, -5.932391], [106.578185, -5.932394], [106.578544, -5.931489], [106.578452, -5.930947], [106.577998, -5.930315], [106.577095, -5.930046]], [[106.578095, -5.932485], [106.578185, -5.932394], [106.578185, -5.932485], [106.578095, -5.932485]], [[106.577644, -5.932757], [106.577734, -5.932667], [106.577734, -5.932757], [106.577644, -5.932757]]]}, "properties": {"kind": "detection_zone", "layer_kind": "scene_zone", "zone_id": "SZ-fresh-jakarta-2026-07-19-004", "scene_key": "fresh-jakarta-2026-07-19", "scene_kind": "fresh_s2", "scene_id": "S2A_MSIL2A_20260719T030151_R032_T48MXU_20260719T105952", "region": "jakarta", "title": "Джакартский залив · зона 4", "mission": "Sentinel-2", "datetime": "2026-07-19T03:01:51.024000Z", "detection_status": "insufficient_data", "status": "insufficient_data", "concentration_status": "unavailable", "quantity": {"status": "not_confirmed", "label": "концентрация по снимку не подтверждена", "detail": "перевод площади в штуки не показываем: нет калибровочных пар (см. docs/QUANTITY.md)"}, "verification": "false_alarm_signs", "training_scene": null, "flags": ["ship", "shallow", "glint"], "n_cozar_filaments": 0, "crop_file": "crops/SZ-fresh-jakarta-2026-07-19-004.jpg", "wind_high": false, "measured": {"zone_area_km2": 0.3571, "suspicious_area_m2": 600, "n_pixels": 6, "n_objects": 6, "water_km2": 0.3601, "lwd_m2_km2": 1666.2, "lwd_note": null, "quality": {"valid_water_fraction": 1.0, "cloud_fraction": 0.0, "glint_fraction": 0.0}, "model": {"weights": "weights/lgbm", "file": "weights/lgbm/model.txt", "sha256": "0eeebf43fcccd8c7c07f053b7ec723229d1a3c9b92d12eec1bdb269258c51470", "sha256_short": "0eeebf43fccc", "trained_at": "2026-09-25T01:36:30Z", "threshold": 0.63, "harmonize": "none", "class": "MARIDA Marine Debris (любой плавающий мусор, не только пластик)"}}, "probable": {"prob_max": 0.847, "prob_mean": 0.756, "signs": {"foam": {"flag": false, "white_ratio_b2_b8": -0.199, "wind10m_ms": 3.3, "rule": "прирост B2 над водой ≥ 0.8 прироста B8 («белый» спектр) или ветер ≥ 7.0 м/с"}, "glint": {"flag": true, "b11_water_median": 0.0171, "glint_share": 0.0, "rule": "медиана B11 воды зоны > 0.01 или ≥ 20 % пикселей зоны — блик (маска качества)"}, "ship": {"flag": true, "share": 0, "bright_target_px_within_500m": 285, "rule": "≥ 30 % пикселей — у яркой цели или кильватера (reports/artifacts.md) или яркая цель с откликом в SWIR (судно, лодка: B11 ≥ 0,015) ближе 500 м, или малый яркий объект (≤ 40 пикс.) с B11 ≥ 0,01 ближе 500 м (лодка с кильватером)"}, "coast": {"flag": false, "land_px_within_300m": 0, "rule": "суша (маска качества) ближе 300 м — прибой, кромка берега"}, "shallow": {"flag": true, "b3_water_zone": 0.069, "b3_ratio_to_scene_water": 0.82, "rule": "медиана B3 воды зоны ≥ 2× медианы воды снимка и ≥ 0,03, или B4 воды зоны ≥ 0,02 и (≥ 2× воды снимка или B8 ≥ 0,013) — мелководье, яркое дно, илистая банка"}, "seam": {"flag": false, "share": 0, "rule": "≥ 30 % пикселей — прямая линия вдоль трека/границы яркости (шов)"}, "cloud": {"flag": false, "cloud_fraction": 0.0, "rule": "облака или тени облаков (маска качества) ≥ 20 % зоны"}, "diag": {"dist_land_m": 334, "dist_bright_m": 284, "n_bright_px_500m": 81, "b11_bright_max_500m": 0.2534, "b4_water_zone": 0.0409, "b8_water_zone": 0.0271, "b11_det_median": 0.03, "b8_det_median": 0.0687, "water_scene_b3": 0.0845, "water_scene_b4": 0.0567, "n_det_px": 6, "n_obj": 6}, "note": "эвристики, не классификатор; на размеченных данных не проверены"}, "n_cozar_filaments": 0}, "field_nearby": {"items": [{"source": "ADIS (4TU.ResearchData, судовая камера)", "segment_id": 299932, "ship": "Antsiva", "date": "2022-02-05", "days_from_scene": -1625, "distance_km": 5584.9, "lon": 61.51495, "lat": -28.72991, "n_items": 0, "area_km2": 0.1999, "size_class": "> 5 см", "c_items_km2": 0.0, "ci95_lo": 0.0, "ci95_hi": 18.45, "ci95_method": "точный интервал Пуассона для N, делённый на A", "raw_10cm_items_km2": 0.0, "authors_cal_10cm_items_km2": 0.0, "authors_cal_10cm_lo95": null, "authors_cal_10cm_hi95": null}, {"source": "ADIS (4TU.ResearchData, судовая камера)", "segment_id": 299754, "ship": "Antsiva", "date": "2022-02-03", "days_from_scene": -1627, "distance_km": 5588.4, "lon": 63.022, "lat": -31.55208, "n_items": 0, "area_km2": 0.0769, "size_class": "> 5 см", "c_items_km2": 0.0, "ci95_lo": 0.0, "ci95_hi": 47.95, "ci95_method": "точный интервал Пуассона для N, делённый на A", "raw_10cm_items_km2": 0.0, "authors_cal_10cm_items_km2": 0.0, "authors_cal_10cm_lo95": null, "authors_cal_10cm_hi95": null}, {"source": "ADIS (4TU.ResearchData, судовая камера)", "segment_id": 299753, "ship": "Antsiva", "date": "2022-02-03", "days_from_scene": -1627, "distance_km": 5589.2, "lon": 63.01827, "lat": -31.56061, "n_items": 0, "area_km2": 0.0094, "size_class": "> 5 см", "c_items_km2": 0.0, "ci95_lo": 0.0, "ci95_hi": 390.52, "ci95_method": "точный интервал Пуассона для N, делённый на A", "raw_10cm_items_km2": 0.0, "authors_cal_10cm_items_km2": 0.0, "authors_cal_10cm_lo95": null, "authors_cal_10cm_hi95": null}], "nearest_organizer_sample": {"sample_id": "MPL-0922", "source_id": "S4_BLACK_SEA_DOORS3", "distance_km": 8904.8}, "note": "Измерение ≠ оценка: это независимые полевые счёты C = N/A в другое время и в другом месте; со сценой они не связаны и не калибруют её. Ближайший отрезок ADIS — за 5585 км: только для порядка величин."}}}, {"type": "Feature", "id": "SZ-fresh-jakarta-2026-07-19-005", "geometry": {"type": "Polygon", "coordinates": [[[106.578203, -5.938724], [106.577301, -5.939179], [106.576578, -5.93891], [106.575946, -5.939002], [106.574683, -5.939639], [106.574143, -5.940183], [106.573965, -5.941268], [106.573244, -5.941722], [106.572976, -5.942537], [106.573068, -5.94317], [106.573521, -5.943802], [106.574335, -5.944071], [106.575327, -5.943796], [106.575777, -5.943162], [106.575775, -5.942258], [106.577578, -5.941258], [106.578392, -5.941708], [106.579479, -5.94288], [106.580836, -5.9436], [106.58183, -5.943597], [106.58246, -5.943143], [106.582372, -5.943686], [106.582645, -5.944499], [106.583278, -5.944949], [106.584182, -5.945218], [106.585266, -5.945305], [106.586349, -5.94485], [106.587704, -5.945117], [106.588787, -5.944572], [106.589055, -5.943667], [106.58851, -5.942583], [106.586973, -5.942135], [106.585709, -5.942229], [106.585078, -5.942503], [106.583722, -5.942145], [106.58264, -5.94269], [106.582637, -5.941786], [106.582184, -5.941154], [106.581008, -5.940525], [106.579921, -5.939443], [106.578203, -5.938724]], [[106.58255, -5.942872], [106.58264, -5.942781], [106.58264, -5.942871], [106.58255, -5.942872]], [[106.58246, -5.943053], [106.58255, -5.942962], [106.58255, -5.943052], [106.58246, -5.943053]]]}, "properties": {"kind": "detection_zone", "layer_kind": "scene_zone", "zone_id": "SZ-fresh-jakarta-2026-07-19-005", "scene_key": "fresh-jakarta-2026-07-19", "scene_kind": "fresh_s2", "scene_id": "S2A_MSIL2A_20260719T030151_R032_T48MXU_20260719T105952", "region": "jakarta", "title": "Джакартский залив · зона 5", "mission": "Sentinel-2", "datetime": "2026-07-19T03:01:51.024000Z", "detection_status": "insufficient_data", "status": "insufficient_data", "concentration_status": "unavailable", "quantity": {"status": "not_confirmed", "label": "концентрация по снимку не подтверждена", "detail": "перевод площади в штуки не показываем: нет калибровочных пар (см. docs/QUANTITY.md)"}, "verification": "false_alarm_signs", "training_scene": null, "flags": ["shallow", "glint"], "n_cozar_filaments": 0, "crop_file": "crops/SZ-fresh-jakarta-2026-07-19-005.jpg", "wind_high": false, "measured": {"zone_area_km2": 0.5655, "suspicious_area_m2": 3800, "n_pixels": 38, "n_objects": 21, "water_km2": 0.5657, "lwd_m2_km2": 6717.3, "lwd_note": null, "quality": {"valid_water_fraction": 1.0, "cloud_fraction": 0.0, "glint_fraction": 0.0}, "model": {"weights": "weights/lgbm", "file": "weights/lgbm/model.txt", "sha256": "0eeebf43fcccd8c7c07f053b7ec723229d1a3c9b92d12eec1bdb269258c51470", "sha256_short": "0eeebf43fccc", "trained_at": "2026-09-25T01:36:30Z", "threshold": 0.63, "harmonize": "none", "class": "MARIDA Marine Debris (любой плавающий мусор, не только пластик)"}}, "probable": {"prob_max": 0.984, "prob_mean": 0.843, "signs": {"foam": {"flag": false, "white_ratio_b2_b8": -0.2, "wind10m_ms": 3.3, "rule": "прирост B2 над водой ≥ 0.8 прироста B8 («белый» спектр) или ветер ≥ 7.0 м/с"}, "glint": {"flag": true, "b11_water_median": 0.0201, "glint_share": 0.0, "rule": "медиана B11 воды зоны > 0.01 или ≥ 20 % пикселей зоны — блик (маска качества)"}, "ship": {"flag": false, "share": 0, "bright_target_px_within_500m": 0, "rule": "≥ 30 % пикселей — у яркой цели или кильватера (reports/artifacts.md) или яркая цель с откликом в SWIR (судно, лодка: B11 ≥ 0,015) ближе 500 м, или малый яркий объект (≤ 40 пикс.) с B11 ≥ 0,01 ближе 500 м (лодка с кильватером)"}, "coast": {"flag": false, "land_px_within_300m": 0, "rule": "суша (маска качества) ближе 300 м — прибой, кромка берега"}, "shallow": {"flag": true, "b3_water_zone": 0.0811, "b3_ratio_to_scene_water": 0.96, "rule": "медиана B3 воды зоны ≥ 2× медианы воды снимка и ≥ 0,03, или B4 воды зоны ≥ 0,02 и (≥ 2× воды снимка или B8 ≥ 0,013) — мелководье, яркое дно, илистая банка"}, "seam": {"flag": false, "share": 0, "rule": "≥ 30 % пикселей — прямая линия вдоль трека/границы яркости (шов)"}, "cloud": {"flag": false, "cloud_fraction": 0.0, "rule": "облака или тени облаков (маска качества) ≥ 20 % зоны"}, "diag": {"dist_land_m": 835, "dist_bright_m": 868, "n_bright_px_500m": 0, "b11_bright_max_500m": null, "b4_water_zone": 0.054, "b8_water_zone": 0.0361, "b11_det_median": 0.0252, "b8_det_median": 0.0638, "water_scene_b3": 0.0845, "water_scene_b4": 0.0567, "n_det_px": 38, "n_obj": 21}, "note": "эвристики, не классификатор; на размеченных данных не проверены"}, "n_cozar_filaments": 0}, "field_nearby": {"items": [{"source": "ADIS (4TU.ResearchData, судовая камера)", "segment_id": 299932, "ship": "Antsiva", "date": "2022-02-05", "days_from_scene": -1625, "distance_km": 5584.9, "lon": 61.51495, "lat": -28.72991, "n_items": 0, "area_km2": 0.1999, "size_class": "> 5 см", "c_items_km2": 0.0, "ci95_lo": 0.0, "ci95_hi": 18.45, "ci95_method": "точный интервал Пуассона для N, делённый на A", "raw_10cm_items_km2": 0.0, "authors_cal_10cm_items_km2": 0.0, "authors_cal_10cm_lo95": null, "authors_cal_10cm_hi95": null}, {"source": "ADIS (4TU.ResearchData, судовая камера)", "segment_id": 299754, "ship": "Antsiva", "date": "2022-02-03", "days_from_scene": -1627, "distance_km": 5588.4, "lon": 63.022, "lat": -31.55208, "n_items": 0, "area_km2": 0.0769, "size_class": "> 5 см", "c_items_km2": 0.0, "ci95_lo": 0.0, "ci95_hi": 47.95, "ci95_method": "точный интервал Пуассона для N, делённый на A", "raw_10cm_items_km2": 0.0, "authors_cal_10cm_items_km2": 0.0, "authors_cal_10cm_lo95": null, "authors_cal_10cm_hi95": null}, {"source": "ADIS (4TU.ResearchData, судовая камера)", "segment_id": 299753, "ship": "Antsiva", "date": "2022-02-03", "days_from_scene": -1627, "distance_km": 5589.2, "lon": 63.01827, "lat": -31.56061, "n_items": 0, "area_km2": 0.0094, "size_class": "> 5 см", "c_items_km2": 0.0, "ci95_lo": 0.0, "ci95_hi": 390.52, "ci95_method": "точный интервал Пуассона для N, делённый на A", "raw_10cm_items_km2": 0.0, "authors_cal_10cm_items_km2": 0.0, "authors_cal_10cm_lo95": null, "authors_cal_10cm_hi95": null}], "nearest_organizer_sample": {"sample_id": "MPL-0922", "source_id": "S4_BLACK_SEA_DOORS3", "distance_km": 8904.8}, "note": "Измерение ≠ оценка: это независимые полевые счёты C = N/A в другое время и в другом месте; со сценой они не связаны и не калибруют её. Ближайший отрезок ADIS — за 5585 км: только для порядка величин."}}}]}