{"type": "FeatureCollection", "features": [{"type": "Feature", "id": "D-SZ-fresh-guanabara-2026-09-04-001-1", "geometry": {"type": "Polygon", "coordinates": [[[-43.1659881, -22.7130554], [-43.1659869, -22.7131457], [-43.1657923, -22.7131435], [-43.1657935, -22.7130532], [-43.1659881, -22.7130554]]]}, "properties": {"kind": "detection", "det_id": "D-SZ-fresh-guanabara-2026-09-04-001-1", "zone_id": "SZ-fresh-guanabara-2026-09-04-001", "scene_id": "S2B_MSIL2A_20260904T130239_R095_T23KPQ_20260904T162712", "datetime": "2026-09-04T13:02:39.024000Z", "n_pixels": 2, "area_m2": 200, "prob_max": 0.9451, "prob_mean": 0.9431, "threshold": 0.63, "in_strip": true, "artifact": null}}, {"type": "Feature", "id": "D-SZ-fresh-guanabara-2026-09-04-001-2", "geometry": {"type": "Polygon", "coordinates": [[[-43.1657863, -22.713595], [-43.1657851, -22.7136853], [-43.1656878, -22.7136841], [-43.165689, -22.7135938], [-43.1657863, -22.713595]]]}, "properties": {"kind": "detection", "det_id": "D-SZ-fresh-guanabara-2026-09-04-001-2", "zone_id": "SZ-fresh-guanabara-2026-09-04-001", "scene_id": "S2B_MSIL2A_20260904T130239_R095_T23KPQ_20260904T162712", "datetime": "2026-09-04T13:02:39.024000Z", "n_pixels": 1, "area_m2": 100, "prob_max": 0.9843, "prob_mean": 0.9843, "threshold": 0.63, "in_strip": true, "artifact": null}}, {"type": "Feature", "id": "D-SZ-fresh-guanabara-2026-09-04-001-3", "geometry": {"type": "Polygon", "coordinates": [[[-43.1682975, -22.7150686], [-43.1682963, -22.7151589], [-43.168199, -22.7151578], [-43.1682002, -22.7150675], [-43.1682975, -22.7150686]]]}, "properties": {"kind": "detection", "det_id": "D-SZ-fresh-guanabara-2026-09-04-001-3", "zone_id": "SZ-fresh-guanabara-2026-09-04-001", "scene_id": "S2B_MSIL2A_20260904T130239_R095_T23KPQ_20260904T162712", "datetime": "2026-09-04T13:02:39.024000Z", "n_pixels": 1, "area_m2": 100, "prob_max": 0.7843, "prob_mean": 0.7843, "threshold": 0.63, "in_strip": true, "artifact": null}}, {"type": "Feature", "id": "D-SZ-fresh-guanabara-2026-09-04-001-4", "geometry": {"type": "Polygon", "coordinates": [[[-43.1697285, -22.7172523], [-43.1697273, -22.7173426], [-43.16963, -22.7173415], [-43.1696312, -22.7172512], [-43.1697285, -22.7172523]]]}, "properties": {"kind": "detection", "det_id": "D-SZ-fresh-guanabara-2026-09-04-001-4", "zone_id": "SZ-fresh-guanabara-2026-09-04-001", "scene_id": "S2B_MSIL2A_20260904T130239_R095_T23KPQ_20260904T162712", "datetime": "2026-09-04T13:02:39.024000Z", "n_pixels": 1, "area_m2": 100, "prob_max": 0.7451, "prob_mean": 0.7451, "threshold": 0.63, "in_strip": true, "artifact": null}}, {"type": "Feature", "id": "D-SZ-fresh-guanabara-2026-09-04-001-5", "geometry": {"type": "Polygon", "coordinates": [[[-43.169624, -22.717793], [-43.1696228, -22.7178833], [-43.1695255, -22.7178822], [-43.1695267, -22.7177919], [-43.169624, -22.717793]]]}, "properties": {"kind": "detection", "det_id": "D-SZ-fresh-guanabara-2026-09-04-001-5", "zone_id": "SZ-fresh-guanabara-2026-09-04-001", "scene_id": "S2B_MSIL2A_20260904T130239_R095_T23KPQ_20260904T162712", "datetime": "2026-09-04T13:02:39.024000Z", "n_pixels": 1, "area_m2": 100, "prob_max": 0.698, "prob_mean": 0.698, "threshold": 0.63, "in_strip": true, "artifact": null}}, {"type": "Feature", "id": "D-SZ-fresh-guanabara-2026-09-04-002-7", "geometry": {"type": "Polygon", "coordinates": [[[-43.1776221, -22.7239348], [-43.1776209, -22.7240251], [-43.1775235, -22.724024], [-43.1775247, -22.7239337], [-43.1776221, -22.7239348]]]}, "properties": {"kind": "detection", "det_id": "D-SZ-fresh-guanabara-2026-09-04-002-7", "zone_id": "SZ-fresh-guanabara-2026-09-04-002", "scene_id": "S2B_MSIL2A_20260904T130239_R095_T23KPQ_20260904T162712", "datetime": "2026-09-04T13:02:39.024000Z", "n_pixels": 1, "area_m2": 100, "prob_max": 0.7569, "prob_mean": 0.7569, "threshold": 0.63, "in_strip": true, "artifact": null}}, {"type": "Feature", "id": "D-SZ-fresh-guanabara-2026-09-04-002-8", "geometry": {"type": "Polygon", "coordinates": [[[-43.1792695, -22.7244954], [-43.1792683, -22.7245857], [-43.179171, -22.7245846], [-43.1791722, -22.7244943], [-43.1792695, -22.7244954]]]}, "properties": {"kind": "detection", "det_id": "D-SZ-fresh-guanabara-2026-09-04-002-8", "zone_id": "SZ-fresh-guanabara-2026-09-04-002", "scene_id": "S2B_MSIL2A_20260904T130239_R095_T23KPQ_20260904T162712", "datetime": "2026-09-04T13:02:39.024000Z", "n_pixels": 1, "area_m2": 100, "prob_max": 0.749, "prob_mean": 0.749, "threshold": 0.63, "in_strip": true, "artifact": null}}, {"type": "Feature", "id": "D-SZ-fresh-guanabara-2026-09-04-002-9", "geometry": {"type": "Polygon", "coordinates": [[[-43.1779045, -22.7246605], [-43.1779021, -22.7248411], [-43.1778048, -22.7248399], [-43.1778072, -22.7246594], [-43.1779045, -22.7246605]]]}, "properties": {"kind": "detection", "det_id": "D-SZ-fresh-guanabara-2026-09-04-002-9", "zone_id": "SZ-fresh-guanabara-2026-09-04-002", "scene_id": "S2B_MSIL2A_20260904T130239_R095_T23KPQ_20260904T162712", "datetime": "2026-09-04T13:02:39.024000Z", "n_pixels": 2, "area_m2": 200, "prob_max": 0.8353, "prob_mean": 0.7745, "threshold": 0.63, "in_strip": true, "artifact": null}}, {"type": "Feature", "id": "D-SZ-fresh-guanabara-2026-09-04-002-10", "geometry": {"type": "Polygon", "coordinates": [[[-43.1781941, -22.7248444], [-43.1781929, -22.7249347], [-43.1780956, -22.7249336], [-43.1780968, -22.7248433], [-43.1781941, -22.7248444]]]}, "properties": {"kind": "detection", "det_id": "D-SZ-fresh-guanabara-2026-09-04-002-10", "zone_id": "SZ-fresh-guanabara-2026-09-04-002", "scene_id": "S2B_MSIL2A_20260904T130239_R095_T23KPQ_20260904T162712", "datetime": "2026-09-04T13:02:39.024000Z", "n_pixels": 1, "area_m2": 100, "prob_max": 0.8275, "prob_mean": 0.8275, "threshold": 0.63, "in_strip": true, "artifact": null}}, {"type": "Feature", "id": "D-SZ-fresh-guanabara-2026-09-04-002-11", "geometry": {"type": "Polygon", "coordinates": [[[-43.1790629, -22.7253961], [-43.1790617, -22.7254864], [-43.1789644, -22.7254853], [-43.1789656, -22.725395], [-43.1790629, -22.7253961]]]}, "properties": {"kind": "detection", "det_id": "D-SZ-fresh-guanabara-2026-09-04-002-11", "zone_id": "SZ-fresh-guanabara-2026-09-04-002", "scene_id": "S2B_MSIL2A_20260904T130239_R095_T23KPQ_20260904T162712", "datetime": "2026-09-04T13:02:39.024000Z", "n_pixels": 1, "area_m2": 100, "prob_max": 0.8549, "prob_mean": 0.8549, "threshold": 0.63, "in_strip": true, "artifact": "ship"}}, {"type": "Feature", "id": "D-SZ-fresh-guanabara-2026-09-04-003-13", "geometry": {"type": "Polygon", "coordinates": [[[-43.212913, -22.727494], [-43.2129118, -22.7275843], [-43.2131065, -22.7275865], [-43.2131041, -22.7277671], [-43.2126174, -22.7277616], [-43.2126163, -22.7278519], [-43.2123243, -22.7278487], [-43.2123266, -22.7276681], [-43.2124239, -22.7276692], [-43.2124251, -22.7275789], [-43.2127171, -22.7275821], [-43.2127183, -22.7274918], [-43.212913, -22.727494]]]}, "properties": {"kind": "detection", "det_id": "D-SZ-fresh-guanabara-2026-09-04-003-13", "zone_id": "SZ-fresh-guanabara-2026-09-04-003", "scene_id": "S2B_MSIL2A_20260904T130239_R095_T23KPQ_20260904T162712", "datetime": "2026-09-04T13:02:39.024000Z", "n_pixels": 20, "area_m2": 2000, "prob_max": 0.9961, "prob_mean": 0.8476, "threshold": 0.63, "in_strip": true, "artifact": null}}, {"type": "Feature", "id": "D-SZ-fresh-guanabara-2026-09-04-004-15", "geometry": {"type": "Polygon", "coordinates": [[[-43.1966294, -22.7294784], [-43.1966282, -22.7295687], [-43.1965309, -22.7295676], [-43.1965321, -22.7294773], [-43.1966294, -22.7294784]]]}, "properties": {"kind": "detection", "det_id": "D-SZ-fresh-guanabara-2026-09-04-004-15", "zone_id": "SZ-fresh-guanabara-2026-09-04-004", "scene_id": "S2B_MSIL2A_20260904T130239_R095_T23KPQ_20260904T162712", "datetime": "2026-09-04T13:02:39.024000Z", "n_pixels": 1, "area_m2": 100, "prob_max": 0.8745, "prob_mean": 0.8745, "threshold": 0.63, "in_strip": true, "artifact": null}}, {"type": "Feature", "id": "D-SZ-fresh-guanabara-2026-09-04-004-16", "geometry": {"type": "Polygon", "coordinates": [[[-43.1971149, -22.7295742], [-43.1971126, -22.7297548], [-43.1970152, -22.7297537], [-43.1970176, -22.7295731], [-43.1971149, -22.7295742]]]}, "properties": {"kind": "detection", "det_id": "D-SZ-fresh-guanabara-2026-09-04-004-16", "zone_id": "SZ-fresh-guanabara-2026-09-04-004", "scene_id": "S2B_MSIL2A_20260904T130239_R095_T23KPQ_20260904T162712", "datetime": "2026-09-04T13:02:39.024000Z", "n_pixels": 2, "area_m2": 200, "prob_max": 0.9569, "prob_mean": 0.9216, "threshold": 0.63, "in_strip": true, "artifact": null}}, {"type": "Feature", "id": "D-SZ-fresh-guanabara-2026-09-04-004-17", "geometry": {"type": "Polygon", "coordinates": [[[-43.1967244, -22.7296601], [-43.196722, -22.7298407], [-43.1966247, -22.7298396], [-43.1966271, -22.729659], [-43.1967244, -22.7296601]]]}, "properties": {"kind": "detection", "det_id": "D-SZ-fresh-guanabara-2026-09-04-004-17", "zone_id": "SZ-fresh-guanabara-2026-09-04-004", "scene_id": "S2B_MSIL2A_20260904T130239_R095_T23KPQ_20260904T162712", "datetime": "2026-09-04T13:02:39.024000Z", "n_pixels": 2, "area_m2": 200, "prob_max": 0.9804, "prob_mean": 0.9765, "threshold": 0.63, "in_strip": true, "artifact": null}}, {"type": "Feature", "id": "D-SZ-fresh-guanabara-2026-09-04-005-20", "geometry": {"type": "Polygon", "coordinates": [[[-43.0298809, -22.7356367], [-43.0298796, -22.735727], [-43.029977, -22.7357282], [-43.0299757, -22.7358185], [-43.0298784, -22.7358173], [-43.0298771, -22.7359075], [-43.0297797, -22.7359063], [-43.029781, -22.7358161], [-43.0295864, -22.7358137], [-43.0295877, -22.7357234], [-43.029685, -22.7357246], [-43.0296863, -22.7356343], [-43.0298809, -22.7356367]]]}, "properties": {"kind": "detection", "det_id": "D-SZ-fresh-guanabara-2026-09-04-005-20", "zone_id": "SZ-fresh-guanabara-2026-09-04-005", "scene_id": "S2B_MSIL2A_20260904T130239_R095_T23KPQ_20260904T162712", "datetime": "2026-09-04T13:02:39.024000Z", "n_pixels": 7, "area_m2": 700, "prob_max": 0.9608, "prob_mean": 0.8644, "threshold": 0.63, "in_strip": true, "artifact": null}}, {"type": "Feature", "id": "D-SZ-fresh-guanabara-2026-09-04-006-45", "geometry": {"type": "Polygon", "coordinates": [[[-43.2123679, -22.76939], [-43.2123667, -22.7694803], [-43.2122694, -22.7694792], [-43.2122682, -22.7695695], [-43.2121708, -22.7695684], [-43.212172, -22.7694782], [-43.2119773, -22.769476], [-43.2119784, -22.7693857], [-43.2123679, -22.76939]]]}, "properties": {"kind": "detection", "det_id": "D-SZ-fresh-guanabara-2026-09-04-006-45", "zone_id": "SZ-fresh-guanabara-2026-09-04-006", "scene_id": "S2B_MSIL2A_20260904T130239_R095_T23KPQ_20260904T162712", "datetime": "2026-09-04T13:02:39.024000Z", "n_pixels": 5, "area_m2": 500, "prob_max": 0.9843, "prob_mean": 0.8353, "threshold": 0.63, "in_strip": true, "artifact": null}}, {"type": "Feature", "id": "D-SZ-fresh-guanabara-2026-09-04-007-90", "geometry": {"type": "Polygon", "coordinates": [[[-43.2508781, -22.8345669], [-43.2508758, -22.8347475], [-43.250681, -22.8347454], [-43.2506833, -22.8345648], [-43.2508781, -22.8345669]]]}, "properties": {"kind": "detection", "det_id": "D-SZ-fresh-guanabara-2026-09-04-007-90", "zone_id": "SZ-fresh-guanabara-2026-09-04-007", "scene_id": "S2B_MSIL2A_20260904T130239_R095_T23KPQ_20260904T162712", "datetime": "2026-09-04T13:02:39.024000Z", "n_pixels": 4, "area_m2": 400, "prob_max": 0.9765, "prob_mean": 0.8373, "threshold": 0.63, "in_strip": true, "artifact": null}}, {"type": "Feature", "id": "D-SZ-fresh-guanabara-2026-09-04-007-93", "geometry": {"type": "Polygon", "coordinates": [[[-43.2523174, -22.8362986], [-43.2523163, -22.8363889], [-43.2522188, -22.8363878], [-43.25222, -22.8362975], [-43.2523174, -22.8362986]]]}, "properties": {"kind": "detection", "det_id": "D-SZ-fresh-guanabara-2026-09-04-007-93", "zone_id": "SZ-fresh-guanabara-2026-09-04-007", "scene_id": "S2B_MSIL2A_20260904T130239_R095_T23KPQ_20260904T162712", "datetime": "2026-09-04T13:02:39.024000Z", "n_pixels": 1, "area_m2": 100, "prob_max": 0.9804, "prob_mean": 0.9804, "threshold": 0.63, "in_strip": true, "artifact": null}}, {"type": "Feature", "id": "D-SZ-fresh-guanabara-2026-09-04-007-94", "geometry": {"type": "Polygon", "coordinates": [[[-43.2518292, -22.8363835], [-43.251828, -22.8364738], [-43.2517306, -22.8364727], [-43.2517318, -22.8363825], [-43.2518292, -22.8363835]]]}, "properties": {"kind": "detection", "det_id": "D-SZ-fresh-guanabara-2026-09-04-007-94", "zone_id": "SZ-fresh-guanabara-2026-09-04-007", "scene_id": "S2B_MSIL2A_20260904T130239_R095_T23KPQ_20260904T162712", "datetime": "2026-09-04T13:02:39.024000Z", "n_pixels": 1, "area_m2": 100, "prob_max": 0.7647, "prob_mean": 0.7647, "threshold": 0.63, "in_strip": true, "artifact": null}}, {"type": "Feature", "id": "D-SZ-fresh-guanabara-2026-09-04-008-99", "geometry": {"type": "Polygon", "coordinates": [[[-43.1604207, -22.8451968], [-43.1604195, -22.8452871], [-43.1603221, -22.8452859], [-43.1603233, -22.8451957], [-43.1604207, -22.8451968]]]}, "properties": {"kind": "detection", "det_id": "D-SZ-fresh-guanabara-2026-09-04-008-99", "zone_id": "SZ-fresh-guanabara-2026-09-04-008", "scene_id": "S2B_MSIL2A_20260904T130239_R095_T23KPQ_20260904T162712", "datetime": "2026-09-04T13:02:39.024000Z", "n_pixels": 1, "area_m2": 100, "prob_max": 0.8275, "prob_mean": 0.8275, "threshold": 0.63, "in_strip": true, "artifact": "ship"}}, {"type": "Feature", "id": "D-SZ-fresh-guanabara-2026-09-04-008-100", "geometry": {"type": "Polygon", "coordinates": [[[-43.1607117, -22.8452904], [-43.1607105, -22.8453807], [-43.1606131, -22.8453796], [-43.1606143, -22.8452893], [-43.1607117, -22.8452904]]]}, "properties": {"kind": "detection", "det_id": "D-SZ-fresh-guanabara-2026-09-04-008-100", "zone_id": "SZ-fresh-guanabara-2026-09-04-008", "scene_id": "S2B_MSIL2A_20260904T130239_R095_T23KPQ_20260904T162712", "datetime": "2026-09-04T13:02:39.024000Z", "n_pixels": 1, "area_m2": 100, "prob_max": 0.7059, "prob_mean": 0.7059, "threshold": 0.63, "in_strip": true, "artifact": "ship"}}, {"type": "Feature", "id": "D-SZ-fresh-guanabara-2026-09-04-008-101", "geometry": {"type": "Polygon", "coordinates": [[[-43.1578672, -22.8467024], [-43.157866, -22.8467927], [-43.1576711, -22.8467904], [-43.1576723, -22.8467001], [-43.1578672, -22.8467024]]]}, "properties": {"kind": "detection", "det_id": "D-SZ-fresh-guanabara-2026-09-04-008-101", "zone_id": "SZ-fresh-guanabara-2026-09-04-008", "scene_id": "S2B_MSIL2A_20260904T130239_R095_T23KPQ_20260904T162712", "datetime": "2026-09-04T13:02:39.024000Z", "n_pixels": 2, "area_m2": 200, "prob_max": 0.949, "prob_mean": 0.8686, "threshold": 0.63, "in_strip": true, "artifact": null}}, {"type": "Feature", "id": "D-SZ-fresh-guanabara-2026-09-04-008-102", "geometry": {"type": "Polygon", "coordinates": [[[-43.1566762, -22.8483141], [-43.1566738, -22.8484947], [-43.1565764, -22.8484935], [-43.1565788, -22.8483129], [-43.1566762, -22.8483141]]]}, "properties": {"kind": "detection", "det_id": "D-SZ-fresh-guanabara-2026-09-04-008-102", "zone_id": "SZ-fresh-guanabara-2026-09-04-008", "scene_id": "S2B_MSIL2A_20260904T130239_R095_T23KPQ_20260904T162712", "datetime": "2026-09-04T13:02:39.024000Z", "n_pixels": 2, "area_m2": 200, "prob_max": 0.7882, "prob_mean": 0.7647, "threshold": 0.63, "in_strip": true, "artifact": null}}]}