{"type": "FeatureCollection", "features": [{"type": "Feature", "id": "SZ-fresh-guanabara-2026-09-04-001", "geometry": {"type": "Polygon", "coordinates": [[[-43.166006, -22.711701], [-43.166878, -22.711982], [-43.167357, -22.71262], [-43.167447, -22.713162], [-43.167142, -22.714152], [-43.168218, -22.713713], [-43.169188, -22.713995], [-43.169757, -22.715085], [-43.169453, -22.715985], [-43.170232, -22.715994], [-43.170907, -22.716453], [-43.171187, -22.717359], [-43.170979, -22.71835], [-43.170484, -22.718977], [-43.169507, -22.719237], [-43.168347, -22.718681], [-43.168067, -22.717775], [-43.168474, -22.716425], [-43.167695, -22.716416], [-43.16702, -22.715957], [-43.166739, -22.715141], [-43.166844, -22.7146], [-43.16567, -22.715039], [-43.164509, -22.714483], [-43.164228, -22.713667], [-43.164437, -22.712586], [-43.164932, -22.71196], [-43.166006, -22.711701]], [[-43.16714, -22.714243], [-43.167044, -22.714151], [-43.167043, -22.714242], [-43.16714, -22.714243]], [[-43.167041, -22.714422], [-43.166945, -22.714331], [-43.166943, -22.714421], [-43.167041, -22.714422]], [[-43.166941, -22.714602], [-43.166845, -22.71451], [-43.166844, -22.7146], [-43.166941, -22.714602]]]}, "properties": {"kind": "detection_zone", "layer_kind": "scene_zone", "zone_id": "SZ-fresh-guanabara-2026-09-04-001", "scene_key": "fresh-guanabara-2026-09-04", "scene_kind": "fresh_s2", "scene_id": "S2B_MSIL2A_20260904T130239_R095_T23KPQ_20260904T162712", "region": "guanabara", "title": "Залив Гуанабара (Рио-де-Жанейро) · зона 1", "mission": "Sentinel-2", "datetime": "2026-09-04T13:02:39.024000Z", "detection_status": "insufficient_data", "status": "insufficient_data", "concentration_status": "unavailable", "quantity": {"status": "not_confirmed", "label": "концентрация по снимку не подтверждена", "detail": "перевод площади в штуки не показываем: нет калибровочных пар (см. docs/QUANTITY.md)"}, "verification": "false_alarm_signs", "training_scene": null, "flags": ["ship", "coast"], "n_cozar_filaments": 0, "crop_file": "crops/SZ-fresh-guanabara-2026-09-04-001.jpg", "wind_high": false, "measured": {"zone_area_km2": 0.2492, "suspicious_area_m2": 600, "n_pixels": 6, "n_objects": 5, "water_km2": 0.2129, "lwd_m2_km2": 2818.2, "lwd_note": null, "quality": {"valid_water_fraction": 0.853, "cloud_fraction": 0.0, "glint_fraction": 0.0}, "model": {"weights": "weights/lgbm", "file": "weights/lgbm/model.txt", "sha256": "0eeebf43fcccd8c7c07f053b7ec723229d1a3c9b92d12eec1bdb269258c51470", "sha256_short": "0eeebf43fccc", "trained_at": "2026-09-25T01:36:30Z", "threshold": 0.63, "harmonize": "none", "class": "MARIDA Marine Debris (любой плавающий мусор, не только пластик)"}}, "probable": {"prob_max": 0.984, "prob_mean": 0.85, "signs": {"foam": {"flag": false, "white_ratio_b2_b8": 0.095, "wind10m_ms": 1.52, "rule": "прирост B2 над водой ≥ 0.8 прироста B8 («белый» спектр) или ветер ≥ 7.0 м/с"}, "glint": {"flag": false, "b11_water_median": 0.0045, "glint_share": 0.0, "rule": "медиана B11 воды зоны > 0.01 или ≥ 20 % пикселей зоны — блик (маска качества)"}, "ship": {"flag": true, "share": 0, "bright_target_px_within_500m": 123, "rule": "≥ 30 % пикселей — у яркой цели или кильватера (reports/artifacts.md) или яркая цель с откликом в SWIR (судно, лодка: B11 ≥ 0,015) ближе 500 м, или малый яркий объект (≤ 40 пикс.) с B11 ≥ 0,01 ближе 500 м (лодка с кильватером)"}, "coast": {"flag": true, "land_px_within_300m": 1476, "rule": "суша (маска качества) ближе 300 м — прибой, кромка берега"}, "shallow": {"flag": false, "b3_water_zone": 0.0229, "b3_ratio_to_scene_water": 1.24, "rule": "медиана B3 воды зоны ≥ 2× медианы воды снимка и ≥ 0,03, или B4 воды зоны ≥ 0,02 и (≥ 2× воды снимка или B8 ≥ 0,013) — мелководье, яркое дно, илистая банка"}, "seam": {"flag": false, "share": 0, "rule": "≥ 30 % пикселей — прямая линия вдоль трека/границы яркости (шов)"}, "cloud": {"flag": false, "cloud_fraction": 0.0, "rule": "облака или тени облаков (маска качества) ≥ 20 % зоны"}, "diag": {"dist_land_m": 73, "dist_bright_m": 70, "n_bright_px_500m": 46, "b11_bright_max_500m": 0.1498, "b4_water_zone": 0.014, "b8_water_zone": 0.0063, "b11_det_median": 0.0112, "b8_det_median": 0.0346, "water_scene_b3": 0.0184, "water_scene_b4": 0.0117, "n_det_px": 6, "n_obj": 5}, "note": "эвристики, не классификатор; на размеченных данных не проверены"}, "n_cozar_filaments": 0}, "field_nearby": {"items": [{"source": "ADIS (4TU.ResearchData, судовая камера)", "segment_id": 336436, "ship": "Bark Europa", "date": "2022-10-31", "days_from_scene": -1404, "distance_km": 347.4, "lon": -40.0369, "lat": -24.05508, "n_items": 0, "area_km2": 0.3704, "size_class": "> 5 см", "c_items_km2": 0.0, "ci95_lo": 0.0, "ci95_hi": 9.96, "ci95_method": "точный интервал Пуассона для N, делённый на A", "raw_10cm_items_km2": 0.0, "authors_cal_10cm_items_km2": 0.0, "authors_cal_10cm_lo95": null, "authors_cal_10cm_hi95": null}, {"source": "ADIS (4TU.ResearchData, судовая камера)", "segment_id": 336437, "ship": "Bark Europa", "date": "2022-10-31", "days_from_scene": -1404, "distance_km": 348.5, "lon": -40.06524, "lat": -24.14022, "n_items": 0, "area_km2": 0.3705, "size_class": "> 5 см", "c_items_km2": 0.0, "ci95_lo": 0.0, "ci95_hi": 9.96, "ci95_method": "точный интервал Пуассона для N, делённый на A", "raw_10cm_items_km2": 0.0, "authors_cal_10cm_items_km2": 0.0, "authors_cal_10cm_lo95": null, "authors_cal_10cm_hi95": null}, {"source": "ADIS (4TU.ResearchData, судовая камера)", "segment_id": 336438, "ship": "Bark Europa", "date": "2022-10-31", "days_from_scene": -1404, "distance_km": 349.7, "lon": -40.09594, "lat": -24.22453, "n_items": 0, "area_km2": 0.3702, "size_class": "> 5 см", "c_items_km2": 0.0, "ci95_lo": 0.0, "ci95_hi": 9.96, "ci95_method": "точный интервал Пуассона для N, делённый на A", "raw_10cm_items_km2": 0.0, "authors_cal_10cm_items_km2": 0.0, "authors_cal_10cm_lo95": null, "authors_cal_10cm_hi95": null}], "nearest_organizer_sample": {"sample_id": "MPL-0513", "source_id": "S2_SARGASSO_MSM41", "distance_km": 5301.6}, "note": "Измерение ≠ оценка: это независимые полевые счёты C = N/A в другое время и в другом месте; со сценой они не связаны и не калибруют её. Ближайший отрезок ADIS — за 347 км: только для порядка величин."}, "acquired_at": "2026-09-04T13:02:39.024000Z", "acquisition_date": "2026-09-04", "processed_at": "2026-09-26T19:32:47Z", "human_checked": false, "auto_label": "автоматически, не проверено человеком"}}, {"type": "Feature", "id": "SZ-fresh-guanabara-2026-09-04-002", "geometry": {"type": "Polygon", "coordinates": [[[-43.17764, -22.72258], [-43.178512, -22.722861], [-43.1788, -22.723226], [-43.179287, -22.723141], [-43.18016, -22.723422], [-43.180638, -22.724059], [-43.180728, -22.724602], [-43.180428, -22.725231], [-43.180418, -22.725953], [-43.179532, -22.726756], [-43.178461, -22.726744], [-43.177787, -22.726194], [-43.176914, -22.725913], [-43.176436, -22.725276], [-43.176064, -22.724007], [-43.176168, -22.723467], [-43.176663, -22.72284], [-43.17764, -22.72258]]]}, "properties": {"kind": "detection_zone", "layer_kind": "scene_zone", "zone_id": "SZ-fresh-guanabara-2026-09-04-002", "scene_key": "fresh-guanabara-2026-09-04", "scene_kind": "fresh_s2", "scene_id": "S2B_MSIL2A_20260904T130239_R095_T23KPQ_20260904T162712", "region": "guanabara", "title": "Залив Гуанабара (Рио-де-Жанейро) · зона 2", "mission": "Sentinel-2", "datetime": "2026-09-04T13:02:39.024000Z", "detection_status": "insufficient_data", "status": "insufficient_data", "concentration_status": "unavailable", "quantity": {"status": "not_confirmed", "label": "концентрация по снимку не подтверждена", "detail": "перевод площади в штуки не показываем: нет калибровочных пар (см. docs/QUANTITY.md)"}, "verification": "false_alarm_signs", "training_scene": null, "flags": ["ship"], "n_cozar_filaments": 0, "crop_file": "crops/SZ-fresh-guanabara-2026-09-04-002.jpg", "wind_high": false, "measured": {"zone_area_km2": 0.1592, "suspicious_area_m2": 600, "n_pixels": 6, "n_objects": 5, "water_km2": 0.1589, "lwd_m2_km2": 3776.0, "lwd_note": null, "quality": {"valid_water_fraction": 1.0, "cloud_fraction": 0.0, "glint_fraction": 0.0}, "model": {"weights": "weights/lgbm", "file": "weights/lgbm/model.txt", "sha256": "0eeebf43fcccd8c7c07f053b7ec723229d1a3c9b92d12eec1bdb269258c51470", "sha256_short": "0eeebf43fccc", "trained_at": "2026-09-25T01:36:30Z", "threshold": 0.63, "harmonize": "none", "class": "MARIDA Marine Debris (любой плавающий мусор, не только пластик)"}}, "probable": {"prob_max": 0.855, "prob_mean": 0.79, "signs": {"foam": {"flag": false, "white_ratio_b2_b8": 0.411, "wind10m_ms": 1.52, "rule": "прирост B2 над водой ≥ 0.8 прироста B8 («белый» спектр) или ветер ≥ 7.0 м/с"}, "glint": {"flag": false, "b11_water_median": 0.0022, "glint_share": 0.0, "rule": "медиана B11 воды зоны > 0.01 или ≥ 20 % пикселей зоны — блик (маска качества)"}, "ship": {"flag": true, "share": 0.167, "bright_target_px_within_500m": 23, "rule": "≥ 30 % пикселей — у яркой цели или кильватера (reports/artifacts.md) или яркая цель с откликом в SWIR (судно, лодка: B11 ≥ 0,015) ближе 500 м, или малый яркий объект (≤ 40 пикс.) с B11 ≥ 0,01 ближе 500 м (лодка с кильватером)"}, "coast": {"flag": false, "land_px_within_300m": 0, "rule": "суша (маска качества) ближе 300 м — прибой, кромка берега"}, "shallow": {"flag": false, "b3_water_zone": 0.0251, "b3_ratio_to_scene_water": 1.36, "rule": "медиана B3 воды зоны ≥ 2× медианы воды снимка и ≥ 0,03, или B4 воды зоны ≥ 0,02 и (≥ 2× воды снимка или B8 ≥ 0,013) — мелководье, яркое дно, илистая банка"}, "seam": {"flag": false, "share": 0, "rule": "≥ 30 % пикселей — прямая линия вдоль трека/границы яркости (шов)"}, "cloud": {"flag": false, "cloud_fraction": 0.0, "rule": "облака или тени облаков (маска качества) ≥ 20 % зоны"}, "diag": {"dist_land_m": 475, "dist_bright_m": 50, "n_bright_px_500m": 30, "b11_bright_max_500m": 0.1505, "b4_water_zone": 0.0146, "b8_water_zone": 0.0057, "b11_det_median": 0.0081, "b8_det_median": 0.0297, "water_scene_b3": 0.0184, "water_scene_b4": 0.0117, "n_det_px": 6, "n_obj": 5}, "note": "эвристики, не классификатор; на размеченных данных не проверены"}, "n_cozar_filaments": 0}, "field_nearby": {"items": [{"source": "ADIS (4TU.ResearchData, судовая камера)", "segment_id": 336436, "ship": "Bark Europa", "date": "2022-10-31", "days_from_scene": -1404, "distance_km": 347.4, "lon": -40.0369, "lat": -24.05508, "n_items": 0, "area_km2": 0.3704, "size_class": "> 5 см", "c_items_km2": 0.0, "ci95_lo": 0.0, "ci95_hi": 9.96, "ci95_method": "точный интервал Пуассона для N, делённый на A", "raw_10cm_items_km2": 0.0, "authors_cal_10cm_items_km2": 0.0, "authors_cal_10cm_lo95": null, "authors_cal_10cm_hi95": null}, {"source": "ADIS (4TU.ResearchData, судовая камера)", "segment_id": 336437, "ship": "Bark Europa", "date": "2022-10-31", "days_from_scene": -1404, "distance_km": 348.5, "lon": -40.06524, "lat": -24.14022, "n_items": 0, "area_km2": 0.3705, "size_class": "> 5 см", "c_items_km2": 0.0, "ci95_lo": 0.0, "ci95_hi": 9.96, "ci95_method": "точный интервал Пуассона для N, делённый на A", "raw_10cm_items_km2": 0.0, "authors_cal_10cm_items_km2": 0.0, "authors_cal_10cm_lo95": null, "authors_cal_10cm_hi95": null}, {"source": "ADIS (4TU.ResearchData, судовая камера)", "segment_id": 336438, "ship": "Bark Europa", "date": "2022-10-31", "days_from_scene": -1404, "distance_km": 349.7, "lon": -40.09594, "lat": -24.22453, "n_items": 0, "area_km2": 0.3702, "size_class": "> 5 см", "c_items_km2": 0.0, "ci95_lo": 0.0, "ci95_hi": 9.96, "ci95_method": "точный интервал Пуассона для N, делённый на A", "raw_10cm_items_km2": 0.0, "authors_cal_10cm_items_km2": 0.0, "authors_cal_10cm_lo95": null, "authors_cal_10cm_hi95": null}], "nearest_organizer_sample": {"sample_id": "MPL-0513", "source_id": "S2_SARGASSO_MSM41", "distance_km": 5301.6}, "note": "Измерение ≠ оценка: это независимые полевые счёты C = N/A в другое время и в другом месте; со сценой они не связаны и не калибруют её. Ближайший отрезок ADIS — за 347 км: только для порядка величин."}, "acquired_at": "2026-09-04T13:02:39.024000Z", "acquisition_date": "2026-09-04", "processed_at": "2026-09-26T19:32:47Z", "human_checked": false, "auto_label": "автоматически, не проверено человеком"}}, {"type": "Feature", "id": "SZ-fresh-guanabara-2026-09-04-003", "geometry": {"type": "Polygon", "coordinates": [[[-43.212931, -22.72614], [-43.214285, -22.726787], [-43.214567, -22.727603], [-43.214461, -22.728234], [-43.213574, -22.729037], [-43.211821, -22.729107], [-43.210956, -22.728285], [-43.21097, -22.727201], [-43.211563, -22.726486], [-43.212931, -22.72614]]]}, "properties": {"kind": "detection_zone", "layer_kind": "scene_zone", "zone_id": "SZ-fresh-guanabara-2026-09-04-003", "scene_key": "fresh-guanabara-2026-09-04", "scene_kind": "fresh_s2", "scene_id": "S2B_MSIL2A_20260904T130239_R095_T23KPQ_20260904T162712", "region": "guanabara", "title": "Залив Гуанабара (Рио-де-Жанейро) · зона 3", "mission": "Sentinel-2", "datetime": "2026-09-04T13:02:39.024000Z", "detection_status": "insufficient_data", "status": "insufficient_data", "concentration_status": "unavailable", "quantity": {"status": "not_confirmed", "label": "концентрация по снимку не подтверждена", "detail": "перевод площади в штуки не показываем: нет калибровочных пар (см. docs/QUANTITY.md)"}, "verification": "false_alarm_signs", "training_scene": null, "flags": ["ship", "coast"], "n_cozar_filaments": 0, "crop_file": "crops/SZ-fresh-guanabara-2026-09-04-003.jpg", "wind_high": false, "measured": {"zone_area_km2": 0.0949, "suspicious_area_m2": 2000, "n_pixels": 20, "n_objects": 1, "water_km2": 0.0627, "lwd_m2_km2": 31897.9, "lwd_note": null, "quality": {"valid_water_fraction": 0.64, "cloud_fraction": 0.0, "glint_fraction": 0.0}, "model": {"weights": "weights/lgbm", "file": "weights/lgbm/model.txt", "sha256": "0eeebf43fcccd8c7c07f053b7ec723229d1a3c9b92d12eec1bdb269258c51470", "sha256_short": "0eeebf43fccc", "trained_at": "2026-09-25T01:36:30Z", "threshold": 0.63, "harmonize": "none", "class": "MARIDA Marine Debris (любой плавающий мусор, не только пластик)"}}, "probable": {"prob_max": 0.996, "prob_mean": 0.848, "signs": {"foam": {"flag": false, "white_ratio_b2_b8": 0.68, "wind10m_ms": 1.52, "rule": "прирост B2 над водой ≥ 0.8 прироста B8 («белый» спектр) или ветер ≥ 7.0 м/с"}, "glint": {"flag": false, "b11_water_median": 0.0043, "glint_share": 0.0, "rule": "медиана B11 воды зоны > 0.01 или ≥ 20 % пикселей зоны — блик (маска качества)"}, "ship": {"flag": true, "share": 0, "bright_target_px_within_500m": 56, "rule": "≥ 30 % пикселей — у яркой цели или кильватера (reports/artifacts.md) или яркая цель с откликом в SWIR (судно, лодка: B11 ≥ 0,015) ближе 500 м, или малый яркий объект (≤ 40 пикс.) с B11 ≥ 0,01 ближе 500 м (лодка с кильватером)"}, "coast": {"flag": true, "land_px_within_300m": 1638, "rule": "суша (маска качества) ближе 300 м — прибой, кромка берега"}, "shallow": {"flag": false, "b3_water_zone": 0.0248, "b3_ratio_to_scene_water": 1.35, "rule": "медиана B3 воды зоны ≥ 2× медианы воды снимка и ≥ 0,03, или B4 воды зоны ≥ 0,02 и (≥ 2× воды снимка или B8 ≥ 0,013) — мелководье, яркое дно, илистая банка"}, "seam": {"flag": false, "share": 0, "rule": "≥ 30 % пикселей — прямая линия вдоль трека/границы яркости (шов)"}, "cloud": {"flag": false, "cloud_fraction": 0.0, "rule": "облака или тени облаков (маска качества) ≥ 20 % зоны"}, "diag": {"dist_land_m": 82, "dist_bright_m": 86, "n_bright_px_500m": 136, "b11_bright_max_500m": 0.1109, "b4_water_zone": 0.0214, "b8_water_zone": 0.0084, "b11_det_median": 0.0058, "b8_det_median": 0.032, "water_scene_b3": 0.0184, "water_scene_b4": 0.0117, "n_det_px": 20, "n_obj": 1}, "note": "эвристики, не классификатор; на размеченных данных не проверены"}, "n_cozar_filaments": 0}, "field_nearby": {"items": [{"source": "ADIS (4TU.ResearchData, судовая камера)", "segment_id": 336436, "ship": "Bark Europa", "date": "2022-10-31", "days_from_scene": -1404, "distance_km": 347.4, "lon": -40.0369, "lat": -24.05508, "n_items": 0, "area_km2": 0.3704, "size_class": "> 5 см", "c_items_km2": 0.0, "ci95_lo": 0.0, "ci95_hi": 9.96, "ci95_method": "точный интервал Пуассона для N, делённый на A", "raw_10cm_items_km2": 0.0, "authors_cal_10cm_items_km2": 0.0, "authors_cal_10cm_lo95": null, "authors_cal_10cm_hi95": null}, {"source": "ADIS (4TU.ResearchData, судовая камера)", "segment_id": 336437, "ship": "Bark Europa", "date": "2022-10-31", "days_from_scene": -1404, "distance_km": 348.5, "lon": -40.06524, "lat": -24.14022, "n_items": 0, "area_km2": 0.3705, "size_class": "> 5 см", "c_items_km2": 0.0, "ci95_lo": 0.0, "ci95_hi": 9.96, "ci95_method": "точный интервал Пуассона для N, делённый на A", "raw_10cm_items_km2": 0.0, "authors_cal_10cm_items_km2": 0.0, "authors_cal_10cm_lo95": null, "authors_cal_10cm_hi95": null}, {"source": "ADIS (4TU.ResearchData, судовая камера)", "segment_id": 336438, "ship": "Bark Europa", "date": "2022-10-31", "days_from_scene": -1404, "distance_km": 349.7, "lon": -40.09594, "lat": -24.22453, "n_items": 0, "area_km2": 0.3702, "size_class": "> 5 см", "c_items_km2": 0.0, "ci95_lo": 0.0, "ci95_hi": 9.96, "ci95_method": "точный интервал Пуассона для N, делённый на A", "raw_10cm_items_km2": 0.0, "authors_cal_10cm_items_km2": 0.0, "authors_cal_10cm_lo95": null, "authors_cal_10cm_hi95": null}], "nearest_organizer_sample": {"sample_id": "MPL-0513", "source_id": "S2_SARGASSO_MSM41", "distance_km": 5301.6}, "note": "Измерение ≠ оценка: это независимые полевые счёты C = N/A в другое время и в другом месте; со сценой они не связаны и не калибруют её. Ближайший отрезок ADIS — за 347 км: только для порядка величин."}, "acquired_at": "2026-09-04T13:02:39.024000Z", "acquisition_date": "2026-09-04", "processed_at": "2026-09-26T19:32:47Z", "human_checked": false, "auto_label": "автоматически, не проверено человеком"}}, {"type": "Feature", "id": "SZ-fresh-guanabara-2026-09-04-004", "geometry": {"type": "Polygon", "coordinates": [[[-43.196647, -22.728124], [-43.198005, -22.728501], [-43.198575, -22.729591], [-43.198469, -22.730222], [-43.197974, -22.730848], [-43.196704, -22.731195], [-43.196121, -22.731098], [-43.195446, -22.730639], [-43.195071, -22.729551], [-43.195375, -22.728652], [-43.196062, -22.728208], [-43.196647, -22.728124]]]}, "properties": {"kind": "detection_zone", "layer_kind": "scene_zone", "zone_id": "SZ-fresh-guanabara-2026-09-04-004", "scene_key": "fresh-guanabara-2026-09-04", "scene_kind": "fresh_s2", "scene_id": "S2B_MSIL2A_20260904T130239_R095_T23KPQ_20260904T162712", "region": "guanabara", "title": "Залив Гуанабара (Рио-де-Жанейро) · зона 4", "mission": "Sentinel-2", "datetime": "2026-09-04T13:02:39.024000Z", "detection_status": "insufficient_data", "status": "insufficient_data", "concentration_status": "unavailable", "quantity": {"status": "not_confirmed", "label": "концентрация по снимку не подтверждена", "detail": "перевод площади в штуки не показываем: нет калибровочных пар (см. docs/QUANTITY.md)"}, "verification": "false_alarm_signs", "training_scene": null, "flags": ["ship", "foam"], "n_cozar_filaments": 0, "crop_file": "crops/SZ-fresh-guanabara-2026-09-04-004.jpg", "wind_high": false, "measured": {"zone_area_km2": 0.0922, "suspicious_area_m2": 500, "n_pixels": 5, "n_objects": 3, "water_km2": 0.0918, "lwd_m2_km2": 5446.6, "lwd_note": null, "quality": {"valid_water_fraction": 1.0, "cloud_fraction": 0.0, "glint_fraction": 0.0}, "model": {"weights": "weights/lgbm", "file": "weights/lgbm/model.txt", "sha256": "0eeebf43fcccd8c7c07f053b7ec723229d1a3c9b92d12eec1bdb269258c51470", "sha256_short": "0eeebf43fccc", "trained_at": "2026-09-25T01:36:30Z", "threshold": 0.63, "harmonize": "none", "class": "MARIDA Marine Debris (любой плавающий мусор, не только пластик)"}}, "probable": {"prob_max": 0.98, "prob_mean": 0.934, "signs": {"foam": {"flag": true, "white_ratio_b2_b8": 1.013, "wind10m_ms": 1.52, "rule": "прирост B2 над водой ≥ 0.8 прироста B8 («белый» спектр) или ветер ≥ 7.0 м/с"}, "glint": {"flag": false, "b11_water_median": 0.0019, "glint_share": 0.0, "rule": "медиана B11 воды зоны > 0.01 или ≥ 20 % пикселей зоны — блик (маска качества)"}, "ship": {"flag": true, "share": 0, "bright_target_px_within_500m": 0, "rule": "≥ 30 % пикселей — у яркой цели или кильватера (reports/artifacts.md) или яркая цель с откликом в SWIR (судно, лодка: B11 ≥ 0,015) ближе 500 м, или малый яркий объект (≤ 40 пикс.) с B11 ≥ 0,01 ближе 500 м (лодка с кильватером)"}, "coast": {"flag": false, "land_px_within_300m": 0, "rule": "суша (маска качества) ближе 300 м — прибой, кромка берега"}, "shallow": {"flag": false, "b3_water_zone": 0.0303, "b3_ratio_to_scene_water": 1.65, "rule": "медиана B3 воды зоны ≥ 2× медианы воды снимка и ≥ 0,03, или B4 воды зоны ≥ 0,02 и (≥ 2× воды снимка или B8 ≥ 0,013) — мелководье, яркое дно, илистая банка"}, "seam": {"flag": false, "share": 0, "rule": "≥ 30 % пикселей — прямая линия вдоль трека/границы яркости (шов)"}, "cloud": {"flag": false, "cloud_fraction": 0.0, "rule": "облака или тени облаков (маска качества) ≥ 20 % зоны"}, "diag": {"dist_land_m": 581, "dist_bright_m": 10, "n_bright_px_500m": 1, "b11_bright_max_500m": 0.0168, "b4_water_zone": 0.0203, "b8_water_zone": 0.0079, "b11_det_median": 0.0129, "b8_det_median": 0.0358, "water_scene_b3": 0.0184, "water_scene_b4": 0.0117, "n_det_px": 5, "n_obj": 3}, "note": "эвристики, не классификатор; на размеченных данных не проверены"}, "n_cozar_filaments": 0}, "field_nearby": {"items": [{"source": "ADIS (4TU.ResearchData, судовая камера)", "segment_id": 336436, "ship": "Bark Europa", "date": "2022-10-31", "days_from_scene": -1404, "distance_km": 347.4, "lon": -40.0369, "lat": -24.05508, "n_items": 0, "area_km2": 0.3704, "size_class": "> 5 см", "c_items_km2": 0.0, "ci95_lo": 0.0, "ci95_hi": 9.96, "ci95_method": "точный интервал Пуассона для N, делённый на A", "raw_10cm_items_km2": 0.0, "authors_cal_10cm_items_km2": 0.0, "authors_cal_10cm_lo95": null, "authors_cal_10cm_hi95": null}, {"source": "ADIS (4TU.ResearchData, судовая камера)", "segment_id": 336437, "ship": "Bark Europa", "date": "2022-10-31", "days_from_scene": -1404, "distance_km": 348.5, "lon": -40.06524, "lat": -24.14022, "n_items": 0, "area_km2": 0.3705, "size_class": "> 5 см", "c_items_km2": 0.0, "ci95_lo": 0.0, "ci95_hi": 9.96, "ci95_method": "точный интервал Пуассона для N, делённый на A", "raw_10cm_items_km2": 0.0, "authors_cal_10cm_items_km2": 0.0, "authors_cal_10cm_lo95": null, "authors_cal_10cm_hi95": null}, {"source": "ADIS (4TU.ResearchData, судовая камера)", "segment_id": 336438, "ship": "Bark Europa", "date": "2022-10-31", "days_from_scene": -1404, "distance_km": 349.7, "lon": -40.09594, "lat": -24.22453, "n_items": 0, "area_km2": 0.3702, "size_class": "> 5 см", "c_items_km2": 0.0, "ci95_lo": 0.0, "ci95_hi": 9.96, "ci95_method": "точный интервал Пуассона для N, делённый на A", "raw_10cm_items_km2": 0.0, "authors_cal_10cm_items_km2": 0.0, "authors_cal_10cm_lo95": null, "authors_cal_10cm_hi95": null}], "nearest_organizer_sample": {"sample_id": "MPL-0513", "source_id": "S2_SARGASSO_MSM41", "distance_km": 5301.6}, "note": "Измерение ≠ оценка: это независимые полевые счёты C = N/A в другое время и в другом месте; со сценой они не связаны и не калибруют её. Ближайший отрезок ADIS — за 347 км: только для порядка величин."}, "acquired_at": "2026-09-04T13:02:39.024000Z", "acquisition_date": "2026-09-04", "processed_at": "2026-09-26T19:32:47Z", "human_checked": false, "auto_label": "автоматически, не проверено человеком"}}, {"type": "Feature", "id": "SZ-fresh-guanabara-2026-09-04-005", "geometry": {"type": "Polygon", "coordinates": [[[-43.0299, -22.734282], [-43.030772, -22.734564], [-43.031157, -22.73493], [-43.031436, -22.735836], [-43.031132, -22.736645], [-43.030738, -22.737002], [-43.02976, -22.737261], [-43.028888, -22.736979], [-43.028923, -22.734541], [-43.0299, -22.734282]]]}, "properties": {"kind": "detection_zone", "layer_kind": "scene_zone", "zone_id": "SZ-fresh-guanabara-2026-09-04-005", "scene_key": "fresh-guanabara-2026-09-04", "scene_kind": "fresh_s2", "scene_id": "S2B_MSIL2A_20260904T130239_R095_T23KPQ_20260904T162712", "region": "guanabara", "title": "Залив Гуанабара (Рио-де-Жанейро) · зона 5", "mission": "Sentinel-2", "datetime": "2026-09-04T13:02:39.024000Z", "detection_status": "insufficient_data", "status": "insufficient_data", "concentration_status": "unavailable", "quantity": {"status": "not_confirmed", "label": "концентрация по снимку не подтверждена", "detail": "перевод площади в штуки не показываем: нет калибровочных пар (см. docs/QUANTITY.md)"}, "verification": "false_alarm_signs", "training_scene": null, "flags": ["ship", "coast"], "n_cozar_filaments": 0, "crop_file": "crops/SZ-fresh-guanabara-2026-09-04-005.jpg", "wind_high": false, "measured": {"zone_area_km2": 0.069, "suspicious_area_m2": 700, "n_pixels": 7, "n_objects": 1, "water_km2": 0.053, "lwd_m2_km2": 13207.5, "lwd_note": null, "quality": {"valid_water_fraction": 0.774, "cloud_fraction": 0.0, "glint_fraction": 0.0}, "model": {"weights": "weights/lgbm", "file": "weights/lgbm/model.txt", "sha256": "0eeebf43fcccd8c7c07f053b7ec723229d1a3c9b92d12eec1bdb269258c51470", "sha256_short": "0eeebf43fccc", "trained_at": "2026-09-25T01:36:30Z", "threshold": 0.63, "harmonize": "none", "class": "MARIDA Marine Debris (любой плавающий мусор, не только пластик)"}}, "probable": {"prob_max": 0.961, "prob_mean": 0.864, "signs": {"foam": {"flag": false, "white_ratio_b2_b8": 0.45, "wind10m_ms": 1.52, "rule": "прирост B2 над водой ≥ 0.8 прироста B8 («белый» спектр) или ветер ≥ 7.0 м/с"}, "glint": {"flag": false, "b11_water_median": 0.0023, "glint_share": 0.0, "rule": "медиана B11 воды зоны > 0.01 или ≥ 20 % пикселей зоны — блик (маска качества)"}, "ship": {"flag": true, "share": 0, "bright_target_px_within_500m": 21, "rule": "≥ 30 % пикселей — у яркой цели или кильватера (reports/artifacts.md) или яркая цель с откликом в SWIR (судно, лодка: B11 ≥ 0,015) ближе 500 м, или малый яркий объект (≤ 40 пикс.) с B11 ≥ 0,01 ближе 500 м (лодка с кильватером)"}, "coast": {"flag": true, "land_px_within_300m": 207, "rule": "суша (маска качества) ближе 300 м — прибой, кромка берега"}, "shallow": {"flag": false, "b3_water_zone": 0.0236, "b3_ratio_to_scene_water": 1.28, "rule": "медиана B3 воды зоны ≥ 2× медианы воды снимка и ≥ 0,03, или B4 воды зоны ≥ 0,02 и (≥ 2× воды снимка или B8 ≥ 0,013) — мелководье, яркое дно, илистая банка"}, "seam": {"flag": false, "share": 0, "rule": "≥ 30 % пикселей — прямая линия вдоль трека/границы яркости (шов)"}, "cloud": {"flag": false, "cloud_fraction": 0.0, "rule": "облака или тени облаков (маска качества) ≥ 20 % зоны"}, "diag": {"dist_land_m": 57, "dist_bright_m": 54, "n_bright_px_500m": 76, "b11_bright_max_500m": 0.0646, "b4_water_zone": 0.0213, "b8_water_zone": 0.0119, "b11_det_median": 0.0028, "b8_det_median": 0.0305, "water_scene_b3": 0.0184, "water_scene_b4": 0.0117, "n_det_px": 7, "n_obj": 1}, "note": "эвристики, не классификатор; на размеченных данных не проверены"}, "n_cozar_filaments": 0}, "field_nearby": {"items": [{"source": "ADIS (4TU.ResearchData, судовая камера)", "segment_id": 336436, "ship": "Bark Europa", "date": "2022-10-31", "days_from_scene": -1404, "distance_km": 347.4, "lon": -40.0369, "lat": -24.05508, "n_items": 0, "area_km2": 0.3704, "size_class": "> 5 см", "c_items_km2": 0.0, "ci95_lo": 0.0, "ci95_hi": 9.96, "ci95_method": "точный интервал Пуассона для N, делённый на A", "raw_10cm_items_km2": 0.0, "authors_cal_10cm_items_km2": 0.0, "authors_cal_10cm_lo95": null, "authors_cal_10cm_hi95": null}, {"source": "ADIS (4TU.ResearchData, судовая камера)", "segment_id": 336437, "ship": "Bark Europa", "date": "2022-10-31", "days_from_scene": -1404, "distance_km": 348.5, "lon": -40.06524, "lat": -24.14022, "n_items": 0, "area_km2": 0.3705, "size_class": "> 5 см", "c_items_km2": 0.0, "ci95_lo": 0.0, "ci95_hi": 9.96, "ci95_method": "точный интервал Пуассона для N, делённый на A", "raw_10cm_items_km2": 0.0, "authors_cal_10cm_items_km2": 0.0, "authors_cal_10cm_lo95": null, "authors_cal_10cm_hi95": null}, {"source": "ADIS (4TU.ResearchData, судовая камера)", "segment_id": 336438, "ship": "Bark Europa", "date": "2022-10-31", "days_from_scene": -1404, "distance_km": 349.7, "lon": -40.09594, "lat": -24.22453, "n_items": 0, "area_km2": 0.3702, "size_class": "> 5 см", "c_items_km2": 0.0, "ci95_lo": 0.0, "ci95_hi": 9.96, "ci95_method": "точный интервал Пуассона для N, делённый на A", "raw_10cm_items_km2": 0.0, "authors_cal_10cm_items_km2": 0.0, "authors_cal_10cm_lo95": null, "authors_cal_10cm_hi95": null}], "nearest_organizer_sample": {"sample_id": "MPL-0513", "source_id": "S2_SARGASSO_MSM41", "distance_km": 5301.6}, "note": "Измерение ≠ оценка: это независимые полевые счёты C = N/A в другое время и в другом месте; со сценой они не связаны и не калибруют её. Ближайший отрезок ADIS — за 347 км: только для порядка величин."}, "acquired_at": "2026-09-04T13:02:39.024000Z", "acquisition_date": "2026-09-04", "processed_at": "2026-09-26T19:32:47Z", "human_checked": false, "auto_label": "автоматически, не проверено человеком"}}, {"type": "Feature", "id": "SZ-fresh-guanabara-2026-09-04-006", "geometry": {"type": "Polygon", "coordinates": [[[-43.212386, -22.768036], [-43.213547, -22.76859], [-43.213827, -22.769497], [-43.213525, -22.770306], [-43.21313, -22.770663], [-43.212153, -22.770923], [-43.211087, -22.77055], [-43.210608, -22.769912], [-43.210518, -22.769369], [-43.211116, -22.768292], [-43.212386, -22.768036]]]}, "properties": {"kind": "detection_zone", "layer_kind": "scene_zone", "zone_id": "SZ-fresh-guanabara-2026-09-04-006", "scene_key": "fresh-guanabara-2026-09-04", "scene_kind": "fresh_s2", "scene_id": "S2B_MSIL2A_20260904T130239_R095_T23KPQ_20260904T162712", "region": "guanabara", "title": "Залив Гуанабара (Рио-де-Жанейро) · зона 6", "mission": "Sentinel-2", "datetime": "2026-09-04T13:02:39.024000Z", "detection_status": "detected", "status": "detected", "concentration_status": "unavailable", "quantity": {"status": "not_confirmed", "label": "концентрация по снимку не подтверждена", "detail": "перевод площади в штуки не показываем: нет калибровочных пар (см. docs/QUANTITY.md)"}, "verification": "unverified", "training_scene": null, "flags": [], "n_cozar_filaments": 0, "crop_file": "crops/SZ-fresh-guanabara-2026-09-04-006.jpg", "wind_high": false, "measured": {"zone_area_km2": 0.0802, "suspicious_area_m2": 500, "n_pixels": 5, "n_objects": 1, "water_km2": 0.0812, "lwd_m2_km2": 6157.6, "lwd_note": null, "quality": {"valid_water_fraction": 1.0, "cloud_fraction": 0.0, "glint_fraction": 0.0}, "model": {"weights": "weights/lgbm", "file": "weights/lgbm/model.txt", "sha256": "0eeebf43fcccd8c7c07f053b7ec723229d1a3c9b92d12eec1bdb269258c51470", "sha256_short": "0eeebf43fccc", "trained_at": "2026-09-25T01:36:30Z", "threshold": 0.63, "harmonize": "none", "class": "MARIDA Marine Debris (любой плавающий мусор, не только пластик)"}}, "probable": {"prob_max": 0.984, "prob_mean": 0.835, "signs": {"foam": {"flag": false, "white_ratio_b2_b8": 0.475, "wind10m_ms": 1.52, "rule": "прирост B2 над водой ≥ 0.8 прироста B8 («белый» спектр) или ветер ≥ 7.0 м/с"}, "glint": {"flag": false, "b11_water_median": 0.0021, "glint_share": 0.0, "rule": "медиана B11 воды зоны > 0.01 или ≥ 20 % пикселей зоны — блик (маска качества)"}, "ship": {"flag": false, "share": 0, "bright_target_px_within_500m": 0, "rule": "≥ 30 % пикселей — у яркой цели или кильватера (reports/artifacts.md) или яркая цель с откликом в SWIR (судно, лодка: B11 ≥ 0,015) ближе 500 м, или малый яркий объект (≤ 40 пикс.) с B11 ≥ 0,01 ближе 500 м (лодка с кильватером)"}, "coast": {"flag": false, "land_px_within_300m": 0, "rule": "суша (маска качества) ближе 300 м — прибой, кромка берега"}, "shallow": {"flag": false, "b3_water_zone": 0.0231, "b3_ratio_to_scene_water": 1.26, "rule": "медиана B3 воды зоны ≥ 2× медианы воды снимка и ≥ 0,03, или B4 воды зоны ≥ 0,02 и (≥ 2× воды снимка или B8 ≥ 0,013) — мелководье, яркое дно, илистая банка"}, "seam": {"flag": false, "share": 0, "rule": "≥ 30 % пикселей — прямая линия вдоль трека/границы яркости (шов)"}, "cloud": {"flag": false, "cloud_fraction": 0.0, "rule": "облака или тени облаков (маска качества) ≥ 20 % зоны"}, "diag": {"dist_land_m": null, "dist_bright_m": null, "n_bright_px_500m": 0, "b11_bright_max_500m": null, "b4_water_zone": 0.0123, "b8_water_zone": 0.0068, "b11_det_median": 0.0019, "b8_det_median": 0.0157, "water_scene_b3": 0.0184, "water_scene_b4": 0.0117, "n_det_px": 5, "n_obj": 1}, "note": "эвристики, не классификатор; на размеченных данных не проверены"}, "n_cozar_filaments": 0}, "field_nearby": {"items": [{"source": "ADIS (4TU.ResearchData, судовая камера)", "segment_id": 336436, "ship": "Bark Europa", "date": "2022-10-31", "days_from_scene": -1404, "distance_km": 347.4, "lon": -40.0369, "lat": -24.05508, "n_items": 0, "area_km2": 0.3704, "size_class": "> 5 см", "c_items_km2": 0.0, "ci95_lo": 0.0, "ci95_hi": 9.96, "ci95_method": "точный интервал Пуассона для N, делённый на A", "raw_10cm_items_km2": 0.0, "authors_cal_10cm_items_km2": 0.0, "authors_cal_10cm_lo95": null, "authors_cal_10cm_hi95": null}, {"source": "ADIS (4TU.ResearchData, судовая камера)", "segment_id": 336437, "ship": "Bark Europa", "date": "2022-10-31", "days_from_scene": -1404, "distance_km": 348.5, "lon": -40.06524, "lat": -24.14022, "n_items": 0, "area_km2": 0.3705, "size_class": "> 5 см", "c_items_km2": 0.0, "ci95_lo": 0.0, "ci95_hi": 9.96, "ci95_method": "точный интервал Пуассона для N, делённый на A", "raw_10cm_items_km2": 0.0, "authors_cal_10cm_items_km2": 0.0, "authors_cal_10cm_lo95": null, "authors_cal_10cm_hi95": null}, {"source": "ADIS (4TU.ResearchData, судовая камера)", "segment_id": 336438, "ship": "Bark Europa", "date": "2022-10-31", "days_from_scene": -1404, "distance_km": 349.7, "lon": -40.09594, "lat": -24.22453, "n_items": 0, "area_km2": 0.3702, "size_class": "> 5 см", "c_items_km2": 0.0, "ci95_lo": 0.0, "ci95_hi": 9.96, "ci95_method": "точный интервал Пуассона для N, делённый на A", "raw_10cm_items_km2": 0.0, "authors_cal_10cm_items_km2": 0.0, "authors_cal_10cm_lo95": null, "authors_cal_10cm_hi95": null}], "nearest_organizer_sample": {"sample_id": "MPL-0513", "source_id": "S2_SARGASSO_MSM41", "distance_km": 5301.6}, "note": "Измерение ≠ оценка: это независимые полевые счёты C = N/A в другое время и в другом месте; со сценой они не связаны и не калибруют её. Ближайший отрезок ADIS — за 347 км: только для порядка величин."}, "acquired_at": "2026-09-04T13:02:39.024000Z", "acquisition_date": "2026-09-04", "processed_at": "2026-09-26T19:32:47Z", "human_checked": false, "auto_label": "автоматически, не проверено человеком"}}, {"type": "Feature", "id": "SZ-fresh-guanabara-2026-09-04-007", "geometry": {"type": "Polygon", "coordinates": [[[-43.250895, -22.833213], [-43.251769, -22.833493], [-43.252248, -22.83413], [-43.252237, -22.834943], [-43.253208, -22.835225], [-43.253687, -22.835862], [-43.253674, -22.836855], [-43.252787, -22.837658], [-43.251713, -22.837827], [-43.25084, -22.837547], [-43.250361, -22.836909], [-43.250373, -22.836006], [-43.24979, -22.835819], [-43.249311, -22.835182], [-43.249222, -22.834549], [-43.249525, -22.833739], [-43.250212, -22.833295], [-43.250895, -22.833213]]]}, "properties": {"kind": "detection_zone", "layer_kind": "scene_zone", "zone_id": "SZ-fresh-guanabara-2026-09-04-007", "scene_key": "fresh-guanabara-2026-09-04", "scene_kind": "fresh_s2", "scene_id": "S2B_MSIL2A_20260904T130239_R095_T23KPQ_20260904T162712", "region": "guanabara", "title": "Залив Гуанабара (Рио-де-Жанейро) · зона 7", "mission": "Sentinel-2", "datetime": "2026-09-04T13:02:39.024000Z", "detection_status": "insufficient_data", "status": "insufficient_data", "concentration_status": "unavailable", "quantity": {"status": "not_confirmed", "label": "концентрация по снимку не подтверждена", "detail": "перевод площади в штуки не показываем: нет калибровочных пар (см. docs/QUANTITY.md)"}, "verification": "false_alarm_signs", "training_scene": null, "flags": ["ship", "coast", "foam"], "n_cozar_filaments": 0, "crop_file": "crops/SZ-fresh-guanabara-2026-09-04-007.jpg", "wind_high": false, "measured": {"zone_area_km2": 0.1507, "suspicious_area_m2": 600, "n_pixels": 6, "n_objects": 3, "water_km2": 0.1449, "lwd_m2_km2": 4140.8, "lwd_note": null, "quality": {"valid_water_fraction": 0.964, "cloud_fraction": 0.0, "glint_fraction": 0.0}, "model": {"weights": "weights/lgbm", "file": "weights/lgbm/model.txt", "sha256": "0eeebf43fcccd8c7c07f053b7ec723229d1a3c9b92d12eec1bdb269258c51470", "sha256_short": "0eeebf43fccc", "trained_at": "2026-09-25T01:36:30Z", "threshold": 0.63, "harmonize": "none", "class": "MARIDA Marine Debris (любой плавающий мусор, не только пластик)"}}, "probable": {"prob_max": 0.98, "prob_mean": 0.849, "signs": {"foam": {"flag": true, "white_ratio_b2_b8": 0.855, "wind10m_ms": 1.52, "rule": "прирост B2 над водой ≥ 0.8 прироста B8 («белый» спектр) или ветер ≥ 7.0 м/с"}, "glint": {"flag": false, "b11_water_median": 0.0052, "glint_share": 0.0, "rule": "медиана B11 воды зоны > 0.01 или ≥ 20 % пикселей зоны — блик (маска качества)"}, "ship": {"flag": true, "share": 0, "bright_target_px_within_500m": 297, "rule": "≥ 30 % пикселей — у яркой цели или кильватера (reports/artifacts.md) или яркая цель с откликом в SWIR (судно, лодка: B11 ≥ 0,015) ближе 500 м, или малый яркий объект (≤ 40 пикс.) с B11 ≥ 0,01 ближе 500 м (лодка с кильватером)"}, "coast": {"flag": true, "land_px_within_300m": 621, "rule": "суша (маска качества) ближе 300 м — прибой, кромка берега"}, "shallow": {"flag": false, "b3_water_zone": 0.0245, "b3_ratio_to_scene_water": 1.33, "rule": "медиана B3 воды зоны ≥ 2× медианы воды снимка и ≥ 0,03, или B4 воды зоны ≥ 0,02 и (≥ 2× воды снимка или B8 ≥ 0,013) — мелководье, яркое дно, илистая банка"}, "seam": {"flag": false, "share": 0, "rule": "≥ 30 % пикселей — прямая линия вдоль трека/границы яркости (шов)"}, "cloud": {"flag": false, "cloud_fraction": 0.0, "rule": "облака или тени облаков (маска качества) ≥ 20 % зоны"}, "diag": {"dist_land_m": 132, "dist_bright_m": 153, "n_bright_px_500m": 57, "b11_bright_max_500m": 0.4205, "b4_water_zone": 0.0136, "b8_water_zone": 0.0079, "b11_det_median": 0.0159, "b8_det_median": 0.0436, "water_scene_b3": 0.0184, "water_scene_b4": 0.0117, "n_det_px": 6, "n_obj": 3}, "note": "эвристики, не классификатор; на размеченных данных не проверены"}, "n_cozar_filaments": 0}, "field_nearby": {"items": [{"source": "ADIS (4TU.ResearchData, судовая камера)", "segment_id": 336436, "ship": "Bark Europa", "date": "2022-10-31", "days_from_scene": -1404, "distance_km": 347.4, "lon": -40.0369, "lat": -24.05508, "n_items": 0, "area_km2": 0.3704, "size_class": "> 5 см", "c_items_km2": 0.0, "ci95_lo": 0.0, "ci95_hi": 9.96, "ci95_method": "точный интервал Пуассона для N, делённый на A", "raw_10cm_items_km2": 0.0, "authors_cal_10cm_items_km2": 0.0, "authors_cal_10cm_lo95": null, "authors_cal_10cm_hi95": null}, {"source": "ADIS (4TU.ResearchData, судовая камера)", "segment_id": 336437, "ship": "Bark Europa", "date": "2022-10-31", "days_from_scene": -1404, "distance_km": 348.5, "lon": -40.06524, "lat": -24.14022, "n_items": 0, "area_km2": 0.3705, "size_class": "> 5 см", "c_items_km2": 0.0, "ci95_lo": 0.0, "ci95_hi": 9.96, "ci95_method": "точный интервал Пуассона для N, делённый на A", "raw_10cm_items_km2": 0.0, "authors_cal_10cm_items_km2": 0.0, "authors_cal_10cm_lo95": null, "authors_cal_10cm_hi95": null}, {"source": "ADIS (4TU.ResearchData, судовая камера)", "segment_id": 336438, "ship": "Bark Europa", "date": "2022-10-31", "days_from_scene": -1404, "distance_km": 349.7, "lon": -40.09594, "lat": -24.22453, "n_items": 0, "area_km2": 0.3702, "size_class": "> 5 см", "c_items_km2": 0.0, "ci95_lo": 0.0, "ci95_hi": 9.96, "ci95_method": "точный интервал Пуассона для N, делённый на A", "raw_10cm_items_km2": 0.0, "authors_cal_10cm_items_km2": 0.0, "authors_cal_10cm_lo95": null, "authors_cal_10cm_hi95": null}], "nearest_organizer_sample": {"sample_id": "MPL-0513", "source_id": "S2_SARGASSO_MSM41", "distance_km": 5301.6}, "note": "Измерение ≠ оценка: это независимые полевые счёты C = N/A в другое время и в другом месте; со сценой они не связаны и не калибруют её. Ближайший отрезок ADIS — за 347 км: только для порядка величин."}, "acquired_at": "2026-09-04T13:02:39.024000Z", "acquisition_date": "2026-09-04", "processed_at": "2026-09-26T19:32:47Z", "human_checked": false, "auto_label": "автоматически, не проверено человеком"}}, {"type": "Feature", "id": "SZ-fresh-guanabara-2026-09-04-008", "geometry": {"type": "Polygon", "coordinates": [[[-43.159853, -22.843926], [-43.161216, -22.844032], [-43.161892, -22.844491], [-43.162173, -22.845307], [-43.161869, -22.846207], [-43.161181, -22.84665], [-43.160595, -22.846734], [-43.159818, -22.846544], [-43.159142, -22.846085], [-43.159224, -22.84726], [-43.158728, -22.847886], [-43.158044, -22.848059], [-43.158135, -22.848512], [-43.157832, -22.849321], [-43.156656, -22.849849], [-43.155685, -22.849567], [-43.155206, -22.848929], [-43.155118, -22.848296], [-43.155421, -22.847487], [-43.156304, -22.847046], [-43.156211, -22.846683], [-43.156514, -22.845874], [-43.157691, -22.845346], [-43.158371, -22.845444], [-43.15837, -22.845534], [-43.158759, -22.845629], [-43.158757, -22.845719], [-43.158855, -22.84572], [-43.158854, -22.845811], [-43.158951, -22.845812], [-43.15895, -22.845902], [-43.159047, -22.845903], [-43.158862, -22.845179], [-43.159165, -22.84437], [-43.159853, -22.843926]], [[-43.159142, -22.846085], [-43.159047, -22.845903], [-43.159045, -22.846084], [-43.159142, -22.846085]]]}, "properties": {"kind": "detection_zone", "layer_kind": "scene_zone", "zone_id": "SZ-fresh-guanabara-2026-09-04-008", "scene_key": "fresh-guanabara-2026-09-04", "scene_kind": "fresh_s2", "scene_id": "S2B_MSIL2A_20260904T130239_R095_T23KPQ_20260904T162712", "region": "guanabara", "title": "Залив Гуанабара (Рио-де-Жанейро) · зона 8", "mission": "Sentinel-2", "datetime": "2026-09-04T13:02:39.024000Z", "detection_status": "insufficient_data", "status": "insufficient_data", "concentration_status": "unavailable", "quantity": {"status": "not_confirmed", "label": "концентрация по снимку не подтверждена", "detail": "перевод площади в штуки не показываем: нет калибровочных пар (см. docs/QUANTITY.md)"}, "verification": "false_alarm_signs", "training_scene": null, "flags": ["ship"], "n_cozar_filaments": 0, "crop_file": "crops/SZ-fresh-guanabara-2026-09-04-008.jpg", "wind_high": false, "measured": {"zone_area_km2": 0.2145, "suspicious_area_m2": 600, "n_pixels": 6, "n_objects": 4, "water_km2": 0.2151, "lwd_m2_km2": 2789.4, "lwd_note": null, "quality": {"valid_water_fraction": 1.0, "cloud_fraction": 0.0, "glint_fraction": 0.0}, "model": {"weights": "weights/lgbm", "file": "weights/lgbm/model.txt", "sha256": "0eeebf43fcccd8c7c07f053b7ec723229d1a3c9b92d12eec1bdb269258c51470", "sha256_short": "0eeebf43fccc", "trained_at": "2026-09-25T01:36:30Z", "threshold": 0.63, "harmonize": "none", "class": "MARIDA Marine Debris (любой плавающий мусор, не только пластик)"}}, "probable": {"prob_max": 0.949, "prob_mean": 0.8, "signs": {"foam": {"flag": false, "white_ratio_b2_b8": 0.591, "wind10m_ms": 1.52, "rule": "прирост B2 над водой ≥ 0.8 прироста B8 («белый» спектр) или ветер ≥ 7.0 м/с"}, "glint": {"flag": false, "b11_water_median": 0.0017, "glint_share": 0.0, "rule": "медиана B11 воды зоны > 0.01 или ≥ 20 % пикселей зоны — блик (маска качества)"}, "ship": {"flag": true, "share": 0.333, "bright_target_px_within_500m": 19, "rule": "≥ 30 % пикселей — у яркой цели или кильватера (reports/artifacts.md) или яркая цель с откликом в SWIR (судно, лодка: B11 ≥ 0,015) ближе 500 м, или малый яркий объект (≤ 40 пикс.) с B11 ≥ 0,01 ближе 500 м (лодка с кильватером)"}, "coast": {"flag": false, "land_px_within_300m": 0, "rule": "суша (маска качества) ближе 300 м — прибой, кромка берега"}, "shallow": {"flag": false, "b3_water_zone": 0.014, "b3_ratio_to_scene_water": 0.76, "rule": "медиана B3 воды зоны ≥ 2× медианы воды снимка и ≥ 0,03, или B4 воды зоны ≥ 0,02 и (≥ 2× воды снимка или B8 ≥ 0,013) — мелководье, яркое дно, илистая банка"}, "seam": {"flag": false, "share": 0, "rule": "≥ 30 % пикселей — прямая линия вдоль трека/границы яркости (шов)"}, "cloud": {"flag": false, "cloud_fraction": 0.0, "rule": "облака или тени облаков (маска качества) ≥ 20 % зоны"}, "diag": {"dist_land_m": null, "dist_bright_m": 10, "n_bright_px_500m": 34, "b11_bright_max_500m": 0.0664, "b4_water_zone": 0.0083, "b8_water_zone": 0.0034, "b11_det_median": 0.0089, "b8_det_median": 0.0324, "water_scene_b3": 0.0184, "water_scene_b4": 0.0117, "n_det_px": 6, "n_obj": 4}, "note": "эвристики, не классификатор; на размеченных данных не проверены"}, "n_cozar_filaments": 0}, "field_nearby": {"items": [{"source": "ADIS (4TU.ResearchData, судовая камера)", "segment_id": 336436, "ship": "Bark Europa", "date": "2022-10-31", "days_from_scene": -1404, "distance_km": 347.4, "lon": -40.0369, "lat": -24.05508, "n_items": 0, "area_km2": 0.3704, "size_class": "> 5 см", "c_items_km2": 0.0, "ci95_lo": 0.0, "ci95_hi": 9.96, "ci95_method": "точный интервал Пуассона для N, делённый на A", "raw_10cm_items_km2": 0.0, "authors_cal_10cm_items_km2": 0.0, "authors_cal_10cm_lo95": null, "authors_cal_10cm_hi95": null}, {"source": "ADIS (4TU.ResearchData, судовая камера)", "segment_id": 336437, "ship": "Bark Europa", "date": "2022-10-31", "days_from_scene": -1404, "distance_km": 348.5, "lon": -40.06524, "lat": -24.14022, "n_items": 0, "area_km2": 0.3705, "size_class": "> 5 см", "c_items_km2": 0.0, "ci95_lo": 0.0, "ci95_hi": 9.96, "ci95_method": "точный интервал Пуассона для N, делённый на A", "raw_10cm_items_km2": 0.0, "authors_cal_10cm_items_km2": 0.0, "authors_cal_10cm_lo95": null, "authors_cal_10cm_hi95": null}, {"source": "ADIS (4TU.ResearchData, судовая камера)", "segment_id": 336438, "ship": "Bark Europa", "date": "2022-10-31", "days_from_scene": -1404, "distance_km": 349.7, "lon": -40.09594, "lat": -24.22453, "n_items": 0, "area_km2": 0.3702, "size_class": "> 5 см", "c_items_km2": 0.0, "ci95_lo": 0.0, "ci95_hi": 9.96, "ci95_method": "точный интервал Пуассона для N, делённый на A", "raw_10cm_items_km2": 0.0, "authors_cal_10cm_items_km2": 0.0, "authors_cal_10cm_lo95": null, "authors_cal_10cm_hi95": null}], "nearest_organizer_sample": {"sample_id": "MPL-0513", "source_id": "S2_SARGASSO_MSM41", "distance_km": 5301.6}, "note": "Измерение ≠ оценка: это независимые полевые счёты C = N/A в другое время и в другом месте; со сценой они не связаны и не калибруют её. Ближайший отрезок ADIS — за 347 км: только для порядка величин."}, "acquired_at": "2026-09-04T13:02:39.024000Z", "acquisition_date": "2026-09-04", "processed_at": "2026-09-26T19:32:47Z", "human_checked": false, "auto_label": "автоматически, не проверено человеком"}}]}