{"type":"FeatureCollection","features":[{"type":"Feature","geometry":{"type":"Polygon","coordinates":[[[31.202863,-29.725129],[31.20286,-29.725309],[31.203066,-29.725312],[31.203069,-29.725132],[31.202863,-29.725129]]]},"properties":{"id":"durban_2025-09-26_lgbm_0","region":"durban","date":"2025-09-26","area_m2":400.0,"mean_prob":0.9127,"max_prob":0.9843,"model":"lgbm","n_px":4,"px_area_m2":100.0,"confirmed":false,"confirmed_by":null,"lon":31.202964,"lat":-29.725221}},{"type":"Feature","geometry":{"type":"Polygon","coordinates":[[[31.181599,-29.757771],[31.181597,-29.757861],[31.181804,-29.757864],[31.181806,-29.757774],[31.181599,-29.757771]]]},"properties":{"id":"durban_2025-09-26_lgbm_1","region":"durban","date":"2025-09-26","area_m2":200.0,"mean_prob":0.9863,"max_prob":0.9961,"model":"lgbm","n_px":2,"px_area_m2":100.0,"confirmed":false,"confirmed_by":null,"lon":31.181702,"lat":-29.757818}},{"type":"Feature","geometry":{"type":"Polygon","coordinates":[[[31.070543,-29.784708],[31.070538,-29.784979],[31.070641,-29.78498],[31.070647,-29.78471],[31.070543,-29.784708]]]},"properties":{"id":"durban_2025-09-26_lgbm_2","region":"durban","date":"2025-09-26","area_m2":300.0,"mean_prob":0.9137,"max_prob":1.0,"model":"lgbm","n_px":3,"px_area_m2":100.0,"confirmed":false,"confirmed_by":null,"lon":31.070592,"lat":-29.784844}},{"type":"Feature","geometry":{"type":"Polygon","coordinates":[[[31.095879,-29.806819],[31.095875,-29.807],[31.096082,-29.807003],[31.096086,-29.806822],[31.095879,-29.806819]]]},"properties":{"id":"durban_2025-09-26_lgbm_3","region":"durban","date":"2025-09-26","area_m2":400.0,"mean_prob":0.9461,"max_prob":1.0,"model":"lgbm","n_px":4,"px_area_m2":100.0,"confirmed":false,"confirmed_by":null,"lon":31.09598,"lat":-29.806911}},{"type":"Feature","geometry":{"type":"Polygon","coordinates":[[[31.134448,-29.824602],[31.134444,-29.824783],[31.134548,-29.824784],[31.134549,-29.824694],[31.134653,-29.824696],[31.134654,-29.824605],[31.134448,-29.824602]]]},"properties":{"id":"durban_2025-09-26_lgbm_4","region":"durban","date":"2025-09-26","area_m2":300.0,"mean_prob":0.9569,"max_prob":1.0,"model":"lgbm","n_px":3,"px_area_m2":100.0,"confirmed":false,"confirmed_by":null,"lon":31.134532,"lat":-29.824679}},{"type":"Feature","geometry":{"type":"Polygon","coordinates":[[[31.127076,-29.837039],[31.127074,-29.837129],[31.127281,-29.837132],[31.127283,-29.837042],[31.127076,-29.837039]]]},"properties":{"id":"durban_2025-09-26_lgbm_5","region":"durban","date":"2025-09-26","area_m2":200.0,"mean_prob":0.849,"max_prob":0.9961,"model":"lgbm","n_px":2,"px_area_m2":100.0,"confirmed":false,"confirmed_by":null,"lon":31.127178,"lat":-29.837086}},{"type":"Feature","geometry":{"type":"Polygon","coordinates":[[[31.026695,-29.863365],[31.026693,-29.863455],[31.026797,-29.863457],[31.026795,-29.863547],[31.026692,-29.863546],[31.026688,-29.863726],[31.026481,-29.863723],[31.026476,-29.863994],[31.026683,-29.863997],[31.026686,-29.863816],[31.026893,-29.863819],[31.026895,-29.863729],[31.026998,-29.863731],[31.027,-29.863641],[31.027104,-29.863642],[31.027106,-29.863552],[31.027002,-29.86355],[31.027004,-29.86346],[31.026797,-29.863457],[31.026799,-29.863367],[31.026695,-29.863365]]]},"properties":{"id":"durban_2025-09-26_lgbm_6","region":"durban","date":"2025-09-26","area_m2":1800.0,"mean_prob":0.902,"max_prob":0.9961,"model":"lgbm","n_px":18,"px_area_m2":100.0,"confirmed":false,"confirmed_by":null,"lon":31.026763,"lat":-29.863697}},{"type":"Feature","geometry":{"type":"Polygon","coordinates":[[[31.025298,-29.865961],[31.025291,-29.866322],[31.025498,-29.866325],[31.025496,-29.866415],[31.0256,-29.866416],[31.025602,-29.866326],[31.025705,-29.866328],[31.025711,-29.866057],[31.025504,-29.866054],[31.025505,-29.865964],[31.025298,-29.865961]]]},"properties":{"id":"durban_2025-09-26_lgbm_7","region":"durban","date":"2025-09-26","area_m2":1500.0,"mean_prob":0.9901,"max_prob":1.0,"model":"lgbm","n_px":15,"px_area_m2":100.0,"confirmed":false,"confirmed_by":null,"lon":31.025491,"lat":-29.866177}},{"type":"Feature","geometry":{"type":"Polygon","coordinates":[[[31.022187,-29.866275],[31.022185,-29.866365],[31.022082,-29.866364],[31.02208,-29.866454],[31.021976,-29.866452],[31.021973,-29.866633],[31.02218,-29.866636],[31.022181,-29.866546],[31.022388,-29.866549],[31.022394,-29.866278],[31.022187,-29.866275]]]},"properties":{"id":"durban_2025-09-26_lgbm_8","region":"durban","date":"2025-09-26","area_m2":1100.0,"mean_prob":0.9444,"max_prob":0.9961,"model":"lgbm","n_px":11,"px_area_m2":100.0,"confirmed":false,"confirmed_by":null,"lon":31.022197,"lat":-29.86646}},{"type":"Feature","geometry":{"type":"Polygon","coordinates":[[[31.023734,-29.866569],[31.023732,-29.866659],[31.023215,-29.866651],[31.023213,-29.866742],[31.023109,-29.86674],[31.023107,-29.86683],[31.023004,-29.866829],[31.022999,-29.867099],[31.023206,-29.867102],[31.023202,-29.867283],[31.023306,-29.867284],[31.023316,-29.866743],[31.02373,-29.866749],[31.023725,-29.86702],[31.024035,-29.867025],[31.024037,-29.866934],[31.024141,-29.866936],[31.024142,-29.866846],[31.024246,-29.866847],[31.024249,-29.866667],[31.024146,-29.866665],[31.024148,-29.866575],[31.023734,-29.866569]]]},"properties":{"id":"durban_2025-09-26_lgbm_9","region":"durban","date":"2025-09-26","area_m2":3900.0,"mean_prob":0.9348,"max_prob":0.9961,"model":"lgbm","n_px":39,"px_area_m2":100.0,"confirmed":false,"confirmed_by":null,"lon":31.023634,"lat":-29.866837}},{"type":"Feature","geometry":{"type":"Polygon","coordinates":[[[31.016568,-29.867724],[31.016567,-29.867815],[31.016463,-29.867813],[31.01646,-29.867994],[31.016356,-29.867992],[31.016354,-29.868082],[31.016458,-29.868084],[31.016454,-29.868264],[31.016558,-29.868266],[31.016559,-29.868175],[31.016766,-29.868179],[31.016768,-29.868088],[31.016872,-29.86809],[31.016875,-29.86791],[31.016979,-29.867911],[31.016982,-29.867731],[31.016568,-29.867724]]]},"properties":{"id":"durban_2025-09-26_lgbm_10","region":"durban","date":"2025-09-26","area_m2":2200.0,"mean_prob":0.9533,"max_prob":1.0,"model":"lgbm","n_px":22,"px_area_m2":100.0,"confirmed":false,"confirmed_by":null,"lon":31.016672,"lat":-29.867956}},{"type":"Feature","geometry":{"type":"Polygon","coordinates":[[[31.017544,-29.870716],[31.017543,-29.870807],[31.017439,-29.870805],[31.017437,-29.870895],[31.017748,-29.8709],[31.017751,-29.87072],[31.017544,-29.870716]]]},"properties":{"id":"durban_2025-09-26_lgbm_11","region":"durban","date":"2025-09-26","area_m2":500.0,"mean_prob":0.9451,"max_prob":0.9961,"model":"lgbm","n_px":5,"px_area_m2":100.0,"confirmed":false,"confirmed_by":null,"lon":31.017615,"lat":-29.870817}},{"type":"Feature","geometry":{"type":"Polygon","coordinates":[[[31.018256,-29.871359],[31.018255,-29.871449],[31.018151,-29.871447],[31.018144,-29.871808],[31.018247,-29.87181],[31.018244,-29.87199],[31.018347,-29.871992],[31.018346,-29.872082],[31.018863,-29.87209],[31.018868,-29.871819],[31.018661,-29.871816],[31.018665,-29.871635],[31.018561,-29.871634],[31.018563,-29.871544],[31.018667,-29.871545],[31.01867,-29.871365],[31.018256,-29.871359]]]},"properties":{"id":"durban_2025-09-26_lgbm_12","region":"durban","date":"2025-09-26","area_m2":4000.0,"mean_prob":0.9115,"max_prob":0.9922,"model":"lgbm","n_px":40,"px_area_m2":100.0,"confirmed":false,"confirmed_by":null,"lon":31.018476,"lat":-29.871743}},{"type":"Feature","geometry":{"type":"Polygon","coordinates":[[[31.024453,-29.872083],[31.024446,-29.872444],[31.02455,-29.872445],[31.024557,-29.872085],[31.024453,-29.872083]]]},"properties":{"id":"durban_2025-09-26_lgbm_13","region":"durban","date":"2025-09-26","area_m2":400.0,"mean_prob":0.9147,"max_prob":0.9373,"model":"lgbm","n_px":4,"px_area_m2":100.0,"confirmed":false,"confirmed_by":null,"lon":31.024501,"lat":-29.872264}},{"type":"Feature","geometry":{"type":"Polygon","coordinates":[[[31.023097,-29.872604],[31.023095,-29.872694],[31.022888,-29.872691],[31.022887,-29.872781],[31.022783,-29.87278],[31.02278,-29.87296],[31.022883,-29.872962],[31.022885,-29.872872],[31.023092,-29.872875],[31.023094,-29.872785],[31.023197,-29.872786],[31.023201,-29.872606],[31.023097,-29.872604]]]},"properties":{"id":"durban_2025-09-26_lgbm_14","region":"durban","date":"2025-09-26","area_m2":800.0,"mean_prob":0.9382,"max_prob":0.9922,"model":"lgbm","n_px":8,"px_area_m2":100.0,"confirmed":false,"confirmed_by":null,"lon":31.02299,"lat":-29.872783}},{"type":"Feature","geometry":{"type":"Polygon","coordinates":[[[31.022578,-29.872687],[31.022574,-29.872867],[31.022678,-29.872869],[31.022681,-29.872688],[31.022578,-29.872687]]]},"properties":{"id":"durban_2025-09-26_lgbm_15","region":"durban","date":"2025-09-26","area_m2":200.0,"mean_prob":0.6529,"max_prob":0.6549,"model":"lgbm","n_px":2,"px_area_m2":100.0,"confirmed":false,"confirmed_by":null,"lon":31.022628,"lat":-29.872778}},{"type":"Feature","geometry":{"type":"Polygon","coordinates":[[[31.018117,-29.873161],[31.018114,-29.873341],[31.018217,-29.873343],[31.018215,-29.873433],[31.018319,-29.873435],[31.018322,-29.873254],[31.018219,-29.873253],[31.018221,-29.873163],[31.018117,-29.873161]]]},"properties":{"id":"durban_2025-09-26_lgbm_16","region":"durban","date":"2025-09-26","area_m2":400.0,"mean_prob":0.7559,"max_prob":0.8078,"model":"lgbm","n_px":4,"px_area_m2":100.0,"confirmed":false,"confirmed_by":null,"lon":31.018218,"lat":-29.873298}},{"type":"Feature","geometry":{"type":"Polygon","coordinates":[[[31.020285,-29.873464],[31.020283,-29.873554],[31.02049,-29.873558],[31.020492,-29.873467],[31.020285,-29.873464]]]},"properties":{"id":"durban_2025-09-26_lgbm_17","region":"durban","date":"2025-09-26","area_m2":200.0,"mean_prob":0.8627,"max_prob":0.9882,"model":"lgbm","n_px":2,"px_area_m2":100.0,"confirmed":false,"confirmed_by":null,"lon":31.020388,"lat":-29.873511}},{"type":"Feature","geometry":{"type":"Polygon","coordinates":[[[31.011587,-29.873604],[31.011585,-29.873694],[31.011378,-29.873691],[31.011376,-29.873781],[31.011273,-29.87378],[31.011271,-29.87387],[31.011167,-29.873868],[31.011164,-29.874049],[31.011267,-29.87405],[31.011265,-29.874141],[31.011783,-29.874148],[31.011785,-29.874058],[31.011992,-29.874061],[31.011995,-29.873881],[31.012099,-29.873882],[31.012093,-29.874153],[31.012197,-29.874155],[31.012206,-29.873704],[31.012102,-29.873702],[31.012104,-29.873612],[31.011587,-29.873604]]]},"properties":{"id":"durban_2025-09-26_lgbm_18","region":"durban","date":"2025-09-26","area_m2":4600.0,"mean_prob":0.9781,"max_prob":1.0,"model":"lgbm","n_px":46,"px_area_m2":100.0,"confirmed":false,"confirmed_by":null,"lon":31.011707,"lat":-29.873884}},{"type":"Feature","geometry":{"type":"Polygon","coordinates":[[[31.009142,-29.876815],[31.009138,-29.876995],[31.009035,-29.876994],[31.009029,-29.877265],[31.008926,-29.877263],[31.00892,-29.877534],[31.009024,-29.877535],[31.00902,-29.877715],[31.009124,-29.877717],[31.009122,-29.877807],[31.009226,-29.877809],[31.009227,-29.877719],[31.009538,-29.877723],[31.00954,-29.877633],[31.009436,-29.877632],[31.009438,-29.877541],[31.009541,-29.877543],[31.009543,-29.877453],[31.009647,-29.877454],[31.009649,-29.877364],[31.009545,-29.877363],[31.009554,-29.876912],[31.009244,-29.876907],[31.009245,-29.876817],[31.009142,-29.876815]]]},"properties":{"id":"durban_2025-09-26_lgbm_19","region":"durban","date":"2025-09-26","area_m2":4900.0,"mean_prob":0.9361,"max_prob":1.0,"model":"lgbm","n_px":49,"px_area_m2":100.0,"confirmed":false,"confirmed_by":null,"lon":31.00927,"lat":-29.877322}},{"type":"Feature","geometry":{"type":"Polygon","coordinates":[[[31.008403,-29.882758],[31.008401,-29.882849],[31.008297,-29.882847],[31.008295,-29.882937],[31.008399,-29.882939],[31.008394,-29.883209],[31.008497,-29.883211],[31.008502,-29.88294],[31.008606,-29.882942],[31.008604,-29.883032],[31.008708,-29.883034],[31.008711,-29.882853],[31.008608,-29.882852],[31.00861,-29.882762],[31.008403,-29.882758]]]},"properties":{"id":"durban_2025-09-26_lgbm_20","region":"durban","date":"2025-09-26","area_m2":1000.0,"mean_prob":0.8416,"max_prob":0.9686,"model":"lgbm","n_px":10,"px_area_m2":100.0,"confirmed":false,"confirmed_by":null,"lon":31.008502,"lat":-29.88294}},{"type":"Feature","geometry":{"type":"Polygon","coordinates":[[[31.007954,-29.884466],[31.007953,-29.884556],[31.007849,-29.884555],[31.007847,-29.884645],[31.007951,-29.884646],[31.007949,-29.884736],[31.008156,-29.88474],[31.008152,-29.88492],[31.008463,-29.884925],[31.008467,-29.884744],[31.00826,-29.884741],[31.008261,-29.884651],[31.008158,-29.884649],[31.00816,-29.884559],[31.008056,-29.884558],[31.008058,-29.884467],[31.007954,-29.884466]]]},"properties":{"id":"durban_2025-09-26_lgbm_21","region":"durban","date":"2025-09-26","area_m2":1300.0,"mean_prob":0.9089,"max_prob":0.9961,"model":"lgbm","n_px":13,"px_area_m2":100.0,"confirmed":false,"confirmed_by":null,"lon":31.008168,"lat":-29.884722}}]}