{"type": "FeatureCollection", "features": [{"type": "Feature", "id": "D-SZ-fresh-guanabara-2026-08-20-001-10", "geometry": {"type": "Polygon", "coordinates": [[[-43.1789775, -22.7244921], [-43.1789763, -22.7245824], [-43.178879, -22.7245813], [-43.1788802, -22.724491], [-43.1789775, -22.7244921]]]}, "properties": {"kind": "detection", "det_id": "D-SZ-fresh-guanabara-2026-08-20-001-10", "zone_id": "SZ-fresh-guanabara-2026-08-20-001", "scene_id": "S2C_MSIL2A_20260820T130241_R095_T23KPQ_20260820T161808", "datetime": "2026-08-20T13:02:41.025000Z", "n_pixels": 1, "area_m2": 100, "prob_max": 1.0, "prob_mean": 1.0, "threshold": 0.63, "in_strip": true, "artifact": null}}, {"type": "Feature", "id": "D-SZ-fresh-guanabara-2026-08-20-001-11", "geometry": {"type": "Polygon", "coordinates": [[[-43.1778084, -22.7245691], [-43.1778072, -22.7246594], [-43.1777098, -22.7246582], [-43.177711, -22.724568], [-43.1778084, -22.7245691]]]}, "properties": {"kind": "detection", "det_id": "D-SZ-fresh-guanabara-2026-08-20-001-11", "zone_id": "SZ-fresh-guanabara-2026-08-20-001", "scene_id": "S2C_MSIL2A_20260820T130241_R095_T23KPQ_20260820T161808", "datetime": "2026-08-20T13:02:41.025000Z", "n_pixels": 1, "area_m2": 100, "prob_max": 0.9725, "prob_mean": 0.9725, "threshold": 0.63, "in_strip": true, "artifact": null}}, {"type": "Feature", "id": "D-SZ-fresh-guanabara-2026-08-20-001-12", "geometry": {"type": "Polygon", "coordinates": [[[-43.178098, -22.724753], [-43.1780968, -22.7248433], [-43.1779994, -22.7248422], [-43.1780006, -22.7247519], [-43.178098, -22.724753]]]}, "properties": {"kind": "detection", "det_id": "D-SZ-fresh-guanabara-2026-08-20-001-12", "zone_id": "SZ-fresh-guanabara-2026-08-20-001", "scene_id": "S2C_MSIL2A_20260820T130241_R095_T23KPQ_20260820T161808", "datetime": "2026-08-20T13:02:41.025000Z", "n_pixels": 1, "area_m2": 100, "prob_max": 0.8824, "prob_mean": 0.8824, "threshold": 0.63, "in_strip": true, "artifact": null}}, {"type": "Feature", "id": "D-SZ-fresh-guanabara-2026-08-20-001-13", "geometry": {"type": "Polygon", "coordinates": [[[-43.1789716, -22.7249435], [-43.1789692, -22.7251241], [-43.1788718, -22.725123], [-43.1788742, -22.7249424], [-43.1789716, -22.7249435]]]}, "properties": {"kind": "detection", "det_id": "D-SZ-fresh-guanabara-2026-08-20-001-13", "zone_id": "SZ-fresh-guanabara-2026-08-20-001", "scene_id": "S2C_MSIL2A_20260820T130241_R095_T23KPQ_20260820T161808", "datetime": "2026-08-20T13:02:41.025000Z", "n_pixels": 2, "area_m2": 200, "prob_max": 0.9922, "prob_mean": 0.9902, "threshold": 0.63, "in_strip": true, "artifact": null}}, {"type": "Feature", "id": "D-SZ-fresh-guanabara-2026-08-20-001-14", "geometry": {"type": "Polygon", "coordinates": [[[-43.1777038, -22.7251097], [-43.1777014, -22.7252903], [-43.1776041, -22.7252892], [-43.1776065, -22.7251086], [-43.1777038, -22.7251097]]]}, "properties": {"kind": "detection", "det_id": "D-SZ-fresh-guanabara-2026-08-20-001-14", "zone_id": "SZ-fresh-guanabara-2026-08-20-001", "scene_id": "S2C_MSIL2A_20260820T130241_R095_T23KPQ_20260820T161808", "datetime": "2026-08-20T13:02:41.025000Z", "n_pixels": 2, "area_m2": 200, "prob_max": 0.9922, "prob_mean": 0.9549, "threshold": 0.63, "in_strip": true, "artifact": "ship"}}, {"type": "Feature", "id": "D-SZ-fresh-guanabara-2026-08-20-001-15", "geometry": {"type": "Polygon", "coordinates": [[[-43.1814001, -22.7253324], [-43.1813977, -22.725513], [-43.1813004, -22.7255119], [-43.1813028, -22.7253313], [-43.1814001, -22.7253324]]]}, "properties": {"kind": "detection", "det_id": "D-SZ-fresh-guanabara-2026-08-20-001-15", "zone_id": "SZ-fresh-guanabara-2026-08-20-001", "scene_id": "S2C_MSIL2A_20260820T130241_R095_T23KPQ_20260820T161808", "datetime": "2026-08-20T13:02:41.025000Z", "n_pixels": 2, "area_m2": 200, "prob_max": 0.9961, "prob_mean": 0.9922, "threshold": 0.63, "in_strip": true, "artifact": "ship"}}, {"type": "Feature", "id": "D-SZ-fresh-guanabara-2026-08-20-001-16", "geometry": {"type": "Polygon", "coordinates": [[[-43.1773121, -22.7252859], [-43.1773109, -22.7253761], [-43.1771163, -22.7253739], [-43.1771174, -22.7252836], [-43.1773121, -22.7252859]]]}, "properties": {"kind": "detection", "det_id": "D-SZ-fresh-guanabara-2026-08-20-001-16", "zone_id": "SZ-fresh-guanabara-2026-08-20-001", "scene_id": "S2C_MSIL2A_20260820T130241_R095_T23KPQ_20260820T161808", "datetime": "2026-08-20T13:02:41.025000Z", "n_pixels": 2, "area_m2": 200, "prob_max": 1.0, "prob_mean": 0.998, "threshold": 0.63, "in_strip": true, "artifact": null}}, {"type": "Feature", "id": "D-SZ-fresh-guanabara-2026-08-20-002-18", "geometry": {"type": "Polygon", "coordinates": [[[-43.2130091, -22.7275854], [-43.2130068, -22.727766], [-43.2129094, -22.7277649], [-43.2129083, -22.7278552], [-43.2125189, -22.7278508], [-43.2125178, -22.7279411], [-43.2122257, -22.7279379], [-43.2122281, -22.7277573], [-43.2123254, -22.7277584], [-43.2123266, -22.7276681], [-43.2125213, -22.7276702], [-43.2125224, -22.72758], [-43.2130091, -22.7275854]]]}, "properties": {"kind": "detection", "det_id": "D-SZ-fresh-guanabara-2026-08-20-002-18", "zone_id": "SZ-fresh-guanabara-2026-08-20-002", "scene_id": "S2C_MSIL2A_20260820T130241_R095_T23KPQ_20260820T161808", "datetime": "2026-08-20T13:02:41.025000Z", "n_pixels": 22, "area_m2": 2200, "prob_max": 0.9961, "prob_mean": 0.9228, "threshold": 0.63, "in_strip": true, "artifact": null}}, {"type": "Feature", "id": "D-SZ-fresh-guanabara-2026-08-20-003-20", "geometry": {"type": "Polygon", "coordinates": [[[-43.1969214, -22.7294817], [-43.1969203, -22.729572], [-43.1968229, -22.7295709], [-43.1968241, -22.7294806], [-43.1969214, -22.7294817]]]}, "properties": {"kind": "detection", "det_id": "D-SZ-fresh-guanabara-2026-08-20-003-20", "zone_id": "SZ-fresh-guanabara-2026-08-20-003", "scene_id": "S2C_MSIL2A_20260820T130241_R095_T23KPQ_20260820T161808", "datetime": "2026-08-20T13:02:41.025000Z", "n_pixels": 1, "area_m2": 100, "prob_max": 0.8588, "prob_mean": 0.8588, "threshold": 0.63, "in_strip": true, "artifact": null}}, {"type": "Feature", "id": "D-SZ-fresh-guanabara-2026-08-20-003-21", "geometry": {"type": "Polygon", "coordinates": [[[-43.1967268, -22.7294795], [-43.1967256, -22.7295698], [-43.1966282, -22.7295687], [-43.1966271, -22.729659], [-43.1967244, -22.7296601], [-43.196722, -22.7298407], [-43.1966247, -22.7298396], [-43.1966271, -22.729659], [-43.1965297, -22.7296579], [-43.1965321, -22.7294773], [-43.1967268, -22.7294795]]]}, "properties": {"kind": "detection", "det_id": "D-SZ-fresh-guanabara-2026-08-20-003-21", "zone_id": "SZ-fresh-guanabara-2026-08-20-003", "scene_id": "S2C_MSIL2A_20260820T130241_R095_T23KPQ_20260820T161808", "datetime": "2026-08-20T13:02:41.025000Z", "n_pixels": 5, "area_m2": 500, "prob_max": 1.0, "prob_mean": 0.9992, "threshold": 0.63, "in_strip": true, "artifact": null}}, {"type": "Feature", "id": "D-SZ-fresh-guanabara-2026-08-20-003-22", "geometry": {"type": "Polygon", "coordinates": [[[-43.1971149, -22.7295742], [-43.1971126, -22.7297548], [-43.1970152, -22.7297537], [-43.1970176, -22.7295731], [-43.1971149, -22.7295742]]]}, "properties": {"kind": "detection", "det_id": "D-SZ-fresh-guanabara-2026-08-20-003-22", "zone_id": "SZ-fresh-guanabara-2026-08-20-003", "scene_id": "S2C_MSIL2A_20260820T130241_R095_T23KPQ_20260820T161808", "datetime": "2026-08-20T13:02:41.025000Z", "n_pixels": 2, "area_m2": 200, "prob_max": 0.9922, "prob_mean": 0.9647, "threshold": 0.63, "in_strip": true, "artifact": null}}, {"type": "Feature", "id": "D-SZ-fresh-guanabara-2026-08-20-003-23", "geometry": {"type": "Polygon", "coordinates": [[[-43.1976907, -22.7302129], [-43.1976895, -22.7303032], [-43.1975921, -22.7303021], [-43.1975933, -22.7302118], [-43.1976907, -22.7302129]]]}, "properties": {"kind": "detection", "det_id": "D-SZ-fresh-guanabara-2026-08-20-003-23", "zone_id": "SZ-fresh-guanabara-2026-08-20-003", "scene_id": "S2C_MSIL2A_20260820T130241_R095_T23KPQ_20260820T161808", "datetime": "2026-08-20T13:02:41.025000Z", "n_pixels": 1, "area_m2": 100, "prob_max": 0.9412, "prob_mean": 0.9412, "threshold": 0.63, "in_strip": true, "artifact": null}}, {"type": "Feature", "id": "D-SZ-fresh-guanabara-2026-08-20-004-26", "geometry": {"type": "Polygon", "coordinates": [[[-43.081539, -22.7451149], [-43.0815378, -22.7452052], [-43.0814404, -22.7452041], [-43.0814417, -22.7451138], [-43.081539, -22.7451149]]]}, "properties": {"kind": "detection", "det_id": "D-SZ-fresh-guanabara-2026-08-20-004-26", "zone_id": "SZ-fresh-guanabara-2026-08-20-004", "scene_id": "S2C_MSIL2A_20260820T130241_R095_T23KPQ_20260820T161808", "datetime": "2026-08-20T13:02:41.025000Z", "n_pixels": 1, "area_m2": 100, "prob_max": 0.9882, "prob_mean": 0.9882, "threshold": 0.63, "in_strip": true, "artifact": null}}, {"type": "Feature", "id": "D-SZ-fresh-guanabara-2026-08-20-004-28", "geometry": {"type": "Polygon", "coordinates": [[[-43.0814392, -22.7452943], [-43.0814366, -22.7454749], [-43.0813393, -22.7454738], [-43.0813368, -22.7456543], [-43.0812394, -22.7456532], [-43.0812432, -22.7453823], [-43.0813406, -22.7453835], [-43.0813418, -22.7452932], [-43.0814392, -22.7452943]]]}, "properties": {"kind": "detection", "det_id": "D-SZ-fresh-guanabara-2026-08-20-004-28", "zone_id": "SZ-fresh-guanabara-2026-08-20-004", "scene_id": "S2C_MSIL2A_20260820T130241_R095_T23KPQ_20260820T161808", "datetime": "2026-08-20T13:02:41.025000Z", "n_pixels": 5, "area_m2": 500, "prob_max": 0.9882, "prob_mean": 0.9325, "threshold": 0.63, "in_strip": true, "artifact": null}}, {"type": "Feature", "id": "D-SZ-fresh-guanabara-2026-08-20-005-78", "geometry": {"type": "Polygon", "coordinates": [[[-43.0855765, -22.7837222], [-43.085574, -22.7839027], [-43.0854766, -22.7839016], [-43.0854779, -22.7838113], [-43.0853805, -22.7838101], [-43.0853818, -22.7837198], [-43.0855765, -22.7837222]]]}, "properties": {"kind": "detection", "det_id": "D-SZ-fresh-guanabara-2026-08-20-005-78", "zone_id": "SZ-fresh-guanabara-2026-08-20-005", "scene_id": "S2C_MSIL2A_20260820T130241_R095_T23KPQ_20260820T161808", "datetime": "2026-08-20T13:02:41.025000Z", "n_pixels": 3, "area_m2": 300, "prob_max": 0.9529, "prob_mean": 0.9281, "threshold": 0.63, "in_strip": true, "artifact": null}}, {"type": "Feature", "id": "D-SZ-fresh-guanabara-2026-08-20-005-79", "geometry": {"type": "Polygon", "coordinates": [[[-43.0859635, -22.7839074], [-43.0859622, -22.7839977], [-43.0857675, -22.7839954], [-43.0857687, -22.7839051], [-43.0859635, -22.7839074]]]}, "properties": {"kind": "detection", "det_id": "D-SZ-fresh-guanabara-2026-08-20-005-79", "zone_id": "SZ-fresh-guanabara-2026-08-20-005", "scene_id": "S2C_MSIL2A_20260820T130241_R095_T23KPQ_20260820T161808", "datetime": "2026-08-20T13:02:41.025000Z", "n_pixels": 2, "area_m2": 200, "prob_max": 0.9137, "prob_mean": 0.851, "threshold": 0.63, "in_strip": true, "artifact": null}}, {"type": "Feature", "id": "D-SZ-fresh-guanabara-2026-08-20-005-80", "geometry": {"type": "Polygon", "coordinates": [[[-43.0861557, -22.7840903], [-43.0861544, -22.7841806], [-43.086057, -22.7841794], [-43.0860583, -22.7840892], [-43.0861557, -22.7840903]]]}, "properties": {"kind": "detection", "det_id": "D-SZ-fresh-guanabara-2026-08-20-005-80", "zone_id": "SZ-fresh-guanabara-2026-08-20-005", "scene_id": "S2C_MSIL2A_20260820T130241_R095_T23KPQ_20260820T161808", "datetime": "2026-08-20T13:02:41.025000Z", "n_pixels": 1, "area_m2": 100, "prob_max": 0.8275, "prob_mean": 0.8275, "threshold": 0.63, "in_strip": true, "artifact": null}}, {"type": "Feature", "id": "D-SZ-fresh-guanabara-2026-08-20-005-81", "geometry": {"type": "Polygon", "coordinates": [[[-43.0870307, -22.7841911], [-43.0870295, -22.7842814], [-43.0868347, -22.7842791], [-43.086836, -22.7841888], [-43.0870307, -22.7841911]]]}, "properties": {"kind": "detection", "det_id": "D-SZ-fresh-guanabara-2026-08-20-005-81", "zone_id": "SZ-fresh-guanabara-2026-08-20-005", "scene_id": "S2C_MSIL2A_20260820T130241_R095_T23KPQ_20260820T161808", "datetime": "2026-08-20T13:02:41.025000Z", "n_pixels": 2, "area_m2": 200, "prob_max": 0.8627, "prob_mean": 0.849, "threshold": 0.63, "in_strip": true, "artifact": null}}, {"type": "Feature", "id": "D-SZ-fresh-guanabara-2026-08-20-005-82", "geometry": {"type": "Polygon", "coordinates": [[[-43.0879046, -22.7843822], [-43.0879033, -22.7844725], [-43.0877086, -22.7844702], [-43.0877098, -22.7843799], [-43.0879046, -22.7843822]]]}, "properties": {"kind": "detection", "det_id": "D-SZ-fresh-guanabara-2026-08-20-005-82", "zone_id": "SZ-fresh-guanabara-2026-08-20-005", "scene_id": "S2C_MSIL2A_20260820T130241_R095_T23KPQ_20260820T161808", "datetime": "2026-08-20T13:02:41.025000Z", "n_pixels": 2, "area_m2": 200, "prob_max": 0.9451, "prob_mean": 0.8196, "threshold": 0.63, "in_strip": true, "artifact": null}}, {"type": "Feature", "id": "D-SZ-fresh-guanabara-2026-08-20-006-85", "geometry": {"type": "Polygon", "coordinates": [[[-43.0932361, -22.7861618], [-43.0932348, -22.786252], [-43.0931374, -22.7862509], [-43.0931387, -22.7861606], [-43.0932361, -22.7861618]]]}, "properties": {"kind": "detection", "det_id": "D-SZ-fresh-guanabara-2026-08-20-006-85", "zone_id": "SZ-fresh-guanabara-2026-08-20-006", "scene_id": "S2C_MSIL2A_20260820T130241_R095_T23KPQ_20260820T161808", "datetime": "2026-08-20T13:02:41.025000Z", "n_pixels": 1, "area_m2": 100, "prob_max": 0.9412, "prob_mean": 0.9412, "threshold": 0.63, "in_strip": true, "artifact": null}}, {"type": "Feature", "id": "D-SZ-fresh-guanabara-2026-08-20-006-86", "geometry": {"type": "Polygon", "coordinates": [[[-43.0936243, -22.7862567], [-43.093623, -22.786347], [-43.0935257, -22.7863458], [-43.0935269, -22.7862555], [-43.0936243, -22.7862567]]]}, "properties": {"kind": "detection", "det_id": "D-SZ-fresh-guanabara-2026-08-20-006-86", "zone_id": "SZ-fresh-guanabara-2026-08-20-006", "scene_id": "S2C_MSIL2A_20260820T130241_R095_T23KPQ_20260820T161808", "datetime": "2026-08-20T13:02:41.025000Z", "n_pixels": 1, "area_m2": 100, "prob_max": 0.9725, "prob_mean": 0.9725, "threshold": 0.63, "in_strip": true, "artifact": null}}, {"type": "Feature", "id": "D-SZ-fresh-guanabara-2026-08-20-006-87", "geometry": {"type": "Polygon", "coordinates": [[[-43.0941099, -22.7863528], [-43.0941086, -22.7864431], [-43.094206, -22.7864443], [-43.0942048, -22.7865345], [-43.0941074, -22.7865334], [-43.0941086, -22.7864431], [-43.0939139, -22.7864408], [-43.0939152, -22.7863505], [-43.0941099, -22.7863528]]]}, "properties": {"kind": "detection", "det_id": "D-SZ-fresh-guanabara-2026-08-20-006-87", "zone_id": "SZ-fresh-guanabara-2026-08-20-006", "scene_id": "S2C_MSIL2A_20260820T130241_R095_T23KPQ_20260820T161808", "datetime": "2026-08-20T13:02:41.025000Z", "n_pixels": 3, "area_m2": 300, "prob_max": 0.9569, "prob_mean": 0.7595, "threshold": 0.63, "in_strip": true, "artifact": null}}, {"type": "Feature", "id": "D-SZ-fresh-guanabara-2026-08-20-006-88", "geometry": {"type": "Polygon", "coordinates": [[[-43.0944956, -22.7866283], [-43.0944944, -22.7867186], [-43.094397, -22.7867174], [-43.0943982, -22.7866272], [-43.0944956, -22.7866283]]]}, "properties": {"kind": "detection", "det_id": "D-SZ-fresh-guanabara-2026-08-20-006-88", "zone_id": "SZ-fresh-guanabara-2026-08-20-006", "scene_id": "S2C_MSIL2A_20260820T130241_R095_T23KPQ_20260820T161808", "datetime": "2026-08-20T13:02:41.025000Z", "n_pixels": 1, "area_m2": 100, "prob_max": 0.9882, "prob_mean": 0.9882, "threshold": 0.63, "in_strip": true, "artifact": null}}, {"type": "Feature", "id": "D-SZ-fresh-guanabara-2026-08-20-006-89", "geometry": {"type": "Polygon", "coordinates": [[[-43.0946891, -22.7867209], [-43.0946879, -22.7868112], [-43.0945905, -22.7868101], [-43.0945917, -22.7867198], [-43.0946891, -22.7867209]]]}, "properties": {"kind": "detection", "det_id": "D-SZ-fresh-guanabara-2026-08-20-006-89", "zone_id": "SZ-fresh-guanabara-2026-08-20-006", "scene_id": "S2C_MSIL2A_20260820T130241_R095_T23KPQ_20260820T161808", "datetime": "2026-08-20T13:02:41.025000Z", "n_pixels": 1, "area_m2": 100, "prob_max": 0.9725, "prob_mean": 0.9725, "threshold": 0.63, "in_strip": true, "artifact": null}}, {"type": "Feature", "id": "D-SZ-fresh-guanabara-2026-08-20-007-90", "geometry": {"type": "Polygon", "coordinates": [[[-43.1433449, -22.7967766], [-43.1433437, -22.7968669], [-43.1432463, -22.7968658], [-43.1432475, -22.7967755], [-43.1433449, -22.7967766]]]}, "properties": {"kind": "detection", "det_id": "D-SZ-fresh-guanabara-2026-08-20-007-90", "zone_id": "SZ-fresh-guanabara-2026-08-20-007", "scene_id": "S2C_MSIL2A_20260820T130241_R095_T23KPQ_20260820T161808", "datetime": "2026-08-20T13:02:41.025000Z", "n_pixels": 1, "area_m2": 100, "prob_max": 0.7333, "prob_mean": 0.7333, "threshold": 0.63, "in_strip": true, "artifact": null}}, {"type": "Feature", "id": "D-SZ-fresh-guanabara-2026-08-20-007-91", "geometry": {"type": "Polygon", "coordinates": [[[-43.1445086, -22.7971514], [-43.1445074, -22.7972417], [-43.1443126, -22.7972394], [-43.1443138, -22.7971491], [-43.1445086, -22.7971514]]]}, "properties": {"kind": "detection", "det_id": "D-SZ-fresh-guanabara-2026-08-20-007-91", "zone_id": "SZ-fresh-guanabara-2026-08-20-007", "scene_id": "S2C_MSIL2A_20260820T130241_R095_T23KPQ_20260820T161808", "datetime": "2026-08-20T13:02:41.025000Z", "n_pixels": 2, "area_m2": 200, "prob_max": 0.9569, "prob_mean": 0.9529, "threshold": 0.63, "in_strip": true, "artifact": null}}, {"type": "Feature", "id": "D-SZ-fresh-guanabara-2026-08-20-007-92", "geometry": {"type": "Polygon", "coordinates": [[[-43.143043, -22.7974956], [-43.1430405, -22.7976761], [-43.1429431, -22.797675], [-43.1429444, -22.7975847], [-43.142847, -22.7975836], [-43.1428482, -22.7974933], [-43.143043, -22.7974956]]]}, "properties": {"kind": "detection", "det_id": "D-SZ-fresh-guanabara-2026-08-20-007-92", "zone_id": "SZ-fresh-guanabara-2026-08-20-007", "scene_id": "S2C_MSIL2A_20260820T130241_R095_T23KPQ_20260820T161808", "datetime": "2026-08-20T13:02:41.025000Z", "n_pixels": 3, "area_m2": 300, "prob_max": 0.9451, "prob_mean": 0.919, "threshold": 0.63, "in_strip": true, "artifact": null}}, {"type": "Feature", "id": "D-SZ-fresh-guanabara-2026-08-20-007-93", "geometry": {"type": "Polygon", "coordinates": [[[-43.1432304, -22.7980396], [-43.1432292, -22.7981298], [-43.1431318, -22.7981287], [-43.143133, -22.7980384], [-43.1432304, -22.7980396]]]}, "properties": {"kind": "detection", "det_id": "D-SZ-fresh-guanabara-2026-08-20-007-93", "zone_id": "SZ-fresh-guanabara-2026-08-20-007", "scene_id": "S2C_MSIL2A_20260820T130241_R095_T23KPQ_20260820T161808", "datetime": "2026-08-20T13:02:41.025000Z", "n_pixels": 1, "area_m2": 100, "prob_max": 0.9569, "prob_mean": 0.9569, "threshold": 0.63, "in_strip": true, "artifact": null}}, {"type": "Feature", "id": "D-SZ-fresh-guanabara-2026-08-20-007-94", "geometry": {"type": "Polygon", "coordinates": [[[-43.1451707, -22.798604], [-43.1451695, -22.7986943], [-43.1450721, -22.7986931], [-43.1450733, -22.7986028], [-43.1451707, -22.798604]]]}, "properties": {"kind": "detection", "det_id": "D-SZ-fresh-guanabara-2026-08-20-007-94", "zone_id": "SZ-fresh-guanabara-2026-08-20-007", "scene_id": "S2C_MSIL2A_20260820T130241_R095_T23KPQ_20260820T161808", "datetime": "2026-08-20T13:02:41.025000Z", "n_pixels": 1, "area_m2": 100, "prob_max": 0.7608, "prob_mean": 0.7608, "threshold": 0.63, "in_strip": true, "artifact": null}}, {"type": "Feature", "id": "D-SZ-fresh-guanabara-2026-08-20-007-95", "geometry": {"type": "Polygon", "coordinates": [[[-43.1444878, -22.7986863], [-43.1444866, -22.7987766], [-43.1443892, -22.7987755], [-43.1443904, -22.7986852], [-43.1444878, -22.7986863]]]}, "properties": {"kind": "detection", "det_id": "D-SZ-fresh-guanabara-2026-08-20-007-95", "zone_id": "SZ-fresh-guanabara-2026-08-20-007", "scene_id": "S2C_MSIL2A_20260820T130241_R095_T23KPQ_20260820T161808", "datetime": "2026-08-20T13:02:41.025000Z", "n_pixels": 1, "area_m2": 100, "prob_max": 0.9961, "prob_mean": 0.9961, "threshold": 0.63, "in_strip": true, "artifact": null}}, {"type": "Feature", "id": "D-SZ-fresh-guanabara-2026-08-20-007-96", "geometry": {"type": "Polygon", "coordinates": [[[-43.1455431, -22.7998725], [-43.1455419, -22.7999628], [-43.1454445, -22.7999617], [-43.1454458, -22.7998714], [-43.1455431, -22.7998725]]]}, "properties": {"kind": "detection", "det_id": "D-SZ-fresh-guanabara-2026-08-20-007-96", "zone_id": "SZ-fresh-guanabara-2026-08-20-007", "scene_id": "S2C_MSIL2A_20260820T130241_R095_T23KPQ_20260820T161808", "datetime": "2026-08-20T13:02:41.025000Z", "n_pixels": 1, "area_m2": 100, "prob_max": 0.9412, "prob_mean": 0.9412, "threshold": 0.63, "in_strip": true, "artifact": null}}, {"type": "Feature", "id": "D-SZ-fresh-guanabara-2026-08-20-008-99", "geometry": {"type": "Polygon", "coordinates": [[[-43.2700147, -22.8082256], [-43.2700136, -22.8083159], [-43.2699162, -22.8083148], [-43.2699173, -22.8082245], [-43.2700147, -22.8082256]]]}, "properties": {"kind": "detection", "det_id": "D-SZ-fresh-guanabara-2026-08-20-008-99", "zone_id": "SZ-fresh-guanabara-2026-08-20-008", "scene_id": "S2C_MSIL2A_20260820T130241_R095_T23KPQ_20260820T161808", "datetime": "2026-08-20T13:02:41.025000Z", "n_pixels": 1, "area_m2": 100, "prob_max": 1.0, "prob_mean": 1.0, "threshold": 0.63, "in_strip": true, "artifact": null}}, {"type": "Feature", "id": "D-SZ-fresh-guanabara-2026-08-20-008-101", "geometry": {"type": "Polygon", "coordinates": [[[-43.2688357, -22.8090256], [-43.2688346, -22.8091159], [-43.2686398, -22.8091137], [-43.2686409, -22.8090234], [-43.2688357, -22.8090256]]]}, "properties": {"kind": "detection", "det_id": "D-SZ-fresh-guanabara-2026-08-20-008-101", "zone_id": "SZ-fresh-guanabara-2026-08-20-008", "scene_id": "S2C_MSIL2A_20260820T130241_R095_T23KPQ_20260820T161808", "datetime": "2026-08-20T13:02:41.025000Z", "n_pixels": 2, "area_m2": 200, "prob_max": 0.9412, "prob_mean": 0.9039, "threshold": 0.63, "in_strip": true, "artifact": null}}, {"type": "Feature", "id": "D-SZ-fresh-guanabara-2026-08-20-008-102", "geometry": {"type": "Polygon", "coordinates": [[[-43.2678537, -22.809647], [-43.2678526, -22.8097373], [-43.2677552, -22.8097363], [-43.2677563, -22.809646], [-43.2678537, -22.809647]]]}, "properties": {"kind": "detection", "det_id": "D-SZ-fresh-guanabara-2026-08-20-008-102", "zone_id": "SZ-fresh-guanabara-2026-08-20-008", "scene_id": "S2C_MSIL2A_20260820T130241_R095_T23KPQ_20260820T161808", "datetime": "2026-08-20T13:02:41.025000Z", "n_pixels": 1, "area_m2": 100, "prob_max": 0.9961, "prob_mean": 0.9961, "threshold": 0.63, "in_strip": true, "artifact": null}}, {"type": "Feature", "id": "D-SZ-fresh-guanabara-2026-08-20-008-103", "geometry": {"type": "Polygon", "coordinates": [[[-43.2673622, -22.8100029], [-43.267361, -22.8100932], [-43.2672636, -22.8100922], [-43.2672648, -22.8100019], [-43.2673622, -22.8100029]]]}, "properties": {"kind": "detection", "det_id": "D-SZ-fresh-guanabara-2026-08-20-008-103", "zone_id": "SZ-fresh-guanabara-2026-08-20-008", "scene_id": "S2C_MSIL2A_20260820T130241_R095_T23KPQ_20260820T161808", "datetime": "2026-08-20T13:02:41.025000Z", "n_pixels": 1, "area_m2": 100, "prob_max": 1.0, "prob_mean": 1.0, "threshold": 0.63, "in_strip": true, "artifact": null}}, {"type": "Feature", "id": "D-SZ-fresh-guanabara-2026-08-20-008-104", "geometry": {"type": "Polygon", "coordinates": [[[-43.2670677, -22.8101803], [-43.2670666, -22.8102706], [-43.2669692, -22.8102696], [-43.2669703, -22.8101793], [-43.2670677, -22.8101803]]]}, "properties": {"kind": "detection", "det_id": "D-SZ-fresh-guanabara-2026-08-20-008-104", "zone_id": "SZ-fresh-guanabara-2026-08-20-008", "scene_id": "S2C_MSIL2A_20260820T130241_R095_T23KPQ_20260820T161808", "datetime": "2026-08-20T13:02:41.025000Z", "n_pixels": 1, "area_m2": 100, "prob_max": 0.8902, "prob_mean": 0.8902, "threshold": 0.63, "in_strip": true, "artifact": null}}, {"type": "Feature", "id": "D-SZ-fresh-guanabara-2026-08-20-008-105", "geometry": {"type": "Polygon", "coordinates": [[[-43.2668718, -22.8102685], [-43.2668706, -22.8103588], [-43.2667732, -22.8103578], [-43.2667744, -22.8102675], [-43.2668718, -22.8102685]]]}, "properties": {"kind": "detection", "det_id": "D-SZ-fresh-guanabara-2026-08-20-008-105", "zone_id": "SZ-fresh-guanabara-2026-08-20-008", "scene_id": "S2C_MSIL2A_20260820T130241_R095_T23KPQ_20260820T161808", "datetime": "2026-08-20T13:02:41.025000Z", "n_pixels": 1, "area_m2": 100, "prob_max": 0.898, "prob_mean": 0.898, "threshold": 0.63, "in_strip": true, "artifact": null}}, {"type": "Feature", "id": "D-SZ-fresh-guanabara-2026-08-20-008-106", "geometry": {"type": "Polygon", "coordinates": [[[-43.2666747, -22.810447], [-43.2666735, -22.8105373], [-43.2665761, -22.8105362], [-43.2665773, -22.8104459], [-43.2666747, -22.810447]]]}, "properties": {"kind": "detection", "det_id": "D-SZ-fresh-guanabara-2026-08-20-008-106", "zone_id": "SZ-fresh-guanabara-2026-08-20-008", "scene_id": "S2C_MSIL2A_20260820T130241_R095_T23KPQ_20260820T161808", "datetime": "2026-08-20T13:02:41.025000Z", "n_pixels": 1, "area_m2": 100, "prob_max": 0.8157, "prob_mean": 0.8157, "threshold": 0.63, "in_strip": true, "artifact": null}}, {"type": "Feature", "id": "D-SZ-fresh-guanabara-2026-08-20-008-107", "geometry": {"type": "Polygon", "coordinates": [[[-43.2663802, -22.8106244], [-43.2663791, -22.8107147], [-43.2662817, -22.8107136], [-43.2662828, -22.8106233], [-43.2663802, -22.8106244]]]}, "properties": {"kind": "detection", "det_id": "D-SZ-fresh-guanabara-2026-08-20-008-107", "zone_id": "SZ-fresh-guanabara-2026-08-20-008", "scene_id": "S2C_MSIL2A_20260820T130241_R095_T23KPQ_20260820T161808", "datetime": "2026-08-20T13:02:41.025000Z", "n_pixels": 1, "area_m2": 100, "prob_max": 0.9098, "prob_mean": 0.9098, "threshold": 0.63, "in_strip": true, "artifact": null}}, {"type": "Feature", "id": "D-SZ-fresh-guanabara-2026-08-20-009-116", "geometry": {"type": "Polygon", "coordinates": [[[-43.0858117, -22.8156916], [-43.0858104, -22.8157819], [-43.085713, -22.8157807], [-43.0857143, -22.8156905], [-43.0858117, -22.8156916]]]}, "properties": {"kind": "detection", "det_id": "D-SZ-fresh-guanabara-2026-08-20-009-116", "zone_id": "SZ-fresh-guanabara-2026-08-20-009", "scene_id": "S2C_MSIL2A_20260820T130241_R095_T23KPQ_20260820T161808", "datetime": "2026-08-20T13:02:41.025000Z", "n_pixels": 1, "area_m2": 100, "prob_max": 0.7686, "prob_mean": 0.7686, "threshold": 0.63, "in_strip": true, "artifact": "ship"}}, {"type": "Feature", "id": "D-SZ-fresh-guanabara-2026-08-20-009-118", "geometry": {"type": "Polygon", "coordinates": [[[-43.0876419, -22.8171584], [-43.0876394, -22.817339], [-43.087542, -22.8173378], [-43.0875433, -22.8172475], [-43.0874459, -22.8172464], [-43.0874472, -22.8171561], [-43.0876419, -22.8171584]]]}, "properties": {"kind": "detection", "det_id": "D-SZ-fresh-guanabara-2026-08-20-009-118", "zone_id": "SZ-fresh-guanabara-2026-08-20-009", "scene_id": "S2C_MSIL2A_20260820T130241_R095_T23KPQ_20260820T161808", "datetime": "2026-08-20T13:02:41.025000Z", "n_pixels": 3, "area_m2": 300, "prob_max": 0.9608, "prob_mean": 0.8078, "threshold": 0.63, "in_strip": true, "artifact": null}}, {"type": "Feature", "id": "D-SZ-fresh-guanabara-2026-08-20-009-119", "geometry": {"type": "Polygon", "coordinates": [[[-43.0866604, -22.8176884], [-43.0866579, -22.817869], [-43.0864631, -22.8178667], [-43.0864644, -22.8177764], [-43.0865618, -22.8177776], [-43.0865631, -22.8176873], [-43.0866604, -22.8176884]]]}, "properties": {"kind": "detection", "det_id": "D-SZ-fresh-guanabara-2026-08-20-009-119", "zone_id": "SZ-fresh-guanabara-2026-08-20-009", "scene_id": "S2C_MSIL2A_20260820T130241_R095_T23KPQ_20260820T161808", "datetime": "2026-08-20T13:02:41.025000Z", "n_pixels": 3, "area_m2": 300, "prob_max": 1.0, "prob_mean": 0.9778, "threshold": 0.63, "in_strip": true, "artifact": null}}, {"type": "Feature", "id": "D-SZ-fresh-guanabara-2026-08-20-009-122", "geometry": {"type": "Polygon", "coordinates": [[[-43.0841232, -22.8180192], [-43.0841206, -22.8181997], [-43.0840232, -22.8181986], [-43.0840258, -22.818018], [-43.0841232, -22.8180192]]]}, "properties": {"kind": "detection", "det_id": "D-SZ-fresh-guanabara-2026-08-20-009-122", "zone_id": "SZ-fresh-guanabara-2026-08-20-009", "scene_id": "S2C_MSIL2A_20260820T130241_R095_T23KPQ_20260820T161808", "datetime": "2026-08-20T13:02:41.025000Z", "n_pixels": 2, "area_m2": 200, "prob_max": 0.9529, "prob_mean": 0.9059, "threshold": 0.63, "in_strip": true, "artifact": null}}, {"type": "Feature", "id": "D-SZ-fresh-guanabara-2026-08-20-009-123", "geometry": {"type": "Polygon", "coordinates": [[[-43.0875181, -22.8190533], [-43.0875168, -22.8191435], [-43.087322, -22.8191412], [-43.0873233, -22.8190509], [-43.0875181, -22.8190533]]]}, "properties": {"kind": "detection", "det_id": "D-SZ-fresh-guanabara-2026-08-20-009-123", "zone_id": "SZ-fresh-guanabara-2026-08-20-009", "scene_id": "S2C_MSIL2A_20260820T130241_R095_T23KPQ_20260820T161808", "datetime": "2026-08-20T13:02:41.025000Z", "n_pixels": 2, "area_m2": 200, "prob_max": 0.9647, "prob_mean": 0.949, "threshold": 0.63, "in_strip": true, "artifact": null}}, {"type": "Feature", "id": "D-SZ-fresh-guanabara-2026-08-20-009-127", "geometry": {"type": "Polygon", "coordinates": [[[-43.0864404, -22.8194918], [-43.0864392, -22.8195821], [-43.0862444, -22.8195798], [-43.0862456, -22.8194895], [-43.0864404, -22.8194918]]]}, "properties": {"kind": "detection", "det_id": "D-SZ-fresh-guanabara-2026-08-20-009-127", "zone_id": "SZ-fresh-guanabara-2026-08-20-009", "scene_id": "S2C_MSIL2A_20260820T130241_R095_T23KPQ_20260820T161808", "datetime": "2026-08-20T13:02:41.025000Z", "n_pixels": 2, "area_m2": 200, "prob_max": 0.9451, "prob_mean": 0.9373, "threshold": 0.63, "in_strip": true, "artifact": null}}, {"type": "Feature", "id": "D-SZ-fresh-guanabara-2026-08-20-009-129", "geometry": {"type": "Polygon", "coordinates": [[[-43.0876054, -22.8197767], [-43.0876041, -22.819867], [-43.0874093, -22.8198647], [-43.0874106, -22.8197744], [-43.0876054, -22.8197767]]]}, "properties": {"kind": "detection", "det_id": "D-SZ-fresh-guanabara-2026-08-20-009-129", "zone_id": "SZ-fresh-guanabara-2026-08-20-009", "scene_id": "S2C_MSIL2A_20260820T130241_R095_T23KPQ_20260820T161808", "datetime": "2026-08-20T13:02:41.025000Z", "n_pixels": 2, "area_m2": 200, "prob_max": 0.9961, "prob_mean": 0.9922, "threshold": 0.63, "in_strip": true, "artifact": null}}, {"type": "Feature", "id": "D-SZ-fresh-guanabara-2026-08-20-009-132", "geometry": {"type": "Polygon", "coordinates": [[[-43.0887577, -22.8209645], [-43.0887552, -22.821145], [-43.0886578, -22.8211439], [-43.0886591, -22.8210536], [-43.0885617, -22.8210524], [-43.0885629, -22.8209621], [-43.0887577, -22.8209645]]]}, "properties": {"kind": "detection", "det_id": "D-SZ-fresh-guanabara-2026-08-20-009-132", "zone_id": "SZ-fresh-guanabara-2026-08-20-009", "scene_id": "S2C_MSIL2A_20260820T130241_R095_T23KPQ_20260820T161808", "datetime": "2026-08-20T13:02:41.025000Z", "n_pixels": 3, "area_m2": 300, "prob_max": 0.8392, "prob_mean": 0.7791, "threshold": 0.63, "in_strip": true, "artifact": null}}, {"type": "Feature", "id": "D-SZ-fresh-guanabara-2026-08-20-009-133", "geometry": {"type": "Polygon", "coordinates": [[[-43.0885566, -22.8214136], [-43.0885541, -22.8215941], [-43.0884567, -22.821593], [-43.0884592, -22.8214124], [-43.0885566, -22.8214136]]]}, "properties": {"kind": "detection", "det_id": "D-SZ-fresh-guanabara-2026-08-20-009-133", "zone_id": "SZ-fresh-guanabara-2026-08-20-009", "scene_id": "S2C_MSIL2A_20260820T130241_R095_T23KPQ_20260820T161808", "datetime": "2026-08-20T13:02:41.025000Z", "n_pixels": 2, "area_m2": 200, "prob_max": 0.8078, "prob_mean": 0.7588, "threshold": 0.63, "in_strip": true, "artifact": "ship"}}, {"type": "Feature", "id": "D-SZ-fresh-guanabara-2026-08-20-010-126", "geometry": {"type": "Polygon", "coordinates": [[[-43.1273493, -22.8197974], [-43.1273468, -22.8199779], [-43.1272494, -22.8199768], [-43.1272519, -22.8197962], [-43.1273493, -22.8197974]]]}, "properties": {"kind": "detection", "det_id": "D-SZ-fresh-guanabara-2026-08-20-010-126", "zone_id": "SZ-fresh-guanabara-2026-08-20-010", "scene_id": "S2C_MSIL2A_20260820T130241_R095_T23KPQ_20260820T161808", "datetime": "2026-08-20T13:02:41.025000Z", "n_pixels": 2, "area_m2": 200, "prob_max": 0.8902, "prob_mean": 0.8549, "threshold": 0.63, "in_strip": true, "artifact": null}}, {"type": "Feature", "id": "D-SZ-fresh-guanabara-2026-08-20-010-128", "geometry": {"type": "Polygon", "coordinates": [[[-43.1275404, -22.8200705], [-43.1275379, -22.8202511], [-43.1276353, -22.8202522], [-43.1276341, -22.8203425], [-43.1277315, -22.8203437], [-43.1277302, -22.820434], [-43.1276328, -22.8204328], [-43.1276341, -22.8203425], [-43.1275367, -22.8203414], [-43.1275379, -22.8202511], [-43.1274405, -22.8202499], [-43.127443, -22.8200694], [-43.1275404, -22.8200705]]]}, "properties": {"kind": "detection", "det_id": "D-SZ-fresh-guanabara-2026-08-20-010-128", "zone_id": "SZ-fresh-guanabara-2026-08-20-010", "scene_id": "S2C_MSIL2A_20260820T130241_R095_T23KPQ_20260820T161808", "datetime": "2026-08-20T13:02:41.025000Z", "n_pixels": 4, "area_m2": 400, "prob_max": 0.9569, "prob_mean": 0.8245, "threshold": 0.63, "in_strip": true, "artifact": null}}, {"type": "Feature", "id": "D-SZ-fresh-guanabara-2026-08-20-010-130", "geometry": {"type": "Polygon", "coordinates": [[[-43.1278264, -22.8205254], [-43.1278252, -22.8206157], [-43.1277278, -22.8206145], [-43.127729, -22.8205242], [-43.1278264, -22.8205254]]]}, "properties": {"kind": "detection", "det_id": "D-SZ-fresh-guanabara-2026-08-20-010-130", "zone_id": "SZ-fresh-guanabara-2026-08-20-010", "scene_id": "S2C_MSIL2A_20260820T130241_R095_T23KPQ_20260820T161808", "datetime": "2026-08-20T13:02:41.025000Z", "n_pixels": 1, "area_m2": 100, "prob_max": 0.9255, "prob_mean": 0.9255, "threshold": 0.63, "in_strip": true, "artifact": null}}, {"type": "Feature", "id": "D-SZ-fresh-guanabara-2026-08-20-010-131", "geometry": {"type": "Polygon", "coordinates": [[[-43.1287917, -22.8211688], [-43.1287893, -22.8213494], [-43.1286919, -22.8213483], [-43.1286943, -22.8211677], [-43.1287917, -22.8211688]]]}, "properties": {"kind": "detection", "det_id": "D-SZ-fresh-guanabara-2026-08-20-010-131", "zone_id": "SZ-fresh-guanabara-2026-08-20-010", "scene_id": "S2C_MSIL2A_20260820T130241_R095_T23KPQ_20260820T161808", "datetime": "2026-08-20T13:02:41.025000Z", "n_pixels": 2, "area_m2": 200, "prob_max": 0.9961, "prob_mean": 0.9882, "threshold": 0.63, "in_strip": true, "artifact": null}}, {"type": "Feature", "id": "D-SZ-fresh-guanabara-2026-08-20-011-138", "geometry": {"type": "Polygon", "coordinates": [[[-43.2522442, -22.8344013], [-43.2522431, -22.8344916], [-43.2520482, -22.8344895], [-43.2520494, -22.8343992], [-43.2522442, -22.8344013]]]}, "properties": {"kind": "detection", "det_id": "D-SZ-fresh-guanabara-2026-08-20-011-138", "zone_id": "SZ-fresh-guanabara-2026-08-20-011", "scene_id": "S2C_MSIL2A_20260820T130241_R095_T23KPQ_20260820T161808", "datetime": "2026-08-20T13:02:41.025000Z", "n_pixels": 2, "area_m2": 200, "prob_max": 1.0, "prob_mean": 0.998, "threshold": 0.63, "in_strip": true, "artifact": null}}, {"type": "Feature", "id": "D-SZ-fresh-guanabara-2026-08-20-011-140", "geometry": {"type": "Polygon", "coordinates": [[[-43.2508758, -22.8347475], [-43.2508735, -22.8349281], [-43.2507761, -22.834927], [-43.2507784, -22.8347465], [-43.2508758, -22.8347475]]]}, "properties": {"kind": "detection", "det_id": "D-SZ-fresh-guanabara-2026-08-20-011-140", "zone_id": "SZ-fresh-guanabara-2026-08-20-011", "scene_id": "S2C_MSIL2A_20260820T130241_R095_T23KPQ_20260820T161808", "datetime": "2026-08-20T13:02:41.025000Z", "n_pixels": 2, "area_m2": 200, "prob_max": 0.9216, "prob_mean": 0.7941, "threshold": 0.63, "in_strip": true, "artifact": "ship"}}, {"type": "Feature", "id": "D-SZ-fresh-guanabara-2026-08-20-011-141", "geometry": {"type": "Polygon", "coordinates": [[[-43.2529019, -22.836305], [-43.2529008, -22.8363953], [-43.2528033, -22.8363942], [-43.2528045, -22.8363039], [-43.2529019, -22.836305]]]}, "properties": {"kind": "detection", "det_id": "D-SZ-fresh-guanabara-2026-08-20-011-141", "zone_id": "SZ-fresh-guanabara-2026-08-20-011", "scene_id": "S2C_MSIL2A_20260820T130241_R095_T23KPQ_20260820T161808", "datetime": "2026-08-20T13:02:41.025000Z", "n_pixels": 1, "area_m2": 100, "prob_max": 0.9804, "prob_mean": 0.9804, "threshold": 0.63, "in_strip": true, "artifact": null}}, {"type": "Feature", "id": "D-SZ-fresh-guanabara-2026-08-20-011-142", "geometry": {"type": "Polygon", "coordinates": [[[-43.2524148, -22.8362996], [-43.2524137, -22.8363899], [-43.2523163, -22.8363889], [-43.2523174, -22.8362986], [-43.2524148, -22.8362996]]]}, "properties": {"kind": "detection", "det_id": "D-SZ-fresh-guanabara-2026-08-20-011-142", "zone_id": "SZ-fresh-guanabara-2026-08-20-011", "scene_id": "S2C_MSIL2A_20260820T130241_R095_T23KPQ_20260820T161808", "datetime": "2026-08-20T13:02:41.025000Z", "n_pixels": 1, "area_m2": 100, "prob_max": 0.949, "prob_mean": 0.949, "threshold": 0.63, "in_strip": true, "artifact": "ship"}}, {"type": "Feature", "id": "D-SZ-fresh-guanabara-2026-08-20-011-144", "geometry": {"type": "Polygon", "coordinates": [[[-43.2519266, -22.8363846], [-43.2519254, -22.8364749], [-43.2517306, -22.8364727], [-43.2517318, -22.8363825], [-43.2519266, -22.8363846]]]}, "properties": {"kind": "detection", "det_id": "D-SZ-fresh-guanabara-2026-08-20-011-144", "zone_id": "SZ-fresh-guanabara-2026-08-20-011", "scene_id": "S2C_MSIL2A_20260820T130241_R095_T23KPQ_20260820T161808", "datetime": "2026-08-20T13:02:41.025000Z", "n_pixels": 2, "area_m2": 200, "prob_max": 0.949, "prob_mean": 0.9431, "threshold": 0.63, "in_strip": true, "artifact": null}}, {"type": "Feature", "id": "D-SZ-fresh-guanabara-2026-08-20-011-145", "geometry": {"type": "Polygon", "coordinates": [[[-43.2491909, -22.8369867], [-43.2491897, -22.837077], [-43.2489949, -22.8370748], [-43.248996, -22.8369845], [-43.2491909, -22.8369867]]]}, "properties": {"kind": "detection", "det_id": "D-SZ-fresh-guanabara-2026-08-20-011-145", "zone_id": "SZ-fresh-guanabara-2026-08-20-011", "scene_id": "S2C_MSIL2A_20260820T130241_R095_T23KPQ_20260820T161808", "datetime": "2026-08-20T13:02:41.025000Z", "n_pixels": 2, "area_m2": 200, "prob_max": 0.9608, "prob_mean": 0.9392, "threshold": 0.63, "in_strip": true, "artifact": null}}, {"type": "Feature", "id": "D-SZ-fresh-guanabara-2026-08-20-012-146", "geometry": {"type": "Polygon", "coordinates": [[[-43.2384716, -22.8371394], [-43.2384705, -22.8372297], [-43.238373, -22.8372286], [-43.2383742, -22.8371383], [-43.2384716, -22.8371394]]]}, "properties": {"kind": "detection", "det_id": "D-SZ-fresh-guanabara-2026-08-20-012-146", "zone_id": "SZ-fresh-guanabara-2026-08-20-012", "scene_id": "S2C_MSIL2A_20260820T130241_R095_T23KPQ_20260820T161808", "datetime": "2026-08-20T13:02:41.025000Z", "n_pixels": 1, "area_m2": 100, "prob_max": 1.0, "prob_mean": 1.0, "threshold": 0.63, "in_strip": true, "artifact": null}}, {"type": "Feature", "id": "D-SZ-fresh-guanabara-2026-08-20-012-147", "geometry": {"type": "Polygon", "coordinates": [[[-43.2378871, -22.8371329], [-43.237886, -22.8372232], [-43.2377886, -22.8372221], [-43.2377897, -22.8371318], [-43.2378871, -22.8371329]]]}, "properties": {"kind": "detection", "det_id": "D-SZ-fresh-guanabara-2026-08-20-012-147", "zone_id": "SZ-fresh-guanabara-2026-08-20-012", "scene_id": "S2C_MSIL2A_20260820T130241_R095_T23KPQ_20260820T161808", "datetime": "2026-08-20T13:02:41.025000Z", "n_pixels": 1, "area_m2": 100, "prob_max": 0.9647, "prob_mean": 0.9647, "threshold": 0.63, "in_strip": true, "artifact": null}}, {"type": "Feature", "id": "D-SZ-fresh-guanabara-2026-08-20-012-148", "geometry": {"type": "Polygon", "coordinates": [[[-43.2375949, -22.8371297], [-43.2375937, -22.83722], [-43.2374963, -22.8372189], [-43.2374975, -22.8371286], [-43.2375949, -22.8371297]]]}, "properties": {"kind": "detection", "det_id": "D-SZ-fresh-guanabara-2026-08-20-012-148", "zone_id": "SZ-fresh-guanabara-2026-08-20-012", "scene_id": "S2C_MSIL2A_20260820T130241_R095_T23KPQ_20260820T161808", "datetime": "2026-08-20T13:02:41.025000Z", "n_pixels": 1, "area_m2": 100, "prob_max": 0.9961, "prob_mean": 0.9961, "threshold": 0.63, "in_strip": true, "artifact": null}}, {"type": "Feature", "id": "D-SZ-fresh-guanabara-2026-08-20-012-149", "geometry": {"type": "Polygon", "coordinates": [[[-43.2372052, -22.8371254], [-43.2372029, -22.8373059], [-43.2371055, -22.8373049], [-43.2371078, -22.8371243], [-43.2372052, -22.8371254]]]}, "properties": {"kind": "detection", "det_id": "D-SZ-fresh-guanabara-2026-08-20-012-149", "zone_id": "SZ-fresh-guanabara-2026-08-20-012", "scene_id": "S2C_MSIL2A_20260820T130241_R095_T23KPQ_20260820T161808", "datetime": "2026-08-20T13:02:41.025000Z", "n_pixels": 2, "area_m2": 200, "prob_max": 0.9843, "prob_mean": 0.8647, "threshold": 0.63, "in_strip": true, "artifact": null}}, {"type": "Feature", "id": "D-SZ-fresh-guanabara-2026-08-20-012-151", "geometry": {"type": "Polygon", "coordinates": [[[-43.2380808, -22.8372254], [-43.2380796, -22.8373156], [-43.2379822, -22.8373146], [-43.2379834, -22.8372243], [-43.2380808, -22.8372254]]]}, "properties": {"kind": "detection", "det_id": "D-SZ-fresh-guanabara-2026-08-20-012-151", "zone_id": "SZ-fresh-guanabara-2026-08-20-012", "scene_id": "S2C_MSIL2A_20260820T130241_R095_T23KPQ_20260820T161808", "datetime": "2026-08-20T13:02:41.025000Z", "n_pixels": 1, "area_m2": 100, "prob_max": 0.9176, "prob_mean": 0.9176, "threshold": 0.63, "in_strip": true, "artifact": null}}, {"type": "Feature", "id": "D-SZ-fresh-guanabara-2026-08-20-012-152", "geometry": {"type": "Polygon", "coordinates": [[[-43.2369083, -22.8374833], [-43.2369072, -22.8375736], [-43.2368097, -22.8375725], [-43.2368109, -22.8374822], [-43.2369083, -22.8374833]]]}, "properties": {"kind": "detection", "det_id": "D-SZ-fresh-guanabara-2026-08-20-012-152", "zone_id": "SZ-fresh-guanabara-2026-08-20-012", "scene_id": "S2C_MSIL2A_20260820T130241_R095_T23KPQ_20260820T161808", "datetime": "2026-08-20T13:02:41.025000Z", "n_pixels": 1, "area_m2": 100, "prob_max": 0.9961, "prob_mean": 0.9961, "threshold": 0.63, "in_strip": true, "artifact": null}}, {"type": "Feature", "id": "D-SZ-fresh-guanabara-2026-08-20-013-160", "geometry": {"type": "Polygon", "coordinates": [[[-43.1345535, -22.8415545], [-43.1345523, -22.8416448], [-43.1344549, -22.8416437], [-43.1344561, -22.8415534], [-43.1345535, -22.8415545]]]}, "properties": {"kind": "detection", "det_id": "D-SZ-fresh-guanabara-2026-08-20-013-160", "zone_id": "SZ-fresh-guanabara-2026-08-20-013", "scene_id": "S2C_MSIL2A_20260820T130241_R095_T23KPQ_20260820T161808", "datetime": "2026-08-20T13:02:41.025000Z", "n_pixels": 1, "area_m2": 100, "prob_max": 0.8235, "prob_mean": 0.8235, "threshold": 0.63, "in_strip": true, "artifact": null}}, {"type": "Feature", "id": "D-SZ-fresh-guanabara-2026-08-20-013-161", "geometry": {"type": "Polygon", "coordinates": [[[-43.132895, -22.8417157], [-43.1328938, -22.841806], [-43.1327964, -22.8418048], [-43.1327951, -22.8418951], [-43.1326977, -22.841894], [-43.1327002, -22.8417134], [-43.132895, -22.8417157]]]}, "properties": {"kind": "detection", "det_id": "D-SZ-fresh-guanabara-2026-08-20-013-161", "zone_id": "SZ-fresh-guanabara-2026-08-20-013", "scene_id": "S2C_MSIL2A_20260820T130241_R095_T23KPQ_20260820T161808", "datetime": "2026-08-20T13:02:41.025000Z", "n_pixels": 3, "area_m2": 300, "prob_max": 0.9137, "prob_mean": 0.8497, "threshold": 0.63, "in_strip": true, "artifact": null}}, {"type": "Feature", "id": "D-SZ-fresh-guanabara-2026-08-20-013-162", "geometry": {"type": "Polygon", "coordinates": [[[-43.1320121, -22.8421568], [-43.1320097, -22.8423374], [-43.1319122, -22.8423363], [-43.1319147, -22.8421557], [-43.1320121, -22.8421568]]]}, "properties": {"kind": "detection", "det_id": "D-SZ-fresh-guanabara-2026-08-20-013-162", "zone_id": "SZ-fresh-guanabara-2026-08-20-013", "scene_id": "S2C_MSIL2A_20260820T130241_R095_T23KPQ_20260820T161808", "datetime": "2026-08-20T13:02:41.025000Z", "n_pixels": 2, "area_m2": 200, "prob_max": 0.8314, "prob_mean": 0.8078, "threshold": 0.63, "in_strip": true, "artifact": "ship"}}, {"type": "Feature", "id": "D-SZ-fresh-guanabara-2026-08-20-013-163", "geometry": {"type": "Polygon", "coordinates": [[[-43.1320084, -22.8424277], [-43.1320072, -22.842518], [-43.1319098, -22.8425169], [-43.131911, -22.8424266], [-43.1320084, -22.8424277]]]}, "properties": {"kind": "detection", "det_id": "D-SZ-fresh-guanabara-2026-08-20-013-163", "zone_id": "SZ-fresh-guanabara-2026-08-20-013", "scene_id": "S2C_MSIL2A_20260820T130241_R095_T23KPQ_20260820T161808", "datetime": "2026-08-20T13:02:41.025000Z", "n_pixels": 1, "area_m2": 100, "prob_max": 0.6627, "prob_mean": 0.6627, "threshold": 0.63, "in_strip": true, "artifact": "ship"}}, {"type": "Feature", "id": "D-SZ-fresh-guanabara-2026-08-20-014-171", "geometry": {"type": "Polygon", "coordinates": [[[-43.1520109, -22.8546715], [-43.1520084, -22.8548521], [-43.1516187, -22.8548475], [-43.15162, -22.8547573], [-43.1518148, -22.8547595], [-43.151816, -22.8546692], [-43.1520109, -22.8546715]]]}, "properties": {"kind": "detection", "det_id": "D-SZ-fresh-guanabara-2026-08-20-014-171", "zone_id": "SZ-fresh-guanabara-2026-08-20-014", "scene_id": "S2C_MSIL2A_20260820T130241_R095_T23KPQ_20260820T161808", "datetime": "2026-08-20T13:02:41.025000Z", "n_pixels": 6, "area_m2": 600, "prob_max": 1.0, "prob_mean": 0.9817, "threshold": 0.63, "in_strip": true, "artifact": null}}, {"type": "Feature", "id": "D-SZ-fresh-guanabara-2026-08-20-015-174", "geometry": {"type": "Polygon", "coordinates": [[[-43.1195158, -22.8581738], [-43.1195145, -22.8582641], [-43.1193197, -22.8582617], [-43.1193209, -22.8581715], [-43.1195158, -22.8581738]]]}, "properties": {"kind": "detection", "det_id": "D-SZ-fresh-guanabara-2026-08-20-015-174", "zone_id": "SZ-fresh-guanabara-2026-08-20-015", "scene_id": "S2C_MSIL2A_20260820T130241_R095_T23KPQ_20260820T161808", "datetime": "2026-08-20T13:02:41.025000Z", "n_pixels": 2, "area_m2": 200, "prob_max": 0.9686, "prob_mean": 0.9275, "threshold": 0.63, "in_strip": true, "artifact": null}}, {"type": "Feature", "id": "D-SZ-fresh-guanabara-2026-08-20-015-175", "geometry": {"type": "Polygon", "coordinates": [[[-43.121463, -22.8582871], [-43.1214593, -22.8585579], [-43.1213618, -22.8585568], [-43.1213656, -22.8582859], [-43.121463, -22.8582871]]]}, "properties": {"kind": "detection", "det_id": "D-SZ-fresh-guanabara-2026-08-20-015-175", "zone_id": "SZ-fresh-guanabara-2026-08-20-015", "scene_id": "S2C_MSIL2A_20260820T130241_R095_T23KPQ_20260820T161808", "datetime": "2026-08-20T13:02:41.025000Z", "n_pixels": 3, "area_m2": 300, "prob_max": 0.9843, "prob_mean": 0.9111, "threshold": 0.63, "in_strip": true, "artifact": null}}, {"type": "Feature", "id": "D-SZ-fresh-guanabara-2026-08-20-016-188", "geometry": {"type": "Polygon", "coordinates": [[[-43.167602, -22.8836586], [-43.1675996, -22.8838392], [-43.1675022, -22.8838381], [-43.1675046, -22.8836575], [-43.167602, -22.8836586]]]}, "properties": {"kind": "detection", "det_id": "D-SZ-fresh-guanabara-2026-08-20-016-188", "zone_id": "SZ-fresh-guanabara-2026-08-20-016", "scene_id": "S2C_MSIL2A_20260820T130241_R095_T23KPQ_20260820T161808", "datetime": "2026-08-20T13:02:41.025000Z", "n_pixels": 2, "area_m2": 200, "prob_max": 1.0, "prob_mean": 0.998, "threshold": 0.63, "in_strip": true, "artifact": null}}, {"type": "Feature", "id": "D-SZ-fresh-guanabara-2026-08-20-016-189", "geometry": {"type": "Polygon", "coordinates": [[[-43.1674023, -22.8840175], [-43.1673962, -22.884469], [-43.1672988, -22.8844679], [-43.1673012, -22.8842873], [-43.1672038, -22.8842861], [-43.167205, -22.8841959], [-43.1673024, -22.884197], [-43.1673048, -22.8840164], [-43.1674023, -22.8840175]]]}, "properties": {"kind": "detection", "det_id": "D-SZ-fresh-guanabara-2026-08-20-016-189", "zone_id": "SZ-fresh-guanabara-2026-08-20-016", "scene_id": "S2C_MSIL2A_20260820T130241_R095_T23KPQ_20260820T161808", "datetime": "2026-08-20T13:02:41.025000Z", "n_pixels": 6, "area_m2": 600, "prob_max": 1.0, "prob_mean": 0.9523, "threshold": 0.63, "in_strip": true, "artifact": null}}, {"type": "Feature", "id": "D-SZ-fresh-guanabara-2026-08-20-016-190", "geometry": {"type": "Polygon", "coordinates": [[[-43.1650539, -22.8847129], [-43.1650527, -22.8848032], [-43.1648578, -22.8848009], [-43.164859, -22.8847106], [-43.1650539, -22.8847129]]]}, "properties": {"kind": "detection", "det_id": "D-SZ-fresh-guanabara-2026-08-20-016-190", "zone_id": "SZ-fresh-guanabara-2026-08-20-016", "scene_id": "S2C_MSIL2A_20260820T130241_R095_T23KPQ_20260820T161808", "datetime": "2026-08-20T13:02:41.025000Z", "n_pixels": 2, "area_m2": 200, "prob_max": 0.9765, "prob_mean": 0.8725, "threshold": 0.63, "in_strip": true, "artifact": null}}, {"type": "Feature", "id": "D-SZ-fresh-guanabara-2026-08-20-017-204", "geometry": {"type": "Polygon", "coordinates": [[[-43.1183946, -22.9253448], [-43.1183921, -22.9255254], [-43.1182947, -22.9255242], [-43.1182959, -22.925434], [-43.1181984, -22.9254328], [-43.1181997, -22.9253425], [-43.1183946, -22.9253448]]]}, "properties": {"kind": "detection", "det_id": "D-SZ-fresh-guanabara-2026-08-20-017-204", "zone_id": "SZ-fresh-guanabara-2026-08-20-017", "scene_id": "S2C_MSIL2A_20260820T130241_R095_T23KPQ_20260820T161808", "datetime": "2026-08-20T13:02:41.025000Z", "n_pixels": 3, "area_m2": 300, "prob_max": 0.9882, "prob_mean": 0.8915, "threshold": 0.63, "in_strip": true, "artifact": null}}, {"type": "Feature", "id": "D-SZ-fresh-guanabara-2026-08-20-017-205", "geometry": {"type": "Polygon", "coordinates": [[[-43.1180985, -22.9256122], [-43.1180972, -22.9257025], [-43.1179997, -22.9257014], [-43.118001, -22.9256111], [-43.1180985, -22.9256122]]]}, "properties": {"kind": "detection", "det_id": "D-SZ-fresh-guanabara-2026-08-20-017-205", "zone_id": "SZ-fresh-guanabara-2026-08-20-017", "scene_id": "S2C_MSIL2A_20260820T130241_R095_T23KPQ_20260820T161808", "datetime": "2026-08-20T13:02:41.025000Z", "n_pixels": 1, "area_m2": 100, "prob_max": 0.7098, "prob_mean": 0.7098, "threshold": 0.63, "in_strip": true, "artifact": null}}, {"type": "Feature", "id": "D-SZ-fresh-guanabara-2026-08-20-017-206", "geometry": {"type": "Polygon", "coordinates": [[[-43.1178998, -22.9258808], [-43.1178973, -22.9260613], [-43.1177023, -22.926059], [-43.1177036, -22.9259687], [-43.1178011, -22.9259699], [-43.1178023, -22.9258796], [-43.1178998, -22.9258808]]]}, "properties": {"kind": "detection", "det_id": "D-SZ-fresh-guanabara-2026-08-20-017-206", "zone_id": "SZ-fresh-guanabara-2026-08-20-017", "scene_id": "S2C_MSIL2A_20260820T130241_R095_T23KPQ_20260820T161808", "datetime": "2026-08-20T13:02:41.025000Z", "n_pixels": 3, "area_m2": 300, "prob_max": 0.9961, "prob_mean": 0.9608, "threshold": 0.63, "in_strip": true, "artifact": null}}, {"type": "Feature", "id": "D-SZ-fresh-guanabara-2026-08-20-017-207", "geometry": {"type": "Polygon", "coordinates": [[[-43.1178948, -22.9262419], [-43.1178935, -22.9263322], [-43.1177961, -22.926331], [-43.1177973, -22.9262408], [-43.1178948, -22.9262419]]]}, "properties": {"kind": "detection", "det_id": "D-SZ-fresh-guanabara-2026-08-20-017-207", "zone_id": "SZ-fresh-guanabara-2026-08-20-017", "scene_id": "S2C_MSIL2A_20260820T130241_R095_T23KPQ_20260820T161808", "datetime": "2026-08-20T13:02:41.025000Z", "n_pixels": 1, "area_m2": 100, "prob_max": 0.9255, "prob_mean": 0.9255, "threshold": 0.63, "in_strip": true, "artifact": null}}, {"type": "Feature", "id": "D-SZ-fresh-guanabara-2026-08-20-017-210", "geometry": {"type": "Polygon", "coordinates": [[[-43.1176923, -22.9267813], [-43.1176911, -22.9268716], [-43.1175936, -22.9268705], [-43.1175949, -22.9267802], [-43.1176923, -22.9267813]]]}, "properties": {"kind": "detection", "det_id": "D-SZ-fresh-guanabara-2026-08-20-017-210", "zone_id": "SZ-fresh-guanabara-2026-08-20-017", "scene_id": "S2C_MSIL2A_20260820T130241_R095_T23KPQ_20260820T161808", "datetime": "2026-08-20T13:02:41.025000Z", "n_pixels": 1, "area_m2": 100, "prob_max": 0.6745, "prob_mean": 0.6745, "threshold": 0.63, "in_strip": true, "artifact": null}}, {"type": "Feature", "id": "D-SZ-fresh-guanabara-2026-08-20-017-212", "geometry": {"type": "Polygon", "coordinates": [[[-43.1167876, -22.9287572], [-43.1167864, -22.9288475], [-43.1166889, -22.9288463], [-43.1166901, -22.9287561], [-43.1167876, -22.9287572]]]}, "properties": {"kind": "detection", "det_id": "D-SZ-fresh-guanabara-2026-08-20-017-212", "zone_id": "SZ-fresh-guanabara-2026-08-20-017", "scene_id": "S2C_MSIL2A_20260820T130241_R095_T23KPQ_20260820T161808", "datetime": "2026-08-20T13:02:41.025000Z", "n_pixels": 1, "area_m2": 100, "prob_max": 0.7686, "prob_mean": 0.7686, "threshold": 0.63, "in_strip": true, "artifact": null}}]}