{"type":"FeatureCollection","features":[{"type":"Feature","geometry":{"type":"Polygon","coordinates":[[[-2.582898,56.287801],[-2.5829,56.287621],[-2.582738,56.287621],[-2.582737,56.287801],[-2.582898,56.287801]]]},"properties":{"id":"scotland_2026-07-19_mdd_0","region":"scotland","date":"2026-07-19","area_m2":200.0,"mean_prob":0.5039,"max_prob":0.5059,"model":"mdd","n_px":2,"px_area_m2":100.0,"confirmed":false,"confirmed_by":null,"lon":-2.582818,"lat":56.287711}},{"type":"Feature","geometry":{"type":"Polygon","coordinates":[[[-2.541046,56.194392],[-2.541047,56.194302],[-2.541208,56.194303],[-2.541209,56.194213],[-2.54137,56.194213],[-2.541372,56.194124],[-2.541049,56.194122],[-2.541048,56.194212],[-2.540887,56.194212],[-2.540886,56.194301],[-2.540725,56.194301],[-2.540724,56.194391],[-2.541046,56.194392]]]},"properties":{"id":"scotland_2026-07-19_mdd_1","region":"scotland","date":"2026-07-19","area_m2":600.0,"mean_prob":0.5301,"max_prob":0.5412,"model":"mdd","n_px":6,"px_area_m2":100.0,"confirmed":true,"confirmed_by":"lgbm","lon":-2.541048,"lat":56.194257}}]}