{"type":"FeatureCollection","features":[{"type":"Feature","geometry":{"type":"Polygon","coordinates":[[[-69.726607,18.438008],[-69.726606,18.437827],[-69.726417,18.437828],[-69.726417,18.437918],[-69.726512,18.437918],[-69.726512,18.438008],[-69.726607,18.438008]]]},"properties":{"id":"santo_domingo_2019-01-21_mdd_0","region":"santo_domingo","date":"2019-01-21","area_m2":300.0,"mean_prob":0.5203,"max_prob":0.5333,"model":"mdd","n_px":3,"px_area_m2":100.0,"confirmed":false,"confirmed_by":null,"lon":-69.726527,"lat":18.437903}},{"type":"Feature","geometry":{"type":"Polygon","coordinates":[[[-69.831321,18.434957],[-69.83132,18.434867],[-69.831226,18.434867],[-69.831225,18.434686],[-69.83113,18.434687],[-69.831129,18.434506],[-69.831035,18.434506],[-69.831034,18.434416],[-69.830939,18.434416],[-69.830939,18.434236],[-69.830844,18.434236],[-69.830843,18.434146],[-69.830749,18.434146],[-69.830749,18.434237],[-69.830844,18.434236],[-69.830845,18.434417],[-69.830939,18.434416],[-69.83094,18.434597],[-69.831035,18.434597],[-69.831036,18.434778],[-69.831131,18.434777],[-69.831131,18.434868],[-69.831226,18.434867],[-69.831226,18.434957],[-69.831321,18.434957]]]},"properties":{"id":"santo_domingo_2019-01-21_mdd_1","region":"santo_domingo","date":"2019-01-21","area_m2":1100.0,"mean_prob":0.5159,"max_prob":0.5333,"model":"mdd","n_px":11,"px_area_m2":100.0,"confirmed":false,"confirmed_by":null,"lon":-69.831039,"lat":18.434568}},{"type":"Feature","geometry":{"type":"Polygon","coordinates":[[[-69.830546,18.431436],[-69.830546,18.431345],[-69.830357,18.431346],[-69.830357,18.431437],[-69.830546,18.431436]]]},"properties":{"id":"santo_domingo_2019-01-21_mdd_2","region":"santo_domingo","date":"2019-01-21","area_m2":200.0,"mean_prob":0.5039,"max_prob":0.5059,"model":"mdd","n_px":2,"px_area_m2":100.0,"confirmed":true,"confirmed_by":"lgbm","lon":-69.830452,"lat":18.431391}},{"type":"Feature","geometry":{"type":"Polygon","coordinates":[[[-69.829376,18.424211],[-69.829375,18.42403],[-69.82928,18.424031],[-69.829281,18.424211],[-69.829376,18.424211]]]},"properties":{"id":"santo_domingo_2019-01-21_mdd_3","region":"santo_domingo","date":"2019-01-21","area_m2":200.0,"mean_prob":0.5059,"max_prob":0.5098,"model":"mdd","n_px":2,"px_area_m2":100.0,"confirmed":false,"confirmed_by":null,"lon":-69.829328,"lat":18.424121}},{"type":"Feature","geometry":{"type":"Polygon","coordinates":[[[-69.819987,18.420998],[-69.819986,18.420908],[-69.819892,18.420908],[-69.819891,18.420818],[-69.819796,18.420818],[-69.819797,18.420909],[-69.819892,18.420908],[-69.819892,18.420999],[-69.819987,18.420998]]]},"properties":{"id":"santo_domingo_2019-01-21_mdd_4","region":"santo_domingo","date":"2019-01-21","area_m2":200.0,"mean_prob":0.5157,"max_prob":0.5176,"model":"mdd","n_px":2,"px_area_m2":100.0,"confirmed":true,"confirmed_by":"lgbm","lon":-69.819892,"lat":18.420908}},{"type":"Feature","geometry":{"type":"Polygon","coordinates":[[[-69.812128,18.420942],[-69.812127,18.420671],[-69.812032,18.420671],[-69.812031,18.4204],[-69.811936,18.4204],[-69.811937,18.420671],[-69.812032,18.420671],[-69.812033,18.420942],[-69.812128,18.420942]]]},"properties":{"id":"santo_domingo_2019-01-21_mdd_5","region":"santo_domingo","date":"2019-01-21","area_m2":600.0,"mean_prob":0.5255,"max_prob":0.5333,"model":"mdd","n_px":6,"px_area_m2":100.0,"confirmed":true,"confirmed_by":"lgbm","lon":-69.812032,"lat":18.420671}},{"type":"Feature","geometry":{"type":"Polygon","coordinates":[[[-69.819511,18.420458],[-69.81951,18.420368],[-69.819416,18.420368],[-69.819415,18.420187],[-69.81932,18.420188],[-69.819321,18.420369],[-69.819416,18.420368],[-69.819416,18.420458],[-69.819511,18.420458]]]},"properties":{"id":"santo_domingo_2019-01-21_mdd_6","region":"santo_domingo","date":"2019-01-21","area_m2":300.0,"mean_prob":0.5098,"max_prob":0.5216,"model":"mdd","n_px":3,"px_area_m2":100.0,"confirmed":false,"confirmed_by":null,"lon":-69.8194,"lat":18.420323}},{"type":"Feature","geometry":{"type":"Polygon","coordinates":[[[-69.819224,18.419917],[-69.819223,18.419646],[-69.819128,18.419646],[-69.819128,18.419556],[-69.819033,18.419556],[-69.819033,18.419466],[-69.818938,18.419466],[-69.818939,18.419647],[-69.819033,18.419647],[-69.819034,18.419827],[-69.819129,18.419827],[-69.819129,18.419917],[-69.819224,18.419917]]]},"properties":{"id":"santo_domingo_2019-01-21_mdd_7","region":"santo_domingo","date":"2019-01-21","area_m2":800.0,"mean_prob":0.5529,"max_prob":0.5882,"model":"mdd","n_px":8,"px_area_m2":100.0,"confirmed":true,"confirmed_by":"lgbm","lon":-69.819093,"lat":18.419692}},{"type":"Feature","geometry":{"type":"Polygon","coordinates":[[[-69.796207,18.417756],[-69.796206,18.417665],[-69.796112,18.417666],[-69.796111,18.417485],[-69.795921,18.417486],[-69.795922,18.417576],[-69.796016,18.417576],[-69.796017,18.417756],[-69.796207,18.417756]]]},"properties":{"id":"santo_domingo_2019-01-21_mdd_8","region":"santo_domingo","date":"2019-01-21","area_m2":500.0,"mean_prob":0.5208,"max_prob":0.549,"model":"mdd","n_px":5,"px_area_m2":100.0,"confirmed":false,"confirmed_by":null,"lon":-69.796064,"lat":18.417621}},{"type":"Feature","geometry":{"type":"Polygon","coordinates":[[[-69.820529,18.415664],[-69.820528,18.415393],[-69.820339,18.415393],[-69.82034,18.415574],[-69.820434,18.415574],[-69.820435,18.415664],[-69.820529,18.415664]]]},"properties":{"id":"santo_domingo_2019-01-21_mdd_9","region":"santo_domingo","date":"2019-01-21","area_m2":500.0,"mean_prob":0.5325,"max_prob":0.5922,"model":"mdd","n_px":5,"px_area_m2":100.0,"confirmed":true,"confirmed_by":"lgbm","lon":-69.820444,"lat":18.415511}},{"type":"Feature","geometry":{"type":"Polygon","coordinates":[[[-69.794208,18.415505],[-69.794207,18.415324],[-69.794113,18.415324],[-69.794112,18.415234],[-69.794017,18.415234],[-69.794017,18.415144],[-69.793922,18.415144],[-69.793923,18.415235],[-69.794017,18.415234],[-69.794018,18.415415],[-69.794113,18.415415],[-69.794113,18.415505],[-69.794208,18.415505]]]},"properties":{"id":"santo_domingo_2019-01-21_mdd_10","region":"santo_domingo","date":"2019-01-21","area_m2":500.0,"mean_prob":0.5106,"max_prob":0.5216,"model":"mdd","n_px":5,"px_area_m2":100.0,"confirmed":true,"confirmed_by":"lgbm","lon":-69.794084,"lat":18.415333}},{"type":"Feature","geometry":{"type":"Polygon","coordinates":[[[-69.820523,18.414218],[-69.820522,18.414037],[-69.820427,18.414037],[-69.820428,18.414218],[-69.820523,18.414218]]]},"properties":{"id":"santo_domingo_2019-01-21_mdd_11","region":"santo_domingo","date":"2019-01-21","area_m2":200.0,"mean_prob":0.5333,"max_prob":0.5451,"model":"mdd","n_px":2,"px_area_m2":100.0,"confirmed":true,"confirmed_by":"lgbm","lon":-69.820475,"lat":18.414128}},{"type":"Feature","geometry":{"type":"Polygon","coordinates":[[[-69.792686,18.413884],[-69.792684,18.413523],[-69.792589,18.413523],[-69.792589,18.413342],[-69.792399,18.413343],[-69.7924,18.413433],[-69.792494,18.413433],[-69.792496,18.413704],[-69.79259,18.413704],[-69.792591,18.413885],[-69.792686,18.413884]]]},"properties":{"id":"santo_domingo_2019-01-21_mdd_12","region":"santo_domingo","date":"2019-01-21","area_m2":900.0,"mean_prob":0.5338,"max_prob":0.5804,"model":"mdd","n_px":9,"px_area_m2":100.0,"confirmed":true,"confirmed_by":"lgbm","lon":-69.792574,"lat":18.413588}},{"type":"Feature","geometry":{"type":"Polygon","coordinates":[[[-69.820423,18.413224],[-69.820422,18.413043],[-69.820233,18.413044],[-69.820233,18.413135],[-69.820328,18.413134],[-69.820329,18.413225],[-69.820423,18.413224]]]},"properties":{"id":"santo_domingo_2019-01-21_mdd_13","region":"santo_domingo","date":"2019-01-21","area_m2":300.0,"mean_prob":0.5203,"max_prob":0.5333,"model":"mdd","n_px":3,"px_area_m2":100.0,"confirmed":false,"confirmed_by":null,"lon":-69.820344,"lat":18.413119}},{"type":"Feature","geometry":{"type":"Polygon","coordinates":[[[-69.792112,18.412712],[-69.792112,18.412621],[-69.792017,18.412622],[-69.792017,18.412531],[-69.791922,18.412532],[-69.791923,18.412622],[-69.792017,18.412622],[-69.792018,18.412712],[-69.792112,18.412712]]]},"properties":{"id":"santo_domingo_2019-01-21_mdd_14","region":"santo_domingo","date":"2019-01-21","area_m2":200.0,"mean_prob":0.5157,"max_prob":0.5176,"model":"mdd","n_px":2,"px_area_m2":100.0,"confirmed":true,"confirmed_by":"lgbm","lon":-69.792017,"lat":18.412622}},{"type":"Feature","geometry":{"type":"Polygon","coordinates":[[[-69.788021,18.4083],[-69.788021,18.40821],[-69.787926,18.40821],[-69.787925,18.408029],[-69.787831,18.40803],[-69.78783,18.407849],[-69.787735,18.40785],[-69.787736,18.40803],[-69.787831,18.40803],[-69.787832,18.408301],[-69.788021,18.4083]]]},"properties":{"id":"santo_domingo_2019-01-21_mdd_15","region":"santo_domingo","date":"2019-01-21","area_m2":600.0,"mean_prob":0.5176,"max_prob":0.5333,"model":"mdd","n_px":6,"px_area_m2":100.0,"confirmed":false,"confirmed_by":null,"lon":-69.787862,"lat":18.408105}},{"type":"Feature","geometry":{"type":"Polygon","coordinates":[[[-69.836113,18.407733],[-69.836112,18.407552],[-69.835923,18.407553],[-69.835923,18.407644],[-69.836018,18.407643],[-69.836018,18.407734],[-69.836113,18.407733]]]},"properties":{"id":"santo_domingo_2019-01-21_mdd_16","region":"santo_domingo","date":"2019-01-21","area_m2":300.0,"mean_prob":0.5425,"max_prob":0.5569,"model":"mdd","n_px":3,"px_area_m2":100.0,"confirmed":false,"confirmed_by":null,"lon":-69.836034,"lat":18.407628}},{"type":"Feature","geometry":{"type":"Polygon","coordinates":[[[-69.787255,18.406406],[-69.787255,18.406315],[-69.78716,18.406316],[-69.787159,18.406135],[-69.787065,18.406135],[-69.787065,18.406316],[-69.78716,18.406316],[-69.78716,18.406406],[-69.787255,18.406406]]]},"properties":{"id":"santo_domingo_2019-01-21_mdd_17","region":"santo_domingo","date":"2019-01-21","area_m2":300.0,"mean_prob":0.5124,"max_prob":0.5176,"model":"mdd","n_px":3,"px_area_m2":100.0,"confirmed":true,"confirmed_by":"lgbm","lon":-69.787144,"lat":18.40627}},{"type":"Feature","geometry":{"type":"Polygon","coordinates":[[[-69.927052,18.399901],[-69.927051,18.39972],[-69.926956,18.399721],[-69.926956,18.39963],[-69.926861,18.399631],[-69.926861,18.39954],[-69.926766,18.399541],[-69.926765,18.39936],[-69.92667,18.39936],[-69.92667,18.39927],[-69.926575,18.399271],[-69.926575,18.39918],[-69.92648,18.399181],[-69.92648,18.39909],[-69.926385,18.399091],[-69.926384,18.399],[-69.92629,18.399001],[-69.926289,18.39891],[-69.926195,18.398911],[-69.926196,18.399092],[-69.92629,18.399091],[-69.926291,18.399182],[-69.926385,18.399181],[-69.926386,18.399271],[-69.926481,18.399271],[-69.926481,18.399361],[-69.926576,18.399361],[-69.926576,18.399451],[-69.926671,18.399451],[-69.926671,18.399541],[-69.926766,18.399541],[-69.926766,18.399631],[-69.926861,18.399631],[-69.926862,18.399811],[-69.926957,18.399811],[-69.926957,18.399901],[-69.927052,18.399901]]]},"properties":{"id":"santo_domingo_2019-01-21_mdd_18","region":"santo_domingo","date":"2019-01-21","area_m2":1700.0,"mean_prob":0.5193,"max_prob":0.5451,"model":"mdd","n_px":17,"px_area_m2":100.0,"confirmed":true,"confirmed_by":"lgbm","lon":-69.926612,"lat":18.399374}},{"type":"Feature","geometry":{"type":"Polygon","coordinates":[[[-69.785042,18.398462],[-69.785041,18.398281],[-69.784946,18.398281],[-69.784947,18.398462],[-69.785042,18.398462]]]},"properties":{"id":"santo_domingo_2019-01-21_mdd_19","region":"santo_domingo","date":"2019-01-21","area_m2":200.0,"mean_prob":0.5333,"max_prob":0.5647,"model":"mdd","n_px":2,"px_area_m2":100.0,"confirmed":false,"confirmed_by":null,"lon":-69.784994,"lat":18.398371}},{"type":"Feature","geometry":{"type":"Polygon","coordinates":[[[-69.78551,18.397466],[-69.78551,18.397285],[-69.785415,18.397285],[-69.785416,18.397466],[-69.78551,18.397466]]]},"properties":{"id":"santo_domingo_2019-01-21_mdd_20","region":"santo_domingo","date":"2019-01-21","area_m2":200.0,"mean_prob":0.5373,"max_prob":0.5686,"model":"mdd","n_px":2,"px_area_m2":100.0,"confirmed":false,"confirmed_by":null,"lon":-69.785463,"lat":18.397375}},{"type":"Feature","geometry":{"type":"Polygon","coordinates":[[[-69.813337,18.396264],[-69.813337,18.396083],[-69.813242,18.396084],[-69.813243,18.396264],[-69.813337,18.396264]]]},"properties":{"id":"santo_domingo_2019-01-21_mdd_21","region":"santo_domingo","date":"2019-01-21","area_m2":200.0,"mean_prob":0.5451,"max_prob":0.5569,"model":"mdd","n_px":2,"px_area_m2":100.0,"confirmed":false,"confirmed_by":null,"lon":-69.81329,"lat":18.396174}},{"type":"Feature","geometry":{"type":"Polygon","coordinates":[[[-69.792587,18.392194],[-69.792585,18.391923],[-69.792491,18.391924],[-69.792492,18.392195],[-69.792587,18.392194]]]},"properties":{"id":"santo_domingo_2019-01-21_mdd_22","region":"santo_domingo","date":"2019-01-21","area_m2":300.0,"mean_prob":0.5229,"max_prob":0.5373,"model":"mdd","n_px":3,"px_area_m2":100.0,"confirmed":true,"confirmed_by":"lgbm","lon":-69.792539,"lat":18.392059}},{"type":"Feature","geometry":{"type":"Polygon","coordinates":[[[-69.765599,18.390497],[-69.765598,18.390317],[-69.765504,18.390317],[-69.765504,18.390498],[-69.765599,18.390497]]]},"properties":{"id":"santo_domingo_2019-01-21_mdd_23","region":"santo_domingo","date":"2019-01-21","area_m2":200.0,"mean_prob":0.5137,"max_prob":0.5255,"model":"mdd","n_px":2,"px_area_m2":100.0,"confirmed":false,"confirmed_by":null,"lon":-69.765551,"lat":18.390407}},{"type":"Feature","geometry":{"type":"Polygon","coordinates":[[[-69.793141,18.3893],[-69.79314,18.389119],[-69.793046,18.38912],[-69.793047,18.3893],[-69.793141,18.3893]]]},"properties":{"id":"santo_domingo_2019-01-21_mdd_24","region":"santo_domingo","date":"2019-01-21","area_m2":200.0,"mean_prob":0.5216,"max_prob":0.5255,"model":"mdd","n_px":2,"px_area_m2":100.0,"confirmed":false,"confirmed_by":null,"lon":-69.793094,"lat":18.38921}},{"type":"Feature","geometry":{"type":"Polygon","coordinates":[[[-69.793609,18.388123],[-69.793607,18.387671],[-69.793512,18.387672],[-69.793515,18.388124],[-69.793609,18.388123]]]},"properties":{"id":"santo_domingo_2019-01-21_mdd_25","region":"santo_domingo","date":"2019-01-21","area_m2":500.0,"mean_prob":0.5294,"max_prob":0.5529,"model":"mdd","n_px":5,"px_area_m2":100.0,"confirmed":true,"confirmed_by":"lgbm","lon":-69.793561,"lat":18.387897}},{"type":"Feature","geometry":{"type":"Polygon","coordinates":[[[-69.814527,18.387493],[-69.814527,18.387402],[-69.814337,18.387403],[-69.814338,18.387493],[-69.814527,18.387493]]]},"properties":{"id":"santo_domingo_2019-01-21_mdd_26","region":"santo_domingo","date":"2019-01-21","area_m2":200.0,"mean_prob":0.5255,"max_prob":0.5412,"model":"mdd","n_px":2,"px_area_m2":100.0,"confirmed":false,"confirmed_by":null,"lon":-69.814432,"lat":18.387448}},{"type":"Feature","geometry":{"type":"Polygon","coordinates":[[[-69.798009,18.37735],[-69.798007,18.376989],[-69.797913,18.376989],[-69.797914,18.37735],[-69.798009,18.37735]]]},"properties":{"id":"santo_domingo_2019-01-21_mdd_27","region":"santo_domingo","date":"2019-01-21","area_m2":400.0,"mean_prob":0.5363,"max_prob":0.5529,"model":"mdd","n_px":4,"px_area_m2":100.0,"confirmed":false,"confirmed_by":null,"lon":-69.797961,"lat":18.37717}},{"type":"Feature","geometry":{"type":"Polygon","coordinates":[[[-69.7981,18.376627],[-69.798099,18.376356],[-69.798004,18.376356],[-69.798006,18.376627],[-69.7981,18.376627]]]},"properties":{"id":"santo_domingo_2019-01-21_mdd_28","region":"santo_domingo","date":"2019-01-21","area_m2":300.0,"mean_prob":0.5359,"max_prob":0.5569,"model":"mdd","n_px":3,"px_area_m2":100.0,"confirmed":true,"confirmed_by":"lgbm","lon":-69.798052,"lat":18.376491}},{"type":"Feature","geometry":{"type":"Polygon","coordinates":[[[-69.782478,18.375788],[-69.782477,18.375697],[-69.782572,18.375697],[-69.782571,18.375516],[-69.782382,18.375517],[-69.782383,18.375788],[-69.782478,18.375788]]]},"properties":{"id":"santo_domingo_2019-01-21_mdd_29","region":"santo_domingo","date":"2019-01-21","area_m2":500.0,"mean_prob":0.5145,"max_prob":0.5216,"model":"mdd","n_px":5,"px_area_m2":100.0,"confirmed":false,"confirmed_by":null,"lon":-69.782468,"lat":18.375634}},{"type":"Feature","geometry":{"type":"Polygon","coordinates":[[[-69.782853,18.374973],[-69.782852,18.374792],[-69.782947,18.374792],[-69.782946,18.374701],[-69.783041,18.374701],[-69.78304,18.37452],[-69.783135,18.37452],[-69.783134,18.374339],[-69.783229,18.374339],[-69.783228,18.374158],[-69.783133,18.374158],[-69.783134,18.374249],[-69.783039,18.374249],[-69.783039,18.374339],[-69.782945,18.37434],[-69.782946,18.374611],[-69.782851,18.374611],[-69.782852,18.374792],[-69.782757,18.374793],[-69.782758,18.374973],[-69.782853,18.374973]]]},"properties":{"id":"santo_domingo_2019-01-21_mdd_30","region":"santo_domingo","date":"2019-01-21","area_m2":1300.0,"mean_prob":0.5186,"max_prob":0.549,"model":"mdd","n_px":13,"px_area_m2":100.0,"confirmed":false,"confirmed_by":null,"lon":-69.783,"lat":18.374531}},{"type":"Feature","geometry":{"type":"Polygon","coordinates":[[[-69.783697,18.373252],[-69.783696,18.372981],[-69.78379,18.372981],[-69.78379,18.3728],[-69.783695,18.3728],[-69.783695,18.372891],[-69.783601,18.372891],[-69.783601,18.373072],[-69.783507,18.373072],[-69.783508,18.373253],[-69.783697,18.373252]]]},"properties":{"id":"santo_domingo_2019-01-21_mdd_31","region":"santo_domingo","date":"2019-01-21","area_m2":800.0,"mean_prob":0.5235,"max_prob":0.5569,"model":"mdd","n_px":8,"px_area_m2":100.0,"confirmed":true,"confirmed_by":"lgbm","lon":-69.783649,"lat":18.373049}},{"type":"Feature","geometry":{"type":"Polygon","coordinates":[[[-69.784071,18.372347],[-69.784071,18.372166],[-69.783976,18.372167],[-69.783977,18.372347],[-69.784071,18.372347]]]},"properties":{"id":"santo_domingo_2019-01-21_mdd_32","region":"santo_domingo","date":"2019-01-21","area_m2":200.0,"mean_prob":0.5039,"max_prob":0.5059,"model":"mdd","n_px":2,"px_area_m2":100.0,"confirmed":false,"confirmed_by":null,"lon":-69.784024,"lat":18.372257}},{"type":"Feature","geometry":{"type":"Polygon","coordinates":[[[-69.784446,18.371532],[-69.784446,18.371442],[-69.784541,18.371441],[-69.78454,18.371261],[-69.784445,18.371261],[-69.784446,18.371442],[-69.784351,18.371442],[-69.784352,18.371532],[-69.784446,18.371532]]]},"properties":{"id":"santo_domingo_2019-01-21_mdd_33","region":"santo_domingo","date":"2019-01-21","area_m2":300.0,"mean_prob":0.5085,"max_prob":0.5137,"model":"mdd","n_px":3,"px_area_m2":100.0,"confirmed":false,"confirmed_by":null,"lon":-69.784462,"lat":18.371396}},{"type":"Feature","geometry":{"type":"Polygon","coordinates":[[[-69.828965,18.358149],[-69.828964,18.358058],[-69.829059,18.358058],[-69.829059,18.357967],[-69.829153,18.357967],[-69.829153,18.357877],[-69.829058,18.357877],[-69.829059,18.357967],[-69.828869,18.357968],[-69.82887,18.358149],[-69.828965,18.358149]]]},"properties":{"id":"santo_domingo_2019-01-21_mdd_34","region":"santo_domingo","date":"2019-01-21","area_m2":400.0,"mean_prob":0.5275,"max_prob":0.5412,"model":"mdd","n_px":4,"px_area_m2":100.0,"confirmed":false,"confirmed_by":null,"lon":-69.828988,"lat":18.358013}},{"type":"Feature","geometry":{"type":"Polygon","coordinates":[[[-69.798176,18.352044],[-69.798176,18.351863],[-69.798081,18.351864],[-69.798082,18.352045],[-69.798176,18.352044]]]},"properties":{"id":"santo_domingo_2019-01-21_mdd_35","region":"santo_domingo","date":"2019-01-21","area_m2":200.0,"mean_prob":0.5235,"max_prob":0.5333,"model":"mdd","n_px":2,"px_area_m2":100.0,"confirmed":false,"confirmed_by":null,"lon":-69.798129,"lat":18.351954}},{"type":"Feature","geometry":{"type":"Polygon","coordinates":[[[-69.79704,18.351959],[-69.79704,18.351778],[-69.796945,18.351778],[-69.796946,18.351959],[-69.79704,18.351959]]]},"properties":{"id":"santo_domingo_2019-01-21_mdd_36","region":"santo_domingo","date":"2019-01-21","area_m2":200.0,"mean_prob":0.5039,"max_prob":0.5059,"model":"mdd","n_px":2,"px_area_m2":100.0,"confirmed":true,"confirmed_by":"lgbm","lon":-69.796993,"lat":18.351868}},{"type":"Feature","geometry":{"type":"Polygon","coordinates":[[[-69.878779,18.345454],[-69.878778,18.345183],[-69.878589,18.345183],[-69.87859,18.345454],[-69.878779,18.345454]]]},"properties":{"id":"santo_domingo_2019-01-21_mdd_37","region":"santo_domingo","date":"2019-01-21","area_m2":600.0,"mean_prob":0.5314,"max_prob":0.5608,"model":"mdd","n_px":6,"px_area_m2":100.0,"confirmed":false,"confirmed_by":null,"lon":-69.878684,"lat":18.345319}},{"type":"Feature","geometry":{"type":"Polygon","coordinates":[[[-69.912812,18.338425],[-69.912809,18.337793],[-69.912714,18.337793],[-69.912718,18.338426],[-69.912812,18.338425]]]},"properties":{"id":"santo_domingo_2019-01-21_mdd_38","region":"santo_domingo","date":"2019-01-21","area_m2":700.0,"mean_prob":0.5109,"max_prob":0.5216,"model":"mdd","n_px":7,"px_area_m2":100.0,"confirmed":false,"confirmed_by":null,"lon":-69.912763,"lat":18.338109}},{"type":"Feature","geometry":{"type":"Polygon","coordinates":[[[-69.739819,18.338904],[-69.739819,18.338723],[-69.739724,18.338723],[-69.739725,18.338904],[-69.739819,18.338904]]]},"properties":{"id":"santo_domingo_2019-01-21_mdd_39","region":"santo_domingo","date":"2019-01-21","area_m2":200.0,"mean_prob":0.5098,"max_prob":0.5098,"model":"mdd","n_px":2,"px_area_m2":100.0,"confirmed":true,"confirmed_by":"lgbm","lon":-69.739772,"lat":18.338814}},{"type":"Feature","geometry":{"type":"Polygon","coordinates":[[[-69.739724,18.338633],[-69.739722,18.338272],[-69.739533,18.338272],[-69.739532,18.338182],[-69.739438,18.338182],[-69.739439,18.338363],[-69.739533,18.338363],[-69.739534,18.338453],[-69.739628,18.338453],[-69.739629,18.338633],[-69.739724,18.338633]]]},"properties":{"id":"santo_domingo_2019-01-21_mdd_40","region":"santo_domingo","date":"2019-01-21","area_m2":800.0,"mean_prob":0.5328,"max_prob":0.5647,"model":"mdd","n_px":8,"px_area_m2":100.0,"confirmed":true,"confirmed_by":"lgbm","lon":-69.739604,"lat":18.338385}},{"type":"Feature","geometry":{"type":"Polygon","coordinates":[[[-69.762402,18.330681],[-69.762401,18.33041],[-69.762306,18.33041],[-69.762306,18.33032],[-69.762211,18.33032],[-69.762211,18.33023],[-69.762116,18.33023],[-69.762117,18.330501],[-69.762212,18.330501],[-69.762212,18.330591],[-69.762307,18.330591],[-69.762307,18.330681],[-69.762402,18.330681]]]},"properties":{"id":"santo_domingo_2019-01-21_mdd_41","region":"santo_domingo","date":"2019-01-21","area_m2":900.0,"mean_prob":0.5359,"max_prob":0.5882,"model":"mdd","n_px":9,"px_area_m2":100.0,"confirmed":true,"confirmed_by":"lgbm","lon":-69.762259,"lat":18.330456}},{"type":"Feature","geometry":{"type":"Polygon","coordinates":[[[-69.761639,18.329328],[-69.761638,18.329148],[-69.761543,18.329148],[-69.761543,18.329058],[-69.761448,18.329058],[-69.761449,18.329239],[-69.761544,18.329238],[-69.761544,18.329329],[-69.761639,18.329328]]]},"properties":{"id":"santo_domingo_2019-01-21_mdd_42","region":"santo_domingo","date":"2019-01-21","area_m2":400.0,"mean_prob":0.5157,"max_prob":0.5333,"model":"mdd","n_px":4,"px_area_m2":100.0,"confirmed":true,"confirmed_by":"lgbm","lon":-69.761544,"lat":18.329193}},{"type":"Feature","geometry":{"type":"Polygon","coordinates":[[[-69.76436,18.324076],[-69.764359,18.323804],[-69.764264,18.323805],[-69.764265,18.323895],[-69.76417,18.323896],[-69.76417,18.323986],[-69.764265,18.323986],[-69.764265,18.324076],[-69.76436,18.324076]]]},"properties":{"id":"santo_domingo_2019-01-21_mdd_43","region":"santo_domingo","date":"2019-01-21","area_m2":400.0,"mean_prob":0.5206,"max_prob":0.549,"model":"mdd","n_px":4,"px_area_m2":100.0,"confirmed":true,"confirmed_by":"lgbm","lon":-69.764289,"lat":18.32394}},{"type":"Feature","geometry":{"type":"Polygon","coordinates":[[[-69.765964,18.322985],[-69.765963,18.322714],[-69.765868,18.322714],[-69.765867,18.322443],[-69.765772,18.322443],[-69.765771,18.322172],[-69.765677,18.322172],[-69.765675,18.321901],[-69.765581,18.321902],[-69.76558,18.321811],[-69.765486,18.321812],[-69.765484,18.321541],[-69.76539,18.321541],[-69.765389,18.32127],[-69.765294,18.32127],[-69.765294,18.32118],[-69.765199,18.32118],[-69.765199,18.32109],[-69.765104,18.32109],[-69.765104,18.321],[-69.765009,18.321],[-69.765009,18.32091],[-69.764819,18.320911],[-69.76482,18.321091],[-69.764915,18.321091],[-69.764915,18.321181],[-69.76501,18.321181],[-69.765011,18.321362],[-69.765105,18.321361],[-69.765106,18.321632],[-69.765201,18.321632],[-69.765201,18.321722],[-69.765296,18.321722],[-69.765296,18.321812],[-69.765391,18.321812],[-69.765392,18.322083],[-69.765487,18.322083],[-69.765488,18.322444],[-69.765583,18.322444],[-69.765584,18.322625],[-69.765679,18.322624],[-69.765679,18.322715],[-69.765774,18.322714],[-69.765774,18.322895],[-69.765869,18.322895],[-69.765869,18.322985],[-69.765964,18.322985]]]},"properties":{"id":"santo_domingo_2019-01-21_mdd_44","region":"santo_domingo","date":"2019-01-21","area_m2":6200.0,"mean_prob":0.5532,"max_prob":0.6353,"model":"mdd","n_px":62,"px_area_m2":100.0,"confirmed":true,"confirmed_by":"lgbm","lon":-69.765434,"lat":18.321877}},{"type":"Feature","geometry":{"type":"Polygon","coordinates":[[[-69.751755,18.319697],[-69.751755,18.319516],[-69.75166,18.319517],[-69.751661,18.319698],[-69.751755,18.319697]]]},"properties":{"id":"santo_domingo_2019-01-21_mdd_45","region":"santo_domingo","date":"2019-01-21","area_m2":200.0,"mean_prob":0.5216,"max_prob":0.5255,"model":"mdd","n_px":2,"px_area_m2":100.0,"confirmed":true,"confirmed_by":"lgbm","lon":-69.751708,"lat":18.319607}},{"type":"Feature","geometry":{"type":"Polygon","coordinates":[[[-69.765659,18.318196],[-69.765657,18.317834],[-69.765563,18.317835],[-69.765562,18.317744],[-69.765468,18.317745],[-69.765469,18.318016],[-69.765564,18.318016],[-69.765564,18.318196],[-69.765659,18.318196]]]},"properties":{"id":"santo_domingo_2019-01-21_mdd_46","region":"santo_domingo","date":"2019-01-21","area_m2":700.0,"mean_prob":0.5277,"max_prob":0.5529,"model":"mdd","n_px":7,"px_area_m2":100.0,"confirmed":false,"confirmed_by":null,"lon":-69.76557,"lat":18.317957}},{"type":"Feature","geometry":{"type":"Polygon","coordinates":[[[-69.757038,18.315971],[-69.757038,18.31588],[-69.756943,18.315881],[-69.756943,18.31579],[-69.756848,18.315791],[-69.756849,18.315881],[-69.756943,18.315881],[-69.756944,18.315971],[-69.757038,18.315971]]]},"properties":{"id":"santo_domingo_2019-01-21_mdd_47","region":"santo_domingo","date":"2019-01-21","area_m2":200.0,"mean_prob":0.5118,"max_prob":0.5176,"model":"mdd","n_px":2,"px_area_m2":100.0,"confirmed":true,"confirmed_by":"lgbm","lon":-69.756943,"lat":18.315881}},{"type":"Feature","geometry":{"type":"Polygon","coordinates":[[[-69.795424,18.308946],[-69.795423,18.308765],[-69.795329,18.308766],[-69.795329,18.308947],[-69.795424,18.308946]]]},"properties":{"id":"santo_domingo_2019-01-21_mdd_48","region":"santo_domingo","date":"2019-01-21","area_m2":200.0,"mean_prob":0.5118,"max_prob":0.5216,"model":"mdd","n_px":2,"px_area_m2":100.0,"confirmed":false,"confirmed_by":null,"lon":-69.795376,"lat":18.308856}},{"type":"Feature","geometry":{"type":"Polygon","coordinates":[[[-69.745931,18.30761],[-69.74593,18.307338],[-69.745836,18.307339],[-69.745835,18.307248],[-69.745741,18.307249],[-69.74574,18.307068],[-69.745645,18.307068],[-69.745645,18.306978],[-69.74555,18.306978],[-69.745551,18.307159],[-69.745646,18.307159],[-69.745646,18.307249],[-69.745741,18.307249],[-69.745742,18.30752],[-69.745836,18.30752],[-69.745837,18.30761],[-69.745931,18.30761]]]},"properties":{"id":"santo_domingo_2019-01-21_mdd_49","region":"santo_domingo","date":"2019-01-21","area_m2":1000.0,"mean_prob":0.52,"max_prob":0.5412,"model":"mdd","n_px":10,"px_area_m2":100.0,"confirmed":false,"confirmed_by":null,"lon":-69.74576,"lat":18.307303}},{"type":"Feature","geometry":{"type":"Polygon","coordinates":[[[-69.725492,18.307327],[-69.725491,18.307146],[-69.725302,18.307147],[-69.725302,18.307237],[-69.725397,18.307237],[-69.725397,18.307327],[-69.725492,18.307327]]]},"properties":{"id":"santo_domingo_2019-01-21_mdd_50","region":"santo_domingo","date":"2019-01-21","area_m2":300.0,"mean_prob":0.5203,"max_prob":0.5333,"model":"mdd","n_px":3,"px_area_m2":100.0,"confirmed":true,"confirmed_by":"lgbm","lon":-69.725413,"lat":18.307222}},{"type":"Feature","geometry":{"type":"Polygon","coordinates":[[[-69.862264,18.29754],[-69.862263,18.297269],[-69.862168,18.297269],[-69.862169,18.29754],[-69.862264,18.29754]]]},"properties":{"id":"santo_domingo_2019-01-21_mdd_51","region":"santo_domingo","date":"2019-01-21","area_m2":300.0,"mean_prob":0.5059,"max_prob":0.5098,"model":"mdd","n_px":3,"px_area_m2":100.0,"confirmed":false,"confirmed_by":null,"lon":-69.862216,"lat":18.297405}},{"type":"Feature","geometry":{"type":"Polygon","coordinates":[[[-69.756954,18.29654],[-69.756953,18.296359],[-69.756859,18.29636],[-69.756859,18.29654],[-69.756954,18.29654]]]},"properties":{"id":"santo_domingo_2019-01-21_mdd_52","region":"santo_domingo","date":"2019-01-21","area_m2":200.0,"mean_prob":0.5157,"max_prob":0.5255,"model":"mdd","n_px":2,"px_area_m2":100.0,"confirmed":false,"confirmed_by":null,"lon":-69.756906,"lat":18.29645}},{"type":"Feature","geometry":{"type":"Polygon","coordinates":[[[-69.773126,18.294939],[-69.773126,18.294849],[-69.772936,18.294849],[-69.772937,18.29494],[-69.773126,18.294939]]]},"properties":{"id":"santo_domingo_2019-01-21_mdd_53","region":"santo_domingo","date":"2019-01-21","area_m2":200.0,"mean_prob":0.5294,"max_prob":0.549,"model":"mdd","n_px":2,"px_area_m2":100.0,"confirmed":false,"confirmed_by":null,"lon":-69.773031,"lat":18.294894}}]}