{"type": "FeatureCollection", "features": [{"type": "Feature", "id": "SZ-live-santo_domingo-2025-12-30-001", "geometry": {"type": "Polygon", "coordinates": [[[-69.890516, 18.456197], [-69.891367, 18.455922], [-69.891743, 18.455378], [-69.892122, 18.455467], [-69.892973, 18.455192], [-69.893443, 18.454467], [-69.894011, 18.454554], [-69.894673, 18.45428], [-69.894772, 18.455093], [-69.895248, 18.455723], [-69.896102, 18.45599], [-69.89667, 18.455897], [-69.897518, 18.45508], [-69.897513, 18.454086], [-69.896656, 18.453277], [-69.896087, 18.453189], [-69.895331, 18.453464], [-69.895327, 18.45265], [-69.894471, 18.451841], [-69.893429, 18.451846], [-69.892769, 18.452482], [-69.891538, 18.452397], [-69.890877, 18.452852], [-69.890691, 18.453485], [-69.889556, 18.453672], [-69.889086, 18.454306], [-69.888994, 18.454849], [-69.889282, 18.455661], [-69.889947, 18.45611], [-69.890516, 18.456197]]]}, "properties": {"kind": "detection_zone", "layer_kind": "scene_zone", "zone_id": "SZ-live-santo_domingo-2025-12-30-001", "scene_key": "live-santo_domingo-2025-12-30", "scene_kind": "live", "scene_id": "S2B_MSIL2A_20251230T151719_R125_T19QDA_20251230T203016", "region": "santo_domingo", "title": "Санто-Доминго (устье Осамы) · зона 1", "mission": "Sentinel-2", "datetime": "2025-12-30T15:17:19.024000Z", "detection_status": "detected", "status": "detected", "concentration_status": "unavailable", "quantity": {"status": "not_confirmed", "label": "концентрация по снимку не подтверждена", "detail": "перевод площади в штуки не показываем: нет калибровочных пар (см. docs/QUANTITY.md)"}, "verification": "unverified", "training_scene": null, "flags": [], "n_cozar_filaments": 0, "crop_file": "crops/SZ-live-santo_domingo-2025-12-30-001.jpg", "measured": {"zone_area_km2": 0.2587, "suspicious_area_m2": 500, "n_pixels": 5, "n_objects": 5, "water_km2": 0.261, "lwd_m2_km2": 1915.7, "quality": {"valid_water_fraction": 1.0, "cloud_fraction": 0.0, "glint_fraction": 0.0}, "model": {"weights": "weights/lgbm", "file": "weights/lgbm/model.txt", "sha256": "0eeebf43fcccd8c7c07f053b7ec723229d1a3c9b92d12eec1bdb269258c51470", "sha256_short": "0eeebf43fccc", "trained_at": "2026-09-25T01:35:55Z", "threshold": 0.63, "harmonize": "none", "class": "MARIDA Marine Debris (любой плавающий мусор, не только пластик)"}}, "probable": {"prob_max": 0.867, "prob_mean": 0.77, "signs": {"foam": {"flag": false, "white_ratio_b2_b8": 0.089, "wind10m_ms": 2.25, "rule": "прирост B2 над водой ≥ 0.8 прироста B8 («белый» спектр) или ветер ≥ 7.0 м/с"}, "glint": {"flag": false, "b11_water_median": 0.001, "glint_share": 0.0, "rule": "медиана B11 воды зоны > 0.01 или ≥ 20 % пикселей зоны — блик (маска качества)"}, "ship": {"flag": false, "share": 0, "bright_target_px_within_500m": 0, "rule": "≥ 30 % пикселей — у яркой цели или кильватера (reports/artifacts.md) или яркая цель с откликом в SWIR (судно, лодка: B11 ≥ 0,015) ближе 500 м"}, "coast": {"flag": false, "land_px_within_300m": 0, "rule": "суша (маска качества) ближе 300 м — прибой, кромка берега"}, "shallow": {"flag": false, "b3_water_zone": 0.0159, "b3_ratio_to_scene_water": 1.59, "rule": "медиана B3 воды зоны ≥ 2× медианы воды снимка и ≥ 0,03 — мелководье или мутная вода"}, "seam": {"flag": false, "share": 0, "rule": "≥ 30 % пикселей — прямая линия вдоль трека/границы яркости (шов)"}, "cloud": {"flag": false, "cloud_fraction": 0.0, "rule": "облака или тени облаков (маска качества) ≥ 20 % зоны"}, "note": "эвристики, не классификатор; на размеченных данных не проверены"}, "n_cozar_filaments": 0}, "field_nearby": {"items": [{"source": "ADIS (4TU.ResearchData, судовая камера)", "segment_id": 416611, "ship": "RV Pelagia", "date": "2023-12-17", "days_from_scene": -744, "distance_km": 749.4, "lon": -69.62766, "lat": 25.17519, "n_items": 0, "area_km2": 0.4738, "size_class": "> 5 см", "c_items_km2": 0.0, "ci95_lo": 0.0, "ci95_hi": 7.79, "ci95_method": "точный интервал Пуассона для N, делённый на A"}, {"source": "ADIS (4TU.ResearchData, судовая камера)", "segment_id": 416610, "ship": "RV Pelagia", "date": "2023-12-17", "days_from_scene": -744, "distance_km": 749.7, "lon": -69.55526, "lat": 25.17532, "n_items": 0, "area_km2": 1.015, "size_class": "> 5 см", "c_items_km2": 0.0, "ci95_lo": 0.0, "ci95_hi": 3.63, "ci95_method": "точный интервал Пуассона для N, делённый на A"}, {"source": "ADIS (4TU.ResearchData, судовая камера)", "segment_id": 416609, "ship": "RV Pelagia", "date": "2023-12-17", "days_from_scene": -744, "distance_km": 751.5, "lon": -69.45806, "lat": 25.18796, "n_items": 0, "area_km2": 1.0152, "size_class": "> 5 см", "c_items_km2": 0.0, "ci95_lo": 0.0, "ci95_hi": 3.63, "ci95_method": "точный интервал Пуассона для N, делённый на A"}], "nearest_organizer_sample": {"sample_id": "MPL-0239", "source_id": "S2_SARGASSO_MSM41", "distance_km": 644.4}, "note": "Измерение ≠ оценка: это независимые полевые счёты C = N/A в другое время и в другом месте; со сценой они не связаны и не калибруют её. Ближайший отрезок ADIS — за 749 км: только для порядка величин."}}}]}