{"type":"FeatureCollection","region":"danang","bbox":[108.28797,15.63478,108.71242,16.04523],"source":"© OpenStreetMap contributors (ODbL)","fetched":"2026-09-25T10:04:17Z","note":"объекты OpenStreetMap (bbox района ± 10 км); устья — концевые узлы рек/каналов ≤ 1,5 км от береговой линии OSM","features":[{"type":"Feature","geometry":{"type":"Point","coordinates":[108.36623,15.89806]},"properties":{"id":"danang_osm_0","kind":"beach","kind_ru":"пляж","name":"Cua Dai","osm_id":"node/4171964292","source":"© OpenStreetMap contributors (ODbL)"}},{"type":"Feature","geometry":{"type":"Polygon","coordinates":[[[108.4751,15.6876],[108.47618,15.68412],[108.47498,15.68194],[108.4745,15.68249],[108.47382,15.68657],[108.4751,15.6876]]]},"properties":{"id":"danang_osm_1","kind":"aquaculture","kind_ru":"аквакультура / ферма","name":null,"osm_id":"way/738258348","source":"© OpenStreetMap contributors (ODbL)"}},{"type":"Feature","geometry":{"type":"Polygon","coordinates":[[[108.49079,15.67922],[108.49159,15.67984],[108.49465,15.6753],[108.4939,15.67477],[108.49224,15.67735],[108.49203,15.67723],[108.49248,15.67639],[108.49137,15.67573],[108.491,15.67666],[108.49158,15.67697],[108.49143,15.67718],[108.49091,15.67695],[108.49069,15.67747],[108.49031,15.67756],[108.49052,15.67774],[108.49032,15.67808],[108.49118,15.67865],[108.49079,15.67922]]]},"properties":{"id":"danang_osm_2","kind":"aquaculture","kind_ru":"аквакультура / ферма","name":null,"osm_id":"way/738258349","source":"© OpenStreetMap contributors (ODbL)"}},{"type":"Feature","geometry":{"type":"Polygon","coordinates":[[[108.40837,15.95811],[108.40839,15.98299],[108.49979,15.99124],[108.54963,15.9497],[108.54965,15.89169],[108.51657,15.88329],[108.40837,15.95811]]]},"properties":{"id":"danang_osm_3","kind":"protected_area","kind_ru":"охраняемая зона","name":"Khu bảo tồn thiên nhiên Cù Lao Chàm","osm_id":"way/1238122735","source":"© OpenStreetMap contributors (ODbL)"}},{"type":"Feature","geometry":{"type":"Polygon","coordinates":[[[108.40609,15.86718],[108.40555,15.86596],[108.40435,15.8657],[108.40352,15.86147],[108.40375,15.85553],[108.4036,15.85458],[108.40394,15.85372],[108.40447,15.84909],[108.40506,15.84729],[108.40589,15.84343],[108.40592,15.8426],[108.40616,15.84216],[108.40959,15.82843],[108.41007,15.82508],[108.41108,15.82228],[108.41169,15.82174],[108.41287,15.81748],[108.41317,15.81517],[108.41285,15.81452],[108.41353,15.81437],[108.41411,15.81345],[108.41615,15.80916],[108.41816,15.80384],[108.41724,15.8051],[108.41693,15.80676],[108.41596,15.80916],[108.41564,15.80949],[108.41539,15.80926],[108.41522,15.80934],[108.41548,15.80986],[108.41496,15.81145],[108.4142,15.81197],[108.41396,15.8132],[108.41245,15.8142],[108.4125,15.81475],[108.41307,15.81511],[108.41275,15.81734],[108.41233,15.81805],[108.41192,15.81779],[108.41228,15.81872],[108.41164,15.82103],[108.4104,15.82327],[108.40981,15.82518],[108.4096,15.82809],[108.40611,15.84201],[108.40564,15.84235],[108.40585,15.843],[108.40565,15.84412],[108.40428,15.8498],[108.40388,15.85022],[108.4041,15.85122],[108.40372,15.85203],[108.40372,15.85416],[108.40327,15.85451],[108.4036,15.85493],[108.40335,15.85547],[108.40358,15.85669],[108.40341,15.86266],[108.404,15.86603],[108.40357,15.8671],[108.39932,15.86945],[108.40068,15.86932],[108.4046,15.87019],[108.40544,15.86993],[108.40609,15.86718]]]},"properties":{"id":"danang_osm_4","kind":"beach","kind_ru":"пляж","name":null,"osm_id":"way/429250435","source":"© OpenStreetMap contributors (ODbL)"}},{"type":"Feature","geometry":{"type":"LineString","coordinates":[[108.29105,15.85467],[108.29115,15.85437]]},"properties":{"id":"danang_osm_5","kind":"outfall","kind_ru":"выпуск / трубопровод стоков","name":null,"osm_id":"way/429251113","source":"© OpenStreetMap contributors (ODbL)"}},{"type":"Feature","geometry":{"type":"Polygon","coordinates":[[[108.28961,15.96734],[108.29174,15.96346],[108.29968,15.95204],[108.30438,15.94626],[108.31274,15.93688],[108.31229,15.93649],[108.30419,15.94588],[108.30139,15.94861],[108.30105,15.94963],[108.29305,15.9601],[108.28898,15.96655],[108.28883,15.96697],[108.28961,15.96734]]]},"properties":{"id":"danang_osm_6","kind":"beach","kind_ru":"пляж","name":null,"osm_id":"way/1340661758","source":"© OpenStreetMap contributors (ODbL)"}},{"type":"Feature","geometry":{"type":"Polygon","coordinates":[[[108.31274,15.93688],[108.3238,15.92649],[108.32795,15.9231],[108.33655,15.91689],[108.3363,15.91655],[108.32858,15.92219],[108.32747,15.92269],[108.32619,15.92419],[108.32131,15.92819],[108.32088,15.9284],[108.31999,15.92728],[108.31936,15.92766],[108.32055,15.92881],[108.31976,15.92943],[108.3186,15.92809],[108.31814,15.92837],[108.31933,15.92986],[108.31832,15.93043],[108.3181,15.93092],[108.31672,15.92973],[108.31668,15.93001],[108.31782,15.93113],[108.31743,15.93161],[108.31597,15.93049],[108.31586,15.93069],[108.31711,15.93189],[108.31652,15.93254],[108.31555,15.93156],[108.31498,15.93143],[108.31499,15.93179],[108.31609,15.93285],[108.31298,15.93624],[108.31229,15.93649],[108.31274,15.93688]]]},"properties":{"id":"danang_osm_7","kind":"beach","kind_ru":"пляж","name":null,"osm_id":"way/1340661759","source":"© OpenStreetMap contributors (ODbL)"}},{"type":"Feature","geometry":{"type":"Polygon","coordinates":[[[108.37059,15.88332],[108.37035,15.88326],[108.37022,15.88359],[108.37042,15.88365],[108.37059,15.88332]]]},"properties":{"id":"danang_osm_8","kind":"aquaculture","kind_ru":"аквакультура / ферма","name":null,"osm_id":"way/764630187","source":"© OpenStreetMap contributors (ODbL)"}},{"type":"Feature","geometry":{"type":"Polygon","coordinates":[[[108.37009,15.88491],[108.37059,15.88503],[108.3706,15.88484],[108.37009,15.88491]]]},"properties":{"id":"danang_osm_9","kind":"aquaculture","kind_ru":"аквакультура / ферма","name":null,"osm_id":"way/764630191","source":"© OpenStreetMap contributors (ODbL)"}},{"type":"Feature","geometry":{"type":"Polygon","coordinates":[[[108.37005,15.88606],[108.37051,15.88622],[108.37086,15.88578],[108.37032,15.8855],[108.37005,15.88606]]]},"properties":{"id":"danang_osm_10","kind":"aquaculture","kind_ru":"аквакультура / ферма","name":null,"osm_id":"way/764630192","source":"© OpenStreetMap contributors (ODbL)"}},{"type":"Feature","geometry":{"type":"Polygon","coordinates":[[[108.36435,15.88928],[108.36464,15.88977],[108.36518,15.88947],[108.36487,15.88898],[108.36435,15.88928]]]},"properties":{"id":"danang_osm_11","kind":"aquaculture","kind_ru":"аквакультура / ферма","name":null,"osm_id":"way/765242856","source":"© OpenStreetMap contributors (ODbL)"}},{"type":"Feature","geometry":{"type":"Polygon","coordinates":[[[108.36521,15.88943],[108.36582,15.88906],[108.3655,15.88858],[108.36497,15.88893],[108.36521,15.88943]]]},"properties":{"id":"danang_osm_12","kind":"aquaculture","kind_ru":"аквакультура / ферма","name":null,"osm_id":"way/765242860","source":"© OpenStreetMap contributors (ODbL)"}},{"type":"Feature","geometry":{"type":"Polygon","coordinates":[[[108.36481,15.88895],[108.36455,15.88849],[108.36402,15.88881],[108.36432,15.88926],[108.36481,15.88895]]]},"properties":{"id":"danang_osm_13","kind":"aquaculture","kind_ru":"аквакультура / ферма","name":null,"osm_id":"way/765242862","source":"© OpenStreetMap contributors (ODbL)"}},{"type":"Feature","geometry":{"type":"Polygon","coordinates":[[[108.36386,15.88894],[108.36427,15.88929],[108.36397,15.88885],[108.36386,15.88894]]]},"properties":{"id":"danang_osm_14","kind":"aquaculture","kind_ru":"аквакультура / ферма","name":null,"osm_id":"way/765242863","source":"© OpenStreetMap contributors (ODbL)"}},{"type":"Feature","geometry":{"type":"Polygon","coordinates":[[[108.36365,15.88911],[108.36406,15.88943],[108.36375,15.88901],[108.36365,15.88911]]]},"properties":{"id":"danang_osm_15","kind":"aquaculture","kind_ru":"аквакультура / ферма","name":null,"osm_id":"way/765242864","source":"© OpenStreetMap contributors (ODbL)"}},{"type":"Feature","geometry":{"type":"Polygon","coordinates":[[[108.36365,15.88916],[108.36313,15.88953],[108.36334,15.88984],[108.36389,15.88953],[108.36365,15.88916]]]},"properties":{"id":"danang_osm_16","kind":"aquaculture","kind_ru":"аквакультура / ферма","name":null,"osm_id":"way/765242865","source":"© OpenStreetMap contributors (ODbL)"}},{"type":"Feature","geometry":{"type":"Polygon","coordinates":[[[108.36627,15.88893],[108.36651,15.88963],[108.36666,15.88955],[108.36627,15.88893]]]},"properties":{"id":"danang_osm_17","kind":"aquaculture","kind_ru":"аквакультура / ферма","name":null,"osm_id":"way/765529881","source":"© OpenStreetMap contributors (ODbL)"}},{"type":"Feature","geometry":{"type":"Polygon","coordinates":[[[108.36578,15.89003],[108.36648,15.88965],[108.36611,15.88903],[108.3654,15.88943],[108.36578,15.89003]]]},"properties":{"id":"danang_osm_18","kind":"aquaculture","kind_ru":"аквакультура / ферма","name":null,"osm_id":"way/765529882","source":"© OpenStreetMap contributors (ODbL)"}},{"type":"Feature","geometry":{"type":"Polygon","coordinates":[[[108.3655,15.88853],[108.36535,15.88805],[108.36527,15.88804],[108.3655,15.88853]]]},"properties":{"id":"danang_osm_19","kind":"aquaculture","kind_ru":"аквакультура / ферма","name":null,"osm_id":"way/765242857","source":"© OpenStreetMap contributors (ODbL)"}},{"type":"Feature","geometry":{"type":"Polygon","coordinates":[[[108.36582,15.88905],[108.36567,15.88849],[108.36552,15.88857],[108.36582,15.88905]]]},"properties":{"id":"danang_osm_20","kind":"aquaculture","kind_ru":"аквакультура / ферма","name":null,"osm_id":"way/765242859","source":"© OpenStreetMap contributors (ODbL)"}},{"type":"Feature","geometry":{"type":"Polygon","coordinates":[[[108.36544,15.88858],[108.3652,15.88815],[108.36466,15.88846],[108.36494,15.88889],[108.36544,15.88858]]]},"properties":{"id":"danang_osm_21","kind":"aquaculture","kind_ru":"аквакультура / ферма","name":null,"osm_id":"way/765242861","source":"© OpenStreetMap contributors (ODbL)"}},{"type":"Feature","geometry":{"type":"Polygon","coordinates":[[[108.36587,15.8883],[108.36551,15.88789],[108.36573,15.88838],[108.36587,15.8883]]]},"properties":{"id":"danang_osm_22","kind":"aquaculture","kind_ru":"аквакультура / ферма","name":null,"osm_id":"way/765529878","source":"© OpenStreetMap contributors (ODbL)"}},{"type":"Feature","geometry":{"type":"Polygon","coordinates":[[[108.36584,15.88855],[108.3659,15.88833],[108.36576,15.88842],[108.36584,15.88855]]]},"properties":{"id":"danang_osm_23","kind":"aquaculture","kind_ru":"аквакультура / ферма","name":null,"osm_id":"way/765529879","source":"© OpenStreetMap contributors (ODbL)"}},{"type":"Feature","geometry":{"type":"Polygon","coordinates":[[[108.36605,15.88889],[108.36598,15.88847],[108.36583,15.88857],[108.36605,15.88889]]]},"properties":{"id":"danang_osm_24","kind":"aquaculture","kind_ru":"аквакультура / ферма","name":null,"osm_id":"way/765529880","source":"© OpenStreetMap contributors (ODbL)"}},{"type":"Feature","geometry":{"type":"Polygon","coordinates":[[[108.3636,15.89117],[108.36339,15.89063],[108.36318,15.89076],[108.36319,15.89081],[108.3636,15.89117]]]},"properties":{"id":"danang_osm_25","kind":"aquaculture","kind_ru":"аквакультура / ферма","name":null,"osm_id":"way/765242872","source":"© OpenStreetMap contributors (ODbL)"}},{"type":"Feature","geometry":{"type":"Polygon","coordinates":[[[108.36303,15.89065],[108.36357,15.89036],[108.36329,15.88999],[108.36264,15.89036],[108.36303,15.89065]]]},"properties":{"id":"danang_osm_26","kind":"aquaculture","kind_ru":"аквакультура / ферма","name":null,"osm_id":"way/765242873","source":"© OpenStreetMap contributors (ODbL)"}},{"type":"Feature","geometry":{"type":"Polygon","coordinates":[[[108.36233,15.89015],[108.36325,15.88992],[108.36305,15.88963],[108.36233,15.89015]]]},"properties":{"id":"danang_osm_27","kind":"aquaculture","kind_ru":"аквакультура / ферма","name":null,"osm_id":"way/765242874","source":"© OpenStreetMap contributors (ODbL)"}},{"type":"Feature","geometry":{"type":"Polygon","coordinates":[[[108.36646,15.8905],[108.36614,15.88997],[108.36563,15.89029],[108.36593,15.89078],[108.36646,15.8905]]]},"properties":{"id":"danang_osm_28","kind":"aquaculture","kind_ru":"аквакультура / ферма","name":null,"osm_id":"way/765242845","source":"© OpenStreetMap contributors (ODbL)"}},{"type":"Feature","geometry":{"type":"Polygon","coordinates":[[[108.36604,15.89095],[108.36645,15.89053],[108.36596,15.89083],[108.36604,15.89095]]]},"properties":{"id":"danang_osm_29","kind":"aquaculture","kind_ru":"аквакультура / ферма","name":null,"osm_id":"way/765242846","source":"© OpenStreetMap contributors (ODbL)"}},{"type":"Feature","geometry":{"type":"Polygon","coordinates":[[[108.36565,15.8912],[108.36591,15.89084],[108.36553,15.89108],[108.36565,15.8912]]]},"properties":{"id":"danang_osm_30","kind":"aquaculture","kind_ru":"аквакультура / ферма","name":null,"osm_id":"way/765242847","source":"© OpenStreetMap contributors (ODbL)"}},{"type":"Feature","geometry":{"type":"Polygon","coordinates":[[[108.36555,15.89122],[108.36589,15.8908],[108.36555,15.8903],[108.36505,15.89056],[108.36555,15.89122]]]},"properties":{"id":"danang_osm_31","kind":"aquaculture","kind_ru":"аквакультура / ферма","name":null,"osm_id":"way/765242848","source":"© OpenStreetMap contributors (ODbL)"}},{"type":"Feature","geometry":{"type":"Polygon","coordinates":[[[108.36493,15.89141],[108.36541,15.8913],[108.36537,15.89119],[108.36493,15.89141]]]},"properties":{"id":"danang_osm_32","kind":"aquaculture","kind_ru":"аквакультура / ферма","name":null,"osm_id":"way/765242849","source":"© OpenStreetMap contributors (ODbL)"}},{"type":"Feature","geometry":{"type":"Polygon","coordinates":[[[108.3649,15.89159],[108.36491,15.89142],[108.36483,15.89144],[108.3649,15.89159]]]},"properties":{"id":"danang_osm_33","kind":"aquaculture","kind_ru":"аквакультура / ферма","name":null,"osm_id":"way/765242850","source":"© OpenStreetMap contributors (ODbL)"}},{"type":"Feature","geometry":{"type":"Polygon","coordinates":[[[108.36479,15.89142],[108.36533,15.89112],[108.36499,15.8906],[108.3645,15.89088],[108.36479,15.89142]]]},"properties":{"id":"danang_osm_34","kind":"aquaculture","kind_ru":"аквакультура / ферма","name":null,"osm_id":"way/765242851","source":"© OpenStreetMap contributors (ODbL)"}},{"type":"Feature","geometry":{"type":"Polygon","coordinates":[[[108.36476,15.88997],[108.36537,15.88944],[108.3647,15.88988],[108.36476,15.88997]]]},"properties":{"id":"danang_osm_35","kind":"aquaculture","kind_ru":"аквакультура / ферма","name":null,"osm_id":"way/765242852","source":"© OpenStreetMap contributors (ODbL)"}},{"type":"Feature","geometry":{"type":"Polygon","coordinates":[[[108.36501,15.89023],[108.36577,15.89005],[108.36546,15.88959],[108.36477,15.89001],[108.36501,15.89023]]]},"properties":{"id":"danang_osm_36","kind":"aquaculture","kind_ru":"аквакультура / ферма","name":null,"osm_id":"way/765242853","source":"© OpenStreetMap contributors (ODbL)"}},{"type":"Feature","geometry":{"type":"Polygon","coordinates":[[[108.36448,15.88986],[108.36432,15.88933],[108.36419,15.88939],[108.36448,15.88986]]]},"properties":{"id":"danang_osm_37","kind":"aquaculture","kind_ru":"аквакультура / ферма","name":null,"osm_id":"way/765242866","source":"© OpenStreetMap contributors (ODbL)"}},{"type":"Feature","geometry":{"type":"Polygon","coordinates":[[[108.36425,15.88999],[108.36409,15.88948],[108.36397,15.88954],[108.36425,15.88999]]]},"properties":{"id":"danang_osm_38","kind":"aquaculture","kind_ru":"аквакультура / ферма","name":null,"osm_id":"way/765242867","source":"© OpenStreetMap contributors (ODbL)"}},{"type":"Feature","geometry":{"type":"Polygon","coordinates":[[[108.36405,15.89039],[108.36465,15.88988],[108.36398,15.8903],[108.36405,15.89039]]]},"properties":{"id":"danang_osm_39","kind":"aquaculture","kind_ru":"аквакультура / ферма","name":null,"osm_id":"way/765242869","source":"© OpenStreetMap contributors (ODbL)"}},{"type":"Feature","geometry":{"type":"Polygon","coordinates":[[[108.36452,15.89075],[108.36502,15.89044],[108.36476,15.89004],[108.3641,15.89044],[108.36452,15.89075]]]},"properties":{"id":"danang_osm_40","kind":"aquaculture","kind_ru":"аквакультура / ферма","name":null,"osm_id":"way/765242870","source":"© OpenStreetMap contributors (ODbL)"}},{"type":"Feature","geometry":{"type":"Polygon","coordinates":[[[108.36671,15.88965],[108.36618,15.88997],[108.3665,15.89048],[108.36704,15.89018],[108.36671,15.88965]]]},"properties":{"id":"danang_osm_41","kind":"aquaculture","kind_ru":"аквакультура / ферма","name":null,"osm_id":"way/765529883","source":"© OpenStreetMap contributors (ODbL)"}},{"type":"Feature","geometry":{"type":"Polygon","coordinates":[[[108.36662,15.89061],[108.36704,15.8902],[108.36652,15.89051],[108.36662,15.89061]]]},"properties":{"id":"danang_osm_42","kind":"aquaculture","kind_ru":"аквакультура / ферма","name":null,"osm_id":"way/765529884","source":"© OpenStreetMap contributors (ODbL)"}},{"type":"Feature","geometry":{"type":"Polygon","coordinates":[[[108.36795,15.892],[108.36804,15.8918],[108.36789,15.8919],[108.36795,15.892]]]},"properties":{"id":"danang_osm_43","kind":"aquaculture","kind_ru":"аквакультура / ферма","name":null,"osm_id":"way/765529885","source":"© OpenStreetMap contributors (ODbL)"}},{"type":"Feature","geometry":{"type":"Polygon","coordinates":[[[108.36774,15.89185],[108.36802,15.89177],[108.36771,15.89128],[108.36748,15.89142],[108.36774,15.89185]]]},"properties":{"id":"danang_osm_44","kind":"aquaculture","kind_ru":"аквакультура / ферма","name":null,"osm_id":"way/765529886","source":"© OpenStreetMap contributors (ODbL)"}},{"type":"Feature","geometry":{"type":"Polygon","coordinates":[[[108.36701,15.89073],[108.3672,15.89044],[108.36692,15.8906],[108.36701,15.89073]]]},"properties":{"id":"danang_osm_45","kind":"aquaculture","kind_ru":"аквакультура / ферма","name":null,"osm_id":"way/765529887","source":"© OpenStreetMap contributors (ODbL)"}},{"type":"Feature","geometry":{"type":"Polygon","coordinates":[[[108.36644,15.89106],[108.36688,15.89061],[108.36636,15.89092],[108.36644,15.89106]]]},"properties":{"id":"danang_osm_46","kind":"aquaculture","kind_ru":"аквакультура / ферма","name":null,"osm_id":"way/765529888","source":"© OpenStreetMap contributors (ODbL)"}},{"type":"Feature","geometry":{"type":"Polygon","coordinates":[[[108.36586,15.8914],[108.3663,15.89093],[108.36578,15.89126],[108.36586,15.8914]]]},"properties":{"id":"danang_osm_47","kind":"aquaculture","kind_ru":"аквакультура / ферма","name":null,"osm_id":"way/765529889","source":"© OpenStreetMap contributors (ODbL)"}},{"type":"Feature","geometry":{"type":"Polygon","coordinates":[[[108.36765,15.89116],[108.36729,15.89059],[108.36703,15.89076],[108.36736,15.89131],[108.36765,15.89116]]]},"properties":{"id":"danang_osm_48","kind":"aquaculture","kind_ru":"аквакультура / ферма","name":null,"osm_id":"way/765529890","source":"© OpenStreetMap contributors (ODbL)"}},{"type":"Feature","geometry":{"type":"Polygon","coordinates":[[[108.36735,15.89135],[108.36697,15.89077],[108.36645,15.8911],[108.36681,15.89167],[108.36735,15.89135]]]},"properties":{"id":"danang_osm_49","kind":"aquaculture","kind_ru":"аквакультура / ферма","name":null,"osm_id":"way/765529891","source":"© OpenStreetMap contributors (ODbL)"}},{"type":"Feature","geometry":{"type":"Polygon","coordinates":[[[108.36677,15.89172],[108.36641,15.89111],[108.36587,15.89142],[108.36624,15.892],[108.36677,15.89172]]]},"properties":{"id":"danang_osm_50","kind":"aquaculture","kind_ru":"аквакультура / ферма","name":null,"osm_id":"way/765529892","source":"© OpenStreetMap contributors (ODbL)"}},{"type":"Feature","geometry":{"type":"Polygon","coordinates":[[[108.36562,15.89226],[108.3662,15.89202],[108.36574,15.89125],[108.36521,15.89157],[108.36565,15.89154],[108.3653,15.89173],[108.36562,15.89226]]]},"properties":{"id":"danang_osm_51","kind":"aquaculture","kind_ru":"аквакультура / ферма","name":null,"osm_id":"way/765529893","source":"© OpenStreetMap contributors (ODbL)"}},{"type":"Feature","geometry":{"type":"Polygon","coordinates":[[[108.36773,15.89197],[108.36744,15.89142],[108.36695,15.89175],[108.36725,15.89225],[108.36773,15.89197]]]},"properties":{"id":"danang_osm_52","kind":"aquaculture","kind_ru":"аквакультура / ферма","name":null,"osm_id":"way/765529894","source":"© OpenStreetMap contributors (ODbL)"}},{"type":"Feature","geometry":{"type":"Polygon","coordinates":[[[108.36734,15.89236],[108.36777,15.89197],[108.36728,15.89227],[108.36734,15.89236]]]},"properties":{"id":"danang_osm_53","kind":"aquaculture","kind_ru":"аквакультура / ферма","name":null,"osm_id":"way/765529895","source":"© OpenStreetMap contributors (ODbL)"}},{"type":"Feature","geometry":{"type":"Polygon","coordinates":[[[108.36671,15.89255],[108.36722,15.89225],[108.36691,15.89175],[108.3664,15.89205],[108.36671,15.89255]]]},"properties":{"id":"danang_osm_54","kind":"aquaculture","kind_ru":"аквакультура / ферма","name":null,"osm_id":"way/765529896","source":"© OpenStreetMap contributors (ODbL)"}},{"type":"Feature","geometry":{"type":"Polygon","coordinates":[[[108.36684,15.89267],[108.36726,15.89231],[108.36677,15.89257],[108.36684,15.89267]]]},"properties":{"id":"danang_osm_55","kind":"aquaculture","kind_ru":"аквакультура / ферма","name":null,"osm_id":"way/765529897","source":"© OpenStreetMap contributors (ODbL)"}},{"type":"Feature","geometry":{"type":"Polygon","coordinates":[[[108.3662,15.8929],[108.3668,15.89271],[108.36676,15.89262],[108.3662,15.8929]]]},"properties":{"id":"danang_osm_56","kind":"aquaculture","kind_ru":"аквакультура / ферма","name":null,"osm_id":"way/765529898","source":"© OpenStreetMap contributors (ODbL)"}},{"type":"Feature","geometry":{"type":"Polygon","coordinates":[[[108.36617,15.89285],[108.3667,15.89256],[108.36639,15.89207],[108.36589,15.89234],[108.36617,15.89285]]]},"properties":{"id":"danang_osm_57","kind":"aquaculture","kind_ru":"аквакультура / ферма","name":null,"osm_id":"way/765529899","source":"© OpenStreetMap contributors (ODbL)"}},{"type":"Feature","geometry":{"type":"Polygon","coordinates":[[[108.36591,15.89321],[108.36616,15.89292],[108.36582,15.89313],[108.36591,15.89321]]]},"properties":{"id":"danang_osm_58","kind":"aquaculture","kind_ru":"аквакультура / ферма","name":null,"osm_id":"way/765529900","source":"© OpenStreetMap contributors (ODbL)"}},{"type":"Feature","geometry":{"type":"Polygon","coordinates":[[[108.36582,15.89326],[108.36577,15.89312],[108.36572,15.89315],[108.36582,15.89326]]]},"properties":{"id":"danang_osm_59","kind":"aquaculture","kind_ru":"аквакультура / ферма","name":null,"osm_id":"way/765529901","source":"© OpenStreetMap contributors (ODbL)"}},{"type":"Feature","geometry":{"type":"Polygon","coordinates":[[[108.36568,15.89312],[108.36616,15.89287],[108.36583,15.89235],[108.36527,15.89269],[108.36568,15.89312]]]},"properties":{"id":"danang_osm_60","kind":"aquaculture","kind_ru":"аквакультура / ферма","name":null,"osm_id":"way/765529902","source":"© OpenStreetMap contributors (ODbL)"}},{"type":"Feature","geometry":{"type":"Polygon","coordinates":[[[108.36467,15.89214],[108.36522,15.89265],[108.36561,15.89231],[108.36528,15.89177],[108.36467,15.89214]]]},"properties":{"id":"danang_osm_61","kind":"aquaculture","kind_ru":"аквакультура / ферма","name":null,"osm_id":"way/765529903","source":"© OpenStreetMap contributors (ODbL)"}},{"type":"Feature","geometry":{"type":"Polygon","coordinates":[[[108.36449,15.89196],[108.36523,15.89176],[108.36518,15.89159],[108.36449,15.89196]]]},"properties":{"id":"danang_osm_62","kind":"aquaculture","kind_ru":"аквакультура / ферма","name":null,"osm_id":"way/765529904","source":"© OpenStreetMap contributors (ODbL)"}},{"type":"Feature","geometry":{"type":"Polygon","coordinates":[[[108.36428,15.89175],[108.36483,15.89164],[108.36479,15.8915],[108.36428,15.89175]]]},"properties":{"id":"danang_osm_63","kind":"aquaculture","kind_ru":"аквакультура / ферма","name":null,"osm_id":"way/765529905","source":"© OpenStreetMap contributors (ODbL)"}},{"type":"Feature","geometry":{"type":"Polygon","coordinates":[[[108.36956,15.89235],[108.36935,15.89149],[108.36893,15.89165],[108.36933,15.89242],[108.36956,15.89235]]]},"properties":{"id":"danang_osm_64","kind":"aquaculture","kind_ru":"аквакультура / ферма","name":null,"osm_id":"way/765533950","source":"© OpenStreetMap contributors (ODbL)"}},{"type":"Feature","geometry":{"type":"Polygon","coordinates":[[[108.36955,15.89286],[108.36958,15.89239],[108.36938,15.89243],[108.36955,15.89286]]]},"properties":{"id":"danang_osm_65","kind":"aquaculture","kind_ru":"аквакультура / ферма","name":null,"osm_id":"way/765533952","source":"© OpenStreetMap contributors (ODbL)"}},{"type":"Feature","geometry":{"type":"Polygon","coordinates":[[[108.36952,15.89293],[108.36886,15.8917],[108.36866,15.89182],[108.3693,15.89307],[108.36952,15.89293]]]},"properties":{"id":"danang_osm_66","kind":"aquaculture","kind_ru":"аквакультура / ферма","name":null,"osm_id":"way/765533953","source":"© OpenStreetMap contributors (ODbL)"}},{"type":"Feature","geometry":{"type":"Polygon","coordinates":[[[108.36927,15.89313],[108.36858,15.89188],[108.36837,15.89199],[108.36904,15.89323],[108.36927,15.89313]]]},"properties":{"id":"danang_osm_67","kind":"aquaculture","kind_ru":"аквакультура / ферма","name":null,"osm_id":"way/765533955","source":"© OpenStreetMap contributors (ODbL)"}},{"type":"Feature","geometry":{"type":"Polygon","coordinates":[[[108.36899,15.8933],[108.36834,15.89203],[108.36812,15.89213],[108.36878,15.89339],[108.36899,15.8933]]]},"properties":{"id":"danang_osm_68","kind":"aquaculture","kind_ru":"аквакультура / ферма","name":null,"osm_id":"way/765533956","source":"© OpenStreetMap contributors (ODbL)"}},{"type":"Feature","geometry":{"type":"Polygon","coordinates":[[[108.36841,15.89336],[108.36875,15.89344],[108.36806,15.89217],[108.36786,15.89232],[108.36841,15.89336]]]},"properties":{"id":"danang_osm_69","kind":"aquaculture","kind_ru":"аквакультура / ферма","name":null,"osm_id":"way/765533958","source":"© OpenStreetMap contributors (ODbL)"}},{"type":"Feature","geometry":{"type":"Polygon","coordinates":[[[108.36777,15.89234],[108.36825,15.89369],[108.36848,15.89358],[108.36777,15.89234]]]},"properties":{"id":"danang_osm_70","kind":"aquaculture","kind_ru":"аквакультура / ферма","name":null,"osm_id":"way/765533959","source":"© OpenStreetMap contributors (ODbL)"}},{"type":"Feature","geometry":{"type":"Polygon","coordinates":[[[108.36733,15.89266],[108.36818,15.89376],[108.36752,15.8925],[108.36733,15.89266]]]},"properties":{"id":"danang_osm_71","kind":"aquaculture","kind_ru":"аквакультура / ферма","name":null,"osm_id":"way/765533961","source":"© OpenStreetMap contributors (ODbL)"}},{"type":"Feature","geometry":{"type":"Polygon","coordinates":[[[108.36796,15.89386],[108.36728,15.89265],[108.36707,15.89274],[108.3677,15.89399],[108.36796,15.89386]]]},"properties":{"id":"danang_osm_72","kind":"aquaculture","kind_ru":"аквакультура / ферма","name":null,"osm_id":"way/765533964","source":"© OpenStreetMap contributors (ODbL)"}},{"type":"Feature","geometry":{"type":"Polygon","coordinates":[[[108.36725,15.89422],[108.36765,15.89401],[108.36709,15.89307],[108.36672,15.89327],[108.36725,15.89422]]]},"properties":{"id":"danang_osm_73","kind":"aquaculture","kind_ru":"аквакультура / ферма","name":null,"osm_id":"way/765533965","source":"© OpenStreetMap contributors (ODbL)"}},{"type":"Feature","geometry":{"type":"Polygon","coordinates":[[[108.36708,15.89304],[108.36699,15.89278],[108.36659,15.89304],[108.36671,15.89323],[108.36708,15.89304]]]},"properties":{"id":"danang_osm_74","kind":"aquaculture","kind_ru":"аквакультура / ферма","name":null,"osm_id":"way/765533966","source":"© OpenStreetMap contributors (ODbL)"}},{"type":"Feature","geometry":{"type":"Polygon","coordinates":[[[108.36602,15.89331],[108.36689,15.89424],[108.36725,15.89431],[108.36668,15.89331],[108.36624,15.8935],[108.36659,15.89312],[108.36602,15.89331]]]},"properties":{"id":"danang_osm_75","kind":"aquaculture","kind_ru":"аквакультура / ферма","name":null,"osm_id":"way/765533967","source":"© OpenStreetMap contributors (ODbL)"}},{"type":"Feature","geometry":{"type":"Polygon","coordinates":[[[108.36416,15.89166],[108.36474,15.89145],[108.36441,15.89093],[108.36379,15.89124],[108.36416,15.89166]]]},"properties":{"id":"danang_osm_76","kind":"aquaculture","kind_ru":"аквакультура / ферма","name":null,"osm_id":"way/765242855","source":"© OpenStreetMap contributors (ODbL)"}},{"type":"Feature","geometry":{"type":"Polygon","coordinates":[[[108.3636,15.89035],[108.36423,15.89],[108.36393,15.88956],[108.36339,15.88989],[108.3636,15.89035]]]},"properties":{"id":"danang_osm_77","kind":"aquaculture","kind_ru":"аквакультура / ферма","name":null,"osm_id":"way/765242868","source":"© OpenStreetMap contributors (ODbL)"}},{"type":"Feature","geometry":{"type":"Polygon","coordinates":[[[108.36427,15.89088],[108.36391,15.89032],[108.36342,15.89063],[108.36373,15.89112],[108.36427,15.89088]]]},"properties":{"id":"danang_osm_78","kind":"aquaculture","kind_ru":"аквакультура / ферма","name":null,"osm_id":"way/765242871","source":"© OpenStreetMap contributors (ODbL)"}},{"type":"Feature","geometry":{"type":"Polygon","coordinates":[[[108.37661,15.8848],[108.37704,15.88491],[108.37691,15.88469],[108.37661,15.8848]]]},"properties":{"id":"danang_osm_79","kind":"aquaculture","kind_ru":"аквакультура / ферма","name":null,"osm_id":"way/764450968","source":"© OpenStreetMap contributors (ODbL)"}},{"type":"Feature","geometry":{"type":"Polygon","coordinates":[[[108.37563,15.88486],[108.37598,15.88483],[108.37571,15.88475],[108.37563,15.88486]]]},"properties":{"id":"danang_osm_80","kind":"aquaculture","kind_ru":"аквакультура / ферма","name":null,"osm_id":"way/764450966","source":"© OpenStreetMap contributors (ODbL)"}},{"type":"Feature","geometry":{"type":"Polygon","coordinates":[[[108.3753,15.88377],[108.37551,15.88364],[108.37535,15.88359],[108.3753,15.88377]]]},"properties":{"id":"danang_osm_81","kind":"aquaculture","kind_ru":"аквакультура / ферма","name":null,"osm_id":"way/764450969","source":"© OpenStreetMap contributors (ODbL)"}},{"type":"Feature","geometry":{"type":"Polygon","coordinates":[[[108.37487,15.88355],[108.37503,15.88377],[108.37517,15.88351],[108.37487,15.88355]]]},"properties":{"id":"danang_osm_82","kind":"aquaculture","kind_ru":"аквакультура / ферма","name":null,"osm_id":"way/764450970","source":"© OpenStreetMap contributors (ODbL)"}},{"type":"Feature","geometry":{"type":"Polygon","coordinates":[[[108.37247,15.88515],[108.37236,15.884],[108.37165,15.88406],[108.37178,15.88521],[108.37247,15.88515]]]},"properties":{"id":"danang_osm_83","kind":"wastewater_plant","kind_ru":"очистные сооружения","name":null,"osm_id":"way/764450973","source":"© OpenStreetMap contributors (ODbL)"}},{"type":"Feature","geometry":{"type":"Polygon","coordinates":[[[108.37565,15.88429],[108.37607,15.88418],[108.3757,15.88412],[108.37565,15.88429]]]},"properties":{"id":"danang_osm_84","kind":"aquaculture","kind_ru":"аквакультура / ферма","name":null,"osm_id":"way/764450974","source":"© OpenStreetMap contributors (ODbL)"}},{"type":"Feature","geometry":{"type":"Polygon","coordinates":[[[108.37559,15.88443],[108.37595,15.88439],[108.37561,15.88437],[108.37559,15.88443]]]},"properties":{"id":"danang_osm_85","kind":"aquaculture","kind_ru":"аквакультура / ферма","name":null,"osm_id":"way/764450975","source":"© OpenStreetMap contributors (ODbL)"}},{"type":"Feature","geometry":{"type":"Polygon","coordinates":[[[108.37493,15.88435],[108.37536,15.88421],[108.3751,15.88408],[108.37493,15.88435]]]},"properties":{"id":"danang_osm_86","kind":"aquaculture","kind_ru":"аквакультура / ферма","name":null,"osm_id":"way/764450976","source":"© OpenStreetMap contributors (ODbL)"}},{"type":"Feature","geometry":{"type":"Polygon","coordinates":[[[108.37393,15.88372],[108.37415,15.88319],[108.37395,15.88315],[108.37372,15.88355],[108.37393,15.88372]]]},"properties":{"id":"danang_osm_87","kind":"aquaculture","kind_ru":"аквакультура / ферма","name":null,"osm_id":"way/764450977","source":"© OpenStreetMap contributors (ODbL)"}},{"type":"Feature","geometry":{"type":"Polygon","coordinates":[[[108.37256,15.88358],[108.37268,15.88383],[108.3728,15.88349],[108.37256,15.88358]]]},"properties":{"id":"danang_osm_88","kind":"aquaculture","kind_ru":"аквакультура / ферма","name":null,"osm_id":"way/764450978","source":"© OpenStreetMap contributors (ODbL)"}},{"type":"Feature","geometry":{"type":"Polygon","coordinates":[[[108.37244,15.88363],[108.37266,15.88385],[108.37253,15.88359],[108.37244,15.88363]]]},"properties":{"id":"danang_osm_89","kind":"aquaculture","kind_ru":"аквакультура / ферма","name":null,"osm_id":"way/764450979","source":"© OpenStreetMap contributors (ODbL)"}},{"type":"Feature","geometry":{"type":"Polygon","coordinates":[[[108.37325,15.88408],[108.3739,15.88393],[108.3739,15.88379],[108.3733,15.88354],[108.37302,15.88377],[108.37325,15.88408]]]},"properties":{"id":"danang_osm_90","kind":"aquaculture","kind_ru":"аквакультура / ферма","name":null,"osm_id":"way/764450980","source":"© OpenStreetMap contributors (ODbL)"}},{"type":"Feature","geometry":{"type":"Polygon","coordinates":[[[108.37318,15.88419],[108.37306,15.88347],[108.37245,15.88426],[108.37255,15.88439],[108.37318,15.88419]]]},"properties":{"id":"danang_osm_91","kind":"aquaculture","kind_ru":"аквакультура / ферма","name":null,"osm_id":"way/764450981","source":"© OpenStreetMap contributors (ODbL)"}},{"type":"Feature","geometry":{"type":"Polygon","coordinates":[[[108.37307,15.88503],[108.37364,15.8849],[108.37326,15.88424],[108.3728,15.8844],[108.37307,15.88503]]]},"properties":{"id":"danang_osm_92","kind":"aquaculture","kind_ru":"аквакультура / ферма","name":null,"osm_id":"way/764450982","source":"© OpenStreetMap contributors (ODbL)"}},{"type":"Feature","geometry":{"type":"Polygon","coordinates":[[[108.3727,15.88481],[108.37277,15.88438],[108.3726,15.88444],[108.3727,15.88481]]]},"properties":{"id":"danang_osm_93","kind":"aquaculture","kind_ru":"аквакультура / ферма","name":null,"osm_id":"way/764450983","source":"© OpenStreetMap contributors (ODbL)"}},{"type":"Feature","geometry":{"type":"Polygon","coordinates":[[[108.37281,15.88506],[108.37292,15.88473],[108.37271,15.88482],[108.37281,15.88506]]]},"properties":{"id":"danang_osm_94","kind":"aquaculture","kind_ru":"аквакультура / ферма","name":null,"osm_id":"way/764450984","source":"© OpenStreetMap contributors (ODbL)"}},{"type":"Feature","geometry":{"type":"Polygon","coordinates":[[[108.37448,15.88454],[108.37473,15.88434],[108.374,15.88406],[108.37399,15.88408],[108.37448,15.88454]]]},"properties":{"id":"danang_osm_95","kind":"aquaculture","kind_ru":"аквакультура / ферма","name":null,"osm_id":"way/764450985","source":"© OpenStreetMap contributors (ODbL)"}},{"type":"Feature","geometry":{"type":"Polygon","coordinates":[[[108.37411,15.88483],[108.37369,15.88413],[108.37336,15.88422],[108.37367,15.88487],[108.37411,15.88483]]]},"properties":{"id":"danang_osm_96","kind":"aquaculture","kind_ru":"аквакультура / ферма","name":null,"osm_id":"way/764450986","source":"© OpenStreetMap contributors (ODbL)"}},{"type":"Feature","geometry":{"type":"Polygon","coordinates":[[[108.37411,15.88479],[108.3745,15.88459],[108.37375,15.88412],[108.37411,15.88479]]]},"properties":{"id":"danang_osm_97","kind":"aquaculture","kind_ru":"аквакультура / ферма","name":null,"osm_id":"way/764450987","source":"© OpenStreetMap contributors (ODbL)"}},{"type":"Feature","geometry":{"type":"Polygon","coordinates":[[[108.37127,15.88279],[108.37163,15.8831],[108.37168,15.8829],[108.37127,15.88279]]]},"properties":{"id":"danang_osm_98","kind":"aquaculture","kind_ru":"аквакультура / ферма","name":null,"osm_id":"way/764630185","source":"© OpenStreetMap contributors (ODbL)"}},{"type":"Feature","geometry":{"type":"Polygon","coordinates":[[[108.37108,15.88334],[108.37151,15.88356],[108.37188,15.88331],[108.37111,15.88303],[108.37108,15.88334]]]},"properties":{"id":"danang_osm_99","kind":"aquaculture","kind_ru":"аквакультура / ферма","name":null,"osm_id":"way/764630186","source":"© OpenStreetMap contributors (ODbL)"}},{"type":"Feature","geometry":{"type":"Polygon","coordinates":[[[108.37057,15.88394],[108.37077,15.88394],[108.37121,15.88349],[108.37091,15.88343],[108.37057,15.88394]]]},"properties":{"id":"danang_osm_100","kind":"aquaculture","kind_ru":"аквакультура / ферма","name":null,"osm_id":"way/764630188","source":"© OpenStreetMap contributors (ODbL)"}},{"type":"Feature","geometry":{"type":"Polygon","coordinates":[[[108.37041,15.8847],[108.37072,15.88466],[108.37042,15.8845],[108.37041,15.8847]]]},"properties":{"id":"danang_osm_101","kind":"aquaculture","kind_ru":"аквакультура / ферма","name":null,"osm_id":"way/764630189","source":"© OpenStreetMap contributors (ODbL)"}},{"type":"Feature","geometry":{"type":"Polygon","coordinates":[[[108.37763,15.88479],[108.37775,15.88431],[108.37717,15.88429],[108.37716,15.88481],[108.37763,15.88479]]]},"properties":{"id":"danang_osm_102","kind":"aquaculture","kind_ru":"аквакультура / ферма","name":null,"osm_id":"way/764450967","source":"© OpenStreetMap contributors (ODbL)"}},{"type":"Feature","geometry":{"type":"Polygon","coordinates":[[[108.38509,15.88576],[108.38716,15.88429],[108.38716,15.88414],[108.38509,15.88576]]]},"properties":{"id":"danang_osm_103","kind":"beach","kind_ru":"пляж","name":null,"osm_id":"way/1340661760","source":"© OpenStreetMap contributors (ODbL)"}},{"type":"Feature","geometry":{"type":"Polygon","coordinates":[[[108.38027,15.89028],[108.37837,15.89118],[108.37844,15.89138],[108.38027,15.89028]]]},"properties":{"id":"danang_osm_104","kind":"beach","kind_ru":"пляж","name":null,"osm_id":"way/514065119","source":"© OpenStreetMap contributors (ODbL)"}},{"type":"Feature","geometry":{"type":"Polygon","coordinates":[[[108.33185,15.90705],[108.33247,15.90718],[108.33189,15.90683],[108.33185,15.90705]]]},"properties":{"id":"danang_osm_105","kind":"aquaculture","kind_ru":"аквакультура / ферма","name":null,"osm_id":"way/359267589","source":"© OpenStreetMap contributors (ODbL)"}},{"type":"Feature","geometry":{"type":"Polygon","coordinates":[[[108.33366,15.90632],[108.33387,15.90579],[108.33337,15.90595],[108.33366,15.90632]]]},"properties":{"id":"danang_osm_106","kind":"aquaculture","kind_ru":"аквакультура / ферма","name":null,"osm_id":"way/359267590","source":"© OpenStreetMap contributors (ODbL)"}},{"type":"Feature","geometry":{"type":"Polygon","coordinates":[[[108.33228,15.90738],[108.33192,15.90712],[108.33155,15.90739],[108.332,15.90773],[108.33228,15.90738]]]},"properties":{"id":"danang_osm_107","kind":"aquaculture","kind_ru":"аквакультура / ферма","name":null,"osm_id":"way/359267591","source":"© OpenStreetMap contributors (ODbL)"}},{"type":"Feature","geometry":{"type":"Polygon","coordinates":[[[108.3319,15.90674],[108.3325,15.90716],[108.33259,15.90709],[108.3321,15.90649],[108.3319,15.90674]]]},"properties":{"id":"danang_osm_108","kind":"aquaculture","kind_ru":"аквакультура / ферма","name":null,"osm_id":"way/359267592","source":"© OpenStreetMap contributors (ODbL)"}},{"type":"Feature","geometry":{"type":"Polygon","coordinates":[[[108.33264,15.907],[108.33237,15.90627],[108.33212,15.90647],[108.33264,15.907]]]},"properties":{"id":"danang_osm_109","kind":"aquaculture","kind_ru":"аквакультура / ферма","name":null,"osm_id":"way/359267593","source":"© OpenStreetMap contributors (ODbL)"}},{"type":"Feature","geometry":{"type":"Polygon","coordinates":[[[108.33283,15.90674],[108.33326,15.90668],[108.33271,15.90611],[108.33248,15.90639],[108.33283,15.90674]]]},"properties":{"id":"danang_osm_110","kind":"aquaculture","kind_ru":"аквакультура / ферма","name":null,"osm_id":"way/359267594","source":"© OpenStreetMap contributors (ODbL)"}},{"type":"Feature","geometry":{"type":"Polygon","coordinates":[[[108.33362,15.90635],[108.33333,15.90596],[108.33287,15.90609],[108.33328,15.90665],[108.33362,15.90635]]]},"properties":{"id":"danang_osm_111","kind":"aquaculture","kind_ru":"аквакультура / ферма","name":null,"osm_id":"way/359267595","source":"© OpenStreetMap contributors (ODbL)"}},{"type":"Feature","geometry":{"type":"Polygon","coordinates":[[[108.43208,15.776],[108.43246,15.77608],[108.43409,15.77352],[108.43308,15.77381],[108.43301,15.77459],[108.43208,15.776]]]},"properties":{"id":"danang_osm_112","kind":"beach","kind_ru":"пляж","name":"Bai Bien Ha Binh","osm_id":"way/1469438377","source":"© OpenStreetMap contributors (ODbL)"}},{"type":"Feature","geometry":{"type":"Polygon","coordinates":[[[108.43172,15.77671],[108.42955,15.78067],[108.42993,15.78102],[108.43215,15.777],[108.43234,15.77609],[108.43166,15.77625],[108.43172,15.77671]]]},"properties":{"id":"danang_osm_113","kind":"beach","kind_ru":"пляж","name":"Bãi biển Bình Minh","osm_id":"way/1469438352","source":"© OpenStreetMap contributors (ODbL)"}},{"type":"Feature","geometry":{"type":"Polygon","coordinates":[[[108.42956,15.78083],[108.42818,15.78301],[108.42824,15.78319],[108.42849,15.7833],[108.42993,15.78102],[108.42956,15.78083]]]},"properties":{"id":"danang_osm_114","kind":"beach","kind_ru":"пляж","name":"Bai Bien Tan An","osm_id":"way/1469438378","source":"© OpenStreetMap contributors (ODbL)"}},{"type":"Feature","geometry":{"type":"Polygon","coordinates":[[[108.51879,15.93897],[108.51987,15.93903],[108.52166,15.93586],[108.52203,15.93601],[108.5218,15.93532],[108.52135,15.93562],[108.52128,15.93637],[108.52036,15.93719],[108.51983,15.9382],[108.51879,15.93897]]]},"properties":{"id":"danang_osm_115","kind":"beach","kind_ru":"пляж","name":"Bãi Bìm","osm_id":"way/279353637","source":"© OpenStreetMap contributors (ODbL)"}},{"type":"Feature","geometry":{"type":"Polygon","coordinates":[[[108.52548,15.93246],[108.52702,15.93305],[108.52692,15.93273],[108.52814,15.93181],[108.52725,15.93235],[108.52548,15.93246]]]},"properties":{"id":"danang_osm_116","kind":"beach","kind_ru":"пляж","name":null,"osm_id":"way/759426531","source":"© OpenStreetMap contributors (ODbL)"}},{"type":"Feature","geometry":{"type":"Polygon","coordinates":[[[108.51843,15.93898],[108.51741,15.93902],[108.51677,15.93894],[108.51739,15.93916],[108.51843,15.93898]]]},"properties":{"id":"danang_osm_117","kind":"beach","kind_ru":"пляж","name":null,"osm_id":"way/759438219","source":"© OpenStreetMap contributors (ODbL)"}},{"type":"Feature","geometry":{"type":"Polygon","coordinates":[[[108.50859,15.94534],[108.50908,15.94621],[108.50918,15.94618],[108.50906,15.94544],[108.50859,15.94534]]]},"properties":{"id":"danang_osm_118","kind":"beach","kind_ru":"пляж","name":null,"osm_id":"way/759645915","source":"© OpenStreetMap contributors (ODbL)"}},{"type":"Feature","geometry":{"type":"Polygon","coordinates":[[[108.51287,15.9417],[108.51174,15.94326],[108.51016,15.94366],[108.51136,15.9436],[108.51273,15.94288],[108.51308,15.9422],[108.51287,15.9417]]]},"properties":{"id":"danang_osm_119","kind":"beach","kind_ru":"пляж","name":null,"osm_id":"way/759645921","source":"© OpenStreetMap contributors (ODbL)"}},{"type":"Feature","geometry":{"type":"Polygon","coordinates":[[[108.50741,15.95442],[108.5073,15.95645],[108.50651,15.95774],[108.50788,15.95573],[108.50776,15.95446],[108.50741,15.95442]]]},"properties":{"id":"danang_osm_120","kind":"beach","kind_ru":"пляж","name":null,"osm_id":"way/757690079","source":"© OpenStreetMap contributors (ODbL)"}},{"type":"Feature","geometry":{"type":"Polygon","coordinates":[[[108.50873,15.94966],[108.50864,15.95091],[108.50823,15.95248],[108.50885,15.95081],[108.50899,15.94982],[108.50873,15.94966]]]},"properties":{"id":"danang_osm_121","kind":"beach","kind_ru":"пляж","name":null,"osm_id":"way/759645913","source":"© OpenStreetMap contributors (ODbL)"}},{"type":"Feature","geometry":{"type":"Polygon","coordinates":[[[108.53413,15.92444],[108.53409,15.92419],[108.53378,15.92462],[108.53413,15.92444]]]},"properties":{"id":"danang_osm_122","kind":"beach","kind_ru":"пляж","name":null,"osm_id":"way/759189455","source":"© OpenStreetMap contributors (ODbL)"}},{"type":"Feature","geometry":{"type":"Polygon","coordinates":[[[108.5308,15.92758],[108.53059,15.92834],[108.53065,15.92841],[108.53092,15.9279],[108.5308,15.92758]]]},"properties":{"id":"danang_osm_123","kind":"beach","kind_ru":"пляж","name":null,"osm_id":"way/759189450","source":"© OpenStreetMap contributors (ODbL)"}},{"type":"Feature","geometry":{"type":"Polygon","coordinates":[[[108.53343,15.92513],[108.53332,15.9252],[108.53355,15.92503],[108.53343,15.92513]]]},"properties":{"id":"danang_osm_124","kind":"beach","kind_ru":"пляж","name":null,"osm_id":"way/759189452","source":"© OpenStreetMap contributors (ODbL)"}},{"type":"Feature","geometry":{"type":"Polygon","coordinates":[[[108.53379,15.92496],[108.53351,15.92474],[108.53355,15.92503],[108.53379,15.92496]]]},"properties":{"id":"danang_osm_125","kind":"beach","kind_ru":"пляж","name":null,"osm_id":"way/759189453","source":"© OpenStreetMap contributors (ODbL)"}},{"type":"Feature","geometry":{"type":"Polygon","coordinates":[[[108.52882,15.93143],[108.52921,15.93113],[108.52919,15.93101],[108.5289,15.93115],[108.52882,15.93143]]]},"properties":{"id":"danang_osm_126","kind":"beach","kind_ru":"пляж","name":null,"osm_id":"way/759436802","source":"© OpenStreetMap contributors (ODbL)"}},{"type":"Feature","geometry":{"type":"Polygon","coordinates":[[[108.28797,15.97019],[108.28957,15.9674],[108.28879,15.96706],[108.28797,15.96885],[108.28797,15.97019]]]},"properties":{"id":"danang_osm_127","kind":"beach","kind_ru":"пляж","name":"Vanessa Beach","osm_id":"way/1205391950","source":"© OpenStreetMap contributors (ODbL)"}},{"type":"Feature","geometry":{"type":"Polygon","coordinates":[[[108.49143,15.95953],[108.49106,15.9598],[108.49093,15.95997],[108.49138,15.95979],[108.49143,15.95953]]]},"properties":{"id":"danang_osm_128","kind":"beach","kind_ru":"пляж","name":null,"osm_id":"way/756063362","source":"© OpenStreetMap contributors (ODbL)"}},{"type":"Feature","geometry":{"type":"Polygon","coordinates":[[[108.49199,15.95792],[108.49185,15.9585],[108.49152,15.95899],[108.49191,15.95882],[108.49199,15.95792]]]},"properties":{"id":"danang_osm_129","kind":"beach","kind_ru":"пляж","name":null,"osm_id":"way/756063363","source":"© OpenStreetMap contributors (ODbL)"}},{"type":"Feature","geometry":{"type":"Polygon","coordinates":[[[108.49251,15.95721],[108.49226,15.95688],[108.49215,15.95759],[108.49251,15.95721]]]},"properties":{"id":"danang_osm_130","kind":"beach","kind_ru":"пляж","name":null,"osm_id":"way/756063364","source":"© OpenStreetMap contributors (ODbL)"}},{"type":"Feature","geometry":{"type":"Polygon","coordinates":[[[108.49674,15.95926],[108.49719,15.96037],[108.49915,15.96063],[108.50057,15.96069],[108.50055,15.96025],[108.50122,15.9596],[108.50233,15.9592],[108.50302,15.95982],[108.50256,15.95897],[108.50114,15.9595],[108.50002,15.96043],[108.49761,15.95997],[108.49674,15.95926]]]},"properties":{"id":"danang_osm_131","kind":"beach","kind_ru":"пляж","name":"Bãi Ông","osm_id":"way/755508145","source":"© OpenStreetMap contributors (ODbL)"}},{"type":"Feature","geometry":{"type":"Polygon","coordinates":[[[108.49071,15.96032],[108.49041,15.9608],[108.48972,15.96265],[108.49005,15.96237],[108.49071,15.96032]]]},"properties":{"id":"danang_osm_132","kind":"beach","kind_ru":"пляж","name":null,"osm_id":"way/756063361","source":"© OpenStreetMap contributors (ODbL)"}},{"type":"Feature","geometry":{"type":"MultiPolygon","coordinates":[[[[108.37752,15.89104],[108.37817,15.891],[108.37787,15.8907],[108.37617,15.89184],[108.37633,15.89211],[108.37752,15.89104]]],[[[108.37135,15.89507],[108.37319,15.89391],[108.373,15.89358],[108.37111,15.89455],[108.37135,15.89507]]],[[[108.36849,15.89596],[108.36849,15.89649],[108.36742,15.89725],[108.36349,15.89925],[108.36317,15.89969],[108.36224,15.89992],[108.36072,15.90113],[108.35505,15.90416],[108.35348,15.90539],[108.3518,15.90593],[108.34911,15.90825],[108.3363,15.91655],[108.33655,15.91689],[108.3476,15.90939],[108.34943,15.90852],[108.35158,15.90623],[108.35235,15.90587],[108.35278,15.90611],[108.36319,15.89972],[108.36487,15.89891],[108.3657,15.89897],[108.36891,15.8967],[108.36849,15.89596]]]]},"properties":{"id":"danang_osm_133","kind":"beach","kind_ru":"пляж","name":null,"osm_id":"relation/7456917","source":"© OpenStreetMap contributors (ODbL)"}},{"type":"Feature","geometry":{"type":"Polygon","coordinates":[[[108.33269,15.87879],[108.33294,15.878],[108.33435,15.87827],[108.3343,15.87771],[108.33305,15.87748],[108.33319,15.877],[108.33438,15.87732],[108.33459,15.87642],[108.33128,15.87589],[108.32719,15.87621],[108.32608,15.87672],[108.32452,15.87691],[108.32456,15.8772],[108.32316,15.87808],[108.32333,15.87871],[108.32835,15.87875],[108.32829,15.87979],[108.32896,15.87979],[108.32899,15.87876],[108.33269,15.87879]]]},"properties":{"id":"danang_osm_134","kind":"protected_area","kind_ru":"охраняемая зона","name":"Hoi An Old Town","osm_id":"relation/7062070","source":"© OpenStreetMap contributors (ODbL)"}},{"type":"Feature","geometry":{"type":"Polygon","coordinates":[[[108.48963,15.96281],[108.48869,15.96321],[108.48797,15.96317],[108.48851,15.96392],[108.489,15.96408],[108.48939,15.96381],[108.48946,15.96345],[108.48923,15.96328],[108.48963,15.96281]],[[108.48901,15.96353],[108.48889,15.96342],[108.48918,15.96354],[108.48901,15.96353]],[[108.48929,15.96358],[108.48928,15.96346],[108.48935,15.96346],[108.48929,15.96358]]]},"properties":{"id":"danang_osm_135","kind":"beach","kind_ru":"пляж","name":null,"osm_id":"relation/10458617","source":"© OpenStreetMap contributors (ODbL)"}},{"type":"Feature","geometry":{"type":"Point","coordinates":[108.39417,15.87288]},"properties":{"id":"danang_osm_136","kind":"river_mouth","kind_ru":"устье реки / канала","name":"Sông Thu Bồn","osm_id":"way/479692195","source":"© OpenStreetMap contributors (ODbL)","waterway":"river","coast_dist_m":0}},{"type":"Feature","geometry":{"type":"Point","coordinates":[108.30905,15.92816]},"properties":{"id":"danang_osm_137","kind":"river_mouth","kind_ru":"устье реки / канала","name":null,"osm_id":"way/1416021479","source":"© OpenStreetMap contributors (ODbL)","waterway":"river","coast_dist_m":961}},{"type":"Feature","geometry":{"type":"Point","coordinates":[108.3495,15.89843]},"properties":{"id":"danang_osm_138","kind":"river_mouth","kind_ru":"устье реки / канала","name":null,"osm_id":"way/1466726317","source":"© OpenStreetMap contributors (ODbL)","waterway":"canal","coast_dist_m":878}},{"type":"Feature","geometry":{"type":"Point","coordinates":[108.35045,15.89203]},"properties":{"id":"danang_osm_139","kind":"river_mouth","kind_ru":"устье реки / канала","name":null,"osm_id":"way/1466726317","source":"© OpenStreetMap contributors (ODbL)","waterway":"canal","coast_dist_m":1451}},{"type":"Feature","geometry":{"type":"Point","coordinates":[108.37728,15.87631]},"properties":{"id":"danang_osm_140","kind":"river_mouth","kind_ru":"устье реки / канала","name":null,"osm_id":"way/1373675865","source":"© OpenStreetMap contributors (ODbL)","waterway":"river","coast_dist_m":1329}},{"type":"Feature","geometry":{"type":"Point","coordinates":[108.51287,15.94269]},"properties":{"id":"danang_osm_141","kind":"river_mouth","kind_ru":"устье реки / канала","name":null,"osm_id":"way/1528058575","source":"© OpenStreetMap contributors (ODbL)","waterway":"canal","coast_dist_m":46}}]}