{"type":"FeatureCollection","region":"durban","bbox":[30.85474,-30.03544,31.49538,-29.53039],"source":"© OpenStreetMap contributors (ODbL)","fetched":"2026-09-25T10:06:19Z","note":"объекты OpenStreetMap (bbox района ± 10 км); устья — концевые узлы рек/каналов ≤ 1,5 км от береговой линии OSM","features":[{"type":"Feature","geometry":{"type":"Point","coordinates":[30.88333,-29.87194]},"properties":{"id":"durban_osm_0","kind":"protected_area","kind_ru":"охраняемая зона","name":"North Park Nature Reserve","osm_id":"node/345457816","source":"© OpenStreetMap contributors (ODbL)"}},{"type":"Feature","geometry":{"type":"Point","coordinates":[30.99361,-29.93389]},"properties":{"id":"durban_osm_1","kind":"protected_area","kind_ru":"охраняемая зона","name":"Bluff Nature Reserve","osm_id":"node/345456047","source":"© OpenStreetMap contributors (ODbL)"}},{"type":"Feature","geometry":{"type":"Point","coordinates":[30.89444,-29.83472]},"properties":{"id":"durban_osm_2","kind":"protected_area","kind_ru":"охраняемая зона","name":"Paradise Valley Nature Reserve","osm_id":"node/345457831","source":"© OpenStreetMap contributors (ODbL)"}},{"type":"Feature","geometry":{"type":"Point","coordinates":[30.88866,-29.80878]},"properties":{"id":"durban_osm_3","kind":"protected_area","kind_ru":"охраняемая зона","name":"New Germany Nature Reserve","osm_id":"node/5265362682","source":"© OpenStreetMap contributors (ODbL)"}},{"type":"Feature","geometry":{"type":"Point","coordinates":[31.02318,-29.8635]},"properties":{"id":"durban_osm_4","kind":"marina","kind_ru":"марина","name":null,"osm_id":"node/7015971467","source":"© OpenStreetMap contributors (ODbL)"}},{"type":"Feature","geometry":{"type":"Point","coordinates":[31.0425,-29.79972]},"properties":{"id":"durban_osm_5","kind":"protected_area","kind_ru":"охраняемая зона","name":"Beachwood Mangroves Nature Reserve","osm_id":"node/345456032","source":"© OpenStreetMap contributors (ODbL)"}},{"type":"Feature","geometry":{"type":"Point","coordinates":[31.05285,-29.78285]},"properties":{"id":"durban_osm_6","kind":"beach","kind_ru":"пляж","name":null,"osm_id":"node/5451647244","source":"© OpenStreetMap contributors (ODbL)"}},{"type":"Feature","geometry":{"type":"Point","coordinates":[31.05631,-29.77626]},"properties":{"id":"durban_osm_7","kind":"beach","kind_ru":"пляж","name":null,"osm_id":"node/5453701489","source":"© OpenStreetMap contributors (ODbL)"}},{"type":"Feature","geometry":{"type":"Point","coordinates":[31.06498,-29.76251]},"properties":{"id":"durban_osm_8","kind":"outfall","kind_ru":"выпуск / трубопровод стоков","name":null,"osm_id":"node/9875964162","source":"© OpenStreetMap contributors (ODbL)"}},{"type":"Feature","geometry":{"type":"Point","coordinates":[31.09219,-29.71293]},"properties":{"id":"durban_osm_9","kind":"protected_area","kind_ru":"охраняемая зона","name":"Umhlanga Lagoon Nature Reserve","osm_id":"node/345458720","source":"© OpenStreetMap contributors (ODbL)"}},{"type":"Feature","geometry":{"type":"Point","coordinates":[31.10971,-29.60169]},"properties":{"id":"durban_osm_10","kind":"outfall","kind_ru":"выпуск / трубопровод стоков","name":null,"osm_id":"node/9900170744","source":"© OpenStreetMap contributors (ODbL)"}},{"type":"Feature","geometry":{"type":"Point","coordinates":[31.1105,-29.60129]},"properties":{"id":"durban_osm_11","kind":"outfall","kind_ru":"выпуск / трубопровод стоков","name":null,"osm_id":"node/9900170789","source":"© OpenStreetMap contributors (ODbL)"}},{"type":"Feature","geometry":{"type":"Point","coordinates":[31.12567,-29.59516]},"properties":{"id":"durban_osm_12","kind":"outfall","kind_ru":"выпуск / трубопровод стоков","name":null,"osm_id":"node/9900199078","source":"© OpenStreetMap contributors (ODbL)"}},{"type":"Feature","geometry":{"type":"Polygon","coordinates":[[[30.91131,-30.03052],[30.90648,-30.03484],[30.90541,-30.03544],[30.90471,-30.03544],[30.90717,-30.03366],[30.91098,-30.03025],[30.91131,-30.03052]]]},"properties":{"id":"durban_osm_13","kind":"beach","kind_ru":"пляж","name":null,"osm_id":"way/44372375","source":"© OpenStreetMap contributors (ODbL)"}},{"type":"Feature","geometry":{"type":"Polygon","coordinates":[[[30.91098,-30.03025],[30.92392,-30.01895],[30.93279,-30.01206],[30.93306,-30.01131],[30.93465,-30.01018],[30.93572,-30.00892],[30.93616,-30.00939],[30.93621,-30.01001],[30.92673,-30.01746],[30.91338,-30.02896],[30.91131,-30.03052],[30.91098,-30.03025]]]},"properties":{"id":"durban_osm_14","kind":"beach","kind_ru":"пляж","name":null,"osm_id":"way/1089439443","source":"© OpenStreetMap contributors (ODbL)"}},{"type":"Feature","geometry":{"type":"LineString","coordinates":[[30.87069,-30.01037],[30.87142,-30.01017]]},"properties":{"id":"durban_osm_15","kind":"outfall","kind_ru":"выпуск / трубопровод стоков","name":null,"osm_id":"way/1061213878","source":"© OpenStreetMap contributors (ODbL)"}},{"type":"Feature","geometry":{"type":"LineString","coordinates":[[30.87061,-30.01042],[30.87069,-30.01037]]},"properties":{"id":"durban_osm_16","kind":"outfall","kind_ru":"выпуск / трубопровод стоков","name":null,"osm_id":"way/1061213879","source":"© OpenStreetMap contributors (ODbL)"}},{"type":"Feature","geometry":{"type":"Polygon","coordinates":[[[30.90499,-30.00763],[30.90633,-30.00834],[30.90575,-30.0088],[30.90468,-30.00837],[30.90499,-30.00763]]]},"properties":{"id":"durban_osm_17","kind":"wastewater_plant","kind_ru":"очистные сооружения","name":null,"osm_id":"way/836891857","source":"© OpenStreetMap contributors (ODbL)"}},{"type":"Feature","geometry":{"type":"Polygon","coordinates":[[[30.91833,-30.00764],[30.91526,-30.00962],[30.91496,-30.00965],[30.91428,-30.00876],[30.91421,-30.00841],[30.91721,-30.00621],[30.91833,-30.00764]]]},"properties":{"id":"durban_osm_18","kind":"wastewater_plant","kind_ru":"очистные сооружения","name":"Amanzimtoti Treatment Works","osm_id":"way/391823383","source":"© OpenStreetMap contributors (ODbL)"}},{"type":"Feature","geometry":{"type":"Polygon","coordinates":[[[30.90622,-29.9925],[30.9041,-29.98895],[30.90468,-29.9883],[30.90622,-29.98888],[30.90797,-29.99036],[30.90726,-29.99076],[30.90806,-29.99136],[30.90677,-29.99274],[30.90622,-29.9925]]]},"properties":{"id":"durban_osm_19","kind":"wastewater_plant","kind_ru":"очистные сооружения","name":null,"osm_id":"way/906938576","source":"© OpenStreetMap contributors (ODbL)"}},{"type":"Feature","geometry":{"type":"Polygon","coordinates":[[[30.94731,-29.99972],[30.94675,-30.00055],[30.9421,-30.00438],[30.94263,-30.00354],[30.94634,-30.00012],[30.94731,-29.99972]]]},"properties":{"id":"durban_osm_20","kind":"beach","kind_ru":"пляж","name":null,"osm_id":"way/1089400377","source":"© OpenStreetMap contributors (ODbL)"}},{"type":"Feature","geometry":{"type":"Polygon","coordinates":[[[30.9418,-30.0047],[30.94165,-30.0051],[30.93693,-30.00902],[30.93644,-30.00877],[30.93696,-30.00792],[30.9377,-30.00773],[30.94057,-30.00529],[30.9418,-30.0047]]]},"properties":{"id":"durban_osm_21","kind":"beach","kind_ru":"пляж","name":null,"osm_id":"way/1089439444","source":"© OpenStreetMap contributors (ODbL)"}},{"type":"Feature","geometry":{"type":"Polygon","coordinates":[[[30.94904,-29.99768],[30.94879,-29.99751],[30.94882,-29.99738],[30.94916,-29.99733],[30.94904,-29.99768]]]},"properties":{"id":"durban_osm_22","kind":"beach","kind_ru":"пляж","name":null,"osm_id":"way/1089400380","source":"© OpenStreetMap contributors (ODbL)"}},{"type":"Feature","geometry":{"type":"Polygon","coordinates":[[[30.95008,-29.9968],[30.94919,-29.99721],[30.94955,-29.99673],[30.95008,-29.9968]]]},"properties":{"id":"durban_osm_23","kind":"beach","kind_ru":"пляж","name":null,"osm_id":"way/1089400381","source":"© OpenStreetMap contributors (ODbL)"}},{"type":"Feature","geometry":{"type":"Polygon","coordinates":[[[30.95102,-29.99413],[30.9551,-29.99086],[30.95534,-29.99018],[30.95605,-29.98988],[30.95686,-29.98827],[30.95662,-29.98917],[30.95694,-29.98947],[30.95919,-29.98764],[30.96048,-29.9873],[30.96156,-29.98651],[30.96278,-29.98661],[30.96272,-29.98706],[30.96126,-29.98755],[30.95786,-29.98973],[30.95359,-29.99305],[30.95078,-29.99572],[30.95013,-29.99443],[30.95053,-29.99426],[30.95095,-29.99464],[30.95102,-29.99413]]]},"properties":{"id":"durban_osm_24","kind":"beach","kind_ru":"пляж","name":null,"osm_id":"way/1077516621","source":"© OpenStreetMap contributors (ODbL)"}},{"type":"Feature","geometry":{"type":"Polygon","coordinates":[[[30.95347,-29.99206],[30.95453,-29.99077],[30.9551,-29.99086],[30.95347,-29.99206]]]},"properties":{"id":"durban_osm_25","kind":"beach","kind_ru":"пляж","name":null,"osm_id":"way/1077679417","source":"© OpenStreetMap contributors (ODbL)"}},{"type":"Feature","geometry":{"type":"Polygon","coordinates":[[[30.97807,-29.96928],[30.97852,-29.96949],[30.97808,-29.97008],[30.9751,-29.97331],[30.97121,-29.97853],[30.96826,-29.98158],[30.96821,-29.98088],[30.97301,-29.97542],[30.97385,-29.97375],[30.97807,-29.96928]]]},"properties":{"id":"durban_osm_26","kind":"beach","kind_ru":"пляж","name":null,"osm_id":"way/1341818284","source":"© OpenStreetMap contributors (ODbL)"}},{"type":"Feature","geometry":{"type":"Polygon","coordinates":[[[30.92263,-29.91648],[30.92839,-29.91006],[30.92775,-29.9086],[30.92879,-29.90728],[30.92986,-29.90623],[30.93222,-29.90585],[30.93531,-29.90234],[30.93846,-29.90242],[30.94208,-29.90124],[30.94394,-29.90344],[30.94535,-29.90461],[30.94724,-29.90562],[30.94754,-29.90634],[30.94841,-29.90686],[30.94711,-29.90945],[30.94649,-29.9101],[30.94486,-29.91092],[30.94288,-29.91241],[30.94213,-29.91336],[30.94173,-29.91311],[30.93744,-29.91722],[30.92958,-29.91308],[30.92686,-29.91527],[30.92263,-29.91648]]]},"properties":{"id":"durban_osm_27","kind":"protected_area","kind_ru":"охраняемая зона","name":"Kenneth Stainbank Nature Reserve","osm_id":"way/142115970","source":"© OpenStreetMap contributors (ODbL)"}},{"type":"Feature","geometry":{"type":"Polygon","coordinates":[[[30.88267,-29.87542],[30.88435,-29.87568],[30.88536,-29.87536],[30.88503,-29.87745],[30.88454,-29.87846],[30.88472,-29.87895],[30.88407,-29.87929],[30.88347,-29.8789],[30.8832,-29.87803],[30.88339,-29.87787],[30.88266,-29.87569],[30.88267,-29.87542]]]},"properties":{"id":"durban_osm_28","kind":"wastewater_plant","kind_ru":"очистные сооружения","name":"Shallcross","osm_id":"way/913558237","source":"© OpenStreetMap contributors (ODbL)"}},{"type":"Feature","geometry":{"type":"Polygon","coordinates":[[[31.01519,-29.92961],[31.01379,-29.93151],[31.01333,-29.93347],[31.01004,-29.93594],[31.00705,-29.93984],[31.00252,-29.94376],[30.9942,-29.95252],[30.99091,-29.95555],[30.99086,-29.95601],[30.98855,-29.95832],[30.98849,-29.95898],[30.98776,-29.96014],[30.98673,-29.96066],[30.98411,-29.96312],[30.97981,-29.96818],[30.97871,-29.96885],[30.98005,-29.96699],[30.98433,-29.96237],[30.9866,-29.96013],[30.98792,-29.95932],[30.98849,-29.95808],[30.99076,-29.95518],[30.99346,-29.95265],[30.99411,-29.95162],[30.99475,-29.95135],[30.9972,-29.94829],[31.00547,-29.94073],[31.01008,-29.93529],[31.01245,-29.93348],[31.01413,-29.93034],[31.01515,-29.92908],[31.01519,-29.92961]]]},"properties":{"id":"durban_osm_29","kind":"beach","kind_ru":"пляж","name":null,"osm_id":"way/403350032","source":"© OpenStreetMap contributors (ODbL)"}},{"type":"Feature","geometry":{"type":"LineString","coordinates":[[30.97439,-29.96446],[30.97415,-29.96439]]},"properties":{"id":"durban_osm_30","kind":"outfall","kind_ru":"выпуск / трубопровод стоков","name":null,"osm_id":"way/1389973858","source":"© OpenStreetMap contributors (ODbL)"}},{"type":"Feature","geometry":{"type":"LineString","coordinates":[[30.97439,-29.9645],[30.97413,-29.96449]]},"properties":{"id":"durban_osm_31","kind":"outfall","kind_ru":"выпуск / трубопровод стоков","name":null,"osm_id":"way/1389973859","source":"© OpenStreetMap contributors (ODbL)"}},{"type":"Feature","geometry":{"type":"LineString","coordinates":[[30.9753,-29.96601],[30.97539,-29.96607]]},"properties":{"id":"durban_osm_32","kind":"outfall","kind_ru":"выпуск / трубопровод стоков","name":null,"osm_id":"way/1389973860","source":"© OpenStreetMap contributors (ODbL)"}},{"type":"Feature","geometry":{"type":"LineString","coordinates":[[30.97538,-29.96595],[30.97548,-29.96595]]},"properties":{"id":"durban_osm_33","kind":"outfall","kind_ru":"выпуск / трубопровод стоков","name":null,"osm_id":"way/1389973861","source":"© OpenStreetMap contributors (ODbL)"}},{"type":"Feature","geometry":{"type":"LineString","coordinates":[[30.9743,-29.96491],[30.97425,-29.9649]]},"properties":{"id":"durban_osm_34","kind":"outfall","kind_ru":"выпуск / трубопровод стоков","name":null,"osm_id":"way/1389973874","source":"© OpenStreetMap contributors (ODbL)"}},{"type":"Feature","geometry":{"type":"Polygon","coordinates":[[[30.96903,-29.95817],[30.97038,-29.95784],[30.97433,-29.95394],[30.97776,-29.95532],[30.97695,-29.95613],[30.97411,-29.95718],[30.97328,-29.95962],[30.9711,-29.95926],[30.96903,-29.95817]]]},"properties":{"id":"durban_osm_35","kind":"wastewater_plant","kind_ru":"очистные сооружения","name":null,"osm_id":"way/803922100","source":"© OpenStreetMap contributors (ODbL)"}},{"type":"Feature","geometry":{"type":"Polygon","coordinates":[[[30.99901,-29.93768],[30.99751,-29.93763],[30.99355,-29.94025],[30.99256,-29.94004],[30.99062,-29.93849],[30.99224,-29.93682],[30.98987,-29.93484],[30.99055,-29.93278],[30.99382,-29.9279],[30.99614,-29.92967],[30.99384,-29.93196],[30.99585,-29.93335],[30.99658,-29.93265],[30.99911,-29.93478],[30.99879,-29.93518],[31.00011,-29.93627],[30.99901,-29.93768]]]},"properties":{"id":"durban_osm_36","kind":"protected_area","kind_ru":"охраняемая зона","name":"Bluff Nature Reserve","osm_id":"way/469218364","source":"© OpenStreetMap contributors (ODbL)"}},{"type":"Feature","geometry":{"type":"Polygon","coordinates":[[[31.03269,-29.91183],[31.0281,-29.9165],[31.02128,-29.92237],[31.01519,-29.92961],[31.01515,-29.92908],[31.02113,-29.92174],[31.02847,-29.91517],[31.02858,-29.91539],[31.03229,-29.91149],[31.03269,-29.91183]]]},"properties":{"id":"durban_osm_37","kind":"beach","kind_ru":"пляж","name":null,"osm_id":"way/403159672","source":"© OpenStreetMap contributors (ODbL)"}},{"type":"Feature","geometry":{"type":"Polygon","coordinates":[[[31.06159,-29.87404],[31.06119,-29.87636],[31.05933,-29.87947],[31.05761,-29.88117],[31.05531,-29.88447],[31.05231,-29.88757],[31.04858,-29.89232],[31.04446,-29.89674],[31.04032,-29.90289],[31.03828,-29.90503],[31.03769,-29.90618],[31.03699,-29.90662],[31.03535,-29.90907],[31.03269,-29.91183],[31.03229,-29.91149],[31.03755,-29.90578],[31.03868,-29.90411],[31.03887,-29.90423],[31.03943,-29.90343],[31.03928,-29.9032],[31.03954,-29.90329],[31.04046,-29.90176],[31.04084,-29.90173],[31.04291,-29.89822],[31.05682,-29.88204],[31.06051,-29.87712],[31.06131,-29.874],[31.06159,-29.87404]]]},"properties":{"id":"durban_osm_38","kind":"beach","kind_ru":"пляж","name":null,"osm_id":"way/44386365","source":"© OpenStreetMap contributors (ODbL)"}},{"type":"Feature","geometry":{"type":"Polygon","coordinates":[[[31.01343,-29.88012],[31.02419,-29.87806],[31.0218,-29.88369],[31.02727,-29.88262],[31.02973,-29.87681],[31.03332,-29.87612],[31.03091,-29.88201],[31.01841,-29.88987],[31.01406,-29.89033],[31.01739,-29.88331],[31.01252,-29.88401],[31.01184,-29.88095],[31.01343,-29.88012]]]},"properties":{"id":"durban_osm_39","kind":"port","kind_ru":"порт","name":"Port of Durban","osm_id":"way/1329900254","source":"© OpenStreetMap contributors (ODbL)"}},{"type":"Feature","geometry":{"type":"Polygon","coordinates":[[[30.89088,-29.84467],[30.8931,-29.84503],[30.89341,-29.84563],[30.893,-29.84704],[30.89131,-29.84727],[30.89115,-29.84647],[30.89078,-29.84619],[30.89066,-29.84659],[30.89021,-29.8467],[30.88973,-29.846],[30.88847,-29.84541],[30.88865,-29.84446],[30.8908,-29.84522],[30.89088,-29.84467]]]},"properties":{"id":"durban_osm_40","kind":"wastewater_plant","kind_ru":"очистные сооружения","name":"Umbilo Wastewater Treatment Works","osm_id":"way/1065920988","source":"© OpenStreetMap contributors (ODbL)"}},{"type":"Feature","geometry":{"type":"Polygon","coordinates":[[[30.8923,-29.81976],[30.8914,-29.82004],[30.88981,-29.81925],[30.8863,-29.81894],[30.88403,-29.81819],[30.88242,-29.81705],[30.88233,-29.81518],[30.88164,-29.81464],[30.88183,-29.81406],[30.88218,-29.81408],[30.88291,-29.81504],[30.8838,-29.81496],[30.88394,-29.81394],[30.88286,-29.81287],[30.88391,-29.81212],[30.88491,-29.8126],[30.88478,-29.81446],[30.88507,-29.81497],[30.88677,-29.81537],[30.88699,-29.81453],[30.88966,-29.81531],[30.88938,-29.8159],[30.8923,-29.81976]]]},"properties":{"id":"durban_osm_41","kind":"protected_area","kind_ru":"охраняемая зона","name":"New Germany Nature Reserve","osm_id":"way/544720264","source":"© OpenStreetMap contributors (ODbL)"}},{"type":"Feature","geometry":{"type":"Polygon","coordinates":[[[30.93447,-29.82729],[30.93177,-29.82576],[30.93174,-29.825],[30.93125,-29.82455],[30.93126,-29.82223],[30.92906,-29.82173],[30.92839,-29.8217],[30.92803,-29.82201],[30.92796,-29.82286],[30.92909,-29.82383],[30.92942,-29.82458],[30.92886,-29.82536],[30.92793,-29.82588],[30.92724,-29.82589],[30.9272,-29.82515],[30.92521,-29.82406],[30.92471,-29.82317],[30.92665,-29.82346],[30.92712,-29.82302],[30.92767,-29.82133],[30.93094,-29.82064],[30.93223,-29.82249],[30.93259,-29.82233],[30.93273,-29.82149],[30.93143,-29.81951],[30.93327,-29.81867],[30.93638,-29.81824],[30.93704,-29.81886],[30.93812,-29.81903],[30.93878,-29.81977],[30.93848,-29.8214],[30.93563,-29.82061],[30.93462,-29.8207],[30.93448,-29.82126],[30.93491,-29.82251],[30.93614,-29.82362],[30.93632,-29.82457],[30.93447,-29.82729]]]},"properties":{"id":"durban_osm_42","kind":"protected_area","kind_ru":"охраняемая зона","name":"Palmiet Nature Reserve","osm_id":"way/654369976","source":"© OpenStreetMap contributors (ODbL)"}},{"type":"Feature","geometry":{"type":"Polygon","coordinates":[[[30.8903,-29.81532],[30.88883,-29.81509],[30.88711,-29.81439],[30.88738,-29.81313],[30.88707,-29.81267],[30.88756,-29.81189],[30.88791,-29.812],[30.88892,-29.80887],[30.8887,-29.80846],[30.88967,-29.80869],[30.89144,-29.81016],[30.89256,-29.81062],[30.8903,-29.81532]]]},"properties":{"id":"durban_osm_43","kind":"protected_area","kind_ru":"охраняемая зона","name":"New Germany Nature Reserve","osm_id":"way/544720263","source":"© OpenStreetMap contributors (ODbL)"}},{"type":"Feature","geometry":{"type":"Polygon","coordinates":[[[30.92853,-29.7637],[30.9289,-29.76255],[30.93059,-29.76283],[30.9321,-29.76376],[30.93189,-29.76412],[30.93258,-29.76434],[30.93253,-29.765],[30.93201,-29.7656],[30.93077,-29.76605],[30.93024,-29.7656],[30.93052,-29.76529],[30.92892,-29.76392],[30.92806,-29.76473],[30.92786,-29.76433],[30.92853,-29.7637]]]},"properties":{"id":"durban_osm_44","kind":"wastewater_plant","kind_ru":"очистные сооружения","name":null,"osm_id":"way/907145634","source":"© OpenStreetMap contributors (ODbL)"}},{"type":"Feature","geometry":{"type":"Polygon","coordinates":[[[30.95931,-29.84801],[30.95945,-29.84751],[30.96192,-29.84777],[30.96381,-29.84706],[30.96396,-29.84752],[30.96229,-29.84907],[30.96131,-29.85091],[30.95997,-29.85164],[30.95975,-29.85016],[30.9576,-29.8487],[30.95931,-29.84801]]]},"properties":{"id":"durban_osm_45","kind":"wastewater_plant","kind_ru":"очистные сооружения","name":"Wiggins Waterworks","osm_id":"way/39739663","source":"© OpenStreetMap contributors (ODbL)"}},{"type":"Feature","geometry":{"type":"Polygon","coordinates":[[[30.98488,-29.86417],[30.98437,-29.8622],[30.98487,-29.86173],[30.98995,-29.86341],[30.98752,-29.8657],[30.98704,-29.8665],[30.98582,-29.86701],[30.98602,-29.86441],[30.9856,-29.86411],[30.98488,-29.86417]]]},"properties":{"id":"durban_osm_46","kind":"protected_area","kind_ru":"охраняемая зона","name":"Pigeon Valley","osm_id":"way/38366852","source":"© OpenStreetMap contributors (ODbL)"}},{"type":"Feature","geometry":{"type":"Polygon","coordinates":[[[30.98739,-29.82042],[30.98656,-29.82],[30.98751,-29.81884],[30.98691,-29.81847],[30.98766,-29.81834],[30.98789,-29.81743],[30.98676,-29.81649],[30.98591,-29.81681],[30.98543,-29.81764],[30.98366,-29.81762],[30.98375,-29.81654],[30.98308,-29.81577],[30.98332,-29.81331],[30.98281,-29.81168],[30.98603,-29.81519],[30.98729,-29.81554],[30.989,-29.81737],[30.99085,-29.81777],[30.99151,-29.81752],[30.99336,-29.81541],[30.99427,-29.81516],[30.9959,-29.81386],[30.99655,-29.81406],[30.99409,-29.8162],[30.99448,-29.81686],[30.99693,-29.81565],[30.99739,-29.81704],[30.99669,-29.81877],[30.99484,-29.81874],[30.99569,-29.81745],[30.99532,-29.81702],[30.9943,-29.81788],[30.99263,-29.8177],[30.99235,-29.81818],[30.9894,-29.81993],[30.98778,-29.82172],[30.98733,-29.82114],[30.98739,-29.82042]]]},"properties":{"id":"durban_osm_47","kind":"protected_area","kind_ru":"охраняемая зона","name":null,"osm_id":"way/774662876","source":"© OpenStreetMap contributors (ODbL)"}},{"type":"Feature","geometry":{"type":"Polygon","coordinates":[[[31.02101,-29.86294],[31.02175,-29.86249],[31.02247,-29.86257],[31.02566,-29.86391],[31.02549,-29.86421],[31.02211,-29.86275],[31.02572,-29.86447],[31.02549,-29.86485],[31.0214,-29.86296],[31.02412,-29.86427],[31.02396,-29.86452],[31.02101,-29.86294]]]},"properties":{"id":"durban_osm_48","kind":"marina","kind_ru":"марина","name":null,"osm_id":"way/750335052","source":"© OpenStreetMap contributors (ODbL)"}},{"type":"Feature","geometry":{"type":"Polygon","coordinates":[[[31.01003,-29.81342],[31.00937,-29.81543],[31.01237,-29.81456],[31.01238,-29.81345],[31.0129,-29.81345],[31.01296,-29.81316],[31.01603,-29.81272],[31.01599,-29.81247],[31.01729,-29.81188],[31.01723,-29.81312],[31.01805,-29.81323],[31.01825,-29.8121],[31.0191,-29.81238],[31.02156,-29.81346],[31.02202,-29.81532],[31.01999,-29.8169],[31.01768,-29.81777],[31.01807,-29.81779],[31.01823,-29.81835],[31.01867,-29.81852],[31.01957,-29.81822],[31.02183,-29.81845],[31.01814,-29.81988],[31.01464,-29.81905],[31.01365,-29.81912],[31.01292,-29.81791],[31.01361,-29.81708],[31.01391,-29.81463],[31.01366,-29.81435],[31.00901,-29.81597],[31.00869,-29.81703],[31.00853,-29.81615],[31.0081,-29.8162],[31.0082,-29.81343],[31.01003,-29.81342]]]},"properties":{"id":"durban_osm_49","kind":"protected_area","kind_ru":"охраняемая зона","name":"Burman Bush","osm_id":"way/38181634","source":"© OpenStreetMap contributors (ODbL)"}},{"type":"Feature","geometry":{"type":"Polygon","coordinates":[[[31.03639,-29.83762],[31.03629,-29.83157],[31.03699,-29.83159],[31.03665,-29.83761],[31.03639,-29.83762]]]},"properties":{"id":"durban_osm_50","kind":"beach","kind_ru":"пляж","name":"Suncoast Beach","osm_id":"way/725455001","source":"© OpenStreetMap contributors (ODbL)"}},{"type":"Feature","geometry":{"type":"Polygon","coordinates":[[[30.99749,-29.7975],[30.99738,-29.7972],[30.99762,-29.79732],[30.99749,-29.7975]]]},"properties":{"id":"durban_osm_51","kind":"wastewater_plant","kind_ru":"очистные сооружения","name":null,"osm_id":"way/867795092","source":"© OpenStreetMap contributors (ODbL)"}},{"type":"Feature","geometry":{"type":"Polygon","coordinates":[[[30.99789,-29.79731],[30.99774,-29.79702],[30.99799,-29.79712],[30.99789,-29.79731]]]},"properties":{"id":"durban_osm_52","kind":"wastewater_plant","kind_ru":"очистные сооружения","name":null,"osm_id":"way/867795093","source":"© OpenStreetMap contributors (ODbL)"}},{"type":"Feature","geometry":{"type":"Polygon","coordinates":[[[30.99838,-29.79643],[30.99826,-29.79619],[30.99846,-29.79628],[30.99838,-29.79643]]]},"properties":{"id":"durban_osm_53","kind":"wastewater_plant","kind_ru":"очистные сооружения","name":null,"osm_id":"way/867795099","source":"© OpenStreetMap contributors (ODbL)"}},{"type":"Feature","geometry":{"type":"Polygon","coordinates":[[[31.00032,-29.78779],[31.00099,-29.79354],[30.99969,-29.79671],[30.99703,-29.79801],[30.99593,-29.7979],[30.99622,-29.79631],[30.99572,-29.79619],[30.99742,-29.79022],[30.99717,-29.7886],[30.9981,-29.78658],[31.00032,-29.78779]]]},"properties":{"id":"durban_osm_54","kind":"wastewater_plant","kind_ru":"очистные сооружения","name":"Northern Waste Water Treatment Plant","osm_id":"way/867795076","source":"© OpenStreetMap contributors (ODbL)"}},{"type":"Feature","geometry":{"type":"Polygon","coordinates":[[[30.99712,-29.79596],[30.99725,-29.79571],[30.99749,-29.79584],[30.99738,-29.79603],[30.99712,-29.79596]]]},"properties":{"id":"durban_osm_55","kind":"wastewater_plant","kind_ru":"очистные сооружения","name":null,"osm_id":"way/867795094","source":"© OpenStreetMap contributors (ODbL)"}},{"type":"Feature","geometry":{"type":"Polygon","coordinates":[[[30.99776,-29.79616],[30.99765,-29.79583],[30.99792,-29.79596],[30.99776,-29.79616]]]},"properties":{"id":"durban_osm_56","kind":"wastewater_plant","kind_ru":"очистные сооружения","name":null,"osm_id":"way/867795097","source":"© OpenStreetMap contributors (ODbL)"}},{"type":"Feature","geometry":{"type":"Polygon","coordinates":[[[30.99866,-29.79689],[30.99856,-29.79656],[30.9988,-29.79668],[30.99866,-29.79689]]]},"properties":{"id":"durban_osm_57","kind":"wastewater_plant","kind_ru":"очистные сооружения","name":null,"osm_id":"way/867795101","source":"© OpenStreetMap contributors (ODbL)"}},{"type":"Feature","geometry":{"type":"Polygon","coordinates":[[[30.99866,-29.79497],[30.9984,-29.79555],[30.9974,-29.79522],[30.99766,-29.79463],[30.99866,-29.79497]]]},"properties":{"id":"durban_osm_58","kind":"wastewater_plant","kind_ru":"очистные сооружения","name":null,"osm_id":"way/1142122171","source":"© OpenStreetMap contributors (ODbL)"}},{"type":"Feature","geometry":{"type":"Polygon","coordinates":[[[30.9975,-29.79566],[30.99732,-29.79536],[30.9976,-29.79545],[30.9975,-29.79566]]]},"properties":{"id":"durban_osm_59","kind":"wastewater_plant","kind_ru":"очистные сооружения","name":null,"osm_id":"way/867795095","source":"© OpenStreetMap contributors (ODbL)"}},{"type":"Feature","geometry":{"type":"Polygon","coordinates":[[[30.99793,-29.79576],[30.99776,-29.79546],[30.99802,-29.79553],[30.99793,-29.79576]]]},"properties":{"id":"durban_osm_60","kind":"wastewater_plant","kind_ru":"очистные сооружения","name":null,"osm_id":"way/867795096","source":"© OpenStreetMap contributors (ODbL)"}},{"type":"Feature","geometry":{"type":"Polygon","coordinates":[[[30.99823,-29.79585],[30.99821,-29.79556],[30.99839,-29.79572],[30.99823,-29.79585]]]},"properties":{"id":"durban_osm_61","kind":"wastewater_plant","kind_ru":"очистные сооружения","name":null,"osm_id":"way/867795098","source":"© OpenStreetMap contributors (ODbL)"}},{"type":"Feature","geometry":{"type":"Polygon","coordinates":[[[30.99874,-29.79623],[30.99862,-29.796],[30.99884,-29.79607],[30.99874,-29.79623]]]},"properties":{"id":"durban_osm_62","kind":"wastewater_plant","kind_ru":"очистные сооружения","name":null,"osm_id":"way/867795100","source":"© OpenStreetMap contributors (ODbL)"}},{"type":"Feature","geometry":{"type":"Polygon","coordinates":[[[30.99906,-29.79668],[30.99897,-29.79635],[30.99922,-29.79648],[30.99906,-29.79668]]]},"properties":{"id":"durban_osm_63","kind":"wastewater_plant","kind_ru":"очистные сооружения","name":null,"osm_id":"way/867795102","source":"© OpenStreetMap contributors (ODbL)"}},{"type":"Feature","geometry":{"type":"Polygon","coordinates":[[[30.99938,-29.79619],[30.99945,-29.79616],[30.99944,-29.7962],[30.99938,-29.79619]]]},"properties":{"id":"durban_osm_64","kind":"wastewater_plant","kind_ru":"очистные сооружения","name":null,"osm_id":"way/1184845579","source":"© OpenStreetMap contributors (ODbL)"}},{"type":"Feature","geometry":{"type":"Polygon","coordinates":[[[30.99942,-29.79611],[30.99949,-29.79608],[30.99947,-29.79612],[30.99942,-29.79611]]]},"properties":{"id":"durban_osm_65","kind":"wastewater_plant","kind_ru":"очистные сооружения","name":null,"osm_id":"way/1184845580","source":"© OpenStreetMap contributors (ODbL)"}},{"type":"Feature","geometry":{"type":"Polygon","coordinates":[[[30.99983,-29.79301],[30.99985,-29.7929],[30.9999,-29.79297],[30.99983,-29.79301]]]},"properties":{"id":"durban_osm_66","kind":"wastewater_plant","kind_ru":"очистные сооружения","name":null,"osm_id":"way/867791093","source":"© OpenStreetMap contributors (ODbL)"}},{"type":"Feature","geometry":{"type":"Polygon","coordinates":[[[31.00006,-29.793],[31.00002,-29.79289],[31.0001,-29.79293],[31.00006,-29.793]]]},"properties":{"id":"durban_osm_67","kind":"wastewater_plant","kind_ru":"очистные сооружения","name":null,"osm_id":"way/867791094","source":"© OpenStreetMap contributors (ODbL)"}},{"type":"Feature","geometry":{"type":"Polygon","coordinates":[[[31.00024,-29.79333],[31.00022,-29.79326],[31.00027,-29.79328],[31.00024,-29.79333]]]},"properties":{"id":"durban_osm_68","kind":"wastewater_plant","kind_ru":"очистные сооружения","name":null,"osm_id":"way/867791234","source":"© OpenStreetMap contributors (ODbL)"}},{"type":"Feature","geometry":{"type":"Polygon","coordinates":[[[31.0004,-29.79338],[31.00035,-29.79331],[31.00042,-29.79333],[31.0004,-29.79338]]]},"properties":{"id":"durban_osm_69","kind":"wastewater_plant","kind_ru":"очистные сооружения","name":null,"osm_id":"way/867791235","source":"© OpenStreetMap contributors (ODbL)"}},{"type":"Feature","geometry":{"type":"Polygon","coordinates":[[[31.00085,-29.79331],[31.00074,-29.79309],[31.00094,-29.79318],[31.00085,-29.79331]]]},"properties":{"id":"durban_osm_70","kind":"wastewater_plant","kind_ru":"очистные сооружения","name":null,"osm_id":"way/867791236","source":"© OpenStreetMap contributors (ODbL)"}},{"type":"Feature","geometry":{"type":"Polygon","coordinates":[[[31.00052,-29.79318],[31.00047,-29.79309],[31.00055,-29.79312],[31.00052,-29.79318]]]},"properties":{"id":"durban_osm_71","kind":"wastewater_plant","kind_ru":"очистные сооружения","name":null,"osm_id":"way/867791237","source":"© OpenStreetMap contributors (ODbL)"}},{"type":"Feature","geometry":{"type":"Polygon","coordinates":[[[31.00036,-29.79314],[31.00032,-29.79303],[31.0004,-29.79307],[31.00036,-29.79314]]]},"properties":{"id":"durban_osm_72","kind":"wastewater_plant","kind_ru":"очистные сооружения","name":null,"osm_id":"way/867791238","source":"© OpenStreetMap contributors (ODbL)"}},{"type":"Feature","geometry":{"type":"Polygon","coordinates":[[[31.00063,-29.79251],[31.00065,-29.79194],[31.00082,-29.79246],[31.00063,-29.79251]]]},"properties":{"id":"durban_osm_73","kind":"wastewater_plant","kind_ru":"очистные сооружения","name":null,"osm_id":"way/867800968","source":"© OpenStreetMap contributors (ODbL)"}},{"type":"Feature","geometry":{"type":"Polygon","coordinates":[[[31.02867,-29.80814],[31.03463,-29.80786],[31.03692,-29.80622],[31.03844,-29.80644],[31.03852,-29.80783],[31.03879,-29.80785],[31.04141,-29.79754],[31.04405,-29.79466],[31.04521,-29.79292],[31.04587,-29.79254],[31.04763,-29.79298],[31.04561,-29.79717],[31.04254,-29.80511],[31.04038,-29.80894],[31.04007,-29.80902],[31.04097,-29.80668],[31.03999,-29.80888],[31.03946,-29.80851],[31.03991,-29.80819],[31.03905,-29.80814],[31.03965,-29.80911],[31.03922,-29.80944],[31.0384,-29.80954],[31.03772,-29.80909],[31.03653,-29.80905],[31.03511,-29.80968],[31.02779,-29.80851],[31.02784,-29.80826],[31.02867,-29.80814]]]},"properties":{"id":"durban_osm_74","kind":"protected_area","kind_ru":"охраняемая зона","name":"Beachwood Mangroves Nature Reserve","osm_id":"way/493806665","source":"© OpenStreetMap contributors (ODbL)"}},{"type":"Feature","geometry":{"type":"Polygon","coordinates":[[[31.05697,-29.88026],[31.06084,-29.87551],[31.06017,-29.87728],[31.0562,-29.88237],[31.05597,-29.88225],[31.05697,-29.88026]]]},"properties":{"id":"durban_osm_75","kind":"wastewater_plant","kind_ru":"очистные сооружения","name":"Central Treatment Plant","osm_id":"way/1067904610","source":"© OpenStreetMap contributors (ODbL)"}},{"type":"Feature","geometry":{"type":"Polygon","coordinates":[[[31.04068,-29.85693],[31.03977,-29.85562],[31.04025,-29.85472],[31.04099,-29.85461],[31.04163,-29.85676],[31.04068,-29.85693]]]},"properties":{"id":"durban_osm_76","kind":"beach","kind_ru":"пляж","name":"New Beach","osm_id":"way/718103126","source":"© OpenStreetMap contributors (ODbL)"}},{"type":"Feature","geometry":{"type":"Polygon","coordinates":[[[30.86769,-29.72253],[30.86771,-29.72259],[30.86766,-29.72257],[30.86769,-29.72253]]]},"properties":{"id":"durban_osm_77","kind":"aquaculture","kind_ru":"аквакультура / ферма","name":null,"osm_id":"way/813140101","source":"© OpenStreetMap contributors (ODbL)"}},{"type":"Feature","geometry":{"type":"Polygon","coordinates":[[[31.00657,-29.72731],[31.00711,-29.72626],[31.01019,-29.72592],[31.01089,-29.7264],[31.01278,-29.72889],[31.01317,-29.73081],[31.00848,-29.73374],[31.00671,-29.73068],[31.00657,-29.72731]]]},"properties":{"id":"durban_osm_78","kind":"wastewater_plant","kind_ru":"очистные сооружения","name":"Kwa Mashu Waste Water Treatment Works","osm_id":"way/855910520","source":"© OpenStreetMap contributors (ODbL)"}},{"type":"Feature","geometry":{"type":"LineString","coordinates":[[31.03598,-29.67858],[31.03567,-29.6785]]},"properties":{"id":"durban_osm_79","kind":"outfall","kind_ru":"выпуск / трубопровод стоков","name":null,"osm_id":"way/909101509","source":"© OpenStreetMap contributors (ODbL)"}},{"type":"Feature","geometry":{"type":"LineString","coordinates":[[31.03614,-29.67859],[31.03598,-29.67858]]},"properties":{"id":"durban_osm_80","kind":"outfall","kind_ru":"выпуск / трубопровод стоков","name":null,"osm_id":"way/909101510","source":"© OpenStreetMap contributors (ODbL)"}},{"type":"Feature","geometry":{"type":"LineString","coordinates":[[31.03548,-29.67846],[31.03544,-29.67846]]},"properties":{"id":"durban_osm_81","kind":"outfall","kind_ru":"выпуск / трубопровод стоков","name":null,"osm_id":"way/909101511","source":"© OpenStreetMap contributors (ODbL)"}},{"type":"Feature","geometry":{"type":"LineString","coordinates":[[31.03567,-29.6785],[31.03548,-29.67846]]},"properties":{"id":"durban_osm_82","kind":"outfall","kind_ru":"выпуск / трубопровод стоков","name":null,"osm_id":"way/909101512","source":"© OpenStreetMap contributors (ODbL)"}},{"type":"Feature","geometry":{"type":"LineString","coordinates":[[31.03667,-29.67915],[31.03614,-29.67859]]},"properties":{"id":"durban_osm_83","kind":"outfall","kind_ru":"выпуск / трубопровод стоков","name":null,"osm_id":"way/909101513","source":"© OpenStreetMap contributors (ODbL)"}},{"type":"Feature","geometry":{"type":"Polygon","coordinates":[[[31.03778,-29.68306],[31.03756,-29.68119],[31.03654,-29.6798],[31.03635,-29.67866],[31.03819,-29.67853],[31.03837,-29.67963],[31.039,-29.68011],[31.03914,-29.68147],[31.03863,-29.68379],[31.03778,-29.68306]]]},"properties":{"id":"durban_osm_84","kind":"wastewater_plant","kind_ru":"очистные сооружения","name":"Phoenix Treatment Works","osm_id":"way/429027457","source":"© OpenStreetMap contributors (ODbL)"}},{"type":"Feature","geometry":{"type":"Polygon","coordinates":[[[30.98548,-29.60592],[30.98593,-29.60607],[30.98611,-29.60642],[30.98504,-29.60644],[30.98548,-29.60592]]]},"properties":{"id":"durban_osm_85","kind":"wastewater_plant","kind_ru":"очистные сооружения","name":null,"osm_id":"way/1097172835","source":"© OpenStreetMap contributors (ODbL)"}},{"type":"Feature","geometry":{"type":"Polygon","coordinates":[[[30.98237,-29.59203],[30.98204,-29.59264],[30.98156,-29.59244],[30.98189,-29.59184],[30.98237,-29.59203]]]},"properties":{"id":"durban_osm_86","kind":"wastewater_plant","kind_ru":"очистные сооружения","name":null,"osm_id":"way/1096477064","source":"© OpenStreetMap contributors (ODbL)"}},{"type":"Feature","geometry":{"type":"Polygon","coordinates":[[[31.07782,-29.69667],[31.07787,-29.69625],[31.07902,-29.69616],[31.08103,-29.69703],[31.08172,-29.69625],[31.08242,-29.69597],[31.08267,-29.69694],[31.08173,-29.69839],[31.08087,-29.69821],[31.07947,-29.69677],[31.07782,-29.69667]]]},"properties":{"id":"durban_osm_87","kind":"wastewater_plant","kind_ru":"очистные сооружения","name":null,"osm_id":"way/1080680753","source":"© OpenStreetMap contributors (ODbL)"}},{"type":"Feature","geometry":{"type":"Polygon","coordinates":[[[31.11251,-29.68359],[31.11024,-29.68672],[31.10697,-29.69361],[31.10557,-29.69744],[31.10366,-29.69951],[31.10322,-29.70085],[31.10231,-29.70156],[31.10104,-29.70393],[31.10003,-29.70337],[31.10078,-29.70277],[31.10352,-29.69856],[31.10536,-29.69642],[31.10676,-29.69232],[31.11016,-29.68565],[31.11212,-29.68322],[31.11251,-29.68359]]]},"properties":{"id":"durban_osm_88","kind":"beach","kind_ru":"пляж","name":null,"osm_id":"way/1092187493","source":"© OpenStreetMap contributors (ODbL)"}},{"type":"Feature","geometry":{"type":"Polygon","coordinates":[[[31.11795,-29.67225],[31.11657,-29.67462],[31.11602,-29.67725],[31.11284,-29.68387],[31.11198,-29.6831],[31.11472,-29.67775],[31.11575,-29.67452],[31.11695,-29.67222],[31.11722,-29.67196],[31.11795,-29.67225]]]},"properties":{"id":"durban_osm_89","kind":"protected_area","kind_ru":"охраняемая зона","name":"Umdloti Beach Coastal Conservancy","osm_id":"way/733805315","source":"© OpenStreetMap contributors (ODbL)"}},{"type":"Feature","geometry":{"type":"Polygon","coordinates":[[[31.12118,-29.66736],[31.11771,-29.67216],[31.11722,-29.67196],[31.12091,-29.66721],[31.12219,-29.66607],[31.12235,-29.66511],[31.12296,-29.66412],[31.12349,-29.66424],[31.12286,-29.66463],[31.12217,-29.66666],[31.12118,-29.66736]]]},"properties":{"id":"durban_osm_90","kind":"beach","kind_ru":"пляж","name":null,"osm_id":"way/733805311","source":"© OpenStreetMap contributors (ODbL)"}},{"type":"Feature","geometry":{"type":"Polygon","coordinates":[[[31.12394,-29.66138],[31.12397,-29.66207],[31.12339,-29.66312],[31.1235,-29.6642],[31.12296,-29.66412],[31.12394,-29.66138]]]},"properties":{"id":"durban_osm_91","kind":"beach","kind_ru":"пляж","name":null,"osm_id":"way/733805309","source":"© OpenStreetMap contributors (ODbL)"}},{"type":"Feature","geometry":{"type":"Polygon","coordinates":[[[31.06384,-29.64317],[31.06515,-29.644],[31.0656,-29.64506],[31.06427,-29.64533],[31.06329,-29.64631],[31.06206,-29.6462],[31.06126,-29.64528],[31.06384,-29.64317]]]},"properties":{"id":"durban_osm_92","kind":"wastewater_plant","kind_ru":"очистные сооружения","name":null,"osm_id":"way/1263817363","source":"© OpenStreetMap contributors (ODbL)"}},{"type":"Feature","geometry":{"type":"Polygon","coordinates":[[[31.09553,-29.62862],[31.09538,-29.62827],[31.09649,-29.62821],[31.09651,-29.62859],[31.09553,-29.62862]]]},"properties":{"id":"durban_osm_93","kind":"wastewater_plant","kind_ru":"очистные сооружения","name":null,"osm_id":"way/618211220","source":"© OpenStreetMap contributors (ODbL)"}},{"type":"Feature","geometry":{"type":"Polygon","coordinates":[[[31.15577,-29.60665],[31.156,-29.60631],[31.15662,-29.60659],[31.157,-29.60753],[31.15676,-29.60761],[31.15577,-29.60665]]]},"properties":{"id":"durban_osm_94","kind":"wastewater_plant","kind_ru":"очистные сооружения","name":null,"osm_id":"way/1106180957","source":"© OpenStreetMap contributors (ODbL)"}},{"type":"Feature","geometry":{"type":"Polygon","coordinates":[[[31.17071,-29.55553],[31.17057,-29.55678],[31.17021,-29.55705],[31.1691,-29.55705],[31.16941,-29.55633],[31.17042,-29.55537],[31.17071,-29.55553]]]},"properties":{"id":"durban_osm_95","kind":"aquaculture","kind_ru":"аквакультура / ферма","name":"Crocodile Farm","osm_id":"way/203966700","source":"© OpenStreetMap contributors (ODbL)"}},{"type":"Feature","geometry":{"type":"Polygon","coordinates":[[[31.19232,-29.53974],[31.19185,-29.53948],[31.19277,-29.53849],[31.19475,-29.53956],[31.19357,-29.54143],[31.19136,-29.5403],[31.19232,-29.53974]]]},"properties":{"id":"durban_osm_96","kind":"wastewater_plant","kind_ru":"очистные сооружения","name":null,"osm_id":"way/392777791","source":"© OpenStreetMap contributors (ODbL)"}},{"type":"Feature","geometry":{"type":"Polygon","coordinates":[[[31.21687,-29.54394],[31.21632,-29.54496],[31.21418,-29.54584],[31.21402,-29.54548],[31.21572,-29.54481],[31.21647,-29.54396],[31.21687,-29.54394]]]},"properties":{"id":"durban_osm_97","kind":"beach","kind_ru":"пляж","name":null,"osm_id":"way/1009954011","source":"© OpenStreetMap contributors (ODbL)"}},{"type":"Feature","geometry":{"type":"Polygon","coordinates":[[[30.86265,-29.76754],[30.85538,-29.77099],[30.85474,-29.77178],[30.85474,-29.751],[30.86024,-29.75431],[30.86149,-29.75841],[30.86493,-29.75831],[30.86604,-29.75769],[30.86897,-29.7582],[30.87123,-29.75777],[30.87125,-29.75893],[30.86781,-29.76041],[30.86498,-29.76113],[30.86413,-29.76175],[30.86521,-29.76208],[30.86441,-29.76449],[30.86314,-29.76564],[30.86325,-29.76584],[30.86221,-29.76611],[30.86318,-29.76686],[30.86268,-29.76711],[30.86265,-29.76754]]]},"properties":{"id":"durban_osm_98","kind":"protected_area","kind_ru":"охраняемая зона","name":"Krantzkloof Nature Reserve","osm_id":"relation/10312890","source":"© OpenStreetMap contributors (ODbL)"}},{"type":"Feature","geometry":{"type":"MultiPolygon","coordinates":[[[[31.05484,-29.73053],[31.05486,-29.73139],[31.05372,-29.7317],[31.05351,-29.73294],[31.05148,-29.73508],[31.05022,-29.7344],[31.04923,-29.73484],[31.04769,-29.73366],[31.04539,-29.73251],[31.04331,-29.7328],[31.04244,-29.73147],[31.04069,-29.7304],[31.04103,-29.72958],[31.04095,-29.72566],[31.04153,-29.72574],[31.04214,-29.72447],[31.04293,-29.72382],[31.04364,-29.72372],[31.04415,-29.72418],[31.04531,-29.7233],[31.0465,-29.72292],[31.04627,-29.72259],[31.04584,-29.72277],[31.04361,-29.7206],[31.04407,-29.72019],[31.04357,-29.71902],[31.04425,-29.71802],[31.04523,-29.71864],[31.04686,-29.7188],[31.04888,-29.71991],[31.05126,-29.71847],[31.05175,-29.71773],[31.05376,-29.71675],[31.05408,-29.71704],[31.05486,-29.71916],[31.05439,-29.72013],[31.05622,-29.72056],[31.05688,-29.72124],[31.05722,-29.72436],[31.05679,-29.72552],[31.05631,-29.72566],[31.05642,-29.72779],[31.05605,-29.7293],[31.05515,-29.73024],[31.05359,-29.73025],[31.0536,-29.73049],[31.05484,-29.73053]]],[[[31.05173,-29.71727],[31.05103,-29.71841],[31.04881,-29.71972],[31.04701,-29.71863],[31.0452,-29.71835],[31.04453,-29.71783],[31.04463,-29.71755],[31.04425,-29.71757],[31.04125,-29.71546],[31.04133,-29.71274],[31.04049,-29.71232],[31.04061,-29.71136],[31.04017,-29.70983],[31.04087,-29.70984],[31.04075,-29.7089],[31.04237,-29.70681],[31.05037,-29.71093],[31.05075,-29.71219],[31.05301,-29.71625],[31.05264,-29.71665],[31.05292,-29.71707],[31.052,-29.71745],[31.05173,-29.71727]]]]},"properties":{"id":"durban_osm_99","kind":"protected_area","kind_ru":"охраняемая зона","name":"Mount Edgecombe","osm_id":"relation/7648248","source":"© OpenStreetMap contributors (ODbL)"}},{"type":"Feature","geometry":{"type":"Polygon","coordinates":[[[31.3003,-29.61667],[31.3003,-29.53039],[31.49538,-29.53039],[31.49538,-29.61667],[31.3003,-29.61667]]]},"properties":{"id":"durban_osm_100","kind":"protected_area","kind_ru":"охраняемая зона","name":"uThukela Marine Protected Area","osm_id":"relation/14230491","source":"© OpenStreetMap contributors (ODbL)"}},{"type":"Feature","geometry":{"type":"Polygon","coordinates":[[[31.3003,-29.61667],[31.3003,-29.53039],[31.49538,-29.53039],[31.49538,-29.61667],[31.3003,-29.61667]]]},"properties":{"id":"durban_osm_101","kind":"protected_area","kind_ru":"охраняемая зона","name":"uThukela Offshore Controlled Zone South","osm_id":"relation/14237699","source":"© OpenStreetMap contributors (ODbL)"}},{"type":"Feature","geometry":{"type":"Polygon","coordinates":[[[31.21204,-29.54762],[31.20995,-29.54874],[31.20514,-29.5525],[31.18704,-29.56929],[31.18602,-29.56884],[31.18556,-29.5665],[31.18433,-29.56442],[31.1848,-29.56352],[31.18462,-29.56313],[31.18599,-29.56243],[31.18492,-29.56193],[31.18456,-29.55974],[31.19199,-29.55113],[31.1897,-29.54852],[31.18792,-29.55061],[31.1862,-29.55027],[31.18809,-29.54786],[31.19173,-29.54478],[31.19366,-29.54211],[31.19549,-29.54293],[31.19616,-29.54198],[31.19627,-29.54008],[31.19911,-29.53724],[31.20218,-29.53878],[31.2041,-29.54152],[31.21204,-29.54762]]]},"properties":{"id":"durban_osm_102","kind":"protected_area","kind_ru":"охраняемая зона","name":"Zimbali Estate","osm_id":"relation/7656205","source":"© OpenStreetMap contributors (ODbL)"}},{"type":"Feature","geometry":{"type":"Point","coordinates":[30.93671,-30.00952]},"properties":{"id":"durban_osm_103","kind":"river_mouth","kind_ru":"устье реки / канала","name":null,"osm_id":"way/273588390","source":"© OpenStreetMap contributors (ODbL)","waterway":"river","coast_dist_m":0}},{"type":"Feature","geometry":{"type":"Point","coordinates":[30.92703,-30.00063]},"properties":{"id":"durban_osm_104","kind":"river_mouth","kind_ru":"устье реки / канала","name":null,"osm_id":"way/1065180309","source":"© OpenStreetMap contributors (ODbL)","waterway":"canal","coast_dist_m":1332}},{"type":"Feature","geometry":{"type":"Point","coordinates":[30.97065,-29.97238]},"properties":{"id":"durban_osm_105","kind":"river_mouth","kind_ru":"устье реки / канала","name":null,"osm_id":"way/545686204","source":"© OpenStreetMap contributors (ODbL)","waterway":"canal","coast_dist_m":417}},{"type":"Feature","geometry":{"type":"Point","coordinates":[30.96348,-29.98686]},"properties":{"id":"durban_osm_106","kind":"river_mouth","kind_ru":"устье реки / канала","name":null,"osm_id":"way/545686204","source":"© OpenStreetMap contributors (ODbL)","waterway":"canal","coast_dist_m":0}},{"type":"Feature","geometry":{"type":"Point","coordinates":[30.93877,-29.99416]},"properties":{"id":"durban_osm_107","kind":"river_mouth","kind_ru":"устье реки / канала","name":null,"osm_id":"way/1064511759","source":"© OpenStreetMap contributors (ODbL)","waterway":"canal","coast_dist_m":1027}},{"type":"Feature","geometry":{"type":"Point","coordinates":[30.9516,-29.99541]},"properties":{"id":"durban_osm_108","kind":"river_mouth","kind_ru":"устье реки / канала","name":null,"osm_id":"way/1063479265","source":"© OpenStreetMap contributors (ODbL)","waterway":"river","coast_dist_m":8}},{"type":"Feature","geometry":{"type":"Point","coordinates":[30.95867,-29.97141]},"properties":{"id":"durban_osm_109","kind":"river_mouth","kind_ru":"устье реки / канала","name":null,"osm_id":"way/1078316341","source":"© OpenStreetMap contributors (ODbL)","waterway":"canal","coast_dist_m":1453}},{"type":"Feature","geometry":{"type":"Point","coordinates":[30.97867,-29.96931]},"properties":{"id":"durban_osm_110","kind":"river_mouth","kind_ru":"устье реки / канала","name":"Mlazi","osm_id":"way/502725682","source":"© OpenStreetMap contributors (ODbL)","waterway":"canal","coast_dist_m":0}},{"type":"Feature","geometry":{"type":"Point","coordinates":[30.97276,-29.96298]},"properties":{"id":"durban_osm_111","kind":"river_mouth","kind_ru":"устье реки / канала","name":null,"osm_id":"way/1199631374","source":"© OpenStreetMap contributors (ODbL)","waterway":"canal","coast_dist_m":890}},{"type":"Feature","geometry":{"type":"Point","coordinates":[31.00847,-29.90443]},"properties":{"id":"durban_osm_112","kind":"river_mouth","kind_ru":"устье реки / канала","name":null,"osm_id":"way/1066376931","source":"© OpenStreetMap contributors (ODbL)","waterway":"canal","coast_dist_m":0}},{"type":"Feature","geometry":{"type":"Point","coordinates":[31.00351,-29.89929]},"properties":{"id":"durban_osm_113","kind":"river_mouth","kind_ru":"устье реки / канала","name":"Umbilo River","osm_id":"way/1102583267","source":"© OpenStreetMap contributors (ODbL)","waterway":"canal","coast_dist_m":0}},{"type":"Feature","geometry":{"type":"Point","coordinates":[31.04087,-29.8121]},"properties":{"id":"durban_osm_114","kind":"river_mouth","kind_ru":"устье реки / канала","name":"uMngeni River","osm_id":"way/855910518","source":"© OpenStreetMap contributors (ODbL)","waterway":"river","coast_dist_m":0}},{"type":"Feature","geometry":{"type":"Point","coordinates":[31.04621,-29.86754]},"properties":{"id":"durban_osm_115","kind":"river_mouth","kind_ru":"устье реки / канала","name":"OutSideStream","osm_id":"way/718131072","source":"© OpenStreetMap contributors (ODbL)","waterway":"canal","coast_dist_m":145}},{"type":"Feature","geometry":{"type":"Point","coordinates":[31.09956,-29.70592]},"properties":{"id":"durban_osm_116","kind":"river_mouth","kind_ru":"устье реки / канала","name":"Umhlanga River","osm_id":"way/750091890","source":"© OpenStreetMap contributors (ODbL)","waterway":"river","coast_dist_m":0}},{"type":"Feature","geometry":{"type":"Point","coordinates":[31.07293,-29.73975]},"properties":{"id":"durban_osm_117","kind":"river_mouth","kind_ru":"устье реки / канала","name":null,"osm_id":"way/1096513768","source":"© OpenStreetMap contributors (ODbL)","waterway":"canal","coast_dist_m":716}},{"type":"Feature","geometry":{"type":"Point","coordinates":[31.06893,-29.74544]},"properties":{"id":"durban_osm_118","kind":"river_mouth","kind_ru":"устье реки / канала","name":null,"osm_id":"way/1096513768","source":"© OpenStreetMap contributors (ODbL)","waterway":"canal","coast_dist_m":717}},{"type":"Feature","geometry":{"type":"Point","coordinates":[31.06907,-29.73256]},"properties":{"id":"durban_osm_119","kind":"river_mouth","kind_ru":"устье реки / канала","name":null,"osm_id":"way/1081001405","source":"© OpenStreetMap contributors (ODbL)","waterway":"canal","coast_dist_m":1418}},{"type":"Feature","geometry":{"type":"Point","coordinates":[31.1317,-29.6477]},"properties":{"id":"durban_osm_120","kind":"river_mouth","kind_ru":"устье реки / канала","name":"Mdloti River","osm_id":"way/328122625","source":"© OpenStreetMap contributors (ODbL)","waterway":"river","coast_dist_m":0}},{"type":"Feature","geometry":{"type":"Point","coordinates":[31.18521,-29.57316]},"properties":{"id":"durban_osm_121","kind":"river_mouth","kind_ru":"устье реки / канала","name":"Tongati","osm_id":"way/203966722","source":"© OpenStreetMap contributors (ODbL)","waterway":"river","coast_dist_m":0}}]}