{"type":"FeatureCollection","region":"ganges","bbox":[87.88134,21.37536,88.31849,21.78446],"source":"© OpenStreetMap contributors (ODbL)","fetched":"2026-09-25T10:06:36Z","note":"объекты OpenStreetMap (bbox района ± 10 км); устья — концевые узлы рек/каналов ≤ 1,5 км от береговой линии OSM","features":[{"type":"Feature","geometry":{"type":"Polygon","coordinates":[[[88.31847,21.61013],[88.31755,21.60923],[88.31541,21.60819],[88.31255,21.60815],[88.31086,21.60889],[88.30622,21.6138],[88.30623,21.61497],[88.30702,21.61523],[88.30621,21.61758],[88.30603,21.63154],[88.30794,21.63817],[88.3143,21.65213],[88.31709,21.6642],[88.31726,21.66672],[88.31688,21.66935],[88.31708,21.67196],[88.31601,21.67807],[88.31511,21.68209],[88.31315,21.68666],[88.3079,21.69426],[88.30294,21.70005],[88.29992,21.70289],[88.30034,21.70469],[88.30097,21.70571],[88.3037,21.70748],[88.31071,21.70593],[88.31509,21.70554],[88.31849,21.70582],[88.31847,21.61013]]]},"properties":{"id":"ganges_osm_0","kind":"protected_area","kind_ru":"охраняемая зона","name":"Lothian Island WLS","osm_id":"way/22825809","source":"© OpenStreetMap contributors (ODbL)"}},{"type":"Feature","geometry":{"type":"Polygon","coordinates":[[[88.19514,21.69834],[88.1953,21.69833],[88.19526,21.69826],[88.19514,21.69834]]]},"properties":{"id":"ganges_osm_1","kind":"protected_area","kind_ru":"охраняемая зона","name":null,"osm_id":"way/827333907","source":"© OpenStreetMap contributors (ODbL)"}},{"type":"Feature","geometry":{"type":"Polygon","coordinates":[[[88.19592,21.69949],[88.19602,21.6995],[88.19598,21.69945],[88.19592,21.69949]]]},"properties":{"id":"ganges_osm_2","kind":"protected_area","kind_ru":"охраняемая зона","name":null,"osm_id":"way/827333908","source":"© OpenStreetMap contributors (ODbL)"}},{"type":"Feature","geometry":{"type":"Polygon","coordinates":[[[88.19601,21.69973],[88.19611,21.69976],[88.19606,21.6997],[88.19601,21.69973]]]},"properties":{"id":"ganges_osm_3","kind":"protected_area","kind_ru":"охраняемая зона","name":null,"osm_id":"way/827333909","source":"© OpenStreetMap contributors (ODbL)"}},{"type":"Feature","geometry":{"type":"Polygon","coordinates":[[[88.19645,21.69985],[88.19658,21.69988],[88.19653,21.6998],[88.19645,21.69985]]]},"properties":{"id":"ganges_osm_4","kind":"protected_area","kind_ru":"охраняемая зона","name":null,"osm_id":"way/827333910","source":"© OpenStreetMap contributors (ODbL)"}},{"type":"Feature","geometry":{"type":"Polygon","coordinates":[[[88.19693,21.70083],[88.19689,21.70095],[88.19697,21.70091],[88.19693,21.70083]]]},"properties":{"id":"ganges_osm_5","kind":"protected_area","kind_ru":"охраняемая зона","name":null,"osm_id":"way/827333911","source":"© OpenStreetMap contributors (ODbL)"}},{"type":"Feature","geometry":{"type":"Polygon","coordinates":[[[88.19746,21.69962],[88.19756,21.69967],[88.19755,21.69961],[88.19746,21.69962]]]},"properties":{"id":"ganges_osm_6","kind":"protected_area","kind_ru":"охраняемая зона","name":null,"osm_id":"way/827333913","source":"© OpenStreetMap contributors (ODbL)"}},{"type":"Feature","geometry":{"type":"Polygon","coordinates":[[[88.19758,21.69961],[88.19764,21.69965],[88.19762,21.6996],[88.19758,21.69961]]]},"properties":{"id":"ganges_osm_7","kind":"protected_area","kind_ru":"охраняемая зона","name":null,"osm_id":"way/827333914","source":"© OpenStreetMap contributors (ODbL)"}},{"type":"Feature","geometry":{"type":"Polygon","coordinates":[[[88.19795,21.69988],[88.19805,21.69992],[88.19803,21.69985],[88.19795,21.69988]]]},"properties":{"id":"ganges_osm_8","kind":"protected_area","kind_ru":"охраняемая зона","name":null,"osm_id":"way/827333915","source":"© OpenStreetMap contributors (ODbL)"}},{"type":"Feature","geometry":{"type":"Point","coordinates":[88.04562,21.68786]},"properties":{"id":"ganges_osm_9","kind":"river_mouth","kind_ru":"устье реки / канала","name":null,"osm_id":"way/733095351","source":"© OpenStreetMap contributors (ODbL)","waterway":"river","coast_dist_m":0}},{"type":"Feature","geometry":{"type":"Point","coordinates":[88.0477,21.65155]},"properties":{"id":"ganges_osm_10","kind":"river_mouth","kind_ru":"устье реки / канала","name":null,"osm_id":"way/733098110","source":"© OpenStreetMap contributors (ODbL)","waterway":"river","coast_dist_m":0}},{"type":"Feature","geometry":{"type":"Point","coordinates":[88.06163,21.6373]},"properties":{"id":"ganges_osm_11","kind":"river_mouth","kind_ru":"устье реки / канала","name":null,"osm_id":"way/733098106","source":"© OpenStreetMap contributors (ODbL)","waterway":"river","coast_dist_m":0}},{"type":"Feature","geometry":{"type":"Point","coordinates":[88.08875,21.63114]},"properties":{"id":"ganges_osm_12","kind":"river_mouth","kind_ru":"устье реки / канала","name":null,"osm_id":"way/733098107","source":"© OpenStreetMap contributors (ODbL)","waterway":"river","coast_dist_m":0}},{"type":"Feature","geometry":{"type":"Point","coordinates":[88.05307,21.71489]},"properties":{"id":"ganges_osm_13","kind":"river_mouth","kind_ru":"устье реки / канала","name":null,"osm_id":"way/870460847","source":"© OpenStreetMap contributors (ODbL)","waterway":"river","coast_dist_m":0}},{"type":"Feature","geometry":{"type":"Point","coordinates":[88.23973,21.57891]},"properties":{"id":"ganges_osm_14","kind":"river_mouth","kind_ru":"устье реки / канала","name":null,"osm_id":"way/611319307","source":"© OpenStreetMap contributors (ODbL)","waterway":"river","coast_dist_m":0}},{"type":"Feature","geometry":{"type":"Point","coordinates":[88.13875,21.63598]},"properties":{"id":"ganges_osm_15","kind":"river_mouth","kind_ru":"устье реки / канала","name":null,"osm_id":"way/733095350","source":"© OpenStreetMap contributors (ODbL)","waterway":"river","coast_dist_m":0}},{"type":"Feature","geometry":{"type":"Point","coordinates":[88.29917,21.64908]},"properties":{"id":"ganges_osm_16","kind":"river_mouth","kind_ru":"устье реки / канала","name":null,"osm_id":"way/611319308","source":"© OpenStreetMap contributors (ODbL)","waterway":"river","coast_dist_m":0}},{"type":"Feature","geometry":{"type":"Point","coordinates":[88.15304,21.68263]},"properties":{"id":"ganges_osm_17","kind":"river_mouth","kind_ru":"устье реки / канала","name":null,"osm_id":"way/755645642","source":"© OpenStreetMap contributors (ODbL)","waterway":"canal","coast_dist_m":0}},{"type":"Feature","geometry":{"type":"Point","coordinates":[88.14804,21.71012]},"properties":{"id":"ganges_osm_18","kind":"river_mouth","kind_ru":"устье реки / канала","name":null,"osm_id":"way/831040163","source":"© OpenStreetMap contributors (ODbL)","waterway":"canal","coast_dist_m":865}},{"type":"Feature","geometry":{"type":"Point","coordinates":[88.22014,21.62176]},"properties":{"id":"ganges_osm_19","kind":"river_mouth","kind_ru":"устье реки / канала","name":null,"osm_id":"way/815419956","source":"© OpenStreetMap contributors (ODbL)","waterway":"canal","coast_dist_m":0}},{"type":"Feature","geometry":{"type":"Point","coordinates":[88.23052,21.62166]},"properties":{"id":"ganges_osm_20","kind":"river_mouth","kind_ru":"устье реки / канала","name":null,"osm_id":"way/826514611","source":"© OpenStreetMap contributors (ODbL)","waterway":"canal","coast_dist_m":794}},{"type":"Feature","geometry":{"type":"Point","coordinates":[88.15481,21.76797]},"properties":{"id":"ganges_osm_21","kind":"river_mouth","kind_ru":"устье реки / канала","name":null,"osm_id":"way/1218905552","source":"© OpenStreetMap contributors (ODbL)","waterway":"river","coast_dist_m":1439}},{"type":"Feature","geometry":{"type":"Point","coordinates":[88.09159,21.78743]},"properties":{"id":"ganges_osm_22","kind":"river_mouth","kind_ru":"устье реки / канала","name":null,"osm_id":"way/291174658","source":"© OpenStreetMap contributors (ODbL)","waterway":"canal","coast_dist_m":686}},{"type":"Feature","geometry":{"type":"Point","coordinates":[88.25293,21.7785]},"properties":{"id":"ganges_osm_23","kind":"river_mouth","kind_ru":"устье реки / канала","name":null,"osm_id":"way/945425049","source":"© OpenStreetMap contributors (ODbL)","waterway":"river","coast_dist_m":414}}]}