{"type":"FeatureCollection","region":"haiti","bbox":[-72.76537,18.51464,-72.33469,18.9252],"source":"© OpenStreetMap contributors (ODbL)","fetched":"2026-09-25T10:14:32Z","note":"объекты OpenStreetMap (bbox района ± 10 км); устья — концевые узлы рек/каналов ≤ 1,5 км от береговой линии OSM","features":[{"type":"Feature","geometry":{"type":"Point","coordinates":[-72.5798,18.83801]},"properties":{"id":"haiti_osm_0","kind":"beach","kind_ru":"пляж","name":"Elisse Beach","osm_id":"node/1672147472","source":"© OpenStreetMap contributors (ODbL)"}},{"type":"Feature","geometry":{"type":"Point","coordinates":[-72.60303,18.86042]},"properties":{"id":"haiti_osm_1","kind":"beach","kind_ru":"пляж","name":"Plage Fermee","osm_id":"node/2661062257","source":"© OpenStreetMap contributors (ODbL)"}},{"type":"Feature","geometry":{"type":"Point","coordinates":[-72.58278,18.8387]},"properties":{"id":"haiti_osm_2","kind":"beach","kind_ru":"пляж","name":"Welcome Beach","osm_id":"node/1672153929","source":"© OpenStreetMap contributors (ODbL)"}},{"type":"Feature","geometry":{"type":"Point","coordinates":[-72.58663,18.84115]},"properties":{"id":"haiti_osm_3","kind":"beach","kind_ru":"пляж","name":null,"osm_id":"node/1672155109","source":"© OpenStreetMap contributors (ODbL)"}},{"type":"Feature","geometry":{"type":"Point","coordinates":[-72.34904,18.55514]},"properties":{"id":"haiti_osm_4","kind":"port","kind_ru":"порт","name":"Port","osm_id":"node/615884278","source":"© OpenStreetMap contributors (ODbL)"}},{"type":"Feature","geometry":{"type":"Point","coordinates":[-72.3502,18.55687]},"properties":{"id":"haiti_osm_5","kind":"marina","kind_ru":"марина","name":"Port-au-Prince Harbour","osm_id":"node/613552597","source":"© OpenStreetMap contributors (ODbL)"}},{"type":"Feature","geometry":{"type":"Point","coordinates":[-72.34241,18.58046]},"properties":{"id":"haiti_osm_6","kind":"marina","kind_ru":"марина","name":"Waf de cite soleil","osm_id":"node/1420309415","source":"© OpenStreetMap contributors (ODbL)"}},{"type":"Feature","geometry":{"type":"Polygon","coordinates":[[[-72.61431,18.86907],[-72.61403,18.86848],[-72.61489,18.86817],[-72.61509,18.86873],[-72.61431,18.86907]]]},"properties":{"id":"haiti_osm_7","kind":"marina","kind_ru":"марина","name":"Kaliko Beach Marina","osm_id":"way/165293223","source":"© OpenStreetMap contributors (ODbL)"}},{"type":"Feature","geometry":{"type":"Polygon","coordinates":[[[-72.61689,18.8725],[-72.61652,18.87488],[-72.61624,18.87596],[-72.61655,18.87324],[-72.61689,18.8725]]]},"properties":{"id":"haiti_osm_8","kind":"beach","kind_ru":"пляж","name":null,"osm_id":"way/165293236","source":"© OpenStreetMap contributors (ODbL)"}},{"type":"Feature","geometry":{"type":"Polygon","coordinates":[[[-72.4233,18.54934],[-72.42319,18.54972],[-72.42296,18.54979],[-72.42304,18.54944],[-72.4233,18.54934]]]},"properties":{"id":"haiti_osm_9","kind":"beach","kind_ru":"пляж","name":null,"osm_id":"way/48380509","source":"© OpenStreetMap contributors (ODbL)"}},{"type":"Feature","geometry":{"type":"Polygon","coordinates":[[[-72.33853,18.57455],[-72.33934,18.57414],[-72.33968,18.57367],[-72.33992,18.57357],[-72.33924,18.57468],[-72.33853,18.57455]]]},"properties":{"id":"haiti_osm_10","kind":"beach","kind_ru":"пляж","name":"Plage de Bellecourt","osm_id":"way/125212979","source":"© OpenStreetMap contributors (ODbL)"}},{"type":"Feature","geometry":{"type":"Polygon","coordinates":[[[-72.33609,18.58501],[-72.33475,18.58442],[-72.33469,18.58419],[-72.33625,18.58482],[-72.33609,18.58501]]]},"properties":{"id":"haiti_osm_11","kind":"beach","kind_ru":"пляж","name":null,"osm_id":"way/49311533","source":"© OpenStreetMap contributors (ODbL)"}},{"type":"Feature","geometry":{"type":"Polygon","coordinates":[[[-72.35078,18.62291],[-72.34688,18.62067],[-72.34662,18.61993],[-72.34796,18.61647],[-72.34894,18.61502],[-72.35134,18.6165],[-72.35159,18.61753],[-72.35086,18.61838],[-72.35034,18.62052],[-72.35078,18.62291]]]},"properties":{"id":"haiti_osm_12","kind":"beach","kind_ru":"пляж","name":"Plage Touloulou","osm_id":"way/144269457","source":"© OpenStreetMap contributors (ODbL)"}},{"type":"Feature","geometry":{"type":"Polygon","coordinates":[[[-72.37916,18.69759],[-72.37867,18.69663],[-72.37946,18.69633],[-72.37992,18.69726],[-72.37916,18.69759]]]},"properties":{"id":"haiti_osm_13","kind":"marina","kind_ru":"марина","name":null,"osm_id":"way/48290239","source":"© OpenStreetMap contributors (ODbL)"}},{"type":"Feature","geometry":{"type":"Polygon","coordinates":[[[-72.38687,18.71367],[-72.38707,18.71352],[-72.38705,18.71369],[-72.38687,18.71367]]]},"properties":{"id":"haiti_osm_14","kind":"wastewater_plant","kind_ru":"очистные сооружения","name":null,"osm_id":"way/48376009","source":"© OpenStreetMap contributors (ODbL)"}},{"type":"Feature","geometry":{"type":"Polygon","coordinates":[[[-72.3681,18.56816],[-72.36977,18.56802],[-72.36988,18.56821],[-72.3681,18.56816]]]},"properties":{"id":"haiti_osm_15","kind":"beach","kind_ru":"пляж","name":null,"osm_id":"relation/13100933","source":"© OpenStreetMap contributors (ODbL)"}},{"type":"Feature","geometry":{"type":"Point","coordinates":[-72.56932,18.56591]},"properties":{"id":"haiti_osm_16","kind":"river_mouth","kind_ru":"устье реки / канала","name":"Rivière Momance","osm_id":"way/48425137","source":"© OpenStreetMap contributors (ODbL)","waterway":"river","coast_dist_m":0}},{"type":"Feature","geometry":{"type":"Point","coordinates":[-72.65359,18.51907]},"properties":{"id":"haiti_osm_17","kind":"river_mouth","kind_ru":"устье реки / канала","name":"Rivière Rouyonne","osm_id":"way/48363244","source":"© OpenStreetMap contributors (ODbL)","waterway":"river","coast_dist_m":0}},{"type":"Feature","geometry":{"type":"Point","coordinates":[-72.56158,18.80087]},"properties":{"id":"haiti_osm_18","kind":"river_mouth","kind_ru":"устье реки / канала","name":null,"osm_id":"way/49039122","source":"© OpenStreetMap contributors (ODbL)","waterway":"river","coast_dist_m":0}},{"type":"Feature","geometry":{"type":"Point","coordinates":[-72.54466,18.54817]},"properties":{"id":"haiti_osm_19","kind":"river_mouth","kind_ru":"устье реки / канала","name":"Rivière Marion","osm_id":"way/48528410","source":"© OpenStreetMap contributors (ODbL)","waterway":"river","coast_dist_m":0}},{"type":"Feature","geometry":{"type":"Point","coordinates":[-72.55236,18.55481]},"properties":{"id":"haiti_osm_20","kind":"river_mouth","kind_ru":"устье реки / канала","name":null,"osm_id":"way/48503932","source":"© OpenStreetMap contributors (ODbL)","waterway":"river","coast_dist_m":0}},{"type":"Feature","geometry":{"type":"Point","coordinates":[-72.45747,18.54072]},"properties":{"id":"haiti_osm_21","kind":"river_mouth","kind_ru":"устье реки / канала","name":null,"osm_id":"way/50804384","source":"© OpenStreetMap contributors (ODbL)","waterway":"river","coast_dist_m":595}},{"type":"Feature","geometry":{"type":"Point","coordinates":[-72.41684,18.55606]},"properties":{"id":"haiti_osm_22","kind":"river_mouth","kind_ru":"устье реки / канала","name":"Rivière Froide","osm_id":"way/48271925","source":"© OpenStreetMap contributors (ODbL)","waterway":"river","coast_dist_m":0}},{"type":"Feature","geometry":{"type":"Point","coordinates":[-72.37832,18.52989]},"properties":{"id":"haiti_osm_23","kind":"river_mouth","kind_ru":"устье реки / канала","name":null,"osm_id":"way/48223645","source":"© OpenStreetMap contributors (ODbL)","waterway":"river","coast_dist_m":435}},{"type":"Feature","geometry":{"type":"Point","coordinates":[-72.39158,18.53492]},"properties":{"id":"haiti_osm_24","kind":"river_mouth","kind_ru":"устье реки / канала","name":null,"osm_id":"way/48226798","source":"© OpenStreetMap contributors (ODbL)","waterway":"canal","coast_dist_m":657}},{"type":"Feature","geometry":{"type":"Point","coordinates":[-72.39098,18.54018]},"properties":{"id":"haiti_osm_25","kind":"river_mouth","kind_ru":"устье реки / канала","name":null,"osm_id":"way/157194537","source":"© OpenStreetMap contributors (ODbL)","waterway":"canal","coast_dist_m":274}},{"type":"Feature","geometry":{"type":"Point","coordinates":[-72.36877,18.52653]},"properties":{"id":"haiti_osm_26","kind":"river_mouth","kind_ru":"устье реки / канала","name":"grann sonnette de la ravine papa cito","osm_id":"way/48222988","source":"© OpenStreetMap contributors (ODbL)","waterway":"canal","coast_dist_m":812}},{"type":"Feature","geometry":{"type":"Point","coordinates":[-72.36786,18.53614]},"properties":{"id":"haiti_osm_27","kind":"river_mouth","kind_ru":"устье реки / канала","name":"grann sonnette de la ravine papa cito","osm_id":"way/203314243","source":"© OpenStreetMap contributors (ODbL)","waterway":"canal","coast_dist_m":0}},{"type":"Feature","geometry":{"type":"Point","coordinates":[-72.36301,18.52409]},"properties":{"id":"haiti_osm_28","kind":"river_mouth","kind_ru":"устье реки / канала","name":null,"osm_id":"way/684473092","source":"© OpenStreetMap contributors (ODbL)","waterway":"river","coast_dist_m":1142}},{"type":"Feature","geometry":{"type":"Point","coordinates":[-72.36401,18.53021]},"properties":{"id":"haiti_osm_29","kind":"river_mouth","kind_ru":"устье реки / канала","name":"Canal Palmera","osm_id":"way/48218096","source":"© OpenStreetMap contributors (ODbL)","waterway":"canal","coast_dist_m":461}},{"type":"Feature","geometry":{"type":"Point","coordinates":[-72.3617,18.53738]},"properties":{"id":"haiti_osm_30","kind":"river_mouth","kind_ru":"устье реки / канала","name":null,"osm_id":"way/48486021","source":"© OpenStreetMap contributors (ODbL)","waterway":"river","coast_dist_m":0}},{"type":"Feature","geometry":{"type":"Point","coordinates":[-72.35188,18.53105]},"properties":{"id":"haiti_osm_31","kind":"river_mouth","kind_ru":"устье реки / канала","name":null,"osm_id":"way/461763687","source":"© OpenStreetMap contributors (ODbL)","waterway":"canal","coast_dist_m":1099}},{"type":"Feature","geometry":{"type":"Point","coordinates":[-72.352,18.56921]},"properties":{"id":"haiti_osm_32","kind":"river_mouth","kind_ru":"устье реки / канала","name":null,"osm_id":"way/295485317","source":"© OpenStreetMap contributors (ODbL)","waterway":"river","coast_dist_m":3}},{"type":"Feature","geometry":{"type":"Point","coordinates":[-72.35558,18.62584]},"properties":{"id":"haiti_osm_33","kind":"river_mouth","kind_ru":"устье реки / канала","name":null,"osm_id":"way/935125502","source":"© OpenStreetMap contributors (ODbL)","waterway":"river","coast_dist_m":0}},{"type":"Feature","geometry":{"type":"Point","coordinates":[-72.35471,18.63286]},"properties":{"id":"haiti_osm_34","kind":"river_mouth","kind_ru":"устье реки / канала","name":"Rivière Grise","osm_id":"way/942855964","source":"© OpenStreetMap contributors (ODbL)","waterway":"river","coast_dist_m":292}},{"type":"Feature","geometry":{"type":"Point","coordinates":[-72.34766,18.53316]},"properties":{"id":"haiti_osm_35","kind":"river_mouth","kind_ru":"устье реки / канала","name":null,"osm_id":"way/48218087","source":"© OpenStreetMap contributors (ODbL)","waterway":"canal","coast_dist_m":1124}},{"type":"Feature","geometry":{"type":"Point","coordinates":[-72.34303,18.55943]},"properties":{"id":"haiti_osm_36","kind":"river_mouth","kind_ru":"устье реки / канала","name":null,"osm_id":"way/48867519","source":"© OpenStreetMap contributors (ODbL)","waterway":"river","coast_dist_m":556}},{"type":"Feature","geometry":{"type":"Point","coordinates":[-72.33982,18.56801]},"properties":{"id":"haiti_osm_37","kind":"river_mouth","kind_ru":"устье реки / канала","name":null,"osm_id":"way/294689631","source":"© OpenStreetMap contributors (ODbL)","waterway":"canal","coast_dist_m":582}},{"type":"Feature","geometry":{"type":"Point","coordinates":[-72.34462,18.56881]},"properties":{"id":"haiti_osm_38","kind":"river_mouth","kind_ru":"устье реки / канала","name":null,"osm_id":"way/294946371","source":"© OpenStreetMap contributors (ODbL)","waterway":"canal","coast_dist_m":491}},{"type":"Feature","geometry":{"type":"Point","coordinates":[-72.34384,18.57384]},"properties":{"id":"haiti_osm_39","kind":"river_mouth","kind_ru":"устье реки / канала","name":null,"osm_id":"way/294807721","source":"© OpenStreetMap contributors (ODbL)","waterway":"canal","coast_dist_m":8}},{"type":"Feature","geometry":{"type":"Point","coordinates":[-72.33859,18.57475]},"properties":{"id":"haiti_osm_40","kind":"river_mouth","kind_ru":"устье реки / канала","name":null,"osm_id":"way/302405704","source":"© OpenStreetMap contributors (ODbL)","waterway":"river","coast_dist_m":0}},{"type":"Feature","geometry":{"type":"Point","coordinates":[-72.3359,18.58398]},"properties":{"id":"haiti_osm_41","kind":"river_mouth","kind_ru":"устье реки / канала","name":null,"osm_id":"way/910580043","source":"© OpenStreetMap contributors (ODbL)","waterway":"river","coast_dist_m":382}},{"type":"Feature","geometry":{"type":"Point","coordinates":[-72.45993,18.73414]},"properties":{"id":"haiti_osm_42","kind":"river_mouth","kind_ru":"устье реки / канала","name":"Rivière Monègue","osm_id":"way/48410532","source":"© OpenStreetMap contributors (ODbL)","waterway":"river","coast_dist_m":0}},{"type":"Feature","geometry":{"type":"Point","coordinates":[-72.51474,18.76693]},"properties":{"id":"haiti_osm_43","kind":"river_mouth","kind_ru":"устье реки / канала","name":null,"osm_id":"way/48719881","source":"© OpenStreetMap contributors (ODbL)","waterway":"river","coast_dist_m":0}},{"type":"Feature","geometry":{"type":"Point","coordinates":[-72.53019,18.78367]},"properties":{"id":"haiti_osm_44","kind":"river_mouth","kind_ru":"устье реки / канала","name":null,"osm_id":"way/154732408","source":"© OpenStreetMap contributors (ODbL)","waterway":"canal","coast_dist_m":1200}},{"type":"Feature","geometry":{"type":"Point","coordinates":[-72.49461,18.76558]},"properties":{"id":"haiti_osm_45","kind":"river_mouth","kind_ru":"устье реки / канала","name":"Rivière Aubry","osm_id":"way/48507542","source":"© OpenStreetMap contributors (ODbL)","waterway":"river","coast_dist_m":0}},{"type":"Feature","geometry":{"type":"Point","coordinates":[-72.45079,18.72403]},"properties":{"id":"haiti_osm_46","kind":"river_mouth","kind_ru":"устье реки / канала","name":null,"osm_id":"way/48748578","source":"© OpenStreetMap contributors (ODbL)","waterway":"river","coast_dist_m":0}},{"type":"Feature","geometry":{"type":"Point","coordinates":[-72.4179,18.7132]},"properties":{"id":"haiti_osm_47","kind":"river_mouth","kind_ru":"устье реки / канала","name":null,"osm_id":"way/48719883","source":"© OpenStreetMap contributors (ODbL)","waterway":"river","coast_dist_m":0}},{"type":"Feature","geometry":{"type":"Point","coordinates":[-72.40772,18.71138]},"properties":{"id":"haiti_osm_48","kind":"river_mouth","kind_ru":"устье реки / канала","name":null,"osm_id":"way/1502368973","source":"© OpenStreetMap contributors (ODbL)","waterway":"river","coast_dist_m":10}},{"type":"Feature","geometry":{"type":"Point","coordinates":[-72.37568,18.69964]},"properties":{"id":"haiti_osm_49","kind":"river_mouth","kind_ru":"устье реки / канала","name":null,"osm_id":"way/48290260","source":"© OpenStreetMap contributors (ODbL)","waterway":"river","coast_dist_m":0}},{"type":"Feature","geometry":{"type":"Point","coordinates":[-72.39783,18.71235]},"properties":{"id":"haiti_osm_50","kind":"river_mouth","kind_ru":"устье реки / канала","name":null,"osm_id":"way/48415540","source":"© OpenStreetMap contributors (ODbL)","waterway":"river","coast_dist_m":9}},{"type":"Feature","geometry":{"type":"Point","coordinates":[-72.54841,18.80418]},"properties":{"id":"haiti_osm_51","kind":"river_mouth","kind_ru":"устье реки / канала","name":null,"osm_id":"way/154724067","source":"© OpenStreetMap contributors (ODbL)","waterway":"canal","coast_dist_m":1207}}]}