{"type":"FeatureCollection","region":"honduras","bbox":[-88.43091,15.59561,-88.00931,16.00449],"source":"© OpenStreetMap contributors (ODbL)","fetched":"2026-09-25T10:02:02Z","note":"объекты OpenStreetMap (bbox района ± 10 км); устья — концевые узлы рек/каналов ≤ 1,5 км от береговой линии OSM","features":[{"type":"Feature","geometry":{"type":"Point","coordinates":[-88.18293,15.69512]},"properties":{"id":"honduras_osm_0","kind":"beach","kind_ru":"пляж","name":null,"osm_id":"node/9033462444","source":"© OpenStreetMap contributors (ODbL)"}},{"type":"Feature","geometry":{"type":"Point","coordinates":[-88.10915,15.71312]},"properties":{"id":"honduras_osm_1","kind":"beach","kind_ru":"пляж","name":"Chachahuala","osm_id":"node/11879913495","source":"© OpenStreetMap contributors (ODbL)"}},{"type":"Feature","geometry":{"type":"LineString","coordinates":[[-88.05661,15.61754],[-88.07713,15.65169],[-88.08563,15.68325],[-88.09434,15.70249],[-88.09531,15.70276],[-88.0982,15.69783],[-88.10564,15.68923],[-88.10807,15.68558],[-88.11078,15.68049],[-88.11481,15.67747],[-88.11981,15.67274],[-88.12485,15.67132],[-88.12858,15.6713],[-88.13181,15.66972],[-88.13781,15.66888],[-88.14067,15.66971],[-88.14491,15.66904],[-88.14919,15.66589],[-88.1518,15.66247],[-88.16587,15.66019],[-88.16939,15.6612],[-88.17843,15.65796],[-88.18311,15.65735],[-88.18723,15.65575],[-88.1886,15.65299],[-88.1965,15.64926],[-88.19997,15.6464],[-88.20842,15.64076],[-88.21352,15.63899],[-88.223,15.63426],[-88.23074,15.63124],[-88.23419,15.6295],[-88.23653,15.62694],[-88.24332,15.62141],[-88.25664,15.61644],[-88.26595,15.61168],[-88.28049,15.6071],[-88.28172,15.60804],[-88.28443,15.60695],[-88.28607,15.60571],[-88.28693,15.60308],[-88.28751,15.60307],[-88.2887,15.60486],[-88.29075,15.60369],[-88.29115,15.60141],[-88.29059,15.5997],[-88.29536,15.59709],[-88.29594,15.59728],[-88.29734,15.59655],[-88.29814,15.59561]]},"properties":{"id":"honduras_osm_2","kind":"protected_area","kind_ru":"охраняемая зона","name":null,"osm_id":"way/1192435425","source":"© OpenStreetMap contributors (ODbL)"}},{"type":"Feature","geometry":{"type":"Polygon","coordinates":[[[-88.43091,15.84704],[-88.41995,15.84152],[-88.41196,15.83719],[-88.40142,15.83082],[-88.40137,15.8307],[-88.41358,15.83799],[-88.42657,15.84457],[-88.42835,15.84506],[-88.42832,15.84537],[-88.43091,15.84673],[-88.43091,15.84704]]]},"properties":{"id":"honduras_osm_3","kind":"beach","kind_ru":"пляж","name":null,"osm_id":"way/1304768747","source":"© OpenStreetMap contributors (ODbL)"}},{"type":"Feature","geometry":{"type":"LineString","coordinates":[[-88.18216,15.59561],[-88.19123,15.61387],[-88.27076,15.59919],[-88.28501,15.59607],[-88.28547,15.59561]]},"properties":{"id":"honduras_osm_4","kind":"protected_area","kind_ru":"охраняемая зона","name":null,"osm_id":"way/1192435424","source":"© OpenStreetMap contributors (ODbL)"}},{"type":"Feature","geometry":{"type":"LineString","coordinates":[[-88.11724,15.59561],[-88.09355,15.61428],[-88.05661,15.61754]]},"properties":{"id":"honduras_osm_5","kind":"protected_area","kind_ru":"охраняемая зона","name":null,"osm_id":"way/1192458127","source":"© OpenStreetMap contributors (ODbL)"}},{"type":"Feature","geometry":{"type":"LineString","coordinates":[[-88.24891,15.6539],[-88.25361,15.65908],[-88.25613,15.65697],[-88.25747,15.65702],[-88.25985,15.65429],[-88.26106,15.65489],[-88.26242,15.65619],[-88.26225,15.6563],[-88.26331,15.65756],[-88.26486,15.65659],[-88.26624,15.6581],[-88.26693,15.65743],[-88.26763,15.65798],[-88.26825,15.65741],[-88.27039,15.65907],[-88.27063,15.65959],[-88.27001,15.6617]]},"properties":{"id":"honduras_osm_6","kind":"protected_area","kind_ru":"охраняемая зона","name":null,"osm_id":"way/1192431221","source":"© OpenStreetMap contributors (ODbL)"}},{"type":"Feature","geometry":{"type":"LineString","coordinates":[[-88.2326,15.66736],[-88.23347,15.66716],[-88.23283,15.66598],[-88.23637,15.66552],[-88.23645,15.66444],[-88.24162,15.66457],[-88.24185,15.66295],[-88.24289,15.6631],[-88.24312,15.66116],[-88.24881,15.65574]]},"properties":{"id":"honduras_osm_7","kind":"protected_area","kind_ru":"охраняемая зона","name":null,"osm_id":"way/1192431218","source":"© OpenStreetMap contributors (ODbL)"}},{"type":"Feature","geometry":{"type":"LineString","coordinates":[[-88.2616,15.67407],[-88.26203,15.67533],[-88.26412,15.67642],[-88.26548,15.67491],[-88.26944,15.67457],[-88.26882,15.67791],[-88.26989,15.6809],[-88.26783,15.68252]]},"properties":{"id":"honduras_osm_8","kind":"protected_area","kind_ru":"охраняемая зона","name":null,"osm_id":"way/1192431223","source":"© OpenStreetMap contributors (ODbL)"}},{"type":"Feature","geometry":{"type":"LineString","coordinates":[[-88.23034,15.68818],[-88.22633,15.68351],[-88.2275,15.68288],[-88.22905,15.68127],[-88.23002,15.67968],[-88.22865,15.67894],[-88.22909,15.67778],[-88.22668,15.67779],[-88.22632,15.67624],[-88.22479,15.67442],[-88.22923,15.67267],[-88.22837,15.66987],[-88.23122,15.67021],[-88.23117,15.66899]]},"properties":{"id":"honduras_osm_9","kind":"protected_area","kind_ru":"охраняемая зона","name":null,"osm_id":"way/1192431215","source":"© OpenStreetMap contributors (ODbL)"}},{"type":"Feature","geometry":{"type":"LineString","coordinates":[[-88.19362,15.69348],[-88.19388,15.69322],[-88.19588,15.6935],[-88.19819,15.69234],[-88.19834,15.69306],[-88.20071,15.69231],[-88.20218,15.69512]]},"properties":{"id":"honduras_osm_10","kind":"protected_area","kind_ru":"охраняемая зона","name":null,"osm_id":"way/1192431207","source":"© OpenStreetMap contributors (ODbL)"}},{"type":"Feature","geometry":{"type":"LineString","coordinates":[[-88.20375,15.69389],[-88.20436,15.69511],[-88.20621,15.69569]]},"properties":{"id":"honduras_osm_11","kind":"protected_area","kind_ru":"охраняемая зона","name":null,"osm_id":"way/1192431210","source":"© OpenStreetMap contributors (ODbL)"}},{"type":"Feature","geometry":{"type":"Polygon","coordinates":[[[-88.39942,15.82942],[-88.39882,15.82969],[-88.39751,15.82899],[-88.39622,15.82803],[-88.39623,15.82748],[-88.39653,15.8275],[-88.39653,15.82803],[-88.39737,15.82854],[-88.39822,15.82861],[-88.39844,15.82915],[-88.39942,15.82942]]]},"properties":{"id":"honduras_osm_12","kind":"beach","kind_ru":"пляж","name":null,"osm_id":"way/1304768743","source":"© OpenStreetMap contributors (ODbL)"}},{"type":"Feature","geometry":{"type":"Polygon","coordinates":[[[-88.06509,15.75466],[-88.06068,15.7551],[-88.05815,15.75559],[-88.06162,15.75478],[-88.06509,15.75466]]]},"properties":{"id":"honduras_osm_13","kind":"beach","kind_ru":"пляж","name":null,"osm_id":"way/392465492","source":"© OpenStreetMap contributors (ODbL)"}},{"type":"Feature","geometry":{"type":"Polygon","coordinates":[[[-88.04023,15.78441],[-88.03926,15.78448],[-88.03833,15.78486],[-88.03854,15.78445],[-88.04022,15.7842],[-88.04023,15.78441]]]},"properties":{"id":"honduras_osm_14","kind":"beach","kind_ru":"пляж","name":null,"osm_id":"way/392465493","source":"© OpenStreetMap contributors (ODbL)"}},{"type":"Feature","geometry":{"type":"Polygon","coordinates":[[[-88.03511,15.78502],[-88.03565,15.78463],[-88.03767,15.78451],[-88.03833,15.78486],[-88.03511,15.78502]]]},"properties":{"id":"honduras_osm_15","kind":"beach","kind_ru":"пляж","name":null,"osm_id":"way/392465500","source":"© OpenStreetMap contributors (ODbL)"}},{"type":"Feature","geometry":{"type":"Polygon","coordinates":[[[-88.03459,15.78521],[-88.03015,15.78556],[-88.03026,15.78513],[-88.03097,15.78497],[-88.03361,15.78484],[-88.03459,15.78521]]]},"properties":{"id":"honduras_osm_16","kind":"beach","kind_ru":"пляж","name":null,"osm_id":"way/392465490","source":"© OpenStreetMap contributors (ODbL)"}},{"type":"Feature","geometry":{"type":"Polygon","coordinates":[[[-88.02873,15.78583],[-88.02374,15.78607],[-88.02335,15.78619],[-88.02351,15.78586],[-88.0263,15.78565],[-88.02845,15.78554],[-88.02873,15.78583]]]},"properties":{"id":"honduras_osm_17","kind":"beach","kind_ru":"пляж","name":null,"osm_id":"way/392465491","source":"© OpenStreetMap contributors (ODbL)"}},{"type":"Feature","geometry":{"type":"Polygon","coordinates":[[[-88.28501,15.59607],[-88.27076,15.59919],[-88.19123,15.61387],[-88.18216,15.59561],[-88.28547,15.59561],[-88.28501,15.59607]]]},"properties":{"id":"honduras_osm_18","kind":"protected_area","kind_ru":"охраняемая зона","name":"Parque Nacional Cusuco","osm_id":"relation/5951691","source":"© OpenStreetMap contributors (ODbL)"}},{"type":"Feature","geometry":{"type":"Polygon","coordinates":[[[-88.02491,15.59998],[-88.02419,15.60337],[-88.02513,15.60338],[-88.027,15.6025],[-88.02753,15.60267],[-88.02767,15.60322],[-88.02945,15.60366],[-88.02976,15.60323],[-88.02933,15.60227],[-88.03085,15.59912],[-88.0303,15.59756],[-88.03171,15.59642],[-88.03194,15.59561],[-88.11724,15.59561],[-88.09355,15.61428],[-88.0567,15.61757],[-88.03813,15.6115],[-88.00931,15.60565],[-88.00931,15.60446],[-88.01958,15.59937],[-88.02463,15.59931],[-88.02491,15.59998]]]},"properties":{"id":"honduras_osm_19","kind":"protected_area","kind_ru":"охраняемая зона","name":"Zona de Reserva del Merendón","osm_id":"relation/16130994","source":"© OpenStreetMap contributors (ODbL)"}},{"type":"Feature","geometry":{"type":"Polygon","coordinates":[[[-88.19123,15.61387],[-88.27076,15.59919],[-88.28501,15.59607],[-88.28547,15.59561],[-88.29814,15.59561],[-88.29734,15.59655],[-88.29594,15.59728],[-88.29536,15.59709],[-88.29059,15.5997],[-88.29115,15.60141],[-88.29075,15.60369],[-88.2887,15.60486],[-88.28751,15.60307],[-88.28693,15.60308],[-88.28607,15.60571],[-88.28443,15.60695],[-88.28172,15.60804],[-88.28049,15.6071],[-88.26595,15.61168],[-88.25664,15.61644],[-88.24332,15.62141],[-88.23653,15.62694],[-88.23419,15.6295],[-88.23074,15.63124],[-88.223,15.63426],[-88.21352,15.63899],[-88.20842,15.64076],[-88.19997,15.6464],[-88.1965,15.64926],[-88.1886,15.65299],[-88.18723,15.65575],[-88.18311,15.65735],[-88.17843,15.65796],[-88.16939,15.6612],[-88.16587,15.66019],[-88.1518,15.66247],[-88.14919,15.66589],[-88.14491,15.66904],[-88.14067,15.66971],[-88.13781,15.66888],[-88.13181,15.66972],[-88.12858,15.6713],[-88.12485,15.67132],[-88.11981,15.67274],[-88.11481,15.67747],[-88.11078,15.68049],[-88.10807,15.68558],[-88.10564,15.68923],[-88.0982,15.69783],[-88.09531,15.70276],[-88.09434,15.70249],[-88.08563,15.68325],[-88.07713,15.65169],[-88.05661,15.61754],[-88.09355,15.61428],[-88.11724,15.59561],[-88.18216,15.59561],[-88.19123,15.61387]]]},"properties":{"id":"honduras_osm_20","kind":"protected_area","kind_ru":"охраняемая зона","name":"Parque Nacional Omoa","osm_id":"relation/16130799","source":"© OpenStreetMap contributors (ODbL)"}},{"type":"Feature","geometry":{"type":"Polygon","coordinates":[[[-88.32517,15.67244],[-88.43091,15.76616],[-88.43091,15.97251],[-88.419,15.96338],[-88.38447,15.9398],[-88.37215,15.93391],[-88.3682,15.93265],[-88.33402,15.91597],[-88.31937,15.90681],[-88.30872,15.90098],[-88.30199,15.89816],[-88.285,15.88714],[-88.27396,15.88158],[-88.26923,15.87853],[-88.22781,15.72384],[-88.2398,15.72203],[-88.24253,15.72195],[-88.24527,15.72231],[-88.2471,15.72284],[-88.24893,15.72396],[-88.25027,15.72422],[-88.25206,15.72373],[-88.25272,15.72283],[-88.25296,15.72165],[-88.2524,15.71989],[-88.24849,15.71622],[-88.24781,15.71421],[-88.24771,15.71158],[-88.24714,15.71109],[-88.2465,15.71103],[-88.24396,15.71147],[-88.24318,15.71131],[-88.24251,15.71095],[-88.24207,15.70978],[-88.24227,15.70881],[-88.245,15.70569],[-88.24581,15.70395],[-88.24545,15.703],[-88.24333,15.7007],[-88.24312,15.70014],[-88.24347,15.69813],[-88.24395,15.69784],[-88.24644,15.69872],[-88.24843,15.69877],[-88.25049,15.69809],[-88.25116,15.69737],[-88.25105,15.69627],[-88.2481,15.69392],[-88.2477,15.69318],[-88.24713,15.68914],[-88.24763,15.68818],[-88.25035,15.68817],[-88.25258,15.68663],[-88.25394,15.68629],[-88.25496,15.68711],[-88.25594,15.69104],[-88.25673,15.69186],[-88.25725,15.69187],[-88.2582,15.69077],[-88.2576,15.6867],[-88.25776,15.68561],[-88.25853,15.68409],[-88.26055,15.68242],[-88.26365,15.68119],[-88.26473,15.68111],[-88.26733,15.682],[-88.26815,15.68324],[-88.26776,15.6847],[-88.26583,15.68652],[-88.26505,15.68797],[-88.26511,15.69031],[-88.26625,15.69204],[-88.26776,15.69264],[-88.26913,15.69229],[-88.26976,15.69177],[-88.27243,15.68538],[-88.27314,15.68475],[-88.2748,15.68428],[-88.27565,15.68493],[-88.28135,15.69359],[-88.28276,15.6945],[-88.28424,15.69434],[-88.28555,15.69357],[-88.28609,15.69283],[-88.28681,15.68912],[-88.2858,15.6869],[-88.28327,15.68546],[-88.28102,15.68336],[-88.27997,15.68122],[-88.28006,15.67927],[-88.27955,15.67701],[-88.28026,15.67565],[-88.28239,15.6744],[-88.28454,15.67408],[-88.28892,15.67529],[-88.29217,15.67467],[-88.29422,15.67519],[-88.29665,15.67426],[-88.29811,15.67442],[-88.30065,15.67382],[-88.30195,15.67294],[-88.30259,15.67103],[-88.30336,15.67063],[-88.30451,15.67067],[-88.3053,15.67104],[-88.30667,15.67252],[-88.30678,15.67434],[-88.30748,15.67701],[-88.30814,15.67875],[-88.30919,15.68011],[-88.31109,15.68163],[-88.31392,15.68219],[-88.31559,15.67567],[-88.31635,15.67393],[-88.31804,15.67177],[-88.31838,15.66907],[-88.31936,15.66916],[-88.32113,15.66998],[-88.32249,15.6709],[-88.32371,15.67233],[-88.32517,15.67244]]]},"properties":{"id":"honduras_osm_21","kind":"protected_area","kind_ru":"охраняемая зона","name":"Refugio de Vida Silvestre Punta de Manabique","osm_id":"relation/16808393","source":"© OpenStreetMap contributors (ODbL)"}},{"type":"Feature","geometry":{"type":"Polygon","coordinates":[[[-88.26733,15.682],[-88.26473,15.68111],[-88.26365,15.68119],[-88.2597,15.68295],[-88.25853,15.68409],[-88.25765,15.68601],[-88.2582,15.69077],[-88.25725,15.69187],[-88.25673,15.69186],[-88.25594,15.69104],[-88.25496,15.68711],[-88.25394,15.68629],[-88.25258,15.68663],[-88.25035,15.68817],[-88.24763,15.68818],[-88.24713,15.68914],[-88.2477,15.69318],[-88.2481,15.69392],[-88.25105,15.69627],[-88.25116,15.69737],[-88.25049,15.69809],[-88.24843,15.69877],[-88.24644,15.69872],[-88.24395,15.69784],[-88.24347,15.69813],[-88.24312,15.70014],[-88.24333,15.7007],[-88.24545,15.703],[-88.24581,15.70395],[-88.245,15.70569],[-88.24227,15.70881],[-88.24203,15.70939],[-88.2422,15.71018],[-88.24251,15.71095],[-88.24318,15.71131],[-88.24396,15.71147],[-88.2465,15.71103],[-88.24714,15.71109],[-88.24771,15.71158],[-88.24781,15.71421],[-88.24849,15.71622],[-88.2524,15.71989],[-88.25296,15.72165],[-88.25272,15.72283],[-88.25206,15.72373],[-88.25027,15.72422],[-88.24893,15.72396],[-88.2471,15.72284],[-88.24253,15.72195],[-88.2398,15.72203],[-88.22781,15.72384],[-88.22135,15.72295],[-88.21383,15.7549],[-88.11112,15.75554],[-88.10467,15.72345],[-88.10647,15.72167],[-88.10786,15.71964],[-88.10791,15.71897],[-88.10888,15.71804],[-88.10869,15.71732],[-88.1095,15.7142],[-88.10916,15.71323],[-88.10955,15.71152],[-88.10931,15.71136],[-88.10929,15.70972],[-88.1102,15.7062],[-88.10985,15.70512],[-88.10963,15.70477],[-88.10929,15.70491],[-88.10964,15.70533],[-88.10912,15.70556],[-88.10934,15.70819],[-88.10908,15.70833],[-88.10907,15.70958],[-88.10811,15.71073],[-88.10862,15.71167],[-88.10799,15.71208],[-88.1076,15.71136],[-88.10764,15.71007],[-88.10717,15.7096],[-88.10742,15.71081],[-88.10654,15.71275],[-88.10568,15.71355],[-88.10595,15.71454],[-88.10524,15.71506],[-88.10405,15.71385],[-88.10376,15.71411],[-88.10428,15.71462],[-88.10405,15.71505],[-88.10424,15.71546],[-88.10377,15.7161],[-88.1026,15.71499],[-88.10199,15.7148],[-88.10233,15.71456],[-88.10244,15.71121],[-88.10198,15.70974],[-88.10238,15.70941],[-88.10221,15.70825],[-88.10253,15.70667],[-88.10343,15.70529],[-88.10489,15.70449],[-88.10621,15.70293],[-88.10954,15.70109],[-88.1114,15.69868],[-88.1111,15.69797],[-88.11286,15.69603],[-88.11282,15.69551],[-88.11363,15.69451],[-88.11326,15.69415],[-88.1138,15.69356],[-88.11345,15.69336],[-88.11376,15.69278],[-88.11455,15.69209],[-88.11422,15.69164],[-88.11575,15.69013],[-88.11836,15.68828],[-88.1202,15.6874],[-88.12402,15.6862],[-88.12586,15.68596],[-88.12661,15.68541],[-88.13144,15.68463],[-88.13141,15.68434],[-88.13244,15.68414],[-88.13242,15.6839],[-88.13655,15.6839],[-88.13738,15.68342],[-88.13786,15.68269],[-88.13985,15.68194],[-88.14416,15.68141],[-88.15115,15.68143],[-88.15898,15.68335],[-88.16504,15.68578],[-88.17842,15.69273],[-88.18658,15.69782],[-88.18833,15.69766],[-88.18858,15.69682],[-88.18938,15.69626],[-88.19076,15.69679],[-88.19327,15.69508],[-88.19388,15.69322],[-88.19588,15.6935],[-88.19819,15.69234],[-88.19834,15.69306],[-88.20071,15.69231],[-88.20218,15.69512],[-88.20375,15.69389],[-88.20436,15.69511],[-88.20621,15.69569],[-88.20779,15.69605],[-88.21147,15.69578],[-88.212,15.69796],[-88.21422,15.69796],[-88.21468,15.69846],[-88.21739,15.69906],[-88.22041,15.70027],[-88.22088,15.69885],[-88.22732,15.70211],[-88.22675,15.70363],[-88.22922,15.70402],[-88.23085,15.70313],[-88.23168,15.70174],[-88.2314,15.70035],[-88.22894,15.6974],[-88.2289,15.69679],[-88.22951,15.6957],[-88.23208,15.6944],[-88.23237,15.69513],[-88.23196,15.69702],[-88.23255,15.69821],[-88.23373,15.69874],[-88.23605,15.69773],[-88.23643,15.69719],[-88.23696,15.69471],[-88.23619,15.69268],[-88.23476,15.69114],[-88.23131,15.69232],[-88.23,15.69174],[-88.22944,15.68966],[-88.23034,15.68818],[-88.22633,15.68351],[-88.2275,15.68288],[-88.22905,15.68127],[-88.23002,15.67968],[-88.22865,15.67894],[-88.22909,15.67778],[-88.22668,15.67779],[-88.22632,15.67624],[-88.22479,15.67442],[-88.22923,15.67267],[-88.22837,15.66987],[-88.23122,15.67021],[-88.23117,15.66899],[-88.23204,15.66926],[-88.23253,15.66901],[-88.2326,15.66736],[-88.23347,15.66716],[-88.23283,15.66598],[-88.23637,15.66552],[-88.23645,15.66444],[-88.24162,15.66457],[-88.24185,15.66295],[-88.24289,15.6631],[-88.24312,15.66116],[-88.24881,15.65574],[-88.24828,15.65507],[-88.24891,15.6539],[-88.25361,15.65908],[-88.25613,15.65697],[-88.25747,15.65702],[-88.25985,15.65429],[-88.26106,15.65489],[-88.26242,15.65619],[-88.26225,15.6563],[-88.26331,15.65756],[-88.26486,15.65659],[-88.26624,15.6581],[-88.26693,15.65743],[-88.26763,15.65798],[-88.26825,15.65741],[-88.27039,15.65907],[-88.27067,15.66002],[-88.27001,15.6617],[-88.26945,15.66159],[-88.26743,15.66305],[-88.26763,15.66595],[-88.26724,15.66757],[-88.2616,15.67407],[-88.26203,15.67533],[-88.26412,15.67642],[-88.26548,15.67491],[-88.26944,15.67457],[-88.26882,15.67791],[-88.26989,15.6809],[-88.26783,15.68252],[-88.26733,15.682]]]},"properties":{"id":"honduras_osm_22","kind":"protected_area","kind_ru":"охраняемая зона","name":"Refugio de Vida Silvestre Cuyamel","osm_id":"relation/16130703","source":"© OpenStreetMap contributors (ODbL)"}},{"type":"Feature","geometry":{"type":"Polygon","coordinates":[[[-88.22813,15.72281],[-88.21926,15.71859],[-88.21188,15.71394],[-88.21322,15.71418],[-88.21418,15.71487],[-88.21489,15.71498],[-88.22047,15.71897],[-88.22391,15.72066],[-88.22407,15.72049],[-88.22813,15.72281]]]},"properties":{"id":"honduras_osm_23","kind":"beach","kind_ru":"пляж","name":null,"osm_id":"relation/16196898","source":"© OpenStreetMap contributors (ODbL)"}},{"type":"Feature","geometry":{"type":"Point","coordinates":[-88.27274,15.7492]},"properties":{"id":"honduras_osm_24","kind":"river_mouth","kind_ru":"устье реки / канала","name":"Río Motagua","osm_id":"way/283275242","source":"© OpenStreetMap contributors (ODbL)","waterway":"river","coast_dist_m":0}},{"type":"Feature","geometry":{"type":"Point","coordinates":[-88.20236,15.7079]},"properties":{"id":"honduras_osm_25","kind":"river_mouth","kind_ru":"устье реки / канала","name":"Río Cuyamel","osm_id":"way/1192431205","source":"© OpenStreetMap contributors (ODbL)","waterway":"river","coast_dist_m":0}},{"type":"Feature","geometry":{"type":"Point","coordinates":[-88.23439,15.7244]},"properties":{"id":"honduras_osm_26","kind":"river_mouth","kind_ru":"устье реки / канала","name":"Río Motagua","osm_id":"way/1230209569","source":"© OpenStreetMap contributors (ODbL)","waterway":"river","coast_dist_m":0}},{"type":"Feature","geometry":{"type":"Point","coordinates":[-88.16357,15.68514]},"properties":{"id":"honduras_osm_27","kind":"river_mouth","kind_ru":"устье реки / канала","name":null,"osm_id":"way/238147098","source":"© OpenStreetMap contributors (ODbL)","waterway":"river","coast_dist_m":0}},{"type":"Feature","geometry":{"type":"Point","coordinates":[-88.17313,15.68987]},"properties":{"id":"honduras_osm_28","kind":"river_mouth","kind_ru":"устье реки / канала","name":null,"osm_id":"way/1103707868","source":"© OpenStreetMap contributors (ODbL)","waterway":"river","coast_dist_m":0}},{"type":"Feature","geometry":{"type":"Point","coordinates":[-88.13697,15.68371]},"properties":{"id":"honduras_osm_29","kind":"river_mouth","kind_ru":"устье реки / канала","name":"Río Masca","osm_id":"way/238147096","source":"© OpenStreetMap contributors (ODbL)","waterway":"river","coast_dist_m":0}},{"type":"Feature","geometry":{"type":"Point","coordinates":[-88.14208,15.68166]},"properties":{"id":"honduras_osm_30","kind":"river_mouth","kind_ru":"устье реки / канала","name":null,"osm_id":"way/238147701","source":"© OpenStreetMap contributors (ODbL)","waterway":"river","coast_dist_m":0}},{"type":"Feature","geometry":{"type":"Point","coordinates":[-88.09557,15.73179]},"properties":{"id":"honduras_osm_31","kind":"river_mouth","kind_ru":"устье реки / канала","name":"Río Chachaguala","osm_id":"way/237985104","source":"© OpenStreetMap contributors (ODbL)","waterway":"river","coast_dist_m":0}},{"type":"Feature","geometry":{"type":"Point","coordinates":[-88.12722,15.68533]},"properties":{"id":"honduras_osm_32","kind":"river_mouth","kind_ru":"устье реки / канала","name":null,"osm_id":"way/1103702211","source":"© OpenStreetMap contributors (ODbL)","waterway":"river","coast_dist_m":0}},{"type":"Feature","geometry":{"type":"Point","coordinates":[-88.39594,15.82788]},"properties":{"id":"honduras_osm_33","kind":"river_mouth","kind_ru":"устье реки / канала","name":"Río San Francisco","osm_id":"way/1304772313","source":"© OpenStreetMap contributors (ODbL)","waterway":"river","coast_dist_m":0}},{"type":"Feature","geometry":{"type":"Point","coordinates":[-88.38577,15.82424]},"properties":{"id":"honduras_osm_34","kind":"river_mouth","kind_ru":"устье реки / канала","name":null,"osm_id":"way/1104128762","source":"© OpenStreetMap contributors (ODbL)","waterway":"river","coast_dist_m":0}},{"type":"Feature","geometry":{"type":"Point","coordinates":[-88.04483,15.77141]},"properties":{"id":"honduras_osm_35","kind":"river_mouth","kind_ru":"устье реки / канала","name":"Río Omoa","osm_id":"way/492437708","source":"© OpenStreetMap contributors (ODbL)","waterway":"river","coast_dist_m":0}},{"type":"Feature","geometry":{"type":"Point","coordinates":[-88.01854,15.78621]},"properties":{"id":"honduras_osm_36","kind":"river_mouth","kind_ru":"устье реки / канала","name":"Quebrada de la Venada","osm_id":"way/1124856272","source":"© OpenStreetMap contributors (ODbL)","waterway":"river","coast_dist_m":0}}]}