{"type":"FeatureCollection","region":"jakarta","bbox":[106.2962,-6.09421,106.70397,-5.68596],"source":"© OpenStreetMap contributors (ODbL)","fetched":"2026-09-25T10:16:37Z","note":"объекты OpenStreetMap (bbox района ± 10 км); устья — концевые узлы рек/каналов ≤ 1,5 км от береговой линии OSM","features":[{"type":"Feature","geometry":{"type":"Polygon","coordinates":[[[106.66667,-5.75],[106.41667,-5.75],[106.41667,-5.68596],[106.66667,-5.68596],[106.66667,-5.75]]]},"properties":{"id":"jakarta_osm_0","kind":"protected_area","kind_ru":"охраняемая зона","name":"Taman Nasional Kepulauan Seribu","osm_id":"way/540470362","source":"© OpenStreetMap contributors (ODbL)"}},{"type":"Feature","geometry":{"type":"Polygon","coordinates":[[[106.3026,-5.96807],[106.30401,-5.96795],[106.30422,-5.96867],[106.3023,-5.96893],[106.3026,-5.96807]]]},"properties":{"id":"jakarta_osm_1","kind":"port","kind_ru":"порт","name":null,"osm_id":"way/1514416122","source":"© OpenStreetMap contributors (ODbL)"}},{"type":"Feature","geometry":{"type":"Polygon","coordinates":[[[106.30479,-5.96817],[106.3047,-5.96921],[106.30463,-5.96921],[106.30429,-5.96802],[106.30479,-5.96817]]]},"properties":{"id":"jakarta_osm_2","kind":"port","kind_ru":"порт","name":null,"osm_id":"way/1514416124","source":"© OpenStreetMap contributors (ODbL)"}},{"type":"Feature","geometry":{"type":"Polygon","coordinates":[[[106.42366,-6.02991],[106.42193,-6.0294],[106.4185,-6.02723],[106.4178,-6.02647],[106.42188,-6.02934],[106.42391,-6.02998],[106.42563,-6.03113],[106.42755,-6.03188],[106.42932,-6.03219],[106.43245,-6.03311],[106.43557,-6.03302],[106.43914,-6.03263],[106.44055,-6.03212],[106.4408,-6.03189],[106.44061,-6.0317],[106.44152,-6.03123],[106.44475,-6.03416],[106.44454,-6.0344],[106.44128,-6.03139],[106.44081,-6.03197],[106.44033,-6.03229],[106.43837,-6.03287],[106.43713,-6.03285],[106.43588,-6.03307],[106.43218,-6.03318],[106.4264,-6.0316],[106.42521,-6.03097],[106.42366,-6.02991]]]},"properties":{"id":"jakarta_osm_3","kind":"beach","kind_ru":"пляж","name":null,"osm_id":"way/521475686","source":"© OpenStreetMap contributors (ODbL)"}},{"type":"Feature","geometry":{"type":"Polygon","coordinates":[[[106.41389,-6.02425],[106.41211,-6.0243],[106.41145,-6.02399],[106.41059,-6.0227],[106.40969,-6.02236],[106.40615,-6.01913],[106.40632,-6.01874],[106.40494,-6.01712],[106.40297,-6.01381],[106.40281,-6.01233],[106.4076,-6.01866],[106.41145,-6.0226],[106.41211,-6.02403],[106.41389,-6.02425]]]},"properties":{"id":"jakarta_osm_4","kind":"beach","kind_ru":"пляж","name":null,"osm_id":"way/521475685","source":"© OpenStreetMap contributors (ODbL)"}},{"type":"Feature","geometry":{"type":"Polygon","coordinates":[[[106.39488,-5.99643],[106.39922,-6.00571],[106.39996,-6.00755],[106.39704,-6.00321],[106.39491,-5.99781],[106.39488,-5.99643]]]},"properties":{"id":"jakarta_osm_5","kind":"beach","kind_ru":"пляж","name":null,"osm_id":"way/521475684","source":"© OpenStreetMap contributors (ODbL)"}},{"type":"Feature","geometry":{"type":"Polygon","coordinates":[[[106.44568,-6.03496],[106.44839,-6.03627],[106.45143,-6.03691],[106.45665,-6.03734],[106.45544,-6.03747],[106.45195,-6.03707],[106.44903,-6.03654],[106.44651,-6.0357],[106.44561,-6.03521],[106.44568,-6.03496]]]},"properties":{"id":"jakarta_osm_6","kind":"beach","kind_ru":"пляж","name":null,"osm_id":"way/521475682","source":"© OpenStreetMap contributors (ODbL)"}},{"type":"Feature","geometry":{"type":"Polygon","coordinates":[[[106.53342,-6.01171],[106.53303,-6.01227],[106.53177,-6.01314],[106.53149,-6.01368],[106.53095,-6.01381],[106.53151,-6.01307],[106.53284,-6.01231],[106.53337,-6.01117],[106.53342,-6.01171]]]},"properties":{"id":"jakarta_osm_7","kind":"beach","kind_ru":"пляж","name":null,"osm_id":"way/513271106","source":"© OpenStreetMap contributors (ODbL)"}},{"type":"Feature","geometry":{"type":"Polygon","coordinates":[[[106.52271,-5.95529],[106.52272,-5.95616],[106.52237,-5.95669],[106.52284,-5.95864],[106.52229,-5.95947],[106.52188,-5.95982],[106.52273,-5.95866],[106.5223,-5.95665],[106.52271,-5.95529]]]},"properties":{"id":"jakarta_osm_8","kind":"beach","kind_ru":"пляж","name":null,"osm_id":"way/439155499","source":"© OpenStreetMap contributors (ODbL)"}},{"type":"Feature","geometry":{"type":"Polygon","coordinates":[[[106.5211,-5.95391],[106.52254,-5.95408],[106.52259,-5.95467],[106.52121,-5.95416],[106.5211,-5.95391]]]},"properties":{"id":"jakarta_osm_9","kind":"beach","kind_ru":"пляж","name":null,"osm_id":"way/439155500","source":"© OpenStreetMap contributors (ODbL)"}},{"type":"Feature","geometry":{"type":"Polygon","coordinates":[[[106.66366,-6.02004],[106.65885,-6.01741],[106.6589,-6.01707],[106.66379,-6.01956],[106.66366,-6.02004]]]},"properties":{"id":"jakarta_osm_10","kind":"beach","kind_ru":"пляж","name":null,"osm_id":"way/1396070014","source":"© OpenStreetMap contributors (ODbL)"}},{"type":"Feature","geometry":{"type":"Polygon","coordinates":[[[106.67551,-6.01547],[106.67746,-6.01401],[106.67784,-6.01333],[106.67931,-6.01274],[106.67953,-6.01386],[106.67819,-6.01475],[106.67736,-6.01632],[106.67638,-6.01544],[106.67576,-6.01581],[106.67551,-6.01547]]]},"properties":{"id":"jakarta_osm_11","kind":"beach","kind_ru":"пляж","name":null,"osm_id":"way/514698150","source":"© OpenStreetMap contributors (ODbL)"}},{"type":"Feature","geometry":{"type":"Polygon","coordinates":[[[106.68258,-6.01642],[106.67986,-6.01399],[106.67932,-6.01327],[106.67932,-6.01302],[106.67944,-6.01285],[106.67957,-6.01354],[106.68189,-6.01535],[106.68258,-6.01642]]]},"properties":{"id":"jakarta_osm_12","kind":"beach","kind_ru":"пляж","name":"Pantai Tanjung Pasir","osm_id":"way/514698152","source":"© OpenStreetMap contributors (ODbL)"}},{"type":"Feature","geometry":{"type":"Polygon","coordinates":[[[106.69885,-6.02661],[106.69888,-6.02676],[106.6988,-6.02672],[106.69885,-6.02661]]]},"properties":{"id":"jakarta_osm_13","kind":"port","kind_ru":"порт","name":"Dermaga Fajar Ivon","osm_id":"way/1509675107","source":"© OpenStreetMap contributors (ODbL)"}},{"type":"Feature","geometry":{"type":"Polygon","coordinates":[[[106.69681,-5.96985],[106.69681,-5.97839],[106.68788,-5.97839],[106.68788,-5.96985],[106.69681,-5.96985]]]},"properties":{"id":"jakarta_osm_14","kind":"protected_area","kind_ru":"охраняемая зона","name":"Suaka Margasatwa Pulau Rambut","osm_id":"way/544905500","source":"© OpenStreetMap contributors (ODbL)"}},{"type":"Feature","geometry":{"type":"Polygon","coordinates":[[[106.63057,-5.94233],[106.63244,-5.94245],[106.63337,-5.94283],[106.63365,-5.94308],[106.63194,-5.94245],[106.63057,-5.94233]]]},"properties":{"id":"jakarta_osm_15","kind":"beach","kind_ru":"пляж","name":null,"osm_id":"way/439116368","source":"© OpenStreetMap contributors (ODbL)"}},{"type":"Feature","geometry":{"type":"Polygon","coordinates":[[[106.63142,-5.94522],[106.63245,-5.94552],[106.63271,-5.94532],[106.63376,-5.94328],[106.6328,-5.94552],[106.63229,-5.94572],[106.63142,-5.94522]]]},"properties":{"id":"jakarta_osm_16","kind":"beach","kind_ru":"пляж","name":null,"osm_id":"way/439116369","source":"© OpenStreetMap contributors (ODbL)"}},{"type":"Feature","geometry":{"type":"Polygon","coordinates":[[[106.63365,-5.94308],[106.63361,-5.94405],[106.6328,-5.94552],[106.63229,-5.94572],[106.62914,-5.94454],[106.62788,-5.94355],[106.62787,-5.94307],[106.62877,-5.94266],[106.63093,-5.94226],[106.63244,-5.94245],[106.63365,-5.94308]]]},"properties":{"id":"jakarta_osm_17","kind":"protected_area","kind_ru":"охраняемая зона","name":"Cagar Alam Pulau Bokor","osm_id":"way/544905501","source":"© OpenStreetMap contributors (ODbL)"}},{"type":"Feature","geometry":{"type":"Polygon","coordinates":[[[106.58408,-5.86257],[106.58415,-5.86233],[106.58367,-5.86219],[106.58408,-5.86228],[106.58423,-5.86236],[106.58408,-5.86257]]]},"properties":{"id":"jakarta_osm_18","kind":"beach","kind_ru":"пляж","name":null,"osm_id":"way/1458416034","source":"© OpenStreetMap contributors (ODbL)"}},{"type":"Feature","geometry":{"type":"Polygon","coordinates":[[[106.61422,-5.86175],[106.6123,-5.86307],[106.61181,-5.86311],[106.61422,-5.86175]]]},"properties":{"id":"jakarta_osm_19","kind":"beach","kind_ru":"пляж","name":null,"osm_id":"way/1146433001","source":"© OpenStreetMap contributors (ODbL)"}},{"type":"Feature","geometry":{"type":"Polygon","coordinates":[[[106.62174,-5.85478],[106.62261,-5.85463],[106.62423,-5.85486],[106.62419,-5.85507],[106.62271,-5.8549],[106.62165,-5.85512],[106.62174,-5.85478]]]},"properties":{"id":"jakarta_osm_20","kind":"beach","kind_ru":"пляж","name":"Pantai Pasir Perawan","osm_id":"way/1146432999","source":"© OpenStreetMap contributors (ODbL)"}},{"type":"Feature","geometry":{"type":"Polygon","coordinates":[[[106.63072,-5.85418],[106.63131,-5.85429],[106.63136,-5.85446],[106.63087,-5.85473],[106.63072,-5.85418]]]},"properties":{"id":"jakarta_osm_21","kind":"beach","kind_ru":"пляж","name":null,"osm_id":"way/1146433000","source":"© OpenStreetMap contributors (ODbL)"}},{"type":"Feature","geometry":{"type":"Point","coordinates":[106.64932,-6.00251]},"properties":{"id":"jakarta_osm_22","kind":"river_mouth","kind_ru":"устье реки / канала","name":"Sungai Cisadane","osm_id":"way/303569049","source":"© OpenStreetMap contributors (ODbL)","waterway":"river","coast_dist_m":0}},{"type":"Feature","geometry":{"type":"Point","coordinates":[106.48205,-6.04719]},"properties":{"id":"jakarta_osm_23","kind":"river_mouth","kind_ru":"устье реки / канала","name":null,"osm_id":"way/72534994","source":"© OpenStreetMap contributors (ODbL)","waterway":"river","coast_dist_m":0}},{"type":"Feature","geometry":{"type":"Point","coordinates":[106.38553,-5.97527]},"properties":{"id":"jakarta_osm_24","kind":"river_mouth","kind_ru":"устье реки / канала","name":null,"osm_id":"way/171957677","source":"© OpenStreetMap contributors (ODbL)","waterway":"river","coast_dist_m":0}},{"type":"Feature","geometry":{"type":"Point","coordinates":[106.41211,-6.02403]},"properties":{"id":"jakarta_osm_25","kind":"river_mouth","kind_ru":"устье реки / канала","name":"Ci Durian","osm_id":"way/50412464","source":"© OpenStreetMap contributors (ODbL)","waterway":"river","coast_dist_m":0}},{"type":"Feature","geometry":{"type":"Point","coordinates":[106.45826,-6.03735]},"properties":{"id":"jakarta_osm_26","kind":"river_mouth","kind_ru":"устье реки / канала","name":null,"osm_id":"way/192307553","source":"© OpenStreetMap contributors (ODbL)","waterway":"river","coast_dist_m":0}},{"type":"Feature","geometry":{"type":"Point","coordinates":[106.36098,-5.95167]},"properties":{"id":"jakarta_osm_27","kind":"river_mouth","kind_ru":"устье реки / канала","name":"Sungai Ciujung","osm_id":"way/611748812","source":"© OpenStreetMap contributors (ODbL)","waterway":"river","coast_dist_m":0}},{"type":"Feature","geometry":{"type":"Point","coordinates":[106.36356,-5.9589]},"properties":{"id":"jakarta_osm_28","kind":"river_mouth","kind_ru":"устье реки / канала","name":null,"osm_id":"way/221321943","source":"© OpenStreetMap contributors (ODbL)","waterway":"river","coast_dist_m":0}},{"type":"Feature","geometry":{"type":"Point","coordinates":[106.54161,-6.0163]},"properties":{"id":"jakarta_osm_29","kind":"river_mouth","kind_ru":"устье реки / канала","name":null,"osm_id":"way/79557659","source":"© OpenStreetMap contributors (ODbL)","waterway":"river","coast_dist_m":0}},{"type":"Feature","geometry":{"type":"Point","coordinates":[106.49659,-6.04482]},"properties":{"id":"jakarta_osm_30","kind":"river_mouth","kind_ru":"устье реки / канала","name":null,"osm_id":"way/79559691","source":"© OpenStreetMap contributors (ODbL)","waterway":"river","coast_dist_m":0}},{"type":"Feature","geometry":{"type":"Point","coordinates":[106.56947,-6.03065]},"properties":{"id":"jakarta_osm_31","kind":"river_mouth","kind_ru":"устье реки / канала","name":null,"osm_id":"way/79545465","source":"© OpenStreetMap contributors (ODbL)","waterway":"river","coast_dist_m":0}},{"type":"Feature","geometry":{"type":"Point","coordinates":[106.57818,-6.03118]},"properties":{"id":"jakarta_osm_32","kind":"river_mouth","kind_ru":"устье реки / канала","name":null,"osm_id":"way/79549408","source":"© OpenStreetMap contributors (ODbL)","waterway":"river","coast_dist_m":0}},{"type":"Feature","geometry":{"type":"Point","coordinates":[106.59459,-6.04017]},"properties":{"id":"jakarta_osm_33","kind":"river_mouth","kind_ru":"устье реки / канала","name":null,"osm_id":"way/79547059","source":"© OpenStreetMap contributors (ODbL)","waterway":"canal","coast_dist_m":1055}},{"type":"Feature","geometry":{"type":"Point","coordinates":[106.63089,-5.99935]},"properties":{"id":"jakarta_osm_34","kind":"river_mouth","kind_ru":"устье реки / канала","name":"Cisadane","osm_id":"way/1044539447","source":"© OpenStreetMap contributors (ODbL)","waterway":"river","coast_dist_m":0}}]}