{"type":"FeatureCollection","region":"lagos","bbox":[3.19634,6.09629,3.60399,6.50373],"source":"© OpenStreetMap contributors (ODbL)","fetched":"2026-09-25T10:19:58Z","note":"объекты OpenStreetMap (bbox района ± 10 км); устья — концевые узлы рек/каналов ≤ 1,5 км от береговой линии OSM","features":[{"type":"Feature","geometry":{"type":"Point","coordinates":[3.39434,6.41633]},"properties":{"id":"lagos_osm_0","kind":"beach","kind_ru":"пляж","name":"Atlas Beach","osm_id":"node/5246332302","source":"© OpenStreetMap contributors (ODbL)"}},{"type":"Feature","geometry":{"type":"Point","coordinates":[3.4422,6.42284]},"properties":{"id":"lagos_osm_1","kind":"beach","kind_ru":"пляж","name":"Oniru Private Beach","osm_id":"node/6033848839","source":"© OpenStreetMap contributors (ODbL)"}},{"type":"Feature","geometry":{"type":"Polygon","coordinates":[[[3.33591,6.4015],[3.3589,6.39935],[3.36862,6.39824],[3.36855,6.39788],[3.36371,6.39791],[3.33591,6.40044],[3.33591,6.4015]]]},"properties":{"id":"lagos_osm_2","kind":"beach","kind_ru":"пляж","name":null,"osm_id":"way/449527413","source":"© OpenStreetMap contributors (ODbL)"}},{"type":"Feature","geometry":{"type":"Polygon","coordinates":[[[3.35765,6.41221],[3.35652,6.41217],[3.35563,6.41177],[3.35385,6.41136],[3.35176,6.41014],[3.35376,6.41137],[3.3566,6.4123],[3.35765,6.41221]]]},"properties":{"id":"lagos_osm_3","kind":"beach","kind_ru":"пляж","name":null,"osm_id":"way/1292701432","source":"© OpenStreetMap contributors (ODbL)"}},{"type":"Feature","geometry":{"type":"Polygon","coordinates":[[[3.33945,6.43514],[3.34229,6.43422],[3.34264,6.4339],[3.34248,6.4335],[3.33911,6.4338],[3.33945,6.43514]]]},"properties":{"id":"lagos_osm_4","kind":"port","kind_ru":"порт","name":null,"osm_id":"way/882869455","source":"© OpenStreetMap contributors (ODbL)"}},{"type":"Feature","geometry":{"type":"Polygon","coordinates":[[[3.33655,6.43688],[3.33668,6.43452],[3.33651,6.43433],[3.33604,6.43459],[3.33606,6.43685],[3.33655,6.43688]]]},"properties":{"id":"lagos_osm_5","kind":"port","kind_ru":"порт","name":null,"osm_id":"way/882869456","source":"© OpenStreetMap contributors (ODbL)"}},{"type":"Feature","geometry":{"type":"Polygon","coordinates":[[[3.39357,6.40038],[3.39354,6.4012],[3.39429,6.40126],[3.39441,6.40162],[3.39603,6.40245],[3.3967,6.40156],[3.39548,6.40133],[3.39357,6.40038]]]},"properties":{"id":"lagos_osm_6","kind":"beach","kind_ru":"пляж","name":null,"osm_id":"way/670538910","source":"© OpenStreetMap contributors (ODbL)"}},{"type":"Feature","geometry":{"type":"Polygon","coordinates":[[[3.40205,6.44122],[3.40273,6.44082],[3.40208,6.43985],[3.40148,6.44059],[3.40205,6.44122]]]},"properties":{"id":"lagos_osm_7","kind":"marina","kind_ru":"марина","name":"Lagos Yacht Club","osm_id":"way/591832831","source":"© OpenStreetMap contributors (ODbL)"}},{"type":"Feature","geometry":{"type":"Polygon","coordinates":[[[3.41102,6.4391],[3.41145,6.43932],[3.41206,6.43868],[3.41157,6.43788],[3.41102,6.4391]]]},"properties":{"id":"lagos_osm_8","kind":"marina","kind_ru":"марина","name":"Paradise Boat Club","osm_id":"way/592191553","source":"© OpenStreetMap contributors (ODbL)"}},{"type":"Feature","geometry":{"type":"Polygon","coordinates":[[[3.42372,6.43944],[3.42501,6.43997],[3.42533,6.4391],[3.42409,6.43852],[3.42372,6.43944]]]},"properties":{"id":"lagos_osm_9","kind":"marina","kind_ru":"марина","name":"Fiki Marina","osm_id":"way/591832786","source":"© OpenStreetMap contributors (ODbL)"}},{"type":"Feature","geometry":{"type":"Polygon","coordinates":[[[3.42264,6.43848],[3.42392,6.43902],[3.42409,6.43852],[3.42279,6.43797],[3.42264,6.43848]]]},"properties":{"id":"lagos_osm_10","kind":"protected_area","kind_ru":"охраняемая зона","name":null,"osm_id":"way/595597232","source":"© OpenStreetMap contributors (ODbL)"}},{"type":"Feature","geometry":{"type":"Polygon","coordinates":[[[3.4098,6.44344],[3.41058,6.44312],[3.41022,6.44227],[3.40966,6.44255],[3.4098,6.44344]]]},"properties":{"id":"lagos_osm_11","kind":"marina","kind_ru":"марина","name":"Lagos Motor Boat Club","osm_id":"way/592191557","source":"© OpenStreetMap contributors (ODbL)"}},{"type":"Feature","geometry":{"type":"Polygon","coordinates":[[[3.41257,6.44194],[3.41243,6.44131],[3.41217,6.44146],[3.41257,6.44194]]]},"properties":{"id":"lagos_osm_12","kind":"marina","kind_ru":"марина","name":"Lagos Jet Ski Riders Club","osm_id":"way/592191570","source":"© OpenStreetMap contributors (ODbL)"}},{"type":"Feature","geometry":{"type":"Polygon","coordinates":[[[3.43437,6.44129],[3.43517,6.44085],[3.43507,6.4406],[3.43429,6.44073],[3.43437,6.44129]]]},"properties":{"id":"lagos_osm_13","kind":"wastewater_plant","kind_ru":"очистные сооружения","name":null,"osm_id":"way/595880626","source":"© OpenStreetMap contributors (ODbL)"}},{"type":"Feature","geometry":{"type":"Point","coordinates":[3.45586,6.41809]},"properties":{"id":"lagos_osm_14","kind":"river_mouth","kind_ru":"устье реки / канала","name":null,"osm_id":"way/513426528","source":"© OpenStreetMap contributors (ODbL)","waterway":"canal","coast_dist_m":0}},{"type":"Feature","geometry":{"type":"Point","coordinates":[3.39997,6.4005]},"properties":{"id":"lagos_osm_15","kind":"river_mouth","kind_ru":"устье реки / канала","name":"Commodore Channel","osm_id":"way/659370451","source":"© OpenStreetMap contributors (ODbL)","waterway":"river","coast_dist_m":0}},{"type":"Feature","geometry":{"type":"Point","coordinates":[3.40762,6.40415]},"properties":{"id":"lagos_osm_16","kind":"river_mouth","kind_ru":"устье реки / канала","name":null,"osm_id":"way/626035372","source":"© OpenStreetMap contributors (ODbL)","waterway":"canal","coast_dist_m":453}},{"type":"Feature","geometry":{"type":"Point","coordinates":[3.53075,6.43136]},"properties":{"id":"lagos_osm_17","kind":"river_mouth","kind_ru":"устье реки / канала","name":null,"osm_id":"way/604051574","source":"© OpenStreetMap contributors (ODbL)","waterway":"canal","coast_dist_m":937}},{"type":"Feature","geometry":{"type":"Point","coordinates":[3.53727,6.42886]},"properties":{"id":"lagos_osm_18","kind":"river_mouth","kind_ru":"устье реки / канала","name":null,"osm_id":"way/604051574","source":"© OpenStreetMap contributors (ODbL)","waterway":"canal","coast_dist_m":574}}]}