{"type":"FeatureCollection","region":"mekong","bbox":[106.59363,9.94551,107.00628,10.35439],"source":"© OpenStreetMap contributors (ODbL)","fetched":"2026-09-25T10:22:06Z","note":"объекты OpenStreetMap (bbox района ± 10 км); устья — концевые узлы рек/каналов ≤ 1,5 км от береговой линии OSM","features":[{"type":"Feature","geometry":{"type":"Point","coordinates":[106.70813,10.20057]},"properties":{"id":"mekong_osm_0","kind":"marina","kind_ru":"марина","name":"Cảng Cá Bình Thắng","osm_id":"node/10816379665","source":"© OpenStreetMap contributors (ODbL)"}},{"type":"Feature","geometry":{"type":"MultiPolygon","coordinates":[[[[106.62283,10.14842],[106.62068,10.14779],[106.62067,10.14863],[106.61848,10.15575],[106.61605,10.1568],[106.61618,10.1571],[106.62006,10.15547],[106.62337,10.14899],[106.62283,10.14842]]],[[[106.61547,10.15937],[106.61247,10.16772],[106.61478,10.16863],[106.61865,10.15874],[106.61547,10.15937]]]]},"properties":{"id":"mekong_osm_1","kind":"protected_area","kind_ru":"охраняемая зона","name":"Sân chim Vàm Hồ","osm_id":"relation/17275931","source":"© OpenStreetMap contributors (ODbL)"}},{"type":"Feature","geometry":{"type":"Point","coordinates":[106.6366,9.96095]},"properties":{"id":"mekong_osm_2","kind":"river_mouth","kind_ru":"устье реки / канала","name":"Sông Hàm Luông","osm_id":"way/51199960","source":"© OpenStreetMap contributors (ODbL)","waterway":"river","coast_dist_m":0}},{"type":"Feature","geometry":{"type":"Point","coordinates":[106.69531,10.02665]},"properties":{"id":"mekong_osm_3","kind":"river_mouth","kind_ru":"устье реки / канала","name":"Sông Ba Lai","osm_id":"way/693406399","source":"© OpenStreetMap contributors (ODbL)","waterway":"river","coast_dist_m":0}},{"type":"Feature","geometry":{"type":"Point","coordinates":[106.7419,10.19466]},"properties":{"id":"mekong_osm_4","kind":"river_mouth","kind_ru":"устье реки / канала","name":"Sông Cửa Đại","osm_id":"way/700505912","source":"© OpenStreetMap contributors (ODbL)","waterway":"river","coast_dist_m":0}},{"type":"Feature","geometry":{"type":"Point","coordinates":[106.6526,9.9828]},"properties":{"id":"mekong_osm_5","kind":"river_mouth","kind_ru":"устье реки / канала","name":null,"osm_id":"way/691008465","source":"© OpenStreetMap contributors (ODbL)","waterway":"canal","coast_dist_m":200}},{"type":"Feature","geometry":{"type":"Point","coordinates":[106.66405,9.99253]},"properties":{"id":"mekong_osm_6","kind":"river_mouth","kind_ru":"устье реки / канала","name":null,"osm_id":"way/484700940","source":"© OpenStreetMap contributors (ODbL)","waterway":"canal","coast_dist_m":0}},{"type":"Feature","geometry":{"type":"Point","coordinates":[106.6847,10.01296]},"properties":{"id":"mekong_osm_7","kind":"river_mouth","kind_ru":"устье реки / канала","name":null,"osm_id":"way/691008468","source":"© OpenStreetMap contributors (ODbL)","waterway":"canal","coast_dist_m":169}},{"type":"Feature","geometry":{"type":"Point","coordinates":[106.67643,10.01422]},"properties":{"id":"mekong_osm_8","kind":"river_mouth","kind_ru":"устье реки / канала","name":null,"osm_id":"way/691008466","source":"© OpenStreetMap contributors (ODbL)","waterway":"canal","coast_dist_m":1015}},{"type":"Feature","geometry":{"type":"Point","coordinates":[106.72527,10.04328]},"properties":{"id":"mekong_osm_9","kind":"river_mouth","kind_ru":"устье реки / канала","name":null,"osm_id":"way/510182675","source":"© OpenStreetMap contributors (ODbL)","waterway":"canal","coast_dist_m":661}},{"type":"Feature","geometry":{"type":"Point","coordinates":[106.73763,10.18715]},"properties":{"id":"mekong_osm_10","kind":"river_mouth","kind_ru":"устье реки / канала","name":null,"osm_id":"way/484692150","source":"© OpenStreetMap contributors (ODbL)","waterway":"canal","coast_dist_m":0}},{"type":"Feature","geometry":{"type":"Point","coordinates":[106.7857,10.13119]},"properties":{"id":"mekong_osm_11","kind":"river_mouth","kind_ru":"устье реки / канала","name":null,"osm_id":"way/1432682577","source":"© OpenStreetMap contributors (ODbL)","waterway":"river","coast_dist_m":0}},{"type":"Feature","geometry":{"type":"Point","coordinates":[106.77579,10.08873]},"properties":{"id":"mekong_osm_12","kind":"river_mouth","kind_ru":"устье реки / канала","name":null,"osm_id":"way/1308841804","source":"© OpenStreetMap contributors (ODbL)","waterway":"river","coast_dist_m":133}},{"type":"Feature","geometry":{"type":"Point","coordinates":[106.77154,10.29407]},"properties":{"id":"mekong_osm_13","kind":"river_mouth","kind_ru":"устье реки / канала","name":null,"osm_id":"way/760244229","source":"© OpenStreetMap contributors (ODbL)","waterway":"canal","coast_dist_m":1087}},{"type":"Feature","geometry":{"type":"Point","coordinates":[106.75256,10.27203]},"properties":{"id":"mekong_osm_14","kind":"river_mouth","kind_ru":"устье реки / канала","name":null,"osm_id":"way/760235557","source":"© OpenStreetMap contributors (ODbL)","waterway":"canal","coast_dist_m":498}},{"type":"Feature","geometry":{"type":"Point","coordinates":[106.78272,10.35927]},"properties":{"id":"mekong_osm_15","kind":"river_mouth","kind_ru":"устье реки / канала","name":null,"osm_id":"way/760235569","source":"© OpenStreetMap contributors (ODbL)","waterway":"canal","coast_dist_m":0}},{"type":"Feature","geometry":{"type":"Point","coordinates":[106.77675,10.32051]},"properties":{"id":"mekong_osm_16","kind":"river_mouth","kind_ru":"устье реки / канала","name":null,"osm_id":"way/760244232","source":"© OpenStreetMap contributors (ODbL)","waterway":"canal","coast_dist_m":679}},{"type":"Feature","geometry":{"type":"Point","coordinates":[106.7773,10.30062]},"properties":{"id":"mekong_osm_17","kind":"river_mouth","kind_ru":"устье реки / канала","name":null,"osm_id":"way/760244232","source":"© OpenStreetMap contributors (ODbL)","waterway":"canal","coast_dist_m":569}},{"type":"Feature","geometry":{"type":"Point","coordinates":[106.78254,10.30179]},"properties":{"id":"mekong_osm_18","kind":"river_mouth","kind_ru":"устье реки / канала","name":null,"osm_id":"way/760244226","source":"© OpenStreetMap contributors (ODbL)","waterway":"canal","coast_dist_m":0}}]}