{"type":"FeatureCollection","region":"mumbai","bbox":[72.56408,18.99518,72.99575,19.40487],"source":"© OpenStreetMap contributors (ODbL)","fetched":"2026-09-25T10:22:23Z","note":"объекты OpenStreetMap (bbox района ± 10 км); устья — концевые узлы рек/каналов ≤ 1,5 км от береговой линии OSM","features":[{"type":"Feature","geometry":{"type":"Point","coordinates":[72.82372,19.05622]},"properties":{"id":"mumbai_osm_0","kind":"beach","kind_ru":"пляж","name":"Chimbai Beach","osm_id":"node/8344285126","source":"© OpenStreetMap contributors (ODbL)"}},{"type":"Feature","geometry":{"type":"Point","coordinates":[72.82158,19.11527]},"properties":{"id":"mumbai_osm_1","kind":"beach","kind_ru":"пляж","name":null,"osm_id":"node/13423218572","source":"© OpenStreetMap contributors (ODbL)"}},{"type":"Feature","geometry":{"type":"Point","coordinates":[72.80265,19.14725]},"properties":{"id":"mumbai_osm_2","kind":"marina","kind_ru":"марина","name":null,"osm_id":"node/8571449556","source":"© OpenStreetMap contributors (ODbL)"}},{"type":"Feature","geometry":{"type":"Polygon","coordinates":[[[72.8172,19.01617],[72.81631,19.01561],[72.81627,19.01586],[72.81714,19.01633],[72.81758,19.01646],[72.81779,19.01611],[72.8175,19.01582],[72.8172,19.01617]]]},"properties":{"id":"mumbai_osm_3","kind":"port","kind_ru":"порт","name":"Cleveland Bunder","osm_id":"way/1472415855","source":"© OpenStreetMap contributors (ODbL)"}},{"type":"Feature","geometry":{"type":"Polygon","coordinates":[[[72.82694,19.01933],[72.83134,19.02251],[72.83347,19.02469],[72.831,19.02201],[72.82837,19.01996],[72.82694,19.01933]]]},"properties":{"id":"mumbai_osm_4","kind":"beach","kind_ru":"пляж","name":"Dadar Beach","osm_id":"way/1030994894","source":"© OpenStreetMap contributors (ODbL)"}},{"type":"Feature","geometry":{"type":"Polygon","coordinates":[[[72.82403,19.01785],[72.82691,19.01931],[72.82699,19.01916],[72.82482,19.01786],[72.82403,19.01785]]]},"properties":{"id":"mumbai_osm_5","kind":"beach","kind_ru":"пляж","name":"Prabhadevi Beach","osm_id":"way/1019454081","source":"© OpenStreetMap contributors (ODbL)"}},{"type":"Feature","geometry":{"type":"Polygon","coordinates":[[[72.83782,19.0339],[72.8381,19.03813],[72.83763,19.04125],[72.83758,19.04203],[72.83776,19.04245],[72.83793,19.0417],[72.83766,19.04139],[72.83831,19.03901],[72.83811,19.03861],[72.83838,19.03596],[72.83798,19.03502],[72.83837,19.03496],[72.83821,19.03383],[72.83782,19.0339]]]},"properties":{"id":"mumbai_osm_6","kind":"beach","kind_ru":"пляж","name":null,"osm_id":"way/1186979525","source":"© OpenStreetMap contributors (ODbL)"}},{"type":"Feature","geometry":{"type":"Polygon","coordinates":[[[72.82647,19.04502],[72.82596,19.04481],[72.82584,19.04507],[72.82635,19.04528],[72.82647,19.04502]]]},"properties":{"id":"mumbai_osm_7","kind":"wastewater_plant","kind_ru":"очистные сооружения","name":"Bandra Sewage Treatment Plant","osm_id":"way/379865513","source":"© OpenStreetMap contributors (ODbL)"}},{"type":"Feature","geometry":{"type":"Polygon","coordinates":[[[72.83946,19.04389],[72.83839,19.04339],[72.83845,19.04294],[72.83806,19.04254],[72.83771,19.044],[72.83685,19.04558],[72.83745,19.04539],[72.83806,19.04404],[72.83915,19.04445],[72.83946,19.04389]]]},"properties":{"id":"mumbai_osm_8","kind":"beach","kind_ru":"пляж","name":"Mahim Beach","osm_id":"way/53366367","source":"© OpenStreetMap contributors (ODbL)"}},{"type":"Feature","geometry":{"type":"Polygon","coordinates":[[[72.85159,19.04821],[72.8518,19.0481],[72.85161,19.04801],[72.85159,19.04821]]]},"properties":{"id":"mumbai_osm_9","kind":"aquaculture","kind_ru":"аквакультура / ферма","name":null,"osm_id":"way/1374633295","source":"© OpenStreetMap contributors (ODbL)"}},{"type":"Feature","geometry":{"type":"Polygon","coordinates":[[[72.85192,19.04762],[72.85207,19.04796],[72.85224,19.04783],[72.85192,19.04762]]]},"properties":{"id":"mumbai_osm_10","kind":"aquaculture","kind_ru":"аквакультура / ферма","name":null,"osm_id":"way/1373611329","source":"© OpenStreetMap contributors (ODbL)"}},{"type":"Feature","geometry":{"type":"Polygon","coordinates":[[[72.82385,19.08391],[72.82517,19.08516],[72.82646,19.08904],[72.82655,19.09399],[72.82584,19.09814],[72.82427,19.10314],[72.82299,19.11046],[72.8192,19.12079],[72.81956,19.12123],[72.81941,19.12176],[72.81975,19.12202],[72.82023,19.12177],[72.81999,19.12085],[72.82066,19.12137],[72.82083,19.12119],[72.82075,19.11993],[72.82118,19.11949],[72.82017,19.11916],[72.82012,19.11879],[72.8227,19.1127],[72.82531,19.10118],[72.82607,19.09843],[72.8264,19.09848],[72.82644,19.09826],[72.82599,19.09817],[72.82623,19.0976],[72.82657,19.09769],[72.82682,19.09662],[72.82654,19.09639],[72.82691,19.09099],[72.82643,19.08737],[72.82528,19.08395],[72.82385,19.08391]]]},"properties":{"id":"mumbai_osm_11","kind":"beach","kind_ru":"пляж","name":"Juhu Beach","osm_id":"way/151253238","source":"© OpenStreetMap contributors (ODbL)"}},{"type":"Feature","geometry":{"type":"Polygon","coordinates":[[[72.82245,19.06866],[72.82232,19.06787],[72.82306,19.06491],[72.82232,19.06396],[72.82089,19.06413],[72.82104,19.06509],[72.82215,19.0656],[72.82205,19.06667],[72.82084,19.06705],[72.82055,19.06736],[72.82069,19.0678],[72.82132,19.06803],[72.82172,19.06885],[72.82245,19.06866]]]},"properties":{"id":"mumbai_osm_12","kind":"protected_area","kind_ru":"охраняемая зона","name":"Danda Mangrove Reserved Forest","osm_id":"way/878078194","source":"© OpenStreetMap contributors (ODbL)"}},{"type":"Feature","geometry":{"type":"Polygon","coordinates":[[[72.82258,19.06857],[72.82244,19.06961],[72.82256,19.06968],[72.82258,19.06857]]]},"properties":{"id":"mumbai_osm_13","kind":"beach","kind_ru":"пляж","name":"Carter Road Beach","osm_id":"way/554805309","source":"© OpenStreetMap contributors (ODbL)"}},{"type":"Feature","geometry":{"type":"Polygon","coordinates":[[[72.82312,19.08076],[72.82421,19.08213],[72.82402,19.08386],[72.82567,19.08391],[72.82556,19.07945],[72.82473,19.07888],[72.82312,19.08076]]]},"properties":{"id":"mumbai_osm_14","kind":"beach","kind_ru":"пляж","name":"Danda Beach","osm_id":"way/910346415","source":"© OpenStreetMap contributors (ODbL)"}},{"type":"Feature","geometry":{"type":"Polygon","coordinates":[[[72.84964,19.051],[72.84981,19.05068],[72.84945,19.05047],[72.84926,19.05081],[72.84964,19.051]]]},"properties":{"id":"mumbai_osm_15","kind":"aquaculture","kind_ru":"аквакультура / ферма","name":null,"osm_id":"way/1374645320","source":"© OpenStreetMap contributors (ODbL)"}},{"type":"Feature","geometry":{"type":"Polygon","coordinates":[[[72.84871,19.05147],[72.85018,19.05134],[72.84921,19.05085],[72.84871,19.05147]]]},"properties":{"id":"mumbai_osm_16","kind":"aquaculture","kind_ru":"аквакультура / ферма","name":null,"osm_id":"way/1374645319","source":"© OpenStreetMap contributors (ODbL)"}},{"type":"Feature","geometry":{"type":"Polygon","coordinates":[[[72.85471,19.05074],[72.85477,19.04976],[72.85397,19.0492],[72.85397,19.0497],[72.85447,19.05016],[72.85417,19.05077],[72.8546,19.05108],[72.85331,19.05088],[72.85327,19.05122],[72.85505,19.05181],[72.85531,19.05105],[72.85441,19.05071],[72.85471,19.05074]]]},"properties":{"id":"mumbai_osm_17","kind":"aquaculture","kind_ru":"аквакультура / ферма","name":null,"osm_id":"way/420108334","source":"© OpenStreetMap contributors (ODbL)"}},{"type":"Feature","geometry":{"type":"Polygon","coordinates":[[[72.85178,19.05015],[72.85214,19.04945],[72.85135,19.04914],[72.85085,19.04997],[72.85178,19.05015]]]},"properties":{"id":"mumbai_osm_18","kind":"aquaculture","kind_ru":"аквакультура / ферма","name":null,"osm_id":"way/420108335","source":"© OpenStreetMap contributors (ODbL)"}},{"type":"Feature","geometry":{"type":"Polygon","coordinates":[[[72.85104,19.05099],[72.85205,19.05112],[72.85226,19.05035],[72.85102,19.05031],[72.85104,19.05099]]]},"properties":{"id":"mumbai_osm_19","kind":"aquaculture","kind_ru":"аквакультура / ферма","name":null,"osm_id":"way/420108336","source":"© OpenStreetMap contributors (ODbL)"}},{"type":"Feature","geometry":{"type":"Polygon","coordinates":[[[72.85492,19.05223],[72.85488,19.05278],[72.8552,19.05296],[72.85534,19.05263],[72.85573,19.05283],[72.85592,19.05242],[72.8558,19.05214],[72.85492,19.05223]]]},"properties":{"id":"mumbai_osm_20","kind":"aquaculture","kind_ru":"аквакультура / ферма","name":null,"osm_id":"way/420108341","source":"© OpenStreetMap contributors (ODbL)"}},{"type":"Feature","geometry":{"type":"Polygon","coordinates":[[[72.85368,19.05039],[72.85407,19.05077],[72.85436,19.0502],[72.85379,19.05008],[72.85368,19.05039]]]},"properties":{"id":"mumbai_osm_21","kind":"aquaculture","kind_ru":"аквакультура / ферма","name":null,"osm_id":"way/420108344","source":"© OpenStreetMap contributors (ODbL)"}},{"type":"Feature","geometry":{"type":"Polygon","coordinates":[[[72.85314,19.05183],[72.8532,19.05077],[72.85296,19.05052],[72.85251,19.05183],[72.85314,19.05183]]]},"properties":{"id":"mumbai_osm_22","kind":"aquaculture","kind_ru":"аквакультура / ферма","name":null,"osm_id":"way/420108345","source":"© OpenStreetMap contributors (ODbL)"}},{"type":"Feature","geometry":{"type":"Polygon","coordinates":[[[72.8534,19.05145],[72.85336,19.05181],[72.8547,19.05206],[72.85465,19.05177],[72.8534,19.05145]]]},"properties":{"id":"mumbai_osm_23","kind":"aquaculture","kind_ru":"аквакультура / ферма","name":null,"osm_id":"way/420108347","source":"© OpenStreetMap contributors (ODbL)"}},{"type":"Feature","geometry":{"type":"Polygon","coordinates":[[[72.85391,19.05261],[72.85416,19.05258],[72.85409,19.05249],[72.85391,19.05261]]]},"properties":{"id":"mumbai_osm_24","kind":"aquaculture","kind_ru":"аквакультура / ферма","name":null,"osm_id":"way/913678351","source":"© OpenStreetMap contributors (ODbL)"}},{"type":"Feature","geometry":{"type":"Polygon","coordinates":[[[72.8559,19.05301],[72.85621,19.053],[72.85621,19.05274],[72.85605,19.05279],[72.8559,19.05301]]]},"properties":{"id":"mumbai_osm_25","kind":"aquaculture","kind_ru":"аквакультура / ферма","name":null,"osm_id":"way/913678352","source":"© OpenStreetMap contributors (ODbL)"}},{"type":"Feature","geometry":{"type":"Polygon","coordinates":[[[72.85597,19.05277],[72.85623,19.05267],[72.85624,19.05255],[72.85602,19.05256],[72.85597,19.05277]]]},"properties":{"id":"mumbai_osm_26","kind":"aquaculture","kind_ru":"аквакультура / ферма","name":null,"osm_id":"way/913678353","source":"© OpenStreetMap contributors (ODbL)"}},{"type":"Feature","geometry":{"type":"Polygon","coordinates":[[[72.85213,19.04975],[72.85246,19.04988],[72.85226,19.04966],[72.85251,19.04959],[72.85222,19.04947],[72.85213,19.04975]]]},"properties":{"id":"mumbai_osm_27","kind":"aquaculture","kind_ru":"аквакультура / ферма","name":null,"osm_id":"way/913678354","source":"© OpenStreetMap contributors (ODbL)"}},{"type":"Feature","geometry":{"type":"Polygon","coordinates":[[[72.85251,19.04901],[72.85336,19.04902],[72.85277,19.04849],[72.85251,19.04901]]]},"properties":{"id":"mumbai_osm_28","kind":"aquaculture","kind_ru":"аквакультура / ферма","name":null,"osm_id":"way/913678355","source":"© OpenStreetMap contributors (ODbL)"}},{"type":"Feature","geometry":{"type":"Polygon","coordinates":[[[72.85582,19.05051],[72.85592,19.05005],[72.85517,19.04996],[72.85553,19.05052],[72.85582,19.05051]]]},"properties":{"id":"mumbai_osm_29","kind":"aquaculture","kind_ru":"аквакультура / ферма","name":null,"osm_id":"way/913678356","source":"© OpenStreetMap contributors (ODbL)"}},{"type":"Feature","geometry":{"type":"Polygon","coordinates":[[[72.85309,19.05042],[72.85361,19.05081],[72.85398,19.05085],[72.85367,19.05018],[72.85309,19.05042]]]},"properties":{"id":"mumbai_osm_30","kind":"aquaculture","kind_ru":"аквакультура / ферма","name":null,"osm_id":"way/913678357","source":"© OpenStreetMap contributors (ODbL)"}},{"type":"Feature","geometry":{"type":"Polygon","coordinates":[[[72.85548,19.05068],[72.85504,19.05004],[72.85477,19.05026],[72.85509,19.05069],[72.85548,19.05068]]]},"properties":{"id":"mumbai_osm_31","kind":"aquaculture","kind_ru":"аквакультура / ферма","name":null,"osm_id":"way/1374633291","source":"© OpenStreetMap contributors (ODbL)"}},{"type":"Feature","geometry":{"type":"Polygon","coordinates":[[[72.85056,19.04902],[72.85075,19.04886],[72.85071,19.04882],[72.85056,19.04902]]]},"properties":{"id":"mumbai_osm_32","kind":"aquaculture","kind_ru":"аквакультура / ферма","name":null,"osm_id":"way/1374633292","source":"© OpenStreetMap contributors (ODbL)"}},{"type":"Feature","geometry":{"type":"Polygon","coordinates":[[[72.85104,19.04826],[72.85079,19.04882],[72.85132,19.04837],[72.85104,19.04826]]]},"properties":{"id":"mumbai_osm_33","kind":"aquaculture","kind_ru":"аквакультура / ферма","name":null,"osm_id":"way/1374633293","source":"© OpenStreetMap contributors (ODbL)"}},{"type":"Feature","geometry":{"type":"Polygon","coordinates":[[[72.85146,19.04877],[72.85177,19.04867],[72.8515,19.0487],[72.85146,19.04877]]]},"properties":{"id":"mumbai_osm_34","kind":"aquaculture","kind_ru":"аквакультура / ферма","name":null,"osm_id":"way/1374633294","source":"© OpenStreetMap contributors (ODbL)"}},{"type":"Feature","geometry":{"type":"Polygon","coordinates":[[[72.85069,19.05085],[72.8507,19.05021],[72.85013,19.05021],[72.8501,19.05082],[72.85069,19.05085]]]},"properties":{"id":"mumbai_osm_35","kind":"aquaculture","kind_ru":"аквакультура / ферма","name":null,"osm_id":"way/1374645321","source":"© OpenStreetMap contributors (ODbL)"}},{"type":"Feature","geometry":{"type":"Polygon","coordinates":[[[72.85013,19.04982],[72.85035,19.04979],[72.85046,19.04968],[72.85025,19.04955],[72.85013,19.04982]]]},"properties":{"id":"mumbai_osm_36","kind":"aquaculture","kind_ru":"аквакультура / ферма","name":null,"osm_id":"way/1374645322","source":"© OpenStreetMap contributors (ODbL)"}},{"type":"Feature","geometry":{"type":"Polygon","coordinates":[[[72.85241,19.04892],[72.85258,19.04852],[72.85245,19.04835],[72.85222,19.04873],[72.85241,19.04892]]]},"properties":{"id":"mumbai_osm_37","kind":"aquaculture","kind_ru":"аквакультура / ферма","name":null,"osm_id":"way/1374645323","source":"© OpenStreetMap contributors (ODbL)"}},{"type":"Feature","geometry":{"type":"Polygon","coordinates":[[[72.85317,19.05279],[72.85332,19.05262],[72.8532,19.0523],[72.85285,19.05243],[72.85317,19.05279]]]},"properties":{"id":"mumbai_osm_38","kind":"aquaculture","kind_ru":"аквакультура / ферма","name":null,"osm_id":"way/1374645324","source":"© OpenStreetMap contributors (ODbL)"}},{"type":"Feature","geometry":{"type":"Polygon","coordinates":[[[72.85344,19.04992],[72.85392,19.04969],[72.85365,19.04948],[72.85344,19.04992]]]},"properties":{"id":"mumbai_osm_39","kind":"aquaculture","kind_ru":"аквакультура / ферма","name":null,"osm_id":"way/1374645325","source":"© OpenStreetMap contributors (ODbL)"}},{"type":"Feature","geometry":{"type":"Polygon","coordinates":[[[72.85673,19.05399],[72.85638,19.05403],[72.85629,19.05424],[72.85659,19.05433],[72.85673,19.05399]]]},"properties":{"id":"mumbai_osm_40","kind":"aquaculture","kind_ru":"аквакультура / ферма","name":null,"osm_id":"way/1186783923","source":"© OpenStreetMap contributors (ODbL)"}},{"type":"Feature","geometry":{"type":"Polygon","coordinates":[[[72.82593,19.07844],[72.82547,19.07815],[72.82489,19.0787],[72.82546,19.07908],[72.82593,19.07844]]]},"properties":{"id":"mumbai_osm_41","kind":"wastewater_plant","kind_ru":"очистные сооружения","name":"Danda Stormwater Pumping Station","osm_id":"way/909478803","source":"© OpenStreetMap contributors (ODbL)"}},{"type":"Feature","geometry":{"type":"Polygon","coordinates":[[[72.84885,19.0868],[72.84943,19.08681],[72.84945,19.08627],[72.84886,19.08642],[72.84885,19.0868]]]},"properties":{"id":"mumbai_osm_42","kind":"wastewater_plant","kind_ru":"очистные сооружения","name":null,"osm_id":"way/910219675","source":"© OpenStreetMap contributors (ODbL)"}},{"type":"Feature","geometry":{"type":"Polygon","coordinates":[[[72.88095,19.04854],[72.8824,19.04927],[72.88459,19.04589],[72.88298,19.04492],[72.88095,19.04854]]]},"properties":{"id":"mumbai_osm_43","kind":"wastewater_plant","kind_ru":"очистные сооружения","name":null,"osm_id":"way/430024305","source":"© OpenStreetMap contributors (ODbL)"}},{"type":"Feature","geometry":{"type":"Polygon","coordinates":[[[72.9126,19.03872],[72.9127,19.03847],[72.91197,19.03821],[72.91187,19.03847],[72.9126,19.03872]]]},"properties":{"id":"mumbai_osm_44","kind":"wastewater_plant","kind_ru":"очистные сооружения","name":null,"osm_id":"way/905716268","source":"© OpenStreetMap contributors (ODbL)"}},{"type":"Feature","geometry":{"type":"Polygon","coordinates":[[[72.91558,19.05877],[72.91617,19.05954],[72.91714,19.0589],[72.91653,19.05814],[72.91558,19.05877]]]},"properties":{"id":"mumbai_osm_45","kind":"wastewater_plant","kind_ru":"очистные сооружения","name":null,"osm_id":"way/626243772","source":"© OpenStreetMap contributors (ODbL)"}},{"type":"Feature","geometry":{"type":"Polygon","coordinates":[[[72.9358,19.08031],[72.93121,19.07577],[72.92939,19.07732],[72.93023,19.0782],[72.92908,19.07911],[72.93003,19.08011],[72.93121,19.07919],[72.93401,19.08192],[72.9358,19.08031]]]},"properties":{"id":"mumbai_osm_46","kind":"wastewater_plant","kind_ru":"очистные сооружения","name":"Ghatkopar 337MLD Wastewater Treatment Facility","osm_id":"way/841044963","source":"© OpenStreetMap contributors (ODbL)"}},{"type":"Feature","geometry":{"type":"Polygon","coordinates":[[[72.76689,19.24146],[72.76746,19.24223],[72.7672,19.24244],[72.76826,19.24213],[72.76689,19.24146]]]},"properties":{"id":"mumbai_osm_47","kind":"beach","kind_ru":"пляж","name":null,"osm_id":"way/1173219772","source":"© OpenStreetMap contributors (ODbL)"}},{"type":"Feature","geometry":{"type":"Polygon","coordinates":[[[72.80736,19.13699],[72.80907,19.13568],[72.81237,19.13159],[72.81277,19.13072],[72.81423,19.12914],[72.81527,19.12675],[72.81552,19.12661],[72.81661,19.12729],[72.81713,19.12714],[72.81707,19.12623],[72.8178,19.12563],[72.8182,19.12418],[72.81934,19.1234],[72.81759,19.12295],[72.81309,19.13017],[72.80966,19.13477],[72.80736,19.13699]]]},"properties":{"id":"mumbai_osm_48","kind":"beach","kind_ru":"пляж","name":"Versova Beach","osm_id":"way/203054460","source":"© OpenStreetMap contributors (ODbL)"}},{"type":"Feature","geometry":{"type":"Polygon","coordinates":[[[72.81901,19.12087],[72.81759,19.12295],[72.81934,19.1234],[72.82056,19.12231],[72.81941,19.12219],[72.81938,19.12104],[72.81901,19.12087]]]},"properties":{"id":"mumbai_osm_49","kind":"beach","kind_ru":"пляж","name":"Juhu Beach","osm_id":"way/608429347","source":"© OpenStreetMap contributors (ODbL)"}},{"type":"Feature","geometry":{"type":"Polygon","coordinates":[[[72.78395,19.15724],[72.78455,19.15465],[72.78748,19.15253],[72.78907,19.15019],[72.78943,19.14775],[72.78937,19.1449],[72.78882,19.14487],[72.78921,19.14713],[72.78865,19.15022],[72.78738,19.15232],[72.78435,19.15454],[72.78395,19.15724]]]},"properties":{"id":"mumbai_osm_50","kind":"beach","kind_ru":"пляж","name":"Madh Chowpatty","osm_id":"way/204704714","source":"© OpenStreetMap contributors (ODbL)"}},{"type":"Feature","geometry":{"type":"Polygon","coordinates":[[[72.80205,19.14143],[72.80338,19.14312],[72.80368,19.14288],[72.80311,19.14182],[72.80327,19.14095],[72.80459,19.13938],[72.8074,19.13718],[72.80484,19.13901],[72.802,19.14052],[72.80205,19.14143]]]},"properties":{"id":"mumbai_osm_51","kind":"beach","kind_ru":"пляж","name":null,"osm_id":"way/204886720","source":"© OpenStreetMap contributors (ODbL)"}},{"type":"Feature","geometry":{"type":"Polygon","coordinates":[[[72.8123,19.15184],[72.81634,19.14752],[72.81723,19.14821],[72.81766,19.14783],[72.81701,19.14669],[72.81459,19.14522],[72.81415,19.14553],[72.81351,19.14489],[72.80939,19.14926],[72.8123,19.15184]]]},"properties":{"id":"mumbai_osm_52","kind":"wastewater_plant","kind_ru":"очистные сооружения","name":"Versova Sewage Treatment Plant","osm_id":"way/420142111","source":"© OpenStreetMap contributors (ODbL)"}},{"type":"Feature","geometry":{"type":"Polygon","coordinates":[[[72.78387,19.16064],[72.78342,19.16216],[72.78201,19.16318],[72.78239,19.16358],[72.7836,19.16284],[72.78439,19.16182],[72.78454,19.16046],[72.78413,19.15953],[72.78353,19.15958],[72.78387,19.16064]]]},"properties":{"id":"mumbai_osm_53","kind":"beach","kind_ru":"пляж","name":null,"osm_id":"way/278538737","source":"© OpenStreetMap contributors (ODbL)"}},{"type":"Feature","geometry":{"type":"Polygon","coordinates":[[[72.79406,19.17219],[72.79619,19.18285],[72.79561,19.19072],[72.79653,19.19363],[72.79676,19.19653],[72.79636,19.19845],[72.79776,19.19957],[72.7983,19.19948],[72.79767,19.19824],[72.79732,19.19823],[72.7968,19.19376],[72.79605,19.19119],[72.79655,19.18613],[72.79646,19.17687],[72.79472,19.1724],[72.79517,19.1718],[72.79507,19.1714],[72.7939,19.17134],[72.79307,19.17189],[72.79406,19.17219]]]},"properties":{"id":"mumbai_osm_54","kind":"beach","kind_ru":"пляж","name":"Aksa Beach","osm_id":"way/202661508","source":"© OpenStreetMap contributors (ODbL)"}},{"type":"Feature","geometry":{"type":"Polygon","coordinates":[[[72.78487,19.20042],[72.78568,19.20152],[72.78593,19.20276],[72.78579,19.2036],[72.78491,19.2051],[72.78335,19.20608],[72.7835,19.20623],[72.78269,19.20649],[72.78235,19.20623],[72.7821,19.20683],[72.78027,19.20609],[72.78006,19.20704],[72.78108,19.20684],[72.78214,19.20706],[72.78412,19.20618],[72.78545,19.20491],[72.78647,19.20198],[72.78529,19.20045],[72.78487,19.20042]]]},"properties":{"id":"mumbai_osm_55","kind":"beach","kind_ru":"пляж","name":"Manori Aum Beach","osm_id":"way/49423605","source":"© OpenStreetMap contributors (ODbL)"}},{"type":"Feature","geometry":{"type":"Polygon","coordinates":[[[72.79657,19.19847],[72.79764,19.19867],[72.79762,19.19837],[72.79727,19.1983],[72.79704,19.19721],[72.79671,19.19716],[72.79657,19.19847]]]},"properties":{"id":"mumbai_osm_56","kind":"beach","kind_ru":"пляж","name":null,"osm_id":"way/911455478","source":"© OpenStreetMap contributors (ODbL)"}},{"type":"Feature","geometry":{"type":"Polygon","coordinates":[[[72.8382,19.16809],[72.83888,19.16808],[72.83878,19.16731],[72.83832,19.16735],[72.8382,19.16809]]]},"properties":{"id":"mumbai_osm_57","kind":"aquaculture","kind_ru":"аквакультура / ферма","name":"tom aquarium","osm_id":"way/884011896","source":"© OpenStreetMap contributors (ODbL)"}},{"type":"Feature","geometry":{"type":"Polygon","coordinates":[[[72.95705,19.14045],[72.95763,19.1407],[72.95709,19.1424],[72.96093,19.14399],[72.96054,19.14419],[72.96043,19.14507],[72.96124,19.14523],[72.96147,19.14406],[72.96335,19.14449],[72.9642,19.14245],[72.95727,19.13983],[72.95705,19.14045]]]},"properties":{"id":"mumbai_osm_58","kind":"wastewater_plant","kind_ru":"очистные сооружения","name":"Bhandup Wastewater Treatment Plant","osm_id":"way/627628786","source":"© OpenStreetMap contributors (ODbL)"}},{"type":"Feature","geometry":{"type":"Polygon","coordinates":[[[72.89223,19.16363],[72.8923,19.16327],[72.89291,19.16322],[72.89416,19.16365],[72.8947,19.16293],[72.89177,19.16178],[72.89077,19.16175],[72.89122,19.16357],[72.89223,19.16363]]]},"properties":{"id":"mumbai_osm_59","kind":"protected_area","kind_ru":"охраняемая зона","name":"BNHS Nature Reserve","osm_id":"way/1535484031","source":"© OpenStreetMap contributors (ODbL)"}},{"type":"Feature","geometry":{"type":"Polygon","coordinates":[[[72.9731,19.1785],[72.97283,19.17862],[72.97298,19.17915],[72.9743,19.17891],[72.97446,19.1794],[72.97516,19.1793],[72.97505,19.17889],[72.97631,19.17862],[72.97518,19.17588],[72.97436,19.17582],[72.97358,19.17725],[72.97279,19.17758],[72.9731,19.1785]]]},"properties":{"id":"mumbai_osm_60","kind":"wastewater_plant","kind_ru":"очистные сооружения","name":"Water Purification Plant Kopri","osm_id":"way/395232290","source":"© OpenStreetMap contributors (ODbL)"}},{"type":"Feature","geometry":{"type":"Polygon","coordinates":[[[72.80899,19.2259],[72.8076,19.22568],[72.80915,19.22827],[72.80909,19.22934],[72.80936,19.22933],[72.80989,19.23037],[72.81287,19.23092],[72.81326,19.23144],[72.81338,19.23324],[72.81419,19.23325],[72.81459,19.23377],[72.81444,19.23505],[72.81498,19.23506],[72.81456,19.23583],[72.8144,19.23763],[72.81143,19.23695],[72.81088,19.2372],[72.8098,19.23693],[72.80655,19.23715],[72.80341,19.23878],[72.80393,19.24033],[72.80447,19.24086],[72.80472,19.2424],[72.80415,19.2442],[72.80356,19.24454],[72.80346,19.24522],[72.80157,19.24481],[72.80103,19.24442],[72.80096,19.24509],[72.80161,19.24542],[72.80223,19.247],[72.80086,19.24696],[72.8003,19.24729],[72.80072,19.24776],[72.8003,19.24879],[72.80079,19.24922],[72.80232,19.24945],[72.8042,19.25038],[72.80446,19.25141],[72.805,19.25142],[72.80472,19.25244],[72.80526,19.25245],[72.80524,19.25374],[72.80579,19.25374],[72.80578,19.254],[72.80524,19.25399],[72.80522,19.25554],[72.80305,19.25538],[72.80127,19.25703],[72.80113,19.25755],[72.80059,19.25754],[72.80044,19.25857],[72.80069,19.2596],[72.7992,19.25984],[72.79892,19.26061],[72.79946,19.26062],[72.79935,19.26115],[72.79972,19.26165],[72.8019,19.2609],[72.80205,19.25962],[72.80303,19.25731],[72.80681,19.25839],[72.80682,19.25787],[72.80763,19.25775],[72.80954,19.25662],[72.80994,19.25714],[72.81006,19.25843],[72.80871,19.25841],[72.80855,19.25995],[72.80868,19.26047],[72.80949,19.26074],[72.80934,19.26202],[72.80973,19.26306],[72.80864,19.2633],[72.80838,19.26265],[72.80866,19.26464],[72.80792,19.26638],[72.80832,19.26729],[72.8094,19.26769],[72.80939,19.2682],[72.80993,19.26821],[72.81099,19.27002],[72.82367,19.27481],[72.82409,19.27352],[72.83241,19.26976],[72.83518,19.27546],[72.8348,19.27365],[72.83615,19.27418],[72.83614,19.27495],[72.83668,19.27496],[72.8359,19.27212],[72.83699,19.27188],[72.83739,19.27265],[72.83723,19.2742],[72.83831,19.27472],[72.83914,19.27345],[72.83944,19.27126],[72.83999,19.27075],[72.84324,19.27066],[72.84352,19.26964],[72.8438,19.26964],[72.84379,19.27041],[72.8446,19.27042],[72.84473,19.26954],[72.84665,19.26822],[72.84595,19.26753],[72.84429,19.26739],[72.84162,19.26816],[72.84013,19.26805],[72.83937,19.27014],[72.83866,19.27116],[72.83846,19.27104],[72.8391,19.27009],[72.83979,19.26802],[72.83705,19.26565],[72.83522,19.26336],[72.83469,19.26166],[72.83454,19.25976],[72.83511,19.2584],[72.83707,19.25633],[72.83792,19.25468],[72.83783,19.25368],[72.837,19.25204],[72.83522,19.2508],[72.83,19.2495],[72.82948,19.24962],[72.82967,19.25069],[72.82896,19.24981],[72.82553,19.24787],[72.82362,19.24608],[72.82249,19.24455],[72.82123,19.24552],[72.82064,19.24685],[72.82114,19.24991],[72.8217,19.25062],[72.82281,19.25054],[72.82414,19.2515],[72.82438,19.25266],[72.82383,19.2541],[72.82386,19.25485],[72.82483,19.25597],[72.82571,19.25817],[72.82666,19.25901],[72.82779,19.25939],[72.82772,19.2596],[72.82655,19.25917],[72.82554,19.25825],[72.82389,19.25558],[72.82348,19.25423],[72.82378,19.25196],[72.8234,19.25146],[72.82219,19.25151],[72.82083,19.25064],[72.82002,19.24801],[72.82026,19.24548],[72.81811,19.24534],[72.81711,19.24576],[72.81553,19.2508],[72.81476,19.25201],[72.8148,19.25261],[72.8119,19.25504],[72.81165,19.25659],[72.81227,19.25752],[72.81199,19.25766],[72.81159,19.25734],[72.81116,19.2555],[72.81073,19.25538],[72.81124,19.25531],[72.81395,19.25278],[72.8155,19.24853],[72.81562,19.24745],[72.81516,19.24737],[72.81588,19.24713],[72.8165,19.24549],[72.81782,19.2447],[72.81622,19.24168],[72.81539,19.24107],[72.81279,19.24026],[72.81038,19.24062],[72.812,19.24006],[72.81553,19.24086],[72.81698,19.24231],[72.81785,19.24402],[72.81859,19.24458],[72.82043,19.2444],[72.8214,19.24345],[72.82144,19.24241],[72.81983,19.23778],[72.8194,19.23682],[72.81905,19.23656],[72.81858,19.2367],[72.81851,19.23642],[72.81888,19.23617],[72.81842,19.23484],[72.81735,19.23319],[72.81695,19.23272],[72.81666,19.23296],[72.81636,19.23218],[72.81486,19.23067],[72.81167,19.22898],[72.80899,19.2259]]]},"properties":{"id":"mumbai_osm_61","kind":"protected_area","kind_ru":"охраняемая зона","name":null,"osm_id":"way/420138328","source":"© OpenStreetMap contributors (ODbL)"}},{"type":"Feature","geometry":{"type":"Polygon","coordinates":[[[72.78331,19.26923],[72.78376,19.26929],[72.78376,19.26845],[72.78462,19.26707],[72.78439,19.26633],[72.78331,19.26923]]]},"properties":{"id":"mumbai_osm_62","kind":"beach","kind_ru":"пляж","name":null,"osm_id":"way/99205659","source":"© OpenStreetMap contributors (ODbL)"}},{"type":"Feature","geometry":{"type":"Polygon","coordinates":[[[72.8599,19.27546],[72.85934,19.27481],[72.85882,19.27491],[72.8589,19.27549],[72.85955,19.27577],[72.8599,19.27546]]]},"properties":{"id":"mumbai_osm_63","kind":"wastewater_plant","kind_ru":"очистные сооружения","name":"MBMC Water Treatment Plant","osm_id":"way/1382622426","source":"© OpenStreetMap contributors (ODbL)"}},{"type":"Feature","geometry":{"type":"Polygon","coordinates":[[[72.84435,19.29609],[72.84397,19.29626],[72.84404,19.2968],[72.84437,19.29672],[72.84435,19.29609]]]},"properties":{"id":"mumbai_osm_64","kind":"wastewater_plant","kind_ru":"очистные сооружения","name":null,"osm_id":"way/948446929","source":"© OpenStreetMap contributors (ODbL)"}},{"type":"Feature","geometry":{"type":"Polygon","coordinates":[[[72.86292,19.29985],[72.86334,19.29974],[72.86292,19.29973],[72.86292,19.29985]]]},"properties":{"id":"mumbai_osm_65","kind":"wastewater_plant","kind_ru":"очистные сооружения","name":null,"osm_id":"way/1001724554","source":"© OpenStreetMap contributors (ODbL)"}},{"type":"Feature","geometry":{"type":"Polygon","coordinates":[[[72.94902,19.23114],[72.94961,19.23063],[72.94954,19.23044],[72.94849,19.2306],[72.9485,19.23106],[72.94902,19.23114]]]},"properties":{"id":"mumbai_osm_66","kind":"wastewater_plant","kind_ru":"очистные сооружения","name":null,"osm_id":"way/948236558","source":"© OpenStreetMap contributors (ODbL)"}},{"type":"Feature","geometry":{"type":"Polygon","coordinates":[[[72.94872,19.23074],[72.94885,19.23096],[72.94891,19.23084],[72.94872,19.23074]]]},"properties":{"id":"mumbai_osm_67","kind":"wastewater_plant","kind_ru":"очистные сооружения","name":null,"osm_id":"way/1284788386","source":"© OpenStreetMap contributors (ODbL)"}},{"type":"Feature","geometry":{"type":"Polygon","coordinates":[[[72.87889,19.28911],[72.87977,19.28959],[72.88037,19.28971],[72.87925,19.2884],[72.87877,19.28824],[72.87889,19.28911]]]},"properties":{"id":"mumbai_osm_68","kind":"wastewater_plant","kind_ru":"очистные сооружения","name":null,"osm_id":"way/987784388","source":"© OpenStreetMap contributors (ODbL)"}},{"type":"Feature","geometry":{"type":"Polygon","coordinates":[[[72.87743,19.29625],[72.87719,19.29599],[72.87649,19.29655],[72.87673,19.29681],[72.87743,19.29625]]]},"properties":{"id":"mumbai_osm_69","kind":"wastewater_plant","kind_ru":"очистные сооружения","name":null,"osm_id":"way/980677023","source":"© OpenStreetMap contributors (ODbL)"}},{"type":"Feature","geometry":{"type":"Polygon","coordinates":[[[72.99028,19.15495],[72.99294,19.15486],[72.99287,19.15427],[72.99026,19.15438],[72.99028,19.15495]]]},"properties":{"id":"mumbai_osm_70","kind":"wastewater_plant","kind_ru":"очистные сооружения","name":"NMMC Waste water treatment plant","osm_id":"way/220589510","source":"© OpenStreetMap contributors (ODbL)"}},{"type":"Feature","geometry":{"type":"Polygon","coordinates":[[[72.99193,19.18313],[72.9916,19.18335],[72.99171,19.18375],[72.99216,19.18344],[72.99193,19.18313]]]},"properties":{"id":"mumbai_osm_71","kind":"wastewater_plant","kind_ru":"очистные сооружения","name":null,"osm_id":"way/948236562","source":"© OpenStreetMap contributors (ODbL)"}},{"type":"Feature","geometry":{"type":"Polygon","coordinates":[[[72.98264,19.20997],[72.9825,19.20958],[72.98239,19.20975],[72.98264,19.20997]]]},"properties":{"id":"mumbai_osm_72","kind":"wastewater_plant","kind_ru":"очистные сооружения","name":null,"osm_id":"way/946111449","source":"© OpenStreetMap contributors (ODbL)"}},{"type":"Feature","geometry":{"type":"Polygon","coordinates":[[[72.98345,19.2143],[72.98366,19.21472],[72.98408,19.21471],[72.98413,19.21421],[72.98345,19.2143]]]},"properties":{"id":"mumbai_osm_73","kind":"wastewater_plant","kind_ru":"очистные сооружения","name":null,"osm_id":"way/1078220905","source":"© OpenStreetMap contributors (ODbL)"}},{"type":"Feature","geometry":{"type":"Polygon","coordinates":[[[72.98466,19.23235],[72.98563,19.23203],[72.98542,19.23133],[72.98466,19.23235]]]},"properties":{"id":"mumbai_osm_74","kind":"wastewater_plant","kind_ru":"очистные сооружения","name":null,"osm_id":"way/946542623","source":"© OpenStreetMap contributors (ODbL)"}},{"type":"Feature","geometry":{"type":"Polygon","coordinates":[[[72.99183,19.25662],[72.99338,19.25505],[72.99224,19.25496],[72.99107,19.25578],[72.99134,19.25595],[72.99116,19.25621],[72.99183,19.25662]]]},"properties":{"id":"mumbai_osm_75","kind":"wastewater_plant","kind_ru":"очистные сооружения","name":"Hiranandani Estate Sewage Treatment Plant","osm_id":"way/956385792","source":"© OpenStreetMap contributors (ODbL)"}},{"type":"Feature","geometry":{"type":"Polygon","coordinates":[[[72.95763,19.40192],[72.95849,19.39383],[72.96115,19.38654],[72.95978,19.38338],[72.95866,19.38265],[72.96553,19.37723],[72.97291,19.37286],[72.97523,19.36524],[72.97505,19.3616],[72.98132,19.35488],[72.98415,19.34727],[72.98853,19.34581],[72.98956,19.34322],[72.99059,19.34419],[72.99136,19.34727],[72.99575,19.34584],[72.99575,19.3352],[72.99531,19.3352],[72.99575,19.33344],[72.99575,19.30846],[72.99505,19.30766],[72.99488,19.30993],[72.9911,19.30896],[72.98758,19.30547],[72.98518,19.30215],[72.97943,19.30272],[72.97857,19.30904],[72.97943,19.30969],[72.97952,19.31349],[72.98098,19.31349],[72.98149,19.31657],[72.98286,19.31673],[72.98492,19.32281],[72.98364,19.32459],[72.9857,19.32815],[72.98518,19.33042],[72.98673,19.33334],[72.98475,19.33763],[72.9857,19.34014],[72.98432,19.33998],[72.98407,19.34152],[72.98226,19.34354],[72.98132,19.34791],[72.9778,19.3454],[72.9778,19.34273],[72.97909,19.34127],[72.97574,19.34087],[72.97668,19.33698],[72.97222,19.33682],[72.96922,19.33593],[72.96741,19.33018],[72.96553,19.33002],[72.96407,19.32613],[72.96244,19.32637],[72.96166,19.33131],[72.96175,19.33609],[72.96295,19.33552],[72.96613,19.34014],[72.96733,19.3386],[72.96836,19.33876],[72.9687,19.34063],[72.96784,19.34225],[72.96922,19.34354],[72.97214,19.34411],[72.97617,19.34613],[72.97437,19.34735],[72.97626,19.34816],[72.97686,19.35067],[72.97608,19.35253],[72.97291,19.35569],[72.97291,19.35747],[72.97136,19.35755],[72.96527,19.35391],[72.96415,19.35293],[72.96398,19.35067],[72.96295,19.35026],[72.96329,19.34848],[72.96218,19.34767],[72.9584,19.3497],[72.95969,19.34532],[72.95591,19.34233],[72.95248,19.33755],[72.95128,19.33795],[72.95016,19.33739],[72.95094,19.3356],[72.94999,19.33382],[72.95094,19.33155],[72.94673,19.32167],[72.94579,19.3177],[72.94458,19.31706],[72.94007,19.32301],[72.93926,19.32508],[72.93381,19.32945],[72.93682,19.33269],[72.93729,19.33569],[72.93652,19.33949],[72.93347,19.34808],[72.93506,19.35168],[72.93467,19.35403],[72.93244,19.35808],[72.93038,19.36043],[72.93111,19.36399],[72.93291,19.36456],[72.93385,19.36375],[72.93587,19.36468],[72.9342,19.36824],[72.93235,19.36759],[72.93201,19.37383],[72.92969,19.37601],[72.92961,19.37751],[72.9278,19.37856],[72.92613,19.37767],[72.92639,19.375],[72.92592,19.3746],[72.92892,19.3669],[72.92699,19.3665],[72.92557,19.36832],[72.92506,19.36994],[72.92373,19.36958],[72.92416,19.36788],[72.92158,19.3667],[72.91845,19.36925],[72.91699,19.3682],[72.91656,19.36658],[72.91549,19.36658],[72.91017,19.36966],[72.90944,19.36982],[72.90987,19.3714],[72.9112,19.37164],[72.91291,19.37371],[72.91326,19.37508],[72.91077,19.37601],[72.90978,19.37601],[72.90858,19.37727],[72.90888,19.378],[72.90811,19.3784],[72.90639,19.37844],[72.90545,19.37962],[72.90583,19.38148],[72.90823,19.37958],[72.90901,19.38047],[72.90832,19.38136],[72.90961,19.38233],[72.91115,19.38225],[72.9109,19.38346],[72.90987,19.38326],[72.90944,19.38447],[72.90836,19.38439],[72.90678,19.38597],[72.91055,19.38767],[72.90909,19.38957],[72.90909,19.39136],[72.90763,19.39217],[72.90635,19.39111],[72.90467,19.39273],[72.90545,19.39407],[72.90411,19.39439],[72.90326,19.39625],[72.9015,19.39803],[72.90287,19.39933],[72.90154,19.4003],[72.90051,19.39937],[72.89991,19.39662],[72.89862,19.39573],[72.89862,19.3931],[72.90042,19.39229],[72.90042,19.39148],[72.9021,19.39014],[72.90047,19.38925],[72.89905,19.38949],[72.89729,19.38783],[72.89695,19.38549],[72.8927,19.38557],[72.89193,19.38144],[72.89025,19.38115],[72.89,19.37941],[72.89115,19.37941],[72.89261,19.37682],[72.89343,19.37682],[72.89493,19.3733],[72.89596,19.37342],[72.89699,19.37091],[72.89579,19.37091],[72.8957,19.36962],[72.89386,19.36885],[72.89549,19.3665],[72.8945,19.36609],[72.89021,19.36711],[72.89025,19.36868],[72.88214,19.37051],[72.87927,19.36796],[72.87716,19.36682],[72.87622,19.36763],[72.87493,19.36783],[72.8748,19.3665],[72.87261,19.365],[72.87098,19.36646],[72.8724,19.36783],[72.87107,19.36783],[72.87146,19.37026],[72.86944,19.3714],[72.86768,19.37443],[72.86794,19.37747],[72.86987,19.3818],[72.86897,19.38545],[72.87219,19.38536],[72.87712,19.38294],[72.88188,19.3846],[72.88326,19.38634],[72.88558,19.38638],[72.88948,19.38957],[72.8863,19.39334],[72.88695,19.39828],[72.89064,19.40257],[72.89532,19.40261],[72.89375,19.40487],[72.95299,19.40487],[72.95763,19.40192]]]},"properties":{"id":"mumbai_osm_76","kind":"protected_area","kind_ru":"охраняемая зона","name":"Tungareshwar Wildlife Sanctuary","osm_id":"relation/21057460","source":"© OpenStreetMap contributors (ODbL)"}},{"type":"Feature","geometry":{"type":"Polygon","coordinates":[[[72.97697,19.16989],[72.97866,19.17521],[72.98327,19.1738],[72.98146,19.15962],[72.98063,19.14671],[72.9681,19.09684],[72.96759,19.06784],[72.95806,19.06636],[72.95649,19.0665],[72.95486,19.06613],[72.95233,19.05863],[72.95259,19.05744],[72.94338,19.05432],[72.9425,19.05928],[72.94394,19.05934],[72.94686,19.06102],[72.94954,19.06435],[72.95336,19.06731],[72.95338,19.068],[72.95233,19.07416],[72.95053,19.07629],[72.94988,19.08104],[72.94918,19.08301],[72.94982,19.08706],[72.94842,19.09625],[72.95276,19.10598],[72.9457,19.11113],[72.94394,19.1145],[72.94439,19.1146],[72.9466,19.11176],[72.94941,19.11077],[72.95162,19.11048],[72.95712,19.12039],[72.96071,19.1258],[72.96143,19.12867],[72.95918,19.13244],[72.96673,19.13882],[72.96864,19.14004],[72.97241,19.14647],[72.97372,19.14665],[72.97626,19.15293],[72.97668,19.15597],[72.97609,19.16068],[72.97697,19.16989]]]},"properties":{"id":"mumbai_osm_77","kind":"protected_area","kind_ru":"охраняемая зона","name":"Thane Creek Flamingo Sanctuary","osm_id":"relation/15073373","source":"© OpenStreetMap contributors (ODbL)"}},{"type":"Feature","geometry":{"type":"MultiPolygon","coordinates":[[[[72.94918,19.08301],[72.94988,19.08104],[72.95053,19.07629],[72.95233,19.07416],[72.95336,19.06731],[72.94954,19.06435],[72.94686,19.06102],[72.94394,19.05934],[72.9425,19.05928],[72.94338,19.05432],[72.94133,19.05353],[72.94094,19.05506],[72.94214,19.05587],[72.94211,19.05675],[72.93993,19.05756],[72.93947,19.0589],[72.93721,19.05909],[72.93748,19.06059],[72.93648,19.06291],[72.93591,19.06351],[72.93413,19.06976],[72.933,19.07076],[72.93236,19.07247],[72.93119,19.07421],[72.92837,19.07564],[72.92589,19.07525],[72.9242,19.07439],[72.92126,19.0755],[72.91899,19.07685],[72.91825,19.07782],[72.91788,19.07965],[72.92082,19.08344],[72.92232,19.08182],[72.92195,19.08124],[72.9232,19.08029],[72.92364,19.0808],[72.92604,19.07909],[72.92888,19.07844],[72.92923,19.07735],[72.93146,19.07539],[72.93643,19.08016],[72.93403,19.08252],[72.93099,19.07988],[72.93018,19.08046],[72.92842,19.079],[72.92646,19.0793],[72.92168,19.08273],[72.92119,19.08374],[72.92658,19.09136],[72.92789,19.09258],[72.93037,19.093],[72.93146,19.09423],[72.93106,19.09557],[72.93011,19.09594],[72.92947,19.09525],[72.92842,19.09525],[72.92842,19.09601],[72.93018,19.09726],[72.93067,19.09868],[72.93114,19.09863],[72.93087,19.0977],[72.93155,19.09706],[72.9347,19.09839],[72.93977,19.09696],[72.94099,19.0963],[72.94019,19.09978],[72.93687,19.10296],[72.93368,19.10193],[72.93577,19.10781],[72.93889,19.10671],[72.94106,19.11134],[72.94179,19.11432],[72.94395,19.11497],[72.94312,19.11726],[72.94228,19.12243],[72.94174,19.1234],[72.94079,19.12377],[72.93861,19.12307],[72.94045,19.1274],[72.94157,19.12585],[72.94331,19.12007],[72.95712,19.12039],[72.95162,19.11048],[72.94941,19.11077],[72.9466,19.11176],[72.94439,19.1146],[72.94394,19.1145],[72.9457,19.11113],[72.95276,19.10598],[72.94842,19.09625],[72.94982,19.08706],[72.94918,19.08301]]],[[[72.95649,19.0665],[72.95806,19.06636],[72.96759,19.06784],[72.9681,19.09684],[72.98063,19.14671],[72.98146,19.15962],[72.9819,19.15071],[72.98082,19.13525],[72.98126,19.13418],[72.98111,19.13317],[72.98057,19.13261],[72.97999,19.124],[72.98018,19.12275],[72.98111,19.12261],[72.98136,19.12136],[72.97999,19.12071],[72.97901,19.11868],[72.9795,19.10321],[72.97989,19.10182],[72.98234,19.10192],[72.98371,19.10136],[72.98638,19.08374],[72.98689,19.08275],[72.98785,19.08247],[72.98785,19.08071],[72.98471,19.07798],[72.98408,19.06874],[72.98214,19.06631],[72.98001,19.06474],[72.95855,19.0595],[72.95259,19.05744],[72.95233,19.05863],[72.95486,19.06613],[72.95649,19.0665]]],[[[72.97626,19.15293],[72.97372,19.14665],[72.97241,19.14647],[72.96864,19.14004],[72.96673,19.13882],[72.95918,19.13244],[72.96143,19.12867],[72.96106,19.12753],[72.95458,19.12724],[72.95064,19.12805],[72.9438,19.12835],[72.94331,19.1318],[72.95501,19.15109],[72.95703,19.15034],[72.95897,19.15029],[72.96169,19.14875],[72.96243,19.14863],[72.96242,19.14632],[72.96172,19.1455],[72.95973,19.14519],[72.95964,19.14375],[72.95707,19.14261],[72.95698,19.14045],[72.95737,19.13959],[72.96439,19.14226],[72.96346,19.14471],[72.96461,19.14471],[72.96463,19.14819],[72.96274,19.1488],[72.95898,19.1507],[72.95637,19.15111],[72.95537,19.15161],[72.96225,19.16186],[72.9672,19.16117],[72.96886,19.16283],[72.97609,19.16068],[72.97668,19.15597],[72.97626,19.15293]]]]},"properties":{"id":"mumbai_osm_78","kind":"protected_area","kind_ru":"охраняемая зона","name":"Thane Creek Flamingo Sanctuary ESZ (Proposed)","osm_id":"relation/21064608","source":"© OpenStreetMap contributors (ODbL)"}},{"type":"Feature","geometry":{"type":"Polygon","coordinates":[[[72.83962,19.01549],[72.84022,19.01596],[72.84071,19.01577],[72.83801,19.01139],[72.8367,19.01243],[72.83962,19.01549]],[[72.83737,19.01229],[72.83729,19.01255],[72.83719,19.01239],[72.83737,19.01229]],[[72.83743,19.01299],[72.8375,19.01274],[72.8376,19.0129],[72.83743,19.01299]],[[72.83772,19.01324],[72.83784,19.01297],[72.83792,19.01316],[72.83772,19.01324]],[[72.83889,19.01447],[72.83861,19.01418],[72.83881,19.01401],[72.83908,19.01431],[72.83889,19.01447]],[[72.83939,19.01494],[72.83905,19.01485],[72.8392,19.01473],[72.83939,19.01494]],[[72.83968,19.01527],[72.83935,19.01516],[72.8395,19.01505],[72.83968,19.01527]],[[72.8402,19.01561],[72.84004,19.01555],[72.84013,19.0155],[72.8402,19.01561]]]},"properties":{"id":"mumbai_osm_79","kind":"wastewater_plant","kind_ru":"очистные сооружения","name":"Dadar Waste Treatment Centre","osm_id":"relation/8058326","source":"© OpenStreetMap contributors (ODbL)"}},{"type":"Feature","geometry":{"type":"MultiPolygon","coordinates":[[[[72.90616,19.13968],[72.90696,19.14026],[72.90736,19.13933],[72.90616,19.13968]]],[[[72.9048,19.14097],[72.90198,19.14126],[72.90204,19.14262],[72.90252,19.14236],[72.9027,19.14132],[72.90395,19.14222],[72.9048,19.14184],[72.9048,19.14097]]],[[[72.92402,19.15022],[72.92261,19.14575],[72.92164,19.14461],[72.92067,19.14406],[72.91845,19.14087],[72.91813,19.1414],[72.91626,19.14131],[72.91392,19.14179],[72.91354,19.14127],[72.91288,19.14117],[72.91272,19.14045],[72.91183,19.14024],[72.91073,19.14059],[72.90985,19.13998],[72.90947,19.14076],[72.91016,19.14289],[72.91054,19.14292],[72.91099,19.1423],[72.91138,19.1429],[72.91155,19.14387],[72.91095,19.14387],[72.91088,19.1462],[72.91144,19.14731],[72.91168,19.14709],[72.91205,19.14734],[72.91229,19.14624],[72.91357,19.1463],[72.915,19.14437],[72.91578,19.14394],[72.91741,19.14587],[72.91835,19.14864],[72.9191,19.14828],[72.91963,19.14848],[72.92034,19.1502],[72.92083,19.14946],[72.92092,19.14803],[72.92205,19.14875],[72.92162,19.14952],[72.92207,19.15095],[72.92402,19.15022]]],[[[72.94461,19.25743],[72.94533,19.25607],[72.94686,19.25498],[72.94755,19.25257],[72.94793,19.24601],[72.94884,19.24557],[72.94884,19.2461],[72.94836,19.24616],[72.94838,19.24688],[72.94894,19.24728],[72.9484,19.24789],[72.95143,19.25472],[72.95208,19.2553],[72.95243,19.25517],[72.9528,19.25301],[72.95157,19.24966],[72.9517,19.24863],[72.95116,19.24836],[72.95055,19.24632],[72.94981,19.24672],[72.94965,19.24737],[72.95027,19.24873],[72.94982,19.24908],[72.94873,19.24665],[72.94967,19.24617],[72.94961,19.24521],[72.95527,19.24252],[72.95609,19.24183],[72.96093,19.24088],[72.95812,19.23407],[72.96273,19.23348],[72.9624,19.23227],[72.96363,19.23109],[72.96188,19.23053],[72.95948,19.22633],[72.95827,19.22653],[72.95769,19.22371],[72.95553,19.22296],[72.95377,19.22143],[72.9538,19.22086],[72.95323,19.22083],[72.95265,19.22023],[72.95286,19.21997],[72.9525,19.21926],[72.95263,19.21872],[72.95194,19.21871],[72.95046,19.22062],[72.94998,19.22055],[72.94635,19.2139],[72.94651,19.2121],[72.94688,19.212],[72.94632,19.20942],[72.94858,19.20949],[72.94882,19.20766],[72.94961,19.2075],[72.94956,19.20705],[72.94986,19.20698],[72.94974,19.20573],[72.95046,19.20532],[72.95224,19.2051],[72.95374,19.20428],[72.94587,19.20649],[72.94476,19.20655],[72.94465,19.20442],[72.94413,19.20346],[72.94177,19.20135],[72.94132,19.19947],[72.94252,19.19834],[72.94236,19.19732],[72.94288,19.19532],[72.94235,19.19199],[72.94269,19.19139],[72.94225,19.19086],[72.9415,19.19063],[72.94069,19.18853],[72.93976,19.18835],[72.93933,19.18682],[72.94007,19.18682],[72.93944,19.18495],[72.93756,19.18494],[72.93682,19.18406],[72.93743,19.18204],[72.93847,19.18085],[72.93806,19.18012],[72.93655,19.17979],[72.93699,19.17797],[72.93576,19.17656],[72.93488,19.177],[72.93499,19.17623],[72.93468,19.17556],[72.93368,19.17497],[72.93383,19.17477],[72.93189,19.17195],[72.93127,19.17164],[72.93042,19.16718],[72.92965,19.16666],[72.92949,19.16593],[72.92897,19.16628],[72.92822,19.16606],[72.92768,19.16652],[72.92799,19.16753],[72.92776,19.16898],[72.92875,19.17126],[72.9288,19.17212],[72.92804,19.17099],[72.92717,19.17098],[72.92578,19.17018],[72.92506,19.16856],[72.92589,19.16827],[72.92502,19.1677],[72.92264,19.16818],[72.92307,19.16897],[72.92439,19.16952],[72.92407,19.17162],[72.92333,19.1727],[72.92233,19.17297],[72.9198,19.17281],[72.91827,19.17492],[72.91966,19.17946],[72.91697,19.18041],[72.91197,19.1808],[72.90982,19.17744],[72.90952,19.17367],[72.90592,19.16803],[72.90231,19.16706],[72.90105,19.16412],[72.90133,19.16398],[72.90139,19.1625],[72.90332,19.16067],[72.90227,19.15895],[72.90238,19.15857],[72.90079,19.15512],[72.89847,19.15453],[72.89946,19.15415],[72.89958,19.15315],[72.89897,19.1536],[72.8977,19.15294],[72.89849,19.15162],[72.90016,19.15119],[72.90107,19.15035],[72.90115,19.14687],[72.89992,19.14624],[72.89947,19.14544],[72.89881,19.14597],[72.89875,19.14673],[72.89971,19.14853],[72.89843,19.14853],[72.89715,19.14762],[72.89673,19.1476],[72.89606,19.14802],[72.89606,19.14834],[72.89568,19.14835],[72.89628,19.14448],[72.89505,19.14352],[72.89511,19.14261],[72.89438,19.1426],[72.89423,19.14211],[72.89349,19.14219],[72.89345,19.14245],[72.89403,19.14259],[72.89497,19.14451],[72.89566,19.14444],[72.89589,19.14483],[72.8952,19.14495],[72.89491,19.14747],[72.89291,19.1507],[72.8931,19.1526],[72.8935,19.1539],[72.89736,19.1588],[72.90036,19.16504],[72.89959,19.1658],[72.89747,19.1642],[72.89628,19.16375],[72.89432,19.16369],[72.89291,19.16322],[72.8923,19.16327],[72.89217,19.16396],[72.88932,19.16268],[72.89218,19.16931],[72.88997,19.16887],[72.88934,19.1819],[72.87342,19.18142],[72.87368,19.17907],[72.87259,19.17941],[72.87245,19.17994],[72.872,19.17983],[72.87275,19.18109],[72.87274,19.18185],[72.87341,19.18158],[72.87328,19.18397],[72.87091,19.18528],[72.87062,19.18696],[72.86926,19.18784],[72.86865,19.1869],[72.86928,19.18304],[72.87222,19.18212],[72.87149,19.18205],[72.87144,19.18109],[72.87013,19.18088],[72.8698,19.18001],[72.86934,19.18016],[72.86917,19.18085],[72.86894,19.1806],[72.86767,19.18105],[72.86758,19.18071],[72.86837,19.17963],[72.86814,19.17939],[72.86755,19.18018],[72.86704,19.17993],[72.86712,19.17923],[72.866,19.17963],[72.86628,19.1804],[72.86606,19.18144],[72.86569,19.18156],[72.86577,19.18316],[72.86602,19.18331],[72.86584,19.18446],[72.86696,19.18465],[72.86645,19.18641],[72.86686,19.18633],[72.86701,19.187],[72.86742,19.1869],[72.86807,19.18966],[72.86678,19.18995],[72.86683,19.19021],[72.8675,19.19026],[72.8675,19.19085],[72.86794,19.19112],[72.8693,19.19072],[72.86955,19.19126],[72.86995,19.19124],[72.86983,19.19068],[72.8708,19.18914],[72.87213,19.18905],[72.87356,19.1885],[72.87462,19.1892],[72.87471,19.19063],[72.87652,19.19293],[72.87884,19.19297],[72.88278,19.19246],[72.88708,19.19248],[72.89108,19.19119],[72.89568,19.19054],[72.89739,19.1892],[72.90019,19.1851],[72.90032,19.19154],[72.90147,19.19637],[72.90236,19.19725],[72.90244,19.20139],[72.90003,19.20081],[72.89534,19.19857],[72.89152,19.19857],[72.89186,19.19736],[72.88746,19.19513],[72.8832,19.20468],[72.88357,19.20482],[72.87865,19.21443],[72.88206,19.21732],[72.88633,19.21588],[72.8868,19.21833],[72.89506,19.2222],[72.89478,19.2285],[72.89497,19.23569],[72.89281,19.23772],[72.88944,19.2377],[72.88654,19.23922],[72.88269,19.24224],[72.87766,19.23898],[72.87547,19.23654],[72.87322,19.2365],[72.87642,19.25036],[72.88854,19.24981],[72.88485,19.25328],[72.88183,19.25426],[72.87865,19.25681],[72.87765,19.25879],[72.87611,19.26044],[72.87643,19.26097],[72.87815,19.26007],[72.87845,19.26106],[72.87734,19.26226],[72.87794,19.26227],[72.87883,19.26109],[72.88069,19.26032],[72.88131,19.2625],[72.88116,19.2655],[72.88215,19.26708],[72.8824,19.26631],[72.88296,19.26635],[72.88279,19.26699],[72.88316,19.26702],[72.88336,19.2663],[72.88508,19.26668],[72.88607,19.26814],[72.8863,19.26765],[72.88797,19.26674],[72.88826,19.26395],[72.89072,19.26138],[72.89256,19.26118],[72.89267,19.2606],[72.89316,19.26031],[72.89314,19.25971],[72.89626,19.25733],[72.89659,19.25765],[72.89662,19.25906],[72.89693,19.25931],[72.89677,19.26012],[72.89713,19.26072],[72.89731,19.26706],[72.89868,19.26759],[72.89841,19.27207],[72.89762,19.27185],[72.8967,19.27527],[72.89616,19.27572],[72.89305,19.27648],[72.8934,19.27914],[72.89127,19.27928],[72.89186,19.2825],[72.88992,19.28266],[72.89002,19.28414],[72.89041,19.28438],[72.89066,19.28566],[72.89044,19.28618],[72.89242,19.28583],[72.8904,19.29084],[72.88963,19.29161],[72.89044,19.29262],[72.89207,19.29135],[72.89166,19.29045],[72.89269,19.28572],[72.89407,19.28436],[72.8958,19.28115],[72.89582,19.28047],[72.89892,19.27665],[72.90036,19.27244],[72.9033,19.27323],[72.90407,19.27112],[72.91038,19.27568],[72.91186,19.27333],[72.91171,19.27278],[72.91132,19.27295],[72.91017,19.27149],[72.91034,19.27082],[72.91146,19.27064],[72.91223,19.26981],[72.91248,19.26841],[72.91397,19.26776],[72.91394,19.26703],[72.91483,19.26721],[72.91495,19.26816],[72.91561,19.26831],[72.91608,19.26746],[72.91638,19.26812],[72.91685,19.26821],[72.91775,19.26755],[72.91832,19.26465],[72.9179,19.26372],[72.91806,19.2632],[72.91878,19.26321],[72.92005,19.26492],[72.92196,19.26551],[72.92263,19.26643],[72.92245,19.26732],[72.92181,19.26762],[72.92322,19.26796],[72.92179,19.26975],[72.92039,19.27007],[72.91999,19.2712],[72.92038,19.27141],[72.92038,19.27235],[72.92012,19.27299],[72.91886,19.27302],[72.91809,19.27392],[72.91764,19.27699],[72.91918,19.27864],[72.91963,19.27742],[72.92026,19.27743],[72.92085,19.27825],[72.92113,19.27808],[72.92234,19.27548],[72.92191,19.275],[72.92235,19.27499],[72.92303,19.27406],[72.92321,19.27288],[72.9238,19.27277],[72.92449,19.27192],[72.92483,19.27272],[72.92395,19.27288],[72.92353,19.27426],[72.92425,19.27497],[72.92485,19.27462],[72.92518,19.27514],[72.92494,19.27547],[72.92578,19.27653],[72.92614,19.27624],[72.92716,19.27625],[72.92765,19.27672],[72.92849,19.27622],[72.92871,19.27664],[72.92828,19.27703],[72.92869,19.27812],[72.92843,19.27818],[72.92831,19.27922],[72.92904,19.27976],[72.9282,19.27975],[72.92783,19.27996],[72.92774,19.2806],[72.92701,19.28038],[72.92671,19.28096],[72.92544,19.28051],[72.92513,19.28154],[72.92353,19.28112],[72.92323,19.28152],[72.92272,19.28147],[72.92211,19.28109],[72.92217,19.28053],[72.92143,19.28007],[72.92181,19.27905],[72.9215,19.27885],[72.92058,19.27906],[72.91995,19.27985],[72.91961,19.28132],[72.91887,19.28153],[72.91863,19.28151],[72.91856,19.28091],[72.91783,19.28053],[72.91802,19.27993],[72.91727,19.27919],[72.91348,19.27965],[72.91184,19.28121],[72.91176,19.28255],[72.91031,19.28444],[72.91111,19.28702],[72.91081,19.28701],[72.91094,19.28742],[72.91256,19.2879],[72.92053,19.28808],[72.92417,19.28884],[72.92596,19.28522],[72.9276,19.28373],[72.92959,19.28002],[72.93113,19.27552],[72.93529,19.27291],[72.93594,19.26335],[72.93697,19.25883],[72.93903,19.25954],[72.94192,19.25944],[72.94461,19.25743]],[[72.94113,19.24276],[72.94105,19.24213],[72.94163,19.24225],[72.94057,19.24035],[72.94002,19.23788],[72.93874,19.23805],[72.93859,19.23629],[72.93914,19.23635],[72.94008,19.23308],[72.94091,19.23318],[72.94209,19.2326],[72.94256,19.23091],[72.94297,19.23042],[72.94366,19.23052],[72.94518,19.22695],[72.94493,19.22555],[72.94564,19.22125],[72.94761,19.22169],[72.9503,19.22324],[72.95018,19.22584],[72.94846,19.22526],[72.94888,19.22642],[72.9492,19.22629],[72.94921,19.22769],[72.94876,19.22775],[72.94822,19.23013],[72.94968,19.23013],[72.95122,19.23089],[72.95112,19.23194],[72.95054,19.23289],[72.95181,19.23302],[72.95133,19.23432],[72.95204,19.23448],[72.95219,19.23533],[72.95135,19.23603],[72.95172,19.23667],[72.94999,19.23872],[72.95008,19.23905],[72.94963,19.23929],[72.94936,19.23997],[72.94869,19.23985],[72.94775,19.24167],[72.94778,19.24318],[72.94826,19.24405],[72.94742,19.24546],[72.94692,19.24553],[72.94631,19.24647],[72.94538,19.24665],[72.94561,19.24587],[72.94444,19.24441],[72.94386,19.24556],[72.94275,19.24523],[72.94113,19.24276]]],[[[72.9609,19.24924],[72.96152,19.25078],[72.96003,19.25246],[72.95982,19.25374],[72.96029,19.25584],[72.96186,19.25585],[72.96547,19.25813],[72.96745,19.25754],[72.96736,19.25597],[72.96829,19.25732],[72.96959,19.25808],[72.96975,19.25917],[72.96985,19.25759],[72.96943,19.25713],[72.9699,19.2565],[72.96966,19.25636],[72.96947,19.25423],[72.97019,19.25394],[72.96996,19.2525],[72.97035,19.25221],[72.97032,19.25167],[72.96974,19.25205],[72.96951,19.25175],[72.96877,19.25228],[72.96794,19.25044],[72.96665,19.2495],[72.96616,19.24803],[72.96893,19.24663],[72.97016,19.2464],[72.97111,19.24853],[72.97135,19.24987],[72.97275,19.25051],[72.97361,19.24998],[72.97314,19.24764],[72.97362,19.24738],[72.97416,19.24468],[72.97553,19.24499],[72.97553,19.24448],[72.97498,19.24444],[72.97461,19.24196],[72.97074,19.24499],[72.96752,19.24516],[72.96515,19.24113],[72.96185,19.24278],[72.9622,19.24302],[72.96172,19.24499],[72.96053,19.24571],[72.9609,19.24924]]],[[[72.93323,19.27937],[72.93212,19.27931],[72.93085,19.28423],[72.93094,19.2853],[72.93403,19.28528],[72.93347,19.28328],[72.93323,19.27937]]],[[[72.92454,19.32465],[72.9257,19.32396],[72.926,19.32301],[72.92793,19.32366],[72.92778,19.32767],[72.92815,19.32898],[72.92898,19.32898],[72.92881,19.33083],[72.93072,19.33103],[72.9319,19.33026],[72.93353,19.32489],[72.93351,19.32256],[72.93598,19.32115],[72.93557,19.32009],[72.93637,19.31702],[72.93716,19.31612],[72.93729,19.30877],[72.93787,19.30802],[72.93907,19.30306],[72.93843,19.30225],[72.93838,19.30122],[72.93637,19.29926],[72.93619,19.2981],[72.93701,19.29162],[72.93675,19.28937],[72.93488,19.28964],[72.93315,19.28907],[72.93074,19.29097],[72.92716,19.29152],[72.92238,19.2916],[72.91853,19.29097],[72.91686,19.29006],[72.91135,19.29016],[72.91117,19.29091],[72.91059,19.29156],[72.9072,19.30223],[72.90057,19.30983],[72.89991,19.31246],[72.89993,19.31491],[72.90098,19.31592],[72.90302,19.31653],[72.90459,19.31584],[72.90523,19.31388],[72.90607,19.31337],[72.90693,19.3109],[72.90841,19.30928],[72.90832,19.31151],[72.90703,19.31598],[72.90774,19.31728],[72.90615,19.31621],[72.90579,19.31649],[72.90424,19.31633],[72.90364,19.31762],[72.89954,19.31777],[72.89899,19.31945],[72.89738,19.33404],[72.9018,19.33534],[72.90253,19.33455],[72.9048,19.33317],[72.90596,19.33297],[72.90731,19.33208],[72.90823,19.32943],[72.90791,19.3289],[72.90929,19.3273],[72.91113,19.32623],[72.91068,19.32791],[72.91109,19.32793],[72.91109,19.32862],[72.91014,19.33131],[72.91038,19.33293],[72.90793,19.33767],[72.908,19.33888],[72.90738,19.34046],[72.90916,19.34058],[72.91034,19.33977],[72.91062,19.34002],[72.91044,19.34113],[72.91338,19.34192],[72.91669,19.33607],[72.91948,19.33285],[72.92246,19.33352],[72.92444,19.32633],[72.92454,19.32465]]]]},"properties":{"id":"mumbai_osm_80","kind":"protected_area","kind_ru":"охраняемая зона","name":"Sanjay Gandhi National Park","osm_id":"relation/6245228","source":"© OpenStreetMap contributors (ODbL)"}},{"type":"Feature","geometry":{"type":"Polygon","coordinates":[[[72.82246,19.23077],[72.8188,19.22658],[72.82114,19.2256],[72.82353,19.22618],[72.82574,19.22515],[72.82731,19.22491],[72.82737,19.22429],[72.82692,19.22475],[72.82486,19.22541],[72.82223,19.22565],[72.82085,19.22502],[72.8188,19.22217],[72.81702,19.22209],[72.81467,19.2246],[72.81646,19.22573],[72.81932,19.22867],[72.82242,19.23306],[72.82341,19.23371],[72.82387,19.2336],[72.82308,19.23464],[72.82446,19.23857],[72.82515,19.23895],[72.82742,19.24516],[72.82969,19.24678],[72.83447,19.24833],[72.83532,19.24834],[72.83896,19.25013],[72.83856,19.25059],[72.83993,19.25324],[72.83965,19.25438],[72.83833,19.25625],[72.83675,19.25779],[72.83557,19.25963],[72.83565,19.26174],[72.83649,19.26354],[72.83667,19.26326],[72.83668,19.26375],[72.8379,19.26525],[72.84065,19.26756],[72.84499,19.26681],[72.84614,19.26701],[72.84724,19.26782],[72.8502,19.26579],[72.85005,19.2651],[72.8505,19.26457],[72.85065,19.26338],[72.84974,19.26044],[72.84999,19.25941],[72.84972,19.2568],[72.84728,19.25655],[72.84697,19.25555],[72.84509,19.25659],[72.84467,19.25616],[72.84411,19.25615],[72.84442,19.25592],[72.84399,19.25274],[72.82246,19.23077]]]},"properties":{"id":"mumbai_osm_81","kind":"protected_area","kind_ru":"охраняемая зона","name":null,"osm_id":"relation/6245905","source":"© OpenStreetMap contributors (ODbL)"}},{"type":"Feature","geometry":{"type":"Polygon","coordinates":[[[72.91006,19.34994],[72.91098,19.35],[72.91199,19.35055],[72.91289,19.35042],[72.91394,19.34966],[72.91795,19.34909],[72.91787,19.34949],[72.91909,19.34933],[72.91965,19.34982],[72.92147,19.34597],[72.92225,19.34625],[72.9227,19.34524],[72.92452,19.3449],[72.92592,19.34354],[72.92654,19.34137],[72.92748,19.34115],[72.92843,19.33969],[72.92813,19.33933],[72.92894,19.33868],[72.92995,19.3387],[72.93042,19.33771],[72.93006,19.33658],[72.93031,19.33623],[72.92965,19.33575],[72.92999,19.33437],[72.92978,19.33374],[72.93016,19.33374],[72.93046,19.3324],[72.93089,19.33243],[72.93145,19.33155],[72.93231,19.33127],[72.93368,19.32844],[72.93454,19.32303],[72.93675,19.32151],[72.93664,19.32036],[72.93697,19.31999],[72.93669,19.31979],[72.93737,19.3172],[72.93791,19.31653],[72.93817,19.31693],[72.93978,19.31744],[72.94027,19.31556],[72.9401,19.31455],[72.94057,19.31359],[72.93926,19.31392],[72.93877,19.31323],[72.93828,19.31321],[72.93823,19.30902],[72.93879,19.30845],[72.9401,19.30272],[72.93965,19.30203],[72.93988,19.3015],[72.93946,19.3015],[72.93888,19.30033],[72.93714,19.29873],[72.93712,19.29733],[72.938,19.29324],[72.93759,19.28877],[72.93673,19.2883],[72.93647,19.28526],[72.93993,19.28528],[72.94426,19.28301],[72.94394,19.28214],[72.9457,19.27896],[72.94529,19.27831],[72.94448,19.27801],[72.94636,19.27746],[72.94731,19.27495],[72.94808,19.27556],[72.94873,19.27511],[72.95048,19.27572],[72.951,19.27505],[72.95057,19.2727],[72.95113,19.27112],[72.95156,19.26721],[72.95209,19.26655],[72.95154,19.2645],[72.95229,19.2628],[72.95261,19.26065],[72.95336,19.26156],[72.953,19.26298],[72.95394,19.26357],[72.95392,19.26401],[72.95555,19.26501],[72.956,19.26462],[72.95639,19.26488],[72.95641,19.26438],[72.95694,19.26432],[72.95634,19.26341],[72.95694,19.26363],[72.95641,19.26193],[72.95501,19.26098],[72.95559,19.26061],[72.95503,19.2599],[72.9543,19.25986],[72.95312,19.25911],[72.95244,19.25978],[72.95166,19.25615],[72.95209,19.25638],[72.95229,19.25745],[72.95289,19.2578],[72.95306,19.25836],[72.95493,19.25881],[72.95634,19.25782],[72.95669,19.2579],[72.95679,19.25881],[72.9572,19.25915],[72.95765,19.25881],[72.95716,19.25755],[72.95645,19.25737],[72.95641,19.2567],[72.95799,19.25688],[72.95774,19.25593],[72.95746,19.25593],[72.95754,19.2548],[72.95827,19.25459],[72.95827,19.25407],[72.95881,19.25401],[72.9596,19.25688],[72.96023,19.25727],[72.96143,19.25666],[72.96407,19.2585],[72.96563,19.25919],[72.96827,19.25826],[72.96883,19.25873],[72.96885,19.2597],[72.96945,19.26031],[72.97046,19.26014],[72.97106,19.25881],[72.97121,19.25735],[72.97151,19.25715],[72.97115,19.25622],[72.97085,19.25626],[72.97055,19.25492],[72.97117,19.25443],[72.9716,19.25178],[72.97093,19.25109],[72.96939,19.25077],[72.9672,19.24854],[72.96947,19.24736],[72.97025,19.24882],[72.97055,19.25038],[72.97218,19.25137],[72.97405,19.25117],[72.97471,19.25032],[72.97454,19.2489],[72.97495,19.24815],[72.97439,19.24803],[72.97484,19.24588],[72.9763,19.24698],[72.97679,19.24554],[72.97671,19.24382],[72.97604,19.24357],[72.97553,19.24141],[72.97587,19.23697],[72.9751,19.23689],[72.97531,19.23656],[72.97377,19.23644],[72.97359,19.2359],[72.96947,19.23656],[72.96896,19.23557],[72.96868,19.23565],[72.96849,19.23654],[72.96789,19.23683],[72.96821,19.23626],[72.96817,19.23541],[72.96737,19.23527],[72.96716,19.23652],[72.96615,19.23669],[72.96606,19.23778],[72.96402,19.23861],[72.96394,19.23837],[72.96456,19.23778],[72.96428,19.23737],[72.96568,19.23748],[72.96563,19.23689],[72.96441,19.23699],[72.96396,19.2363],[72.96611,19.23448],[72.96701,19.23474],[72.96724,19.23359],[72.96679,19.23342],[72.96726,19.23213],[72.96808,19.23164],[72.96684,19.2317],[72.96649,19.23118],[72.9652,19.23095],[72.96265,19.22972],[72.95995,19.22536],[72.95922,19.22522],[72.9586,19.22313],[72.9581,19.22269],[72.95613,19.2222],[72.95458,19.22092],[72.95435,19.21999],[72.95362,19.21977],[72.95355,19.21843],[72.95295,19.21778],[72.95154,19.21788],[72.95036,19.21908],[72.94742,19.21381],[72.94785,19.21203],[72.94748,19.21033],[72.949,19.21025],[72.94948,19.20976],[72.94954,19.20846],[72.95044,19.20818],[72.95085,19.20743],[72.95051,19.20625],[72.95469,19.2052],[72.95499,19.20451],[72.95454,19.20366],[72.95357,19.20319],[72.94572,19.20542],[72.94488,19.20301],[72.94257,19.2007],[72.9424,19.19977],[72.9434,19.19861],[72.94355,19.196],[72.94392,19.19531],[72.9434,19.19215],[72.94368,19.1916],[72.94317,19.19059],[72.94192,19.18943],[72.94141,19.18787],[72.94055,19.18763],[72.94113,19.18684],[72.93978,19.18406],[72.93793,19.18386],[72.93903,19.18048],[72.93858,19.17946],[72.93778,19.17916],[72.93802,19.17778],[72.93523,19.17462],[72.93456,19.1744],[72.93199,19.17077],[72.93122,19.16599],[72.93019,19.16453],[72.92928,19.16442],[72.92922,19.16268],[72.92757,19.15767],[72.9268,19.15674],[72.92746,19.15494],[72.92695,19.15338],[72.92493,19.15046],[72.92491,19.14936],[72.92371,19.14574],[72.92205,19.14373],[72.92113,19.1431],[72.91905,19.1402],[72.91832,19.14],[72.9175,19.14047],[72.91594,19.1404],[72.91431,19.14089],[72.91328,19.13978],[72.9116,19.13933],[72.91081,19.13961],[72.91008,19.13917],[72.90729,19.13848],[72.90553,19.13897],[72.90399,19.14012],[72.90274,19.14014],[72.9007,19.13838],[72.90025,19.13872],[72.89888,19.13781],[72.89869,19.14053],[72.89718,19.14042],[72.89581,19.14197],[72.89502,19.14158],[72.89502,19.14081],[72.89727,19.13921],[72.89821,19.13777],[72.89776,19.13546],[72.89656,19.13558],[72.8956,19.13511],[72.8956,19.13382],[72.89624,19.13284],[72.89523,19.13223],[72.88654,19.1294],[72.88886,19.13398],[72.88407,19.13449],[72.8818,19.13607],[72.88073,19.13773],[72.87624,19.13071],[72.87487,19.13161],[72.8744,19.13477],[72.87304,19.13738],[72.87343,19.13955],[72.87071,19.14006],[72.87055,19.13976],[72.86834,19.14049],[72.86856,19.14126],[72.86631,19.14107],[72.86384,19.14146],[72.86236,19.14207],[72.85744,19.14166],[72.85526,19.14201],[72.85622,19.14527],[72.85916,19.16982],[72.86907,19.16846],[72.87032,19.16795],[72.87122,19.16805],[72.87122,19.16862],[72.87253,19.16923],[72.8727,19.17018],[72.87397,19.1699],[72.87467,19.16872],[72.87523,19.1684],[72.88169,19.16746],[72.88888,19.16878],[72.88869,19.18096],[72.87463,19.18066],[72.87452,19.17859],[72.87392,19.17823],[72.87178,19.17863],[72.87178,19.17892],[72.86903,19.17922],[72.86847,19.17837],[72.86712,19.17827],[72.86528,19.1789],[72.86495,19.17958],[72.86519,19.18068],[72.86468,19.18153],[72.8656,19.187],[72.86676,19.18812],[72.86678,19.18911],[72.86607,19.18933],[72.86579,19.19002],[72.86613,19.19108],[72.86659,19.1911],[72.86706,19.19174],[72.86798,19.19219],[72.86991,19.19217],[72.87152,19.19108],[72.87163,19.19004],[72.87322,19.18966],[72.87375,19.18996],[72.87377,19.19093],[72.8751,19.19272],[72.87508,19.19369],[72.87955,19.19884],[72.87856,19.19924],[72.87854,19.20034],[72.88152,19.20313],[72.88015,19.20767],[72.87942,19.20721],[72.8771,19.20873],[72.87714,19.21377],[72.87055,19.22198],[72.86888,19.22342],[72.86847,19.22465],[72.86719,19.22613],[72.86607,19.2287],[72.86438,19.22974],[72.86352,19.22943],[72.86225,19.22992],[72.86167,19.2313],[72.86212,19.23326],[72.86369,19.23393],[72.86429,19.23377],[72.8692,19.23002],[72.87083,19.23223],[72.87216,19.23616],[72.8742,19.24497],[72.87332,19.24864],[72.87268,19.24908],[72.87249,19.24989],[72.87304,19.25097],[72.8739,19.25125],[72.87345,19.25297],[72.87367,19.25362],[72.87315,19.25755],[72.87356,19.25818],[72.87448,19.2585],[72.87498,19.261],[72.87568,19.2616],[72.87573,19.26187],[72.87538,19.26189],[72.8754,19.26276],[72.8748,19.26322],[72.87566,19.26375],[72.87577,19.26495],[72.87639,19.26495],[72.8765,19.26399],[72.87736,19.26403],[72.87749,19.26328],[72.87822,19.26326],[72.8791,19.26207],[72.8801,19.26156],[72.88043,19.26355],[72.88015,19.26553],[72.8815,19.2679],[72.88448,19.2676],[72.88545,19.26892],[72.88622,19.26908],[72.88693,19.26869],[72.88706,19.26821],[72.88875,19.26748],[72.88927,19.26442],[72.89122,19.26247],[72.89336,19.26197],[72.89463,19.2598],[72.89562,19.25911],[72.89611,19.26106],[72.89643,19.26675],[72.89611,19.26693],[72.89643,19.2675],[72.89603,19.26776],[72.89774,19.26831],[72.89757,19.27094],[72.8969,19.27118],[72.89592,19.27467],[72.89493,19.27528],[72.89244,19.27552],[72.89212,19.27647],[72.89231,19.27821],[72.89085,19.2784],[72.89034,19.27912],[72.89073,19.28174],[72.88933,19.28188],[72.8889,19.28263],[72.88905,19.28461],[72.88959,19.28518],[72.88946,19.28658],[72.88982,19.28706],[72.89073,19.28706],[72.88937,19.29063],[72.88877,19.29142],[72.88886,19.29211],[72.89,19.29346],[72.89115,19.29338],[72.89328,19.29146],[72.89592,19.28848],[72.89613,19.28769],[72.89778,19.28646],[72.89826,19.28482],[72.89873,19.28473],[72.89918,19.28532],[72.90012,19.28516],[72.90098,19.28155],[72.90171,19.28008],[72.90218,19.2801],[72.90394,19.27801],[72.90369,19.27785],[72.90384,19.27765],[72.90716,19.27738],[72.90641,19.27995],[72.90592,19.2805],[72.90583,19.28309],[72.90487,19.28309],[72.90362,19.28629],[72.90497,19.28686],[72.90793,19.28646],[72.90976,19.28676],[72.91044,19.2896],[72.91012,19.29049],[72.90978,19.29039],[72.90929,19.29128],[72.90866,19.2912],[72.90774,19.29263],[72.90907,19.29292],[72.90617,19.30225],[72.90021,19.30871],[72.9001,19.30845],[72.89946,19.30855],[72.89806,19.30999],[72.89828,19.31023],[72.89776,19.31181],[72.89815,19.31203],[72.89733,19.3128],[72.89686,19.3142],[72.898,19.31513],[72.89781,19.31566],[72.89862,19.31592],[72.89873,19.31633],[72.89802,19.31898],[72.89768,19.31849],[72.89633,19.31817],[72.89525,19.31858],[72.89512,19.31896],[72.89538,19.31902],[72.89562,19.32028],[72.89493,19.3205],[72.89437,19.32015],[72.8936,19.32123],[72.89336,19.3226],[72.89379,19.32267],[72.89382,19.32378],[72.89309,19.32512],[72.89324,19.32591],[72.89279,19.32591],[72.89186,19.32827],[72.89259,19.32834],[72.89296,19.32738],[72.89328,19.32738],[72.89341,19.32789],[72.89317,19.32805],[72.89349,19.32827],[72.89596,19.32708],[72.89693,19.32716],[72.89695,19.32753],[72.89639,19.32823],[72.89654,19.33046],[72.89622,19.33036],[72.89641,19.33151],[72.89611,19.33251],[72.89562,19.33317],[72.8948,19.33354],[72.89422,19.33317],[72.89457,19.33467],[72.89542,19.33496],[72.89618,19.33441],[72.89575,19.33587],[72.89532,19.33581],[72.89397,19.33735],[72.89409,19.34006],[72.89345,19.34184],[72.89362,19.34324],[72.89302,19.34393],[72.89216,19.34603],[72.89263,19.34623],[72.89328,19.34579],[72.89377,19.34419],[72.89502,19.34261],[72.89663,19.34336],[72.89753,19.3431],[72.89817,19.3417],[72.89843,19.33929],[72.89914,19.33807],[72.90066,19.33708],[72.90343,19.33637],[72.90422,19.33735],[72.9056,19.33824],[72.90665,19.34131],[72.90823,19.34156],[72.90907,19.34267],[72.90849,19.34324],[72.90858,19.34439],[72.90961,19.34488],[72.90961,19.34522],[72.90869,19.34702],[72.90871,19.34793],[72.90976,19.34808],[72.90984,19.34878],[72.90933,19.35032],[72.91002,19.35032],[72.91006,19.34994]],[[72.90736,19.13933],[72.90696,19.14026],[72.90663,19.1403],[72.90616,19.13968],[72.90736,19.13933]],[[72.90198,19.14126],[72.9048,19.14097],[72.90466,19.14198],[72.90395,19.14222],[72.9027,19.14132],[72.90252,19.14236],[72.90204,19.14262],[72.90198,19.14126]],[[72.92403,19.14999],[72.92207,19.15095],[72.92162,19.14952],[72.92205,19.14875],[72.92092,19.14803],[72.92083,19.14946],[72.92034,19.1502],[72.91963,19.14848],[72.9191,19.14828],[72.91835,19.14864],[72.91741,19.14587],[72.91578,19.14394],[72.915,19.14437],[72.91357,19.1463],[72.91229,19.14624],[72.91205,19.14734],[72.91168,19.14709],[72.91144,19.14731],[72.91088,19.1462],[72.91095,19.14387],[72.91155,19.14387],[72.91138,19.1429],[72.91099,19.1423],[72.91054,19.14292],[72.91016,19.14289],[72.90947,19.14076],[72.90985,19.13998],[72.91073,19.14059],[72.91183,19.14024],[72.91272,19.14045],[72.91288,19.14117],[72.91354,19.14127],[72.91392,19.14179],[72.91626,19.14131],[72.91813,19.1414],[72.91845,19.14087],[72.92067,19.14406],[72.92164,19.14461],[72.92297,19.1463],[72.92403,19.14999]],[[72.87643,19.26097],[72.87611,19.26044],[72.87765,19.25879],[72.87865,19.25681],[72.88183,19.25426],[72.88485,19.25328],[72.88854,19.24981],[72.87642,19.25036],[72.87322,19.2365],[72.87547,19.23654],[72.87766,19.23898],[72.88269,19.24224],[72.88654,19.23922],[72.88944,19.2377],[72.89281,19.23772],[72.89497,19.23569],[72.89478,19.2285],[72.89506,19.2222],[72.8868,19.21833],[72.88633,19.21588],[72.88206,19.21732],[72.87865,19.21443],[72.88357,19.20482],[72.8832,19.20468],[72.88746,19.19513],[72.89186,19.19736],[72.89152,19.19857],[72.89534,19.19857],[72.90003,19.20081],[72.90244,19.20139],[72.90236,19.19725],[72.90147,19.19637],[72.90032,19.19154],[72.90019,19.1851],[72.89739,19.1892],[72.89568,19.19054],[72.89108,19.19119],[72.88708,19.19248],[72.88278,19.19246],[72.87884,19.19297],[72.87652,19.19293],[72.87471,19.19063],[72.87462,19.1892],[72.87356,19.1885],[72.87213,19.18905],[72.8708,19.18914],[72.86983,19.19068],[72.86995,19.19124],[72.86955,19.19126],[72.8693,19.19072],[72.86794,19.19112],[72.8675,19.19085],[72.8675,19.19026],[72.86683,19.19021],[72.86678,19.18995],[72.86807,19.18966],[72.86742,19.1869],[72.86701,19.187],[72.86686,19.18633],[72.86645,19.18641],[72.86696,19.18465],[72.86584,19.18446],[72.86602,19.18331],[72.86577,19.18316],[72.86569,19.18156],[72.86606,19.18144],[72.86628,19.1804],[72.866,19.17963],[72.86712,19.17923],[72.86704,19.17993],[72.86755,19.18018],[72.86814,19.17939],[72.86837,19.17963],[72.86758,19.18071],[72.86767,19.18105],[72.86894,19.1806],[72.86917,19.18085],[72.86934,19.18016],[72.8698,19.18001],[72.87013,19.18088],[72.87144,19.18109],[72.87149,19.18205],[72.87222,19.18212],[72.86928,19.18304],[72.86865,19.1869],[72.86926,19.18784],[72.87062,19.18696],[72.87091,19.18528],[72.87328,19.18397],[72.87341,19.18158],[72.87274,19.18185],[72.87275,19.18109],[72.872,19.17983],[72.87245,19.17994],[72.87259,19.17941],[72.87368,19.17907],[72.87342,19.18142],[72.88934,19.1819],[72.88997,19.16887],[72.89218,19.16931],[72.88932,19.16268],[72.89217,19.16396],[72.8923,19.16327],[72.89291,19.16322],[72.89432,19.16369],[72.89628,19.16375],[72.89747,19.1642],[72.89959,19.1658],[72.90036,19.16504],[72.89736,19.1588],[72.8935,19.1539],[72.8931,19.1526],[72.89291,19.1507],[72.89491,19.14747],[72.8952,19.14495],[72.89589,19.14483],[72.89566,19.14444],[72.89497,19.14451],[72.89403,19.14259],[72.89345,19.14245],[72.89349,19.14219],[72.89423,19.14211],[72.89438,19.1426],[72.89511,19.14261],[72.89505,19.14352],[72.89628,19.14448],[72.89568,19.14835],[72.89606,19.14834],[72.89606,19.14802],[72.89673,19.1476],[72.89715,19.14762],[72.89843,19.14853],[72.89971,19.14853],[72.89875,19.14673],[72.89881,19.14597],[72.89947,19.14544],[72.89992,19.14624],[72.90115,19.14687],[72.90107,19.15035],[72.90016,19.15119],[72.89849,19.15162],[72.8977,19.15294],[72.89897,19.1536],[72.89958,19.15315],[72.89946,19.15415],[72.89847,19.15453],[72.90079,19.15512],[72.90238,19.15857],[72.90227,19.15895],[72.90332,19.16067],[72.90139,19.1625],[72.90133,19.16398],[72.90105,19.16412],[72.90231,19.16706],[72.90592,19.16803],[72.90952,19.17367],[72.90982,19.17744],[72.91197,19.1808],[72.91697,19.18041],[72.91966,19.17946],[72.91827,19.17492],[72.9198,19.17281],[72.92233,19.17297],[72.92333,19.1727],[72.92407,19.17162],[72.92439,19.16952],[72.92307,19.16897],[72.92264,19.16818],[72.92502,19.1677],[72.92589,19.16827],[72.92506,19.16856],[72.92578,19.17018],[72.92717,19.17098],[72.92804,19.17099],[72.9288,19.17212],[72.92875,19.17126],[72.92776,19.16898],[72.92799,19.16753],[72.92768,19.16652],[72.92822,19.16606],[72.92897,19.16628],[72.92949,19.16593],[72.92965,19.16666],[72.93042,19.16718],[72.93127,19.17164],[72.93189,19.17195],[72.93383,19.17477],[72.93368,19.17497],[72.93468,19.17556],[72.93499,19.17623],[72.93488,19.177],[72.93576,19.17656],[72.93699,19.17797],[72.93655,19.17979],[72.93806,19.18012],[72.93847,19.18085],[72.93743,19.18204],[72.93682,19.18406],[72.93756,19.18494],[72.93944,19.18495],[72.94007,19.18682],[72.93933,19.18682],[72.93976,19.18835],[72.94069,19.18853],[72.9415,19.19063],[72.94225,19.19086],[72.94269,19.19139],[72.94235,19.19199],[72.94288,19.19532],[72.94236,19.19732],[72.94252,19.19834],[72.94132,19.19947],[72.94177,19.20135],[72.94413,19.20346],[72.94465,19.20442],[72.94476,19.20655],[72.94587,19.20649],[72.95374,19.20428],[72.95224,19.2051],[72.95046,19.20532],[72.94974,19.20573],[72.94986,19.20698],[72.94956,19.20705],[72.94961,19.2075],[72.94882,19.20766],[72.94858,19.20949],[72.94632,19.20942],[72.94688,19.212],[72.94651,19.2121],[72.94629,19.21324],[72.94665,19.21451],[72.94998,19.22055],[72.95046,19.22062],[72.95194,19.21871],[72.95263,19.21872],[72.9525,19.21926],[72.95286,19.21997],[72.95265,19.22023],[72.95323,19.22083],[72.9538,19.22086],[72.95377,19.22143],[72.95553,19.22296],[72.95769,19.22371],[72.95827,19.22653],[72.95948,19.22633],[72.96188,19.23053],[72.96363,19.23109],[72.9624,19.23227],[72.96273,19.23348],[72.95812,19.23407],[72.96093,19.24088],[72.95609,19.24183],[72.95527,19.24252],[72.94961,19.24521],[72.94967,19.24617],[72.94873,19.24665],[72.94982,19.24908],[72.95027,19.24873],[72.94965,19.24737],[72.94981,19.24672],[72.95055,19.24632],[72.95116,19.24836],[72.9517,19.24863],[72.95157,19.24966],[72.9528,19.25301],[72.95243,19.25517],[72.95208,19.2553],[72.95143,19.25472],[72.9484,19.24789],[72.94894,19.24728],[72.94838,19.24688],[72.94836,19.24616],[72.94884,19.2461],[72.94884,19.24557],[72.94793,19.24601],[72.94755,19.25257],[72.94686,19.25498],[72.94533,19.25607],[72.94461,19.25743],[72.94192,19.25944],[72.93903,19.25954],[72.93697,19.25883],[72.93594,19.26335],[72.93529,19.27291],[72.93113,19.27552],[72.92959,19.28002],[72.9276,19.28373],[72.92596,19.28522],[72.92417,19.28884],[72.92053,19.28808],[72.91256,19.2879],[72.91094,19.28742],[72.91081,19.28701],[72.91111,19.28702],[72.91031,19.28444],[72.91176,19.28255],[72.91184,19.28121],[72.91348,19.27965],[72.91727,19.27919],[72.91802,19.27993],[72.91783,19.28053],[72.91856,19.28091],[72.91863,19.28151],[72.91887,19.28153],[72.91961,19.28132],[72.91995,19.27985],[72.92058,19.27906],[72.9215,19.27885],[72.92181,19.27905],[72.92143,19.28007],[72.92217,19.28053],[72.92211,19.28109],[72.92272,19.28147],[72.92323,19.28152],[72.92353,19.28112],[72.92513,19.28154],[72.92544,19.28051],[72.92671,19.28096],[72.92701,19.28038],[72.92774,19.2806],[72.92783,19.27996],[72.9282,19.27975],[72.92904,19.27976],[72.92831,19.27922],[72.92843,19.27818],[72.92869,19.27812],[72.92828,19.27703],[72.92871,19.27664],[72.92849,19.27622],[72.92765,19.27672],[72.92716,19.27625],[72.92614,19.27624],[72.92578,19.27653],[72.92494,19.27547],[72.92518,19.27514],[72.92485,19.27462],[72.92425,19.27497],[72.92353,19.27426],[72.92395,19.27288],[72.92483,19.27272],[72.92449,19.27192],[72.9238,19.27277],[72.92321,19.27288],[72.92303,19.27406],[72.92235,19.27499],[72.92191,19.275],[72.92234,19.27548],[72.92113,19.27808],[72.92085,19.27825],[72.92026,19.27743],[72.91963,19.27742],[72.91918,19.27864],[72.91764,19.27699],[72.91809,19.27392],[72.91886,19.27302],[72.92012,19.27299],[72.92038,19.27235],[72.92038,19.27141],[72.91999,19.2712],[72.92039,19.27007],[72.92179,19.26975],[72.92322,19.26796],[72.92181,19.26762],[72.92245,19.26732],[72.92263,19.26643],[72.92196,19.26551],[72.92005,19.26492],[72.91878,19.26321],[72.91806,19.2632],[72.9179,19.26372],[72.91832,19.26465],[72.91775,19.26755],[72.91685,19.26821],[72.91638,19.26812],[72.91608,19.26746],[72.91561,19.26831],[72.91495,19.26816],[72.91483,19.26721],[72.91394,19.26703],[72.91397,19.26776],[72.91248,19.26841],[72.91223,19.26981],[72.91146,19.27064],[72.91034,19.27082],[72.91017,19.27149],[72.91132,19.27295],[72.91171,19.27278],[72.91186,19.27333],[72.91038,19.27568],[72.90407,19.27112],[72.9033,19.27323],[72.90036,19.27244],[72.89892,19.27665],[72.89582,19.28047],[72.8958,19.28115],[72.89407,19.28436],[72.89269,19.28572],[72.89166,19.29045],[72.89207,19.29135],[72.89044,19.29262],[72.88963,19.29161],[72.8904,19.29084],[72.89242,19.28583],[72.89044,19.28618],[72.89066,19.28566],[72.89041,19.28438],[72.89002,19.28414],[72.88992,19.28266],[72.89186,19.2825],[72.89127,19.27928],[72.8934,19.27914],[72.89305,19.27648],[72.89616,19.27572],[72.8967,19.27527],[72.89762,19.27185],[72.89841,19.27207],[72.89868,19.26759],[72.89731,19.26706],[72.89713,19.26072],[72.89677,19.26012],[72.89693,19.25931],[72.89662,19.25906],[72.89659,19.25765],[72.89626,19.25733],[72.89314,19.25971],[72.89316,19.26031],[72.89267,19.2606],[72.89256,19.26118],[72.89072,19.26138],[72.88826,19.26395],[72.88797,19.26674],[72.8863,19.26765],[72.88607,19.26814],[72.88508,19.26668],[72.88336,19.2663],[72.88316,19.26702],[72.88279,19.26699],[72.88296,19.26635],[72.8824,19.26631],[72.88215,19.26708],[72.88116,19.2655],[72.88131,19.2625],[72.88069,19.26032],[72.87883,19.26109],[72.87794,19.26227],[72.87734,19.26226],[72.87845,19.26106],[72.87815,19.26007],[72.87643,19.26097]],[[72.96185,19.24278],[72.96515,19.24113],[72.96752,19.24516],[72.97074,19.24499],[72.97461,19.24196],[72.97498,19.24444],[72.97553,19.24448],[72.97553,19.24499],[72.97416,19.24468],[72.97362,19.24738],[72.97314,19.24764],[72.97361,19.24998],[72.97275,19.25051],[72.97135,19.24987],[72.97111,19.24853],[72.97016,19.2464],[72.96893,19.24663],[72.96616,19.24803],[72.96665,19.2495],[72.96794,19.25044],[72.96877,19.25228],[72.96951,19.25175],[72.96974,19.25205],[72.97032,19.25167],[72.97035,19.25221],[72.96996,19.2525],[72.97019,19.25394],[72.96947,19.25423],[72.96966,19.25636],[72.9699,19.2565],[72.96943,19.25713],[72.96985,19.25759],[72.96975,19.25917],[72.96959,19.25808],[72.96829,19.25732],[72.96736,19.25597],[72.96745,19.25754],[72.96547,19.25813],[72.96186,19.25585],[72.96029,19.25584],[72.95982,19.25374],[72.96003,19.25246],[72.96152,19.25078],[72.9609,19.24924],[72.96053,19.24571],[72.96172,19.24499],[72.9622,19.24302],[72.96185,19.24278]],[[72.93085,19.28423],[72.93212,19.27931],[72.93323,19.27937],[72.93347,19.28328],[72.93403,19.28528],[72.93094,19.2853],[72.93085,19.28423]],[[72.92444,19.32633],[72.92246,19.33352],[72.91948,19.33285],[72.91669,19.33607],[72.91338,19.34192],[72.91044,19.34113],[72.91062,19.34002],[72.91034,19.33977],[72.90916,19.34058],[72.90738,19.34046],[72.908,19.33888],[72.90793,19.33767],[72.91038,19.33293],[72.91014,19.33131],[72.91109,19.32862],[72.91109,19.32793],[72.91068,19.32791],[72.91113,19.32623],[72.90929,19.3273],[72.90791,19.3289],[72.90823,19.32943],[72.90731,19.33208],[72.90596,19.33297],[72.9048,19.33317],[72.90253,19.33455],[72.9018,19.33534],[72.89738,19.33404],[72.89899,19.31945],[72.89954,19.31777],[72.90364,19.31762],[72.90424,19.31633],[72.90579,19.31649],[72.90615,19.31621],[72.90774,19.31728],[72.90703,19.31598],[72.90832,19.31151],[72.90841,19.30928],[72.90693,19.3109],[72.90607,19.31337],[72.90523,19.31388],[72.90459,19.31584],[72.90302,19.31653],[72.90098,19.31592],[72.89993,19.31491],[72.89991,19.31246],[72.90057,19.30983],[72.9072,19.30223],[72.91059,19.29156],[72.91117,19.29091],[72.91135,19.29016],[72.91686,19.29006],[72.91853,19.29097],[72.92238,19.2916],[72.92716,19.29152],[72.93074,19.29097],[72.93315,19.28907],[72.93488,19.28964],[72.93675,19.28937],[72.93701,19.29162],[72.93619,19.2981],[72.93637,19.29926],[72.93838,19.30122],[72.93843,19.30225],[72.93907,19.30306],[72.93787,19.30802],[72.93729,19.30877],[72.93716,19.31612],[72.93637,19.31702],[72.93557,19.32009],[72.93598,19.32115],[72.93351,19.32256],[72.93353,19.32489],[72.9319,19.33026],[72.93072,19.33103],[72.92881,19.33083],[72.92898,19.32898],[72.92815,19.32898],[72.92778,19.32767],[72.92793,19.32366],[72.926,19.32301],[72.9257,19.32396],[72.92454,19.32465],[72.92444,19.32633]]]},"properties":{"id":"mumbai_osm_82","kind":"protected_area","kind_ru":"охраняемая зона","name":"Sanjay Gandhi National Park ESZ (Proposed)","osm_id":"relation/21060057","source":"© OpenStreetMap contributors (ODbL)"}},{"type":"Feature","geometry":{"type":"MultiPolygon","coordinates":[[[[72.80252,19.19385],[72.80254,19.19192],[72.80308,19.19193],[72.80364,19.19065],[72.80419,19.19066],[72.80406,19.18962],[72.80231,19.18909],[72.80219,19.18806],[72.80101,19.18521],[72.80047,19.1852],[72.80138,19.18805],[72.8011,19.18856],[72.80108,19.1901],[72.80218,19.191],[72.80203,19.19196],[72.80102,19.19438],[72.80092,19.19504],[72.80115,19.19428],[72.80166,19.19387],[72.80196,19.19498],[72.8052,19.19569],[72.8036,19.19387],[72.80252,19.19385]]],[[[72.80181,19.19629],[72.80119,19.19627],[72.80004,19.19914],[72.80225,19.20249],[72.80285,19.20396],[72.8026,19.2051],[72.80276,19.206],[72.80436,19.20859],[72.80644,19.21093],[72.80695,19.21137],[72.80816,19.21139],[72.80805,19.21185],[72.81004,19.21282],[72.8109,19.21442],[72.81092,19.21582],[72.81045,19.21714],[72.81096,19.22036],[72.81332,19.22371],[72.81471,19.22399],[72.8158,19.22256],[72.81729,19.2215],[72.81903,19.22191],[72.82079,19.22444],[72.82189,19.2253],[72.82321,19.22534],[72.82407,19.22405],[72.82361,19.22536],[72.82698,19.2244],[72.82749,19.22372],[72.82759,19.2225],[72.82726,19.222],[72.82802,19.22041],[72.82345,19.21752],[72.82304,19.21762],[72.82337,19.2215],[72.82256,19.22127],[72.82266,19.22192],[72.82223,19.22203],[72.82234,19.22099],[72.82154,19.22055],[72.82112,19.22175],[72.82041,19.22151],[72.82073,19.21994],[72.82138,19.2189],[72.82018,19.21848],[72.81949,19.2205],[72.81774,19.22007],[72.81729,19.21986],[72.81762,19.21892],[72.81724,19.2182],[72.81657,19.21819],[72.81644,19.2176],[72.81853,19.21771],[72.81947,19.2182],[72.81983,19.21653],[72.81898,19.21739],[72.81904,19.21767],[72.8179,19.21758],[72.81745,19.21745],[72.81624,19.21602],[72.81571,19.21614],[72.81589,19.21731],[72.81562,19.21756],[72.81525,19.22084],[72.81393,19.22218],[72.81297,19.22268],[72.81258,19.22139],[72.81144,19.22061],[72.81125,19.21983],[72.81088,19.21673],[72.8111,19.21637],[72.81197,19.21649],[72.81174,19.21457],[72.82055,19.21541],[72.81811,19.21325],[72.81776,19.21217],[72.81613,19.21126],[72.81548,19.2104],[72.81525,19.20898],[72.81582,19.20868],[72.81589,19.20782],[72.81565,19.20603],[72.814,19.20648],[72.81388,19.2057],[72.81294,19.20492],[72.81293,19.20569],[72.81239,19.20555],[72.81091,19.20489],[72.81078,19.20386],[72.81024,19.20424],[72.80942,19.20423],[72.80862,19.20345],[72.80754,19.20305],[72.80704,19.20047],[72.80649,19.20046],[72.80666,19.19841],[72.80568,19.19633],[72.80304,19.19553],[72.80302,19.19656],[72.80221,19.19668],[72.80181,19.19629]],[[72.80668,19.20768],[72.80667,19.20845],[72.80721,19.20794],[72.80693,19.20897],[72.80551,19.20894],[72.80487,19.20811],[72.80478,19.20702],[72.80609,19.2069],[72.80617,19.2066],[72.80561,19.20638],[72.8059,19.20522],[72.80644,19.20523],[72.80778,19.2064],[72.80832,19.20641],[72.80749,19.20769],[72.80722,19.20768],[72.80723,19.20691],[72.80652,19.20669],[72.80627,19.20741],[72.80668,19.20768]]]]},"properties":{"id":"mumbai_osm_83","kind":"protected_area","kind_ru":"охраняемая зона","name":null,"osm_id":"relation/6245906","source":"© OpenStreetMap contributors (ODbL)"}},{"type":"Feature","geometry":{"type":"MultiPolygon","coordinates":[[[[72.97763,19.32151],[72.98149,19.31657],[72.98098,19.31349],[72.97952,19.31349],[72.97608,19.31681],[72.97763,19.32151]]],[[[72.94458,19.31706],[72.94278,19.31495],[72.93943,19.31843],[72.93712,19.31835],[72.93411,19.32799],[72.93034,19.33204],[72.93154,19.33334],[72.93682,19.33269],[72.93381,19.32945],[72.93926,19.32508],[72.94007,19.32301],[72.94458,19.31706]]],[[[72.99531,19.3352],[72.99575,19.3352],[72.99575,19.33344],[72.99557,19.33358],[72.99531,19.3352]]],[[[72.95094,19.3356],[72.95016,19.33739],[72.95128,19.33795],[72.95248,19.33755],[72.95591,19.34233],[72.95969,19.34532],[72.9584,19.3497],[72.96218,19.34767],[72.96329,19.34848],[72.96295,19.35026],[72.96398,19.35067],[72.96415,19.35293],[72.96527,19.35391],[72.97136,19.35755],[72.97291,19.35747],[72.97291,19.35569],[72.97608,19.35253],[72.97686,19.35067],[72.97626,19.34816],[72.97437,19.34735],[72.97617,19.34613],[72.97214,19.34411],[72.96922,19.34354],[72.96784,19.34225],[72.9687,19.34063],[72.96836,19.33876],[72.96733,19.3386],[72.96613,19.34014],[72.96295,19.33552],[72.96175,19.33609],[72.96166,19.33131],[72.95712,19.32686],[72.953,19.3322],[72.95257,19.33488],[72.95094,19.3356]]],[[[72.91866,19.35569],[72.91566,19.35577],[72.91738,19.36298],[72.91656,19.36658],[72.91699,19.3682],[72.91845,19.36925],[72.92158,19.3667],[72.92416,19.36788],[72.92373,19.36958],[72.92506,19.36994],[72.92557,19.36832],[72.92699,19.3665],[72.92892,19.3669],[72.92592,19.3746],[72.92639,19.375],[72.92613,19.37767],[72.9278,19.37856],[72.92961,19.37751],[72.92969,19.37601],[72.93201,19.37383],[72.93235,19.36759],[72.9342,19.36824],[72.93587,19.36468],[72.93385,19.36375],[72.93291,19.36456],[72.93111,19.36399],[72.93085,19.36654],[72.92527,19.36346],[72.92021,19.35917],[72.91866,19.35569]]],[[[72.98853,19.34581],[72.98415,19.34727],[72.98132,19.35488],[72.97505,19.3616],[72.97523,19.36524],[72.97291,19.37286],[72.96553,19.37723],[72.95866,19.38265],[72.95978,19.38338],[72.96115,19.38654],[72.95849,19.39383],[72.95763,19.40192],[72.95299,19.40487],[72.98485,19.40487],[72.98703,19.4033],[72.98454,19.40002],[72.98295,19.39876],[72.98316,19.39812],[72.98424,19.39812],[72.98574,19.39597],[72.9848,19.3933],[72.98286,19.39233],[72.98286,19.39042],[72.98814,19.38856],[72.98982,19.38909],[72.99033,19.38994],[72.99201,19.38775],[72.99136,19.38609],[72.9887,19.38366],[72.98604,19.38261],[72.98192,19.38225],[72.97883,19.37958],[72.97892,19.37375],[72.98274,19.36836],[72.98248,19.36767],[72.98419,19.36091],[72.98707,19.355],[72.98939,19.35581],[72.98857,19.35889],[72.99007,19.36055],[72.98913,19.36443],[72.99231,19.36751],[72.99192,19.37014],[72.99282,19.37014],[72.99359,19.36917],[72.99514,19.36917],[72.99575,19.36973],[72.99575,19.34584],[72.99136,19.34727],[72.99059,19.34419],[72.98956,19.34322],[72.98853,19.34581]]],[[[72.90489,19.37652],[72.90403,19.37579],[72.90306,19.37692],[72.90435,19.37832],[72.90358,19.37986],[72.90278,19.37992],[72.90261,19.3818],[72.9033,19.38279],[72.90553,19.3833],[72.90579,19.38441],[72.90467,19.38449],[72.90446,19.38781],[72.90592,19.38921],[72.90673,19.38925],[72.90697,19.39036],[72.90547,19.39077],[72.90356,19.39289],[72.90141,19.39295],[72.90156,19.39496],[72.9024,19.3951],[72.90233,19.39617],[72.90019,19.3965],[72.89924,19.39532],[72.8998,19.3931],[72.90231,19.39154],[72.90281,19.39047],[72.90238,19.38953],[72.89886,19.38783],[72.89753,19.38239],[72.89675,19.38239],[72.89502,19.38506],[72.89212,19.38089],[72.89482,19.37599],[72.89583,19.37549],[72.89622,19.37741],[72.89813,19.3763],[72.89946,19.37721],[72.90008,19.37522],[72.8971,19.37018],[72.89566,19.36581],[72.89399,19.36565],[72.88918,19.36694],[72.88854,19.36816],[72.88154,19.36945],[72.87867,19.36658],[72.87244,19.36411],[72.87064,19.36646],[72.87043,19.36951],[72.86781,19.37257],[72.86676,19.37723],[72.86508,19.37925],[72.8648,19.38188],[72.8642,19.38178],[72.8633,19.37966],[72.86068,19.37887],[72.85914,19.38184],[72.85622,19.38528],[72.85749,19.38636],[72.85983,19.38662],[72.86129,19.38589],[72.86506,19.38656],[72.86446,19.38887],[72.86253,19.39109],[72.86502,19.39273],[72.86253,19.39429],[72.86146,19.39368],[72.86075,19.39449],[72.86146,19.39579],[72.86034,19.39674],[72.85957,19.39945],[72.86167,19.40216],[72.86386,19.40241],[72.86468,19.40034],[72.86721,19.40038],[72.86935,19.40103],[72.87064,19.40455],[72.87347,19.40164],[72.87536,19.40277],[72.87922,19.40314],[72.8814,19.40487],[72.89375,19.40487],[72.89532,19.40261],[72.89064,19.40257],[72.88695,19.39828],[72.8863,19.39334],[72.88948,19.38957],[72.88558,19.38638],[72.88326,19.38634],[72.88188,19.3846],[72.87712,19.38294],[72.87219,19.38536],[72.86897,19.38545],[72.86987,19.3818],[72.86794,19.37747],[72.86768,19.37443],[72.86944,19.3714],[72.87146,19.37026],[72.87107,19.36783],[72.8724,19.36783],[72.87098,19.36646],[72.87261,19.365],[72.8748,19.3665],[72.87493,19.36783],[72.87622,19.36763],[72.87716,19.36682],[72.87927,19.36796],[72.88214,19.37051],[72.89025,19.36868],[72.89021,19.36711],[72.8945,19.36609],[72.89549,19.3665],[72.89386,19.36885],[72.8957,19.36962],[72.89579,19.37091],[72.89699,19.37091],[72.89596,19.37342],[72.89493,19.3733],[72.89343,19.37682],[72.89261,19.37682],[72.89115,19.37941],[72.89,19.37941],[72.89025,19.38115],[72.89193,19.38144],[72.8927,19.38557],[72.89695,19.38549],[72.89729,19.38783],[72.89905,19.38949],[72.90047,19.38925],[72.9021,19.39014],[72.90042,19.39148],[72.90042,19.39229],[72.89862,19.3931],[72.89862,19.39573],[72.89991,19.39662],[72.90051,19.39937],[72.90154,19.4003],[72.90287,19.39933],[72.9015,19.39803],[72.90326,19.39625],[72.90411,19.39439],[72.90545,19.39407],[72.90467,19.39273],[72.90635,19.39111],[72.90763,19.39217],[72.90909,19.39136],[72.90909,19.38957],[72.91055,19.38767],[72.90678,19.38597],[72.90836,19.38439],[72.90944,19.38447],[72.90987,19.38326],[72.9109,19.38346],[72.91115,19.38225],[72.90961,19.38233],[72.90832,19.38136],[72.90901,19.38047],[72.90823,19.37958],[72.90583,19.38148],[72.90545,19.37962],[72.90639,19.37844],[72.90811,19.3784],[72.90888,19.378],[72.90858,19.37727],[72.90978,19.37601],[72.91077,19.37601],[72.91326,19.37508],[72.91291,19.37371],[72.9112,19.37164],[72.90987,19.3714],[72.90823,19.37565],[72.90688,19.37516],[72.90622,19.37664],[72.90489,19.37652]]]]},"properties":{"id":"mumbai_osm_84","kind":"protected_area","kind_ru":"охраняемая зона","name":"Tungareshwar WLS ESZ","osm_id":"relation/21057459","source":"© OpenStreetMap contributors (ODbL)"}},{"type":"Feature","geometry":{"type":"Point","coordinates":[72.83692,19.04872]},"properties":{"id":"mumbai_osm_85","kind":"river_mouth","kind_ru":"устье реки / канала","name":"Mithi River","osm_id":"way/420108354","source":"© OpenStreetMap contributors (ODbL)","waterway":"river","coast_dist_m":37}},{"type":"Feature","geometry":{"type":"Point","coordinates":[72.80055,19.1395]},"properties":{"id":"mumbai_osm_86","kind":"river_mouth","kind_ru":"устье реки / канала","name":null,"osm_id":"way/910256806","source":"© OpenStreetMap contributors (ODbL)","waterway":"river","coast_dist_m":186}},{"type":"Feature","geometry":{"type":"Point","coordinates":[72.97383,19.12428]},"properties":{"id":"mumbai_osm_87","kind":"river_mouth","kind_ru":"устье реки / канала","name":"Thane Creek","osm_id":"way/204365993","source":"© OpenStreetMap contributors (ODbL)","waterway":"river","coast_dist_m":0}},{"type":"Feature","geometry":{"type":"Point","coordinates":[72.79497,19.19711]},"properties":{"id":"mumbai_osm_88","kind":"river_mouth","kind_ru":"устье реки / канала","name":"Manori Creek","osm_id":"way/979859464","source":"© OpenStreetMap contributors (ODbL)","waterway":"river","coast_dist_m":0}},{"type":"Feature","geometry":{"type":"Point","coordinates":[72.79166,19.20259]},"properties":{"id":"mumbai_osm_89","kind":"river_mouth","kind_ru":"устье реки / канала","name":null,"osm_id":"way/420138337","source":"© OpenStreetMap contributors (ODbL)","waterway":"river","coast_dist_m":602}},{"type":"Feature","geometry":{"type":"Point","coordinates":[72.78932,19.22469]},"properties":{"id":"mumbai_osm_90","kind":"river_mouth","kind_ru":"устье реки / канала","name":null,"osm_id":"way/420138345","source":"© OpenStreetMap contributors (ODbL)","waterway":"river","coast_dist_m":1139}},{"type":"Feature","geometry":{"type":"Point","coordinates":[72.79396,19.23241]},"properties":{"id":"mumbai_osm_91","kind":"river_mouth","kind_ru":"устье реки / канала","name":null,"osm_id":"way/420138351","source":"© OpenStreetMap contributors (ODbL)","waterway":"river","coast_dist_m":1410}},{"type":"Feature","geometry":{"type":"Point","coordinates":[72.77484,19.3764]},"properties":{"id":"mumbai_osm_92","kind":"river_mouth","kind_ru":"устье реки / канала","name":null,"osm_id":"way/309735568","source":"© OpenStreetMap contributors (ODbL)","waterway":"canal","coast_dist_m":1338}}]}