{"type":"FeatureCollection","region":"nile","bbox":[30.13932,31.27895,30.62006,31.69086],"source":"© OpenStreetMap contributors (ODbL)","fetched":"2026-09-25T10:26:38Z","note":"объекты OpenStreetMap (bbox района ± 10 км); устья — концевые узлы рек/каналов ≤ 1,5 км от береговой линии OSM","features":[{"type":"Feature","geometry":{"type":"Polygon","coordinates":[[[30.62006,31.35273],[30.5548,31.35268],[30.55476,31.35295],[30.5366,31.35294],[30.53667,31.35319],[30.53606,31.35332],[30.52653,31.35317],[30.49867,31.35583],[30.49792,31.35558],[30.49636,31.35698],[30.49537,31.35822],[30.49316,31.36404],[30.4929,31.36547],[30.4933,31.36704],[30.49804,31.37331],[30.49881,31.37903],[30.49827,31.38075],[30.49521,31.38329],[30.49446,31.38469],[30.4946,31.38584],[30.49605,31.38828],[30.49648,31.38969],[30.49554,31.39462],[30.49605,31.39865],[30.49691,31.39995],[30.49803,31.40092],[30.50395,31.40148],[30.50745,31.40247],[30.50918,31.40313],[30.51181,31.40496],[30.51383,31.4057],[30.51978,31.40597],[30.51911,31.40824],[30.51499,31.41219],[30.51413,31.41344],[30.51277,31.41877],[30.51211,31.41925],[30.50714,31.43209],[30.50365,31.44426],[30.49946,31.45524],[30.50358,31.45503],[30.51607,31.45579],[30.52903,31.45821],[30.53792,31.46063],[30.54006,31.46037],[30.5801,31.46963],[30.62006,31.47952],[30.62006,31.35273]]]},"properties":{"id":"nile_osm_0","kind":"protected_area","kind_ru":"охраняемая зона","name":"محمية بحيرة البرلس","osm_id":"way/774611030","source":"© OpenStreetMap contributors (ODbL)"}},{"type":"Feature","geometry":{"type":"Polygon","coordinates":[[[30.458,31.42198],[30.43833,31.43744],[30.42807,31.44462],[30.42739,31.44609],[30.42765,31.45285],[30.42518,31.45697],[30.42355,31.45825],[30.42197,31.45882],[30.41869,31.45918],[30.41394,31.45905],[30.40871,31.46019],[30.40361,31.46009],[30.39698,31.46338],[30.38965,31.46525],[30.38807,31.46498],[30.3796,31.46038],[30.37892,31.46032],[30.37075,31.46679],[30.36887,31.47089],[30.37107,31.47515],[30.39005,31.48137],[30.39341,31.47673],[30.39656,31.47488],[30.39814,31.47449],[30.4007,31.47442],[30.4027,31.47184],[30.4043,31.47106],[30.40712,31.47049],[30.40905,31.47077],[30.41175,31.47045],[30.41876,31.46798],[30.41896,31.4684],[30.43557,31.46252],[30.43503,31.46141],[30.43916,31.45775],[30.44336,31.45569],[30.44906,31.45481],[30.45844,31.45484],[30.46348,31.45382],[30.4684,31.4538],[30.46882,31.45312],[30.47466,31.42801],[30.47215,31.42762],[30.47234,31.42674],[30.47185,31.42582],[30.46156,31.42352],[30.458,31.42198]]]},"properties":{"id":"nile_osm_1","kind":"aquaculture","kind_ru":"аквакультура / ферма","name":null,"osm_id":"way/841692179","source":"© OpenStreetMap contributors (ODbL)"}},{"type":"Feature","geometry":{"type":"Polygon","coordinates":[[[30.30427,31.34315],[30.30843,31.34049],[30.30803,31.34004],[30.30976,31.33893],[30.30795,31.3372],[30.31023,31.33651],[30.30865,31.3357],[30.30698,31.33386],[30.30373,31.33255],[30.30065,31.33668],[30.3007,31.33718],[30.29799,31.34009],[30.29845,31.34047],[30.30104,31.33854],[30.3042,31.34164],[30.30196,31.34333],[30.30237,31.34376],[30.30374,31.34267],[30.30427,31.34315]]]},"properties":{"id":"nile_osm_2","kind":"port","kind_ru":"порт","name":"Port","osm_id":"way/721206648","source":"© OpenStreetMap contributors (ODbL)"}},{"type":"Feature","geometry":{"type":"Polygon","coordinates":[[[30.33372,31.30828],[30.3342,31.30652],[30.33183,31.3059],[30.33122,31.30763],[30.33372,31.30828]]]},"properties":{"id":"nile_osm_3","kind":"wastewater_plant","kind_ru":"очистные сооружения","name":null,"osm_id":"way/939617353","source":"© OpenStreetMap contributors (ODbL)"}},{"type":"Feature","geometry":{"type":"Polygon","coordinates":[[[30.37423,31.39289],[30.37549,31.38849],[30.36775,31.38687],[30.36649,31.39127],[30.37423,31.39289]]]},"properties":{"id":"nile_osm_4","kind":"wastewater_plant","kind_ru":"очистные сооружения","name":null,"osm_id":"way/841692176","source":"© OpenStreetMap contributors (ODbL)"}},{"type":"Feature","geometry":{"type":"Polygon","coordinates":[[[30.53973,31.29524],[30.53892,31.29442],[30.53821,31.29642],[30.53918,31.29698],[30.53973,31.29524]]]},"properties":{"id":"nile_osm_5","kind":"wastewater_plant","kind_ru":"очистные сооружения","name":null,"osm_id":"way/996238356","source":"© OpenStreetMap contributors (ODbL)"}},{"type":"Feature","geometry":{"type":"Polygon","coordinates":[[[30.54405,31.44241],[30.54432,31.44153],[30.54344,31.44134],[30.54317,31.44222],[30.54405,31.44241]]]},"properties":{"id":"nile_osm_6","kind":"wastewater_plant","kind_ru":"очистные сооружения","name":null,"osm_id":"way/841692175","source":"© OpenStreetMap contributors (ODbL)"}},{"type":"Feature","geometry":{"type":"Point","coordinates":[30.37128,31.45895]},"properties":{"id":"nile_osm_7","kind":"river_mouth","kind_ru":"устье реки / канала","name":"فرع رشيد","osm_id":"way/288241469","source":"© OpenStreetMap contributors (ODbL)","waterway":"river","coast_dist_m":230}},{"type":"Feature","geometry":{"type":"Point","coordinates":[30.32703,31.37591]},"properties":{"id":"nile_osm_8","kind":"river_mouth","kind_ru":"устье реки / канала","name":null,"osm_id":"way/339028589","source":"© OpenStreetMap contributors (ODbL)","waterway":"canal","coast_dist_m":0}},{"type":"Feature","geometry":{"type":"Point","coordinates":[30.33513,31.37214]},"properties":{"id":"nile_osm_9","kind":"river_mouth","kind_ru":"устье реки / канала","name":null,"osm_id":"way/339028589","source":"© OpenStreetMap contributors (ODbL)","waterway":"canal","coast_dist_m":879}},{"type":"Feature","geometry":{"type":"Point","coordinates":[30.36628,31.44817]},"properties":{"id":"nile_osm_10","kind":"river_mouth","kind_ru":"устье реки / канала","name":null,"osm_id":"way/101355981","source":"© OpenStreetMap contributors (ODbL)","waterway":"canal","coast_dist_m":601}},{"type":"Feature","geometry":{"type":"Point","coordinates":[30.35946,31.42044]},"properties":{"id":"nile_osm_11","kind":"river_mouth","kind_ru":"устье реки / канала","name":null,"osm_id":"way/101355981","source":"© OpenStreetMap contributors (ODbL)","waterway":"canal","coast_dist_m":910}},{"type":"Feature","geometry":{"type":"Point","coordinates":[30.38156,31.45239]},"properties":{"id":"nile_osm_12","kind":"river_mouth","kind_ru":"устье реки / канала","name":null,"osm_id":"way/301170432","source":"© OpenStreetMap contributors (ODbL)","waterway":"canal","coast_dist_m":1117}}]}