{"type":"FeatureCollection","region":"scotland","bbox":[-2.82441,55.97602,-2.09442,56.38396],"source":"© OpenStreetMap contributors (ODbL)","fetched":"2026-09-25T10:27:21Z","note":"объекты OpenStreetMap (bbox района ± 10 км); устья — концевые узлы рек/каналов ≤ 1,5 км от береговой линии OSM","features":[{"type":"Feature","geometry":{"type":"Point","coordinates":[-2.78417,56.33873]},"properties":{"id":"scotland_osm_0","kind":"marina","kind_ru":"марина","name":null,"osm_id":"node/886208518","source":"© OpenStreetMap contributors (ODbL)"}},{"type":"Feature","geometry":{"type":"Point","coordinates":[-2.6938,56.22222]},"properties":{"id":"scotland_osm_1","kind":"outfall","kind_ru":"выпуск / трубопровод стоков","name":null,"osm_id":"node/9770529824","source":"© OpenStreetMap contributors (ODbL)"}},{"type":"Feature","geometry":{"type":"Point","coordinates":[-2.59479,56.2703]},"properties":{"id":"scotland_osm_2","kind":"outfall","kind_ru":"выпуск / трубопровод стоков","name":null,"osm_id":"node/9770538271","source":"© OpenStreetMap contributors (ODbL)"}},{"type":"Feature","geometry":{"type":"Point","coordinates":[-2.46714,55.98773]},"properties":{"id":"scotland_osm_3","kind":"protected_area","kind_ru":"охраняемая зона","name":"Whitesands","osm_id":"node/435416028","source":"© OpenStreetMap contributors (ODbL)"}},{"type":"Feature","geometry":{"type":"Polygon","coordinates":[[[-2.72457,55.98696],[-2.72399,55.98697],[-2.72313,55.98645],[-2.72413,55.9863],[-2.72457,55.98696]]]},"properties":{"id":"scotland_osm_4","kind":"wastewater_plant","kind_ru":"очистные сооружения","name":null,"osm_id":"way/927712447","source":"© OpenStreetMap contributors (ODbL)"}},{"type":"Feature","geometry":{"type":"Polygon","coordinates":[[[-2.64818,55.99265],[-2.64771,55.99251],[-2.64818,55.99251],[-2.64818,55.99265]]]},"properties":{"id":"scotland_osm_5","kind":"wastewater_plant","kind_ru":"очистные сооружения","name":null,"osm_id":"way/436237307","source":"© OpenStreetMap contributors (ODbL)"}},{"type":"Feature","geometry":{"type":"Polygon","coordinates":[[[-2.54394,56.00177],[-2.5451,56.0007],[-2.54712,56.00016],[-2.54946,55.99995],[-2.55061,56.00011],[-2.55024,56.00036],[-2.5507,56.00069],[-2.55292,56.00059],[-2.55192,56.00077],[-2.55181,56.0012],[-2.55223,56.00208],[-2.55444,56.00315],[-2.55751,56.00409],[-2.56622,56.00841],[-2.5743,56.01317],[-2.57664,56.01375],[-2.57878,56.01312],[-2.58419,56.01434],[-2.58389,56.01512],[-2.58299,56.01563],[-2.58061,56.01618],[-2.57639,56.01803],[-2.57449,56.01834],[-2.57332,56.0181],[-2.57108,56.01589],[-2.5694,56.01472],[-2.56934,56.01397],[-2.56904,56.01397],[-2.56895,56.01457],[-2.56662,56.01213],[-2.5648,56.01121],[-2.56181,56.00896],[-2.55901,56.00796],[-2.55801,56.00718],[-2.55676,56.0069],[-2.55366,56.00538],[-2.55374,56.00506],[-2.55319,56.00482],[-2.55067,56.00435],[-2.54796,56.0044],[-2.54679,56.00535],[-2.54464,56.00619],[-2.54598,56.00516],[-2.54604,56.00409],[-2.54462,56.00322],[-2.54456,56.00365],[-2.54394,56.00177]]]},"properties":{"id":"scotland_osm_6","kind":"beach","kind_ru":"пляж","name":null,"osm_id":"way/27862332","source":"© OpenStreetMap contributors (ODbL)"}},{"type":"Feature","geometry":{"type":"Polygon","coordinates":[[[-2.57392,55.99194],[-2.57306,55.9926],[-2.57222,55.99162],[-2.57346,55.99138],[-2.57392,55.99194]]]},"properties":{"id":"scotland_osm_7","kind":"wastewater_plant","kind_ru":"очистные сооружения","name":null,"osm_id":"way/211508603","source":"© OpenStreetMap contributors (ODbL)"}},{"type":"Feature","geometry":{"type":"Polygon","coordinates":[[[-2.58844,56.01297],[-2.58513,56.01382],[-2.58355,56.01333],[-2.58003,56.01307],[-2.57938,56.01261],[-2.57952,56.01106],[-2.58093,56.00914],[-2.58217,56.00823],[-2.58222,56.00751],[-2.58302,56.00691],[-2.58438,56.00703],[-2.58395,56.00704],[-2.58322,56.00771],[-2.58318,56.00855],[-2.58844,56.01297]]]},"properties":{"id":"scotland_osm_8","kind":"beach","kind_ru":"пляж","name":"Tyne Sands","osm_id":"way/445217983","source":"© OpenStreetMap contributors (ODbL)"}},{"type":"Feature","geometry":{"type":"Polygon","coordinates":[[[-2.58801,55.99993],[-2.58638,56.00387],[-2.58427,56.00425],[-2.58359,56.00478],[-2.58321,56.00566],[-2.58111,56.00664],[-2.58042,56.00746],[-2.57836,56.01041],[-2.57815,56.01245],[-2.57878,56.01312],[-2.57784,56.01337],[-2.57554,56.0113],[-2.57346,56.01034],[-2.57234,56.01034],[-2.57129,56.00941],[-2.57104,56.00777],[-2.57015,56.00779],[-2.57052,56.00754],[-2.57131,56.00775],[-2.57139,56.00918],[-2.57201,56.00977],[-2.57298,56.00957],[-2.57325,56.00857],[-2.57228,56.00857],[-2.57155,56.00765],[-2.57286,56.00714],[-2.57208,56.00775],[-2.57321,56.00757],[-2.57768,56.004],[-2.57791,56.0031],[-2.57765,56.00158],[-2.57837,56.00099],[-2.5796,56.00116],[-2.58196,56.00079],[-2.58822,55.99873],[-2.58934,55.99933],[-2.58801,55.99993]]]},"properties":{"id":"scotland_osm_9","kind":"beach","kind_ru":"пляж","name":"Hedderwick Sands","osm_id":"way/445217986","source":"© OpenStreetMap contributors (ODbL)"}},{"type":"Feature","geometry":{"type":"Polygon","coordinates":[[[-2.575,56.01102],[-2.57328,56.01073],[-2.57234,56.01034],[-2.575,56.01102]]]},"properties":{"id":"scotland_osm_10","kind":"beach","kind_ru":"пляж","name":null,"osm_id":"way/1285367154","source":"© OpenStreetMap contributors (ODbL)"}},{"type":"Feature","geometry":{"type":"Polygon","coordinates":[[[-2.54489,56.00047],[-2.54459,56.00079],[-2.54401,56.00104],[-2.54467,56.00051],[-2.54439,55.99968],[-2.54489,56.00047]]]},"properties":{"id":"scotland_osm_11","kind":"beach","kind_ru":"пляж","name":null,"osm_id":"way/977535157","source":"© OpenStreetMap contributors (ODbL)"}},{"type":"Feature","geometry":{"type":"Polygon","coordinates":[[[-2.52248,55.99456],[-2.52097,55.99505],[-2.52059,55.9948],[-2.52073,55.9944],[-2.52248,55.99456]]]},"properties":{"id":"scotland_osm_12","kind":"protected_area","kind_ru":"охраняемая зона","name":"Learning Woods Area","osm_id":"way/211927150","source":"© OpenStreetMap contributors (ODbL)"}},{"type":"Feature","geometry":{"type":"LineString","coordinates":[[-2.51751,56.00629],[-2.51678,56.00592],[-2.51712,56.00558],[-2.51658,56.00534],[-2.5143,56.00529],[-2.5138,56.00553],[-2.51367,56.00608],[-2.51651,56.00597],[-2.51751,56.00629]]},"properties":{"id":"scotland_osm_13","kind":"port","kind_ru":"порт","name":"Victoria Harbour","osm_id":"way/1483499680","source":"© OpenStreetMap contributors (ODbL)"}},{"type":"Feature","geometry":{"type":"Polygon","coordinates":[[[-2.76985,56.06608],[-2.76849,56.06513],[-2.76465,56.06391],[-2.75481,56.0615],[-2.75512,56.06105],[-2.75454,56.06074],[-2.75373,56.06111],[-2.75389,56.06129],[-2.75241,56.06108],[-2.74975,56.0615],[-2.7498,56.06052],[-2.74906,56.06024],[-2.74926,56.06072],[-2.74856,56.06057],[-2.74926,56.05986],[-2.75051,56.05955],[-2.75727,56.0592],[-2.76062,56.06043],[-2.77009,56.06295],[-2.77329,56.06445],[-2.77445,56.06452],[-2.77646,56.06374],[-2.77931,56.06367],[-2.78206,56.06407],[-2.78451,56.06542],[-2.78638,56.06569],[-2.78787,56.06548],[-2.78525,56.0659],[-2.7827,56.06482],[-2.78188,56.06525],[-2.78168,56.06465],[-2.78045,56.06428],[-2.78008,56.06467],[-2.77935,56.06439],[-2.77842,56.06492],[-2.7776,56.06457],[-2.77349,56.06575],[-2.76985,56.06608]]]},"properties":{"id":"scotland_osm_14","kind":"beach","kind_ru":"пляж","name":"Broad Sands","osm_id":"way/27144568","source":"© OpenStreetMap contributors (ODbL)"}},{"type":"Feature","geometry":{"type":"Polygon","coordinates":[[[-2.78723,56.01596],[-2.78627,56.01645],[-2.78637,56.01595],[-2.78723,56.01596]]]},"properties":{"id":"scotland_osm_15","kind":"wastewater_plant","kind_ru":"очистные сооружения","name":null,"osm_id":"way/671390838","source":"© OpenStreetMap contributors (ODbL)"}},{"type":"Feature","geometry":{"type":"Polygon","coordinates":[[[-2.82232,56.05806],[-2.82247,56.05755],[-2.822,56.05701],[-2.82218,56.05673],[-2.82124,56.05619],[-2.82188,56.05561],[-2.82297,56.0557],[-2.82328,56.05528],[-2.8223,56.05473],[-2.82225,56.0543],[-2.82441,56.05244],[-2.82441,56.05601],[-2.82232,56.05806]]]},"properties":{"id":"scotland_osm_16","kind":"beach","kind_ru":"пляж","name":null,"osm_id":"way/445354768","source":"© OpenStreetMap contributors (ODbL)"}},{"type":"Feature","geometry":{"type":"Polygon","coordinates":[[[-2.81566,56.06281],[-2.81315,56.06297],[-2.81585,56.06213],[-2.81566,56.06281]]]},"properties":{"id":"scotland_osm_17","kind":"beach","kind_ru":"пляж","name":null,"osm_id":"way/712148444","source":"© OpenStreetMap contributors (ODbL)"}},{"type":"Feature","geometry":{"type":"Polygon","coordinates":[[[-2.81212,56.06286],[-2.81028,56.06238],[-2.80985,56.06258],[-2.80984,56.06218],[-2.80848,56.06245],[-2.80876,56.0627],[-2.80618,56.06227],[-2.80705,56.06183],[-2.80862,56.06183],[-2.81227,56.06239],[-2.81212,56.06286]]]},"properties":{"id":"scotland_osm_18","kind":"beach","kind_ru":"пляж","name":null,"osm_id":"way/723531549","source":"© OpenStreetMap contributors (ODbL)"}},{"type":"Feature","geometry":{"type":"Polygon","coordinates":[[[-2.81741,56.06063],[-2.81628,56.06176],[-2.81594,56.06166],[-2.81672,56.06075],[-2.81741,56.06063]]]},"properties":{"id":"scotland_osm_19","kind":"beach","kind_ru":"пляж","name":null,"osm_id":"way/445354764","source":"© OpenStreetMap contributors (ODbL)"}},{"type":"Feature","geometry":{"type":"Polygon","coordinates":[[[-2.74071,56.06266],[-2.73927,56.06302],[-2.73854,56.06362],[-2.73791,56.06359],[-2.73848,56.06313],[-2.73668,56.0636],[-2.73194,56.06341],[-2.73129,56.06288],[-2.73205,56.06282],[-2.73237,56.06199],[-2.73165,56.06161],[-2.73087,56.06204],[-2.73103,56.06179],[-2.73069,56.06149],[-2.73182,56.06098],[-2.73335,56.06102],[-2.73885,56.06203],[-2.74071,56.06266]]]},"properties":{"id":"scotland_osm_20","kind":"beach","kind_ru":"пляж","name":null,"osm_id":"way/445354769","source":"© OpenStreetMap contributors (ODbL)"}},{"type":"Feature","geometry":{"type":"Polygon","coordinates":[[[-2.74838,56.0614],[-2.74865,56.06148],[-2.74785,56.06206],[-2.74743,56.06125],[-2.7458,56.06233],[-2.74338,56.06253],[-2.74272,56.06306],[-2.74306,56.06339],[-2.74253,56.06351],[-2.74209,56.06418],[-2.74146,56.06371],[-2.74097,56.06373],[-2.7422,56.06294],[-2.74222,56.06234],[-2.74071,56.06266],[-2.73763,56.06175],[-2.74074,56.06233],[-2.74569,56.06215],[-2.74705,56.061],[-2.74855,56.06068],[-2.74838,56.0614]]]},"properties":{"id":"scotland_osm_21","kind":"beach","kind_ru":"пляж","name":null,"osm_id":"way/445488265","source":"© OpenStreetMap contributors (ODbL)"}},{"type":"Feature","geometry":{"type":"Polygon","coordinates":[[[-2.72643,56.06124],[-2.72134,56.06013],[-2.71915,56.06084],[-2.71807,56.06021],[-2.72006,56.05907],[-2.72336,56.05903],[-2.72928,56.06098],[-2.72887,56.06139],[-2.72909,56.06166],[-2.73011,56.06143],[-2.73006,56.06168],[-2.73049,56.06163],[-2.73081,56.06199],[-2.72925,56.0619],[-2.72848,56.06164],[-2.72818,56.06119],[-2.72674,56.06193],[-2.72594,56.06186],[-2.72643,56.06124]]]},"properties":{"id":"scotland_osm_22","kind":"beach","kind_ru":"пляж","name":"West Beach","osm_id":"way/445488266","source":"© OpenStreetMap contributors (ODbL)"}},{"type":"Feature","geometry":{"type":"Polygon","coordinates":[[[-2.79936,56.06473],[-2.79545,56.06481],[-2.79382,56.06423],[-2.79217,56.06415],[-2.78966,56.06496],[-2.78849,56.06485],[-2.79033,56.06415],[-2.79205,56.06393],[-2.79936,56.06473]]]},"properties":{"id":"scotland_osm_23","kind":"beach","kind_ru":"пляж","name":null,"osm_id":"way/445354772","source":"© OpenStreetMap contributors (ODbL)"}},{"type":"Feature","geometry":{"type":"Polygon","coordinates":[[[-2.78632,56.07184],[-2.78555,56.07151],[-2.78323,56.07208],[-2.78293,56.07171],[-2.78222,56.0717],[-2.78565,56.0711],[-2.78545,56.07084],[-2.78387,56.07106],[-2.78448,56.07053],[-2.78263,56.07065],[-2.78544,56.07036],[-2.78625,56.07048],[-2.78632,56.07184]]]},"properties":{"id":"scotland_osm_24","kind":"beach","kind_ru":"пляж","name":null,"osm_id":"way/445181413","source":"© OpenStreetMap contributors (ODbL)"}},{"type":"Feature","geometry":{"type":"Polygon","coordinates":[[[-2.82386,56.18947],[-2.8242,56.18971],[-2.8238,56.18965],[-2.82386,56.18947]]]},"properties":{"id":"scotland_osm_25","kind":"beach","kind_ru":"пляж","name":null,"osm_id":"way/40953577","source":"© OpenStreetMap contributors (ODbL)"}},{"type":"Feature","geometry":{"type":"Polygon","coordinates":[[[-2.81871,56.18658],[-2.81907,56.18672],[-2.81698,56.18846],[-2.81614,56.18809],[-2.81871,56.18658]]]},"properties":{"id":"scotland_osm_26","kind":"beach","kind_ru":"пляж","name":null,"osm_id":"way/1202341928","source":"© OpenStreetMap contributors (ODbL)"}},{"type":"Feature","geometry":{"type":"LineString","coordinates":[[-2.82383,56.18783],[-2.8216,56.18934]]},"properties":{"id":"scotland_osm_27","kind":"outfall","kind_ru":"выпуск / трубопровод стоков","name":"Elie South Street Combined Sewer Overflow","osm_id":"way/919594616","source":"© OpenStreetMap contributors (ODbL)"}},{"type":"Feature","geometry":{"type":"LineString","coordinates":[[-2.81754,56.18649],[-2.81738,56.18579]]},"properties":{"id":"scotland_osm_28","kind":"outfall","kind_ru":"выпуск / трубопровод стоков","name":"Elie Combined Sewage Overflow","osm_id":"way/1063262348","source":"© OpenStreetMap contributors (ODbL)"}},{"type":"Feature","geometry":{"type":"Polygon","coordinates":[[[-2.80959,56.18452],[-2.80869,56.18501],[-2.80852,56.18496],[-2.80959,56.18452]]]},"properties":{"id":"scotland_osm_29","kind":"beach","kind_ru":"пляж","name":null,"osm_id":"way/767720899","source":"© OpenStreetMap contributors (ODbL)"}},{"type":"Feature","geometry":{"type":"Polygon","coordinates":[[[-2.80084,56.19293],[-2.79855,56.19356],[-2.80034,56.19288],[-2.80144,56.19155],[-2.80261,56.19063],[-2.80318,56.18979],[-2.80305,56.18872],[-2.80548,56.18816],[-2.80649,56.18734],[-2.80842,56.18665],[-2.80594,56.18833],[-2.80386,56.18914],[-2.80317,56.19045],[-2.80156,56.19166],[-2.80084,56.19293]]]},"properties":{"id":"scotland_osm_30","kind":"beach","kind_ru":"пляж","name":null,"osm_id":"way/513866214","source":"© OpenStreetMap contributors (ODbL)"}},{"type":"Feature","geometry":{"type":"Polygon","coordinates":[[[-2.81205,56.1869],[-2.81118,56.18656],[-2.81082,56.18576],[-2.81205,56.1869]]]},"properties":{"id":"scotland_osm_31","kind":"beach","kind_ru":"пляж","name":null,"osm_id":"way/739443497","source":"© OpenStreetMap contributors (ODbL)"}},{"type":"Feature","geometry":{"type":"Polygon","coordinates":[[[-2.81567,56.18784],[-2.81484,56.18783],[-2.81368,56.18733],[-2.81435,56.18756],[-2.81567,56.18784]]]},"properties":{"id":"scotland_osm_32","kind":"beach","kind_ru":"пляж","name":null,"osm_id":"way/739443496","source":"© OpenStreetMap contributors (ODbL)"}},{"type":"Feature","geometry":{"type":"Polygon","coordinates":[[[-2.79869,56.19369],[-2.79808,56.19384],[-2.79787,56.19455],[-2.79751,56.19458],[-2.79792,56.1938],[-2.79869,56.19369]]]},"properties":{"id":"scotland_osm_33","kind":"beach","kind_ru":"пляж","name":null,"osm_id":"way/739445988","source":"© OpenStreetMap contributors (ODbL)"}},{"type":"Feature","geometry":{"type":"Polygon","coordinates":[[[-2.79591,56.1953],[-2.79504,56.19546],[-2.79464,56.19541],[-2.79591,56.1953]]]},"properties":{"id":"scotland_osm_34","kind":"beach","kind_ru":"пляж","name":null,"osm_id":"way/739446186","source":"© OpenStreetMap contributors (ODbL)"}},{"type":"Feature","geometry":{"type":"Polygon","coordinates":[[[-2.79391,56.1959],[-2.79186,56.19703],[-2.79074,56.19734],[-2.79022,56.19722],[-2.79152,56.19703],[-2.79391,56.1959]]]},"properties":{"id":"scotland_osm_35","kind":"beach","kind_ru":"пляж","name":null,"osm_id":"way/739446369","source":"© OpenStreetMap contributors (ODbL)"}},{"type":"Feature","geometry":{"type":"Polygon","coordinates":[[[-2.77572,56.20111],[-2.77478,56.20169],[-2.77365,56.20204],[-2.77281,56.20208],[-2.77245,56.20182],[-2.77379,56.20188],[-2.77572,56.20111]]]},"properties":{"id":"scotland_osm_36","kind":"beach","kind_ru":"пляж","name":null,"osm_id":"way/768384774","source":"© OpenStreetMap contributors (ODbL)"}},{"type":"Feature","geometry":{"type":"Polygon","coordinates":[[[-2.77141,56.20264],[-2.77172,56.20214],[-2.77187,56.20219],[-2.77141,56.20264]]]},"properties":{"id":"scotland_osm_37","kind":"beach","kind_ru":"пляж","name":null,"osm_id":"way/768384777","source":"© OpenStreetMap contributors (ODbL)"}},{"type":"Feature","geometry":{"type":"LineString","coordinates":[[-2.73322,56.21039],[-2.73286,56.21201]]},"properties":{"id":"scotland_osm_38","kind":"outfall","kind_ru":"выпуск / трубопровод стоков","name":"West Shore Combined Sewer Overflow","osm_id":"way/915041281","source":"© OpenStreetMap contributors (ODbL)"}},{"type":"Feature","geometry":{"type":"LineString","coordinates":[[-2.73286,56.2121],[-2.73286,56.21201]]},"properties":{"id":"scotland_osm_39","kind":"outfall","kind_ru":"выпуск / трубопровод стоков","name":null,"osm_id":"way/1062897075","source":"© OpenStreetMap contributors (ODbL)"}},{"type":"Feature","geometry":{"type":"LineString","coordinates":[[-2.72636,56.21254],[-2.72548,56.21255]]},"properties":{"id":"scotland_osm_40","kind":"outfall","kind_ru":"выпуск / трубопровод стоков","name":"Gyles Combined Sewage Overflow","osm_id":"way/1062900129","source":"© OpenStreetMap contributors (ODbL)"}},{"type":"Feature","geometry":{"type":"Polygon","coordinates":[[[-2.71898,56.04882],[-2.71557,56.05085],[-2.7116,56.05074],[-2.70953,56.04949],[-2.7123,56.04709],[-2.71158,56.04605],[-2.71486,56.0456],[-2.71832,56.04573],[-2.71951,56.04816],[-2.71898,56.04882]]]},"properties":{"id":"scotland_osm_41","kind":"protected_area","kind_ru":"охраняемая зона","name":null,"osm_id":"way/1492885727","source":"© OpenStreetMap contributors (ODbL)"}},{"type":"Feature","geometry":{"type":"Polygon","coordinates":[[[-2.71708,56.06067],[-2.71345,56.05936],[-2.71266,56.05994],[-2.71108,56.06011],[-2.70945,56.0598],[-2.70815,56.05881],[-2.70739,56.05892],[-2.70739,56.0586],[-2.70755,56.05804],[-2.71195,56.05841],[-2.71478,56.05932],[-2.71752,56.06075],[-2.7172,56.0611],[-2.71681,56.06087],[-2.71708,56.06067]]]},"properties":{"id":"scotland_osm_42","kind":"beach","kind_ru":"пляж","name":null,"osm_id":"way/198724051","source":"© OpenStreetMap contributors (ODbL)"}},{"type":"Feature","geometry":{"type":"LineString","coordinates":[[-2.71946,56.06103],[-2.7194,56.061]]},"properties":{"id":"scotland_osm_43","kind":"port","kind_ru":"порт","name":null,"osm_id":"way/547130639","source":"© OpenStreetMap contributors (ODbL)"}},{"type":"Feature","geometry":{"type":"Polygon","coordinates":[[[-2.70751,56.05826],[-2.70601,56.05827],[-2.70585,56.05854],[-2.70634,56.05878],[-2.70639,56.05918],[-2.70427,56.0595],[-2.70423,56.05909],[-2.70073,56.05844],[-2.70007,56.05798],[-2.69886,56.05803],[-2.69579,56.05895],[-2.69536,56.0587],[-2.69609,56.05802],[-2.69971,56.05739],[-2.70509,56.05765],[-2.70755,56.05804],[-2.70751,56.05826]]]},"properties":{"id":"scotland_osm_44","kind":"beach","kind_ru":"пляж","name":null,"osm_id":"way/445354763","source":"© OpenStreetMap contributors (ODbL)"}},{"type":"Feature","geometry":{"type":"Polygon","coordinates":[[[-2.68424,56.06092],[-2.68443,56.06069],[-2.68578,56.06046],[-2.68852,56.06102],[-2.68797,56.06116],[-2.68556,56.06063],[-2.68424,56.06092]]]},"properties":{"id":"scotland_osm_45","kind":"beach","kind_ru":"пляж","name":null,"osm_id":"way/445469593","source":"© OpenStreetMap contributors (ODbL)"}},{"type":"Feature","geometry":{"type":"Polygon","coordinates":[[[-2.69874,56.05709],[-2.69854,56.05717],[-2.69847,56.05713],[-2.69874,56.05709]]]},"properties":{"id":"scotland_osm_46","kind":"wastewater_plant","kind_ru":"очистные сооружения","name":null,"osm_id":"way/558019405","source":"© OpenStreetMap contributors (ODbL)"}},{"type":"Feature","geometry":{"type":"Polygon","coordinates":[[[-2.69468,56.05962],[-2.69548,56.05968],[-2.69569,56.05964],[-2.69485,56.06051],[-2.69426,56.06009],[-2.69468,56.05962]]]},"properties":{"id":"scotland_osm_47","kind":"beach","kind_ru":"пляж","name":null,"osm_id":"way/723109353","source":"© OpenStreetMap contributors (ODbL)"}},{"type":"Feature","geometry":{"type":"Polygon","coordinates":[[[-2.68864,56.06123],[-2.68901,56.06118],[-2.68862,56.06094],[-2.68966,56.06104],[-2.69059,56.06056],[-2.69102,56.06084],[-2.68985,56.06143],[-2.68864,56.06123]]]},"properties":{"id":"scotland_osm_48","kind":"beach","kind_ru":"пляж","name":null,"osm_id":"way/445189459","source":"© OpenStreetMap contributors (ODbL)"}},{"type":"Feature","geometry":{"type":"Polygon","coordinates":[[[-2.67358,56.05906],[-2.66959,56.05793],[-2.67045,56.05768],[-2.67141,56.05785],[-2.67353,56.05843],[-2.67637,56.05975],[-2.67562,56.06016],[-2.67358,56.05906]]]},"properties":{"id":"scotland_osm_49","kind":"beach","kind_ru":"пляж","name":"Quarrel Sands","osm_id":"way/445469592","source":"© OpenStreetMap contributors (ODbL)"}},{"type":"Feature","geometry":{"type":"Polygon","coordinates":[[[-2.68241,56.06141],[-2.68142,56.06149],[-2.67925,56.06178],[-2.68108,56.06134],[-2.68241,56.06141]]]},"properties":{"id":"scotland_osm_50","kind":"beach","kind_ru":"пляж","name":null,"osm_id":"way/941048217","source":"© OpenStreetMap contributors (ODbL)"}},{"type":"Feature","geometry":{"type":"Polygon","coordinates":[[[-2.68413,56.0612],[-2.68305,56.06151],[-2.68279,56.06137],[-2.68413,56.0612]]]},"properties":{"id":"scotland_osm_51","kind":"beach","kind_ru":"пляж","name":null,"osm_id":"way/941048218","source":"© OpenStreetMap contributors (ODbL)"}},{"type":"Feature","geometry":{"type":"Polygon","coordinates":[[[-2.67898,56.06164],[-2.67859,56.06164],[-2.67819,56.06133],[-2.67859,56.06127],[-2.67898,56.06164]]]},"properties":{"id":"scotland_osm_52","kind":"beach","kind_ru":"пляж","name":null,"osm_id":"way/941048234","source":"© OpenStreetMap contributors (ODbL)"}},{"type":"Feature","geometry":{"type":"Polygon","coordinates":[[[-2.66673,56.05858],[-2.66527,56.05817],[-2.66328,56.05859],[-2.66291,56.05892],[-2.66239,56.05875],[-2.66326,56.05823],[-2.66509,56.05788],[-2.66635,56.0581],[-2.66673,56.05858]]]},"properties":{"id":"scotland_osm_53","kind":"beach","kind_ru":"пляж","name":null,"osm_id":"way/445469595","source":"© OpenStreetMap contributors (ODbL)"}},{"type":"Feature","geometry":{"type":"Polygon","coordinates":[[[-2.64929,56.05625],[-2.64935,56.05552],[-2.64886,56.05471],[-2.64969,56.05492],[-2.64967,56.05563],[-2.6494,56.05575],[-2.64967,56.05622],[-2.64929,56.05625]]]},"properties":{"id":"scotland_osm_54","kind":"beach","kind_ru":"пляж","name":null,"osm_id":"way/59806739","source":"© OpenStreetMap contributors (ODbL)"}},{"type":"Feature","geometry":{"type":"Polygon","coordinates":[[[-2.65453,56.05704],[-2.65255,56.05793],[-2.65253,56.05765],[-2.65352,56.05702],[-2.65272,56.05679],[-2.65355,56.05667],[-2.65453,56.05704]]]},"properties":{"id":"scotland_osm_55","kind":"beach","kind_ru":"пляж","name":null,"osm_id":"way/59806741","source":"© OpenStreetMap contributors (ODbL)"}},{"type":"Feature","geometry":{"type":"Polygon","coordinates":[[[-2.64915,56.05418],[-2.6476,56.05375],[-2.64733,56.05354],[-2.64915,56.05418]]]},"properties":{"id":"scotland_osm_56","kind":"beach","kind_ru":"пляж","name":null,"osm_id":"way/365776574","source":"© OpenStreetMap contributors (ODbL)"}},{"type":"Feature","geometry":{"type":"Polygon","coordinates":[[[-2.59716,56.02962],[-2.59406,56.02677],[-2.59487,56.02621],[-2.5947,56.02576],[-2.59369,56.02543],[-2.59275,56.02587],[-2.58903,56.02523],[-2.58997,56.02436],[-2.59163,56.02379],[-2.58964,56.02333],[-2.58893,56.02259],[-2.58711,56.0221],[-2.58898,56.02218],[-2.59007,56.02286],[-2.59241,56.02327],[-2.594,56.02391],[-2.59387,56.02427],[-2.59634,56.02506],[-2.59745,56.02508],[-2.5978,56.02562],[-2.60455,56.03008],[-2.60007,56.0313],[-2.59716,56.02962]]]},"properties":{"id":"scotland_osm_57","kind":"beach","kind_ru":"пляж","name":"Ravensheugh Sands","osm_id":"way/230098323","source":"© OpenStreetMap contributors (ODbL)"}},{"type":"Feature","geometry":{"type":"LineString","coordinates":[[-2.72017,56.21316],[-2.71921,56.21413],[-2.71958,56.21482]]},"properties":{"id":"scotland_osm_58","kind":"outfall","kind_ru":"выпуск / трубопровод стоков","name":"Mayview Combined Sewage Overflow","osm_id":"way/922299451","source":"© OpenStreetMap contributors (ODbL)"}},{"type":"Feature","geometry":{"type":"LineString","coordinates":[[-2.71958,56.21482],[-2.71975,56.21517]]},"properties":{"id":"scotland_osm_59","kind":"outfall","kind_ru":"выпуск / трубопровод стоков","name":null,"osm_id":"way/1062902247","source":"© OpenStreetMap contributors (ODbL)"}},{"type":"Feature","geometry":{"type":"Polygon","coordinates":[[[-2.70795,56.2176],[-2.70762,56.21813],[-2.70631,56.21847],[-2.70795,56.2176]]]},"properties":{"id":"scotland_osm_60","kind":"beach","kind_ru":"пляж","name":null,"osm_id":"way/739446683","source":"© OpenStreetMap contributors (ODbL)"}},{"type":"Feature","geometry":{"type":"Polygon","coordinates":[[[-2.70934,56.21622],[-2.70922,56.21612],[-2.70961,56.21612],[-2.70934,56.21622]]]},"properties":{"id":"scotland_osm_61","kind":"wastewater_plant","kind_ru":"очистные сооружения","name":"Billow Ness Sewage Treatment Works","osm_id":"way/759917881","source":"© OpenStreetMap contributors (ODbL)"}},{"type":"Feature","geometry":{"type":"LineString","coordinates":[[-2.70274,56.21856],[-2.70391,56.21905],[-2.7043,56.21953],[-2.70527,56.21948]]},"properties":{"id":"scotland_osm_62","kind":"outfall","kind_ru":"выпуск / трубопровод стоков","name":"Bankwell Road Combined Sewer Overflow","osm_id":"way/922299534","source":"© OpenStreetMap contributors (ODbL)"}},{"type":"Feature","geometry":{"type":"LineString","coordinates":[[-2.70527,56.21948],[-2.70597,56.21938]]},"properties":{"id":"scotland_osm_63","kind":"outfall","kind_ru":"выпуск / трубопровод стоков","name":null,"osm_id":"way/1063035647","source":"© OpenStreetMap contributors (ODbL)"}},{"type":"Feature","geometry":{"type":"Polygon","coordinates":[[[-2.55101,56.18322],[-2.55094,56.18341],[-2.55024,56.18325],[-2.55101,56.18322]]]},"properties":{"id":"scotland_osm_64","kind":"beach","kind_ru":"пляж","name":null,"osm_id":"way/1003879104","source":"© OpenStreetMap contributors (ODbL)"}},{"type":"Feature","geometry":{"type":"Polygon","coordinates":[[[-2.55226,56.18182],[-2.55185,56.18186],[-2.55077,56.18143],[-2.55133,56.18128],[-2.55226,56.18182]]]},"properties":{"id":"scotland_osm_65","kind":"beach","kind_ru":"пляж","name":null,"osm_id":"way/1003879105","source":"© OpenStreetMap contributors (ODbL)"}},{"type":"Feature","geometry":{"type":"Polygon","coordinates":[[[-2.82437,56.36472],[-2.82313,56.36617],[-2.82285,56.36775],[-2.82199,56.36952],[-2.82161,56.37214],[-2.82034,56.37446],[-2.81807,56.37691],[-2.81627,56.37817],[-2.80982,56.37952],[-2.80851,56.38007],[-2.80731,56.38102],[-2.80754,56.38133],[-2.8072,56.38153],[-2.80291,56.38102],[-2.80252,56.38089],[-2.8028,56.38018],[-2.8025,56.38013],[-2.80153,56.38067],[-2.79983,56.38077],[-2.80033,56.37969],[-2.80006,56.37945],[-2.8008,56.37917],[-2.8026,56.37584],[-2.80405,56.3774],[-2.80484,56.37726],[-2.80442,56.37848],[-2.80531,56.3775],[-2.80518,56.37684],[-2.80551,56.37657],[-2.80497,56.37612],[-2.80475,56.37507],[-2.80541,56.37457],[-2.80585,56.37356],[-2.8058,56.37093],[-2.80661,56.37162],[-2.80699,56.37297],[-2.80795,56.37465],[-2.80799,56.37768],[-2.80818,56.37807],[-2.80868,56.37812],[-2.80912,56.37771],[-2.80926,56.37682],[-2.80891,56.37455],[-2.80799,56.37325],[-2.808,56.37097],[-2.80726,56.3699],[-2.80846,56.36915],[-2.808,56.3685],[-2.81147,56.36693],[-2.81225,56.36765],[-2.8136,56.37017],[-2.81738,56.37306],[-2.82023,56.37205],[-2.82182,56.36859],[-2.8229,56.36451],[-2.82441,56.36311],[-2.82437,56.36472]]]},"properties":{"id":"scotland_osm_66","kind":"beach","kind_ru":"пляж","name":null,"osm_id":"way/47574234","source":"© OpenStreetMap contributors (ODbL)"}},{"type":"Feature","geometry":{"type":"Polygon","coordinates":[[[-2.79389,56.24205],[-2.79495,56.2432],[-2.79327,56.24539],[-2.79299,56.24674],[-2.79353,56.24738],[-2.79526,56.24791],[-2.793,56.24809],[-2.7913,56.2477],[-2.7908,56.24706],[-2.79273,56.24457],[-2.79251,56.24261],[-2.79389,56.24205]]]},"properties":{"id":"scotland_osm_67","kind":"protected_area","kind_ru":"охраняемая зона","name":"Gillingshill Nature Reserve","osm_id":"way/635527323","source":"© OpenStreetMap contributors (ODbL)"}},{"type":"Feature","geometry":{"type":"Polygon","coordinates":[[[-2.80324,56.3451],[-2.80432,56.34441],[-2.8062,56.34456],[-2.80564,56.34496],[-2.80546,56.34577],[-2.80585,56.34713],[-2.80918,56.35382],[-2.81226,56.36166],[-2.81359,56.36336],[-2.81582,56.36525],[-2.81969,56.36707],[-2.82027,56.36714],[-2.82134,56.36666],[-2.8229,56.36451],[-2.82182,56.36859],[-2.82023,56.37205],[-2.81738,56.37306],[-2.81609,56.37226],[-2.8136,56.37017],[-2.81225,56.36765],[-2.80981,56.36532],[-2.80669,56.3557],[-2.80236,56.34642],[-2.80115,56.34551],[-2.80216,56.34541],[-2.8024,56.34504],[-2.80324,56.3451]]]},"properties":{"id":"scotland_osm_68","kind":"beach","kind_ru":"пляж","name":"West Sands","osm_id":"way/26998937","source":"© OpenStreetMap contributors (ODbL)"}},{"type":"Feature","geometry":{"type":"Polygon","coordinates":[[[-2.78238,56.33952],[-2.78024,56.33834],[-2.77693,56.33447],[-2.77465,56.3324],[-2.77758,56.33271],[-2.77964,56.33368],[-2.78291,56.3381],[-2.78324,56.33906],[-2.78238,56.33952]]]},"properties":{"id":"scotland_osm_69","kind":"beach","kind_ru":"пляж","name":"East Sands","osm_id":"way/26861074","source":"© OpenStreetMap contributors (ODbL)"}},{"type":"Feature","geometry":{"type":"Polygon","coordinates":[[[-2.79967,56.34334],[-2.79969,56.34365],[-2.79917,56.34367],[-2.79925,56.34327],[-2.79967,56.34334]]]},"properties":{"id":"scotland_osm_70","kind":"beach","kind_ru":"пляж","name":null,"osm_id":"way/191827358","source":"© OpenStreetMap contributors (ODbL)"}},{"type":"Feature","geometry":{"type":"Polygon","coordinates":[[[-2.80091,56.34409],[-2.80091,56.34494],[-2.79994,56.34492],[-2.80003,56.34452],[-2.80051,56.34451],[-2.80029,56.34445],[-2.80043,56.34396],[-2.80091,56.34409]]]},"properties":{"id":"scotland_osm_71","kind":"beach","kind_ru":"пляж","name":null,"osm_id":"way/191827359","source":"© OpenStreetMap contributors (ODbL)"}},{"type":"Feature","geometry":{"type":"LineString","coordinates":[[-2.80177,56.34499],[-2.8014,56.34526]]},"properties":{"id":"scotland_osm_72","kind":"outfall","kind_ru":"выпуск / трубопровод стоков","name":"Bruce Embankment Combined Sewage Overflow","osm_id":"way/1063986442","source":"© OpenStreetMap contributors (ODbL)"}},{"type":"Feature","geometry":{"type":"Polygon","coordinates":[[[-2.78953,56.34238],[-2.78878,56.342],[-2.78833,56.34141],[-2.78963,56.34188],[-2.78953,56.34238]]]},"properties":{"id":"scotland_osm_73","kind":"beach","kind_ru":"пляж","name":"Castle Sands","osm_id":"way/134642442","source":"© OpenStreetMap contributors (ODbL)"}},{"type":"Feature","geometry":{"type":"Polygon","coordinates":[[[-2.75697,56.33049],[-2.75578,56.33016],[-2.75674,56.32902],[-2.75804,56.32933],[-2.75697,56.33049]]]},"properties":{"id":"scotland_osm_74","kind":"wastewater_plant","kind_ru":"очистные сооружения","name":"Kinkell Ness Waste Water Treatment Works","osm_id":"way/1063317049","source":"© OpenStreetMap contributors (ODbL)"}},{"type":"Feature","geometry":{"type":"MultiPolygon","coordinates":[[[[-2.82438,56.38135],[-2.82264,56.38274],[-2.82224,56.38396],[-2.81781,56.38396],[-2.82098,56.38245],[-2.82263,56.38105],[-2.82355,56.37976],[-2.82441,56.37953],[-2.82438,56.38135]]],[[[-2.80902,56.38266],[-2.80931,56.38377],[-2.8099,56.38396],[-2.80828,56.38396],[-2.80902,56.38266]]]]},"properties":{"id":"scotland_osm_75","kind":"beach","kind_ru":"пляж","name":"Kinshaldy Beach","osm_id":"way/47498787","source":"© OpenStreetMap contributors (ODbL)"}},{"type":"Feature","geometry":{"type":"Polygon","coordinates":[[[-2.70033,56.22261],[-2.70285,56.22245],[-2.70332,56.22278],[-2.70284,56.22256],[-2.70033,56.22261]]]},"properties":{"id":"scotland_osm_76","kind":"beach","kind_ru":"пляж","name":null,"osm_id":"way/360194551","source":"© OpenStreetMap contributors (ODbL)"}},{"type":"Feature","geometry":{"type":"LineString","coordinates":[[-2.70243,56.22195],[-2.70163,56.22018]]},"properties":{"id":"scotland_osm_77","kind":"outfall","kind_ru":"выпуск / трубопровод стоков","name":"Esplanade Combined Sewage Overflow","osm_id":"way/1063042668","source":"© OpenStreetMap contributors (ODbL)"}},{"type":"Feature","geometry":{"type":"Polygon","coordinates":[[[-2.69743,56.22176],[-2.69857,56.22055],[-2.69918,56.22064],[-2.69978,56.22122],[-2.70013,56.2225],[-2.69848,56.2221],[-2.69861,56.22176],[-2.69832,56.22205],[-2.69743,56.22176]]]},"properties":{"id":"scotland_osm_78","kind":"marina","kind_ru":"марина","name":"Anstruther Harbour","osm_id":"way/547721160","source":"© OpenStreetMap contributors (ODbL)"}},{"type":"Feature","geometry":{"type":"Polygon","coordinates":[[[-2.69746,56.22107],[-2.69582,56.22152],[-2.69575,56.22123],[-2.69746,56.22107]]]},"properties":{"id":"scotland_osm_79","kind":"beach","kind_ru":"пляж","name":null,"osm_id":"way/40952534","source":"© OpenStreetMap contributors (ODbL)"}},{"type":"Feature","geometry":{"type":"LineString","coordinates":[[-2.68404,56.22474],[-2.684,56.22468]]},"properties":{"id":"scotland_osm_80","kind":"outfall","kind_ru":"выпуск / трубопровод стоков","name":"Skinfast Haven Combined Sewage Overflow","osm_id":"way/1063718650","source":"© OpenStreetMap contributors (ODbL)"}},{"type":"Feature","geometry":{"type":"Polygon","coordinates":[[[-2.68308,56.22572],[-2.68268,56.22555],[-2.68312,56.22566],[-2.68308,56.22572]]]},"properties":{"id":"scotland_osm_81","kind":"beach","kind_ru":"пляж","name":null,"osm_id":"way/1257514165","source":"© OpenStreetMap contributors (ODbL)"}},{"type":"Feature","geometry":{"type":"Polygon","coordinates":[[[-2.6834,56.22465],[-2.68429,56.22513],[-2.68312,56.22579],[-2.68238,56.22568],[-2.6834,56.22465]]]},"properties":{"id":"scotland_osm_82","kind":"marina","kind_ru":"марина","name":"Skinfast Haven","osm_id":"way/1558216061","source":"© OpenStreetMap contributors (ODbL)"}},{"type":"Feature","geometry":{"type":"Polygon","coordinates":[[[-2.62842,56.25755],[-2.62767,56.25759],[-2.62748,56.25726],[-2.62851,56.25716],[-2.62842,56.25755]]]},"properties":{"id":"scotland_osm_83","kind":"port","kind_ru":"порт","name":"Crail Harbour","osm_id":"way/635792331","source":"© OpenStreetMap contributors (ODbL)"}},{"type":"Feature","geometry":{"type":"Polygon","coordinates":[[[-2.63024,56.25718],[-2.62889,56.25768],[-2.62853,56.25759],[-2.62996,56.25701],[-2.63024,56.25718]]]},"properties":{"id":"scotland_osm_84","kind":"beach","kind_ru":"пляж","name":null,"osm_id":"way/40952091","source":"© OpenStreetMap contributors (ODbL)"}},{"type":"Feature","geometry":{"type":"LineString","coordinates":[[-2.62976,56.25734],[-2.62963,56.25728]]},"properties":{"id":"scotland_osm_85","kind":"outfall","kind_ru":"выпуск / трубопровод стоков","name":null,"osm_id":"way/1062967472","source":"© OpenStreetMap contributors (ODbL)"}},{"type":"Feature","geometry":{"type":"LineString","coordinates":[[-2.62899,56.2577],[-2.62899,56.25767]]},"properties":{"id":"scotland_osm_86","kind":"outfall","kind_ru":"выпуск / трубопровод стоков","name":"Lamont Terrace Combined Sewage Overflow","osm_id":"way/1063010914","source":"© OpenStreetMap contributors (ODbL)"}},{"type":"Feature","geometry":{"type":"LineString","coordinates":[[-2.62996,56.25424],[-2.62951,56.25408]]},"properties":{"id":"scotland_osm_87","kind":"outfall","kind_ru":"выпуск / трубопровод стоков","name":"West Braes Combined Sewage Overflow","osm_id":"way/1063010915","source":"© OpenStreetMap contributors (ODbL)"}},{"type":"Feature","geometry":{"type":"LineString","coordinates":[[-2.62514,56.25859],[-2.62466,56.25832]]},"properties":{"id":"scotland_osm_88","kind":"outfall","kind_ru":"выпуск / трубопровод стоков","name":"Castle Walk Combined Sewage Overflow","osm_id":"way/1062887207","source":"© OpenStreetMap contributors (ODbL)"}},{"type":"Feature","geometry":{"type":"LineString","coordinates":[[-2.6269,56.25758],[-2.62538,56.25688]]},"properties":{"id":"scotland_osm_89","kind":"outfall","kind_ru":"выпуск / трубопровод стоков","name":"Crail Harbour Combined Sewage Overflow","osm_id":"way/1062967470","source":"© OpenStreetMap contributors (ODbL)"}},{"type":"Feature","geometry":{"type":"LineString","coordinates":[[-2.62711,56.25768],[-2.6269,56.25758]]},"properties":{"id":"scotland_osm_90","kind":"outfall","kind_ru":"выпуск / трубопровод стоков","name":null,"osm_id":"way/1062967471","source":"© OpenStreetMap contributors (ODbL)"}},{"type":"Feature","geometry":{"type":"Polygon","coordinates":[[[-2.70237,56.31606],[-2.70227,56.31603],[-2.70237,56.31603],[-2.70237,56.31606]]]},"properties":{"id":"scotland_osm_91","kind":"wastewater_plant","kind_ru":"очистные сооружения","name":null,"osm_id":"way/1064199116","source":"© OpenStreetMap contributors (ODbL)"}},{"type":"Feature","geometry":{"type":"LineString","coordinates":[[-2.70237,56.31606],[-2.70285,56.31598]]},"properties":{"id":"scotland_osm_92","kind":"outfall","kind_ru":"выпуск / трубопровод стоков","name":null,"osm_id":"way/1064199117","source":"© OpenStreetMap contributors (ODbL)"}},{"type":"Feature","geometry":{"type":"Polygon","coordinates":[[[-2.65718,56.31141],[-2.6564,56.31159],[-2.65331,56.30923],[-2.65242,56.30804],[-2.64815,56.30557],[-2.64424,56.30462],[-2.64156,56.30205],[-2.64013,56.29985],[-2.6384,56.29855],[-2.63547,56.29777],[-2.63572,56.29727],[-2.63846,56.29777],[-2.63969,56.29842],[-2.64176,56.29992],[-2.64382,56.3027],[-2.64582,56.3041],[-2.64876,56.30503],[-2.65007,56.30569],[-2.65071,56.3064],[-2.65209,56.30683],[-2.65467,56.30874],[-2.6552,56.30973],[-2.65718,56.31141]]]},"properties":{"id":"scotland_osm_93","kind":"beach","kind_ru":"пляж","name":"Cambo Sands","osm_id":"way/1083049622","source":"© OpenStreetMap contributors (ODbL)"}},{"type":"Feature","geometry":{"type":"Polygon","coordinates":[[[-2.65125,56.30098],[-2.65007,56.30104],[-2.65003,56.30071],[-2.65084,56.30067],[-2.65125,56.30098]]]},"properties":{"id":"scotland_osm_94","kind":"wastewater_plant","kind_ru":"очистные сооружения","name":"Kingsbarns Sewage Treatment Works","osm_id":"way/636044461","source":"© OpenStreetMap contributors (ODbL)"}},{"type":"Feature","geometry":{"type":"Polygon","coordinates":[[[-2.65745,56.31162],[-2.65832,56.31249],[-2.65843,56.31336],[-2.65782,56.31448],[-2.65878,56.3153],[-2.65898,56.31655],[-2.65868,56.31595],[-2.65828,56.31585],[-2.65835,56.31512],[-2.65731,56.31437],[-2.65779,56.31378],[-2.65774,56.31302],[-2.6569,56.31148],[-2.65745,56.31162]]]},"properties":{"id":"scotland_osm_95","kind":"beach","kind_ru":"пляж","name":null,"osm_id":"way/1288765356","source":"© OpenStreetMap contributors (ODbL)"}},{"type":"Feature","geometry":{"type":"LineString","coordinates":[[-2.64667,56.30455],[-2.64552,56.30506],[-2.64282,56.30536]]},"properties":{"id":"scotland_osm_96","kind":"outfall","kind_ru":"выпуск / трубопровод стоков","name":null,"osm_id":"way/1063250502","source":"© OpenStreetMap contributors (ODbL)"}},{"type":"Feature","geometry":{"type":"LineString","coordinates":[[-2.62121,56.26133],[-2.62088,56.26097]]},"properties":{"id":"scotland_osm_97","kind":"outfall","kind_ru":"выпуск / трубопровод стоков","name":"Kirk Wynd Combined Sewage Overflow","osm_id":"way/1062967469","source":"© OpenStreetMap contributors (ODbL)"}},{"type":"Feature","geometry":{"type":"LineString","coordinates":[[-2.61386,56.26179],[-2.61382,56.26135]]},"properties":{"id":"scotland_osm_98","kind":"outfall","kind_ru":"выпуск / трубопровод стоков","name":"Sauchope Combined Sewer Overflow","osm_id":"way/1062884606","source":"© OpenStreetMap contributors (ODbL)"}},{"type":"Feature","geometry":{"type":"Polygon","coordinates":[[[-2.62075,56.26113],[-2.61604,56.26222],[-2.61478,56.26208],[-2.61426,56.26177],[-2.61629,56.26204],[-2.62075,56.26113]]]},"properties":{"id":"scotland_osm_99","kind":"beach","kind_ru":"пляж","name":null,"osm_id":"way/40952076","source":"© OpenStreetMap contributors (ODbL)"}},{"type":"Feature","geometry":{"type":"Polygon","coordinates":[[[-2.59634,56.27138],[-2.59612,56.27121],[-2.59642,56.27127],[-2.59634,56.27138]]]},"properties":{"id":"scotland_osm_100","kind":"wastewater_plant","kind_ru":"очистные сооружения","name":"Kilminning Wastewater Treatment Works","osm_id":"way/360184230","source":"© OpenStreetMap contributors (ODbL)"}},{"type":"Feature","geometry":{"type":"LineString","coordinates":[[-2.59462,56.27023],[-2.59338,56.26968]]},"properties":{"id":"scotland_osm_101","kind":"outfall","kind_ru":"выпуск / трубопровод стоков","name":"Kilminning sewage treatment works sea outfall (remains of)","osm_id":"way/1063373153","source":"© OpenStreetMap contributors (ODbL)"}},{"type":"Feature","geometry":{"type":"Polygon","coordinates":[[[-2.59468,56.28201],[-2.5957,56.28203],[-2.59759,56.28292],[-2.59841,56.284],[-2.59918,56.28605],[-2.59799,56.28476],[-2.596,56.28499],[-2.59557,56.28379],[-2.59359,56.28263],[-2.59499,56.28231],[-2.59468,56.28201]]]},"properties":{"id":"scotland_osm_102","kind":"beach","kind_ru":"пляж","name":"Balcomie Sands","osm_id":"way/636024257","source":"© OpenStreetMap contributors (ODbL)"}},{"type":"Feature","geometry":{"type":"Polygon","coordinates":[[[-2.51132,56.00124],[-2.51315,56.00255],[-2.51329,56.00382],[-2.51251,56.00321],[-2.51136,56.00293],[-2.51041,56.00194],[-2.51136,56.00174],[-2.51132,56.00124]]]},"properties":{"id":"scotland_osm_103","kind":"beach","kind_ru":"пляж","name":null,"osm_id":"way/223279273","source":"© OpenStreetMap contributors (ODbL)"}},{"type":"Feature","geometry":{"type":"LineString","coordinates":[[-2.51375,56.0055],[-2.51417,56.00499],[-2.51227,56.00565],[-2.51273,56.00591],[-2.51375,56.0055]]},"properties":{"id":"scotland_osm_104","kind":"port","kind_ru":"порт","name":"Broad Haven","osm_id":"way/1483499681","source":"© OpenStreetMap contributors (ODbL)"}},{"type":"Feature","geometry":{"type":"LineString","coordinates":[[-2.51271,56.00545],[-2.5126,56.00506],[-2.51303,56.00485],[-2.5127,56.00459],[-2.51321,56.00435],[-2.51293,56.00415],[-2.51191,56.00512],[-2.51207,56.00565],[-2.51271,56.00545]]},"properties":{"id":"scotland_osm_105","kind":"port","kind_ru":"порт","name":"Old Harbour","osm_id":"way/1483499682","source":"© OpenStreetMap contributors (ODbL)"}},{"type":"Feature","geometry":{"type":"Polygon","coordinates":[[[-2.46929,55.99118],[-2.46874,55.99054],[-2.466,55.98899],[-2.46535,55.98921],[-2.46459,55.98896],[-2.46417,55.98916],[-2.46416,55.98955],[-2.46582,55.99015],[-2.46603,55.99054],[-2.46306,55.99019],[-2.46202,55.9905],[-2.46185,55.99036],[-2.46307,55.99002],[-2.46347,55.98939],[-2.46208,55.989],[-2.4613,55.99036],[-2.45993,55.99082],[-2.46088,55.98994],[-2.46125,55.98876],[-2.4619,55.98845],[-2.45991,55.98824],[-2.45983,55.98795],[-2.46058,55.98726],[-2.46122,55.98718],[-2.46673,55.98815],[-2.46828,55.98892],[-2.46895,55.98963],[-2.46976,55.99123],[-2.46929,55.99118]]]},"properties":{"id":"scotland_osm_106","kind":"beach","kind_ru":"пляж","name":"Whitesands","osm_id":"way/210640059","source":"© OpenStreetMap contributors (ODbL)"}},{"type":"Feature","geometry":{"type":"Polygon","coordinates":[[[-2.45974,55.9877],[-2.45937,55.98803],[-2.45365,55.98839],[-2.45337,55.98802],[-2.45192,55.9877],[-2.45129,55.98711],[-2.45235,55.98733],[-2.45303,55.98785],[-2.45597,55.988],[-2.45974,55.9877]]]},"properties":{"id":"scotland_osm_107","kind":"beach","kind_ru":"пляж","name":null,"osm_id":"way/712384154","source":"© OpenStreetMap contributors (ODbL)"}},{"type":"Feature","geometry":{"type":"Polygon","coordinates":[[[-2.1027,56.21549],[-2.09442,56.23294],[-2.09442,56.20737],[-2.1027,56.21549]]]},"properties":{"id":"scotland_osm_108","kind":"protected_area","kind_ru":"охраняемая зона","name":"Firth of Forth Banks Marine Protected Area","osm_id":"relation/6012699","source":"© OpenStreetMap contributors (ODbL)"}},{"type":"Feature","geometry":{"type":"Polygon","coordinates":[[[-2.51774,56.00618],[-2.51675,56.00584],[-2.51709,56.00548],[-2.51835,56.00534],[-2.51909,56.00448],[-2.52143,56.00473],[-2.52174,56.005],[-2.5235,56.00492],[-2.52542,56.00549],[-2.52559,56.00595],[-2.52672,56.00615],[-2.5255,56.00394],[-2.52691,56.00379],[-2.52683,56.00355],[-2.5288,56.00362],[-2.53071,56.00323],[-2.54319,55.99986],[-2.54198,55.99834],[-2.54085,55.99767],[-2.54284,55.99714],[-2.54546,55.99563],[-2.54742,55.9952],[-2.55116,55.99498],[-2.55214,55.99699],[-2.55129,55.99809],[-2.55117,55.99864],[-2.55145,55.99907],[-2.5531,55.99867],[-2.55482,55.99884],[-2.55676,55.99925],[-2.55819,55.99993],[-2.5596,55.99914],[-2.56294,55.99872],[-2.56411,55.99788],[-2.56118,55.99449],[-2.56141,55.99444],[-2.5644,55.99792],[-2.56353,55.99864],[-2.56174,55.99901],[-2.56351,56.00124],[-2.57695,56.00076],[-2.57771,56.00096],[-2.57865,56.00017],[-2.58075,56.00017],[-2.57971,56.00071],[-2.57956,56.00115],[-2.58176,56.00082],[-2.58782,55.99869],[-2.59063,55.99817],[-2.59846,55.99747],[-2.59889,55.9975],[-2.59937,55.99815],[-2.60419,55.99755],[-2.60672,55.99694],[-2.60772,55.99646],[-2.60841,55.99561],[-2.61083,55.99505],[-2.61684,55.99439],[-2.61921,55.99429],[-2.61041,55.99521],[-2.6086,55.99567],[-2.60805,55.9965],[-2.60666,55.9971],[-2.60439,55.99763],[-2.60057,55.99813],[-2.6007,55.99887],[-2.60017,55.99903],[-2.60289,56.00391],[-2.60474,56.00483],[-2.60341,56.00547],[-2.60307,56.00636],[-2.60159,56.00603],[-2.60168,56.00579],[-2.6009,56.00597],[-2.59892,56.00543],[-2.59721,56.00596],[-2.59418,56.00782],[-2.59347,56.0091],[-2.59425,56.01374],[-2.59397,56.01466],[-2.59005,56.01754],[-2.5917,56.01779],[-2.59925,56.01977],[-2.62666,56.01329],[-2.59937,56.01991],[-2.59399,56.01858],[-2.59331,56.02041],[-2.5928,56.02126],[-2.5919,56.02223],[-2.59069,56.02295],[-2.59292,56.02346],[-2.594,56.02391],[-2.59387,56.02427],[-2.59423,56.02442],[-2.59512,56.02438],[-2.5956,56.02481],[-2.59745,56.02508],[-2.5978,56.02562],[-2.60041,56.02726],[-2.60353,56.02818],[-2.61076,56.03444],[-2.605,56.03507],[-2.60395,56.03377],[-2.60301,56.03326],[-2.60356,56.03299],[-2.60047,56.03064],[-2.59911,56.03007],[-2.59837,56.02933],[-2.59859,56.02896],[-2.59524,56.02725],[-2.59266,56.02699],[-2.59092,56.02578],[-2.58807,56.02463],[-2.58368,56.02445],[-2.58466,56.02416],[-2.58436,56.02398],[-2.58301,56.02432],[-2.58181,56.02392],[-2.58263,56.02445],[-2.58109,56.02438],[-2.58055,56.02374],[-2.58003,56.02376],[-2.58031,56.02339],[-2.57994,56.0231],[-2.57938,56.02332],[-2.57909,56.02275],[-2.57859,56.02315],[-2.57996,56.02173],[-2.57947,56.0221],[-2.57817,56.02185],[-2.57691,56.02227],[-2.57612,56.02199],[-2.57624,56.02169],[-2.57532,56.02151],[-2.57551,56.02143],[-2.57522,56.02118],[-2.57564,56.02098],[-2.57314,56.02076],[-2.57364,56.02063],[-2.57378,56.02027],[-2.57364,56.01956],[-2.57238,56.01937],[-2.57276,56.01776],[-2.57108,56.01589],[-2.5694,56.01472],[-2.56934,56.01397],[-2.56904,56.01397],[-2.56895,56.01457],[-2.56662,56.01213],[-2.5648,56.01121],[-2.56181,56.00896],[-2.55901,56.00796],[-2.55801,56.00718],[-2.55676,56.0069],[-2.55366,56.00538],[-2.55374,56.00506],[-2.55319,56.00482],[-2.55067,56.00435],[-2.54796,56.0044],[-2.54679,56.00535],[-2.54464,56.00619],[-2.54527,56.00662],[-2.54468,56.00694],[-2.54497,56.00717],[-2.54332,56.00764],[-2.542,56.00728],[-2.53992,56.00755],[-2.53769,56.00688],[-2.53543,56.00733],[-2.53444,56.00797],[-2.53342,56.00772],[-2.5335,56.00741],[-2.53048,56.00776],[-2.52742,56.00672],[-2.52536,56.00737],[-2.52198,56.00594],[-2.51954,56.00552],[-2.51774,56.00618]],[[-2.59105,56.01782],[-2.58908,56.01787],[-2.5862,56.01923],[-2.58528,56.02143],[-2.58793,56.02174],[-2.5903,56.02263],[-2.59185,56.02211],[-2.59321,56.02037],[-2.59385,56.01867],[-2.59105,56.01782]]]},"properties":{"id":"scotland_osm_109","kind":"protected_area","kind_ru":"охраняемая зона","name":"John Muir Country Park","osm_id":"relation/8285342","source":"© OpenStreetMap contributors (ODbL)"}},{"type":"Feature","geometry":{"type":"Polygon","coordinates":[[[-2.51744,55.99433],[-2.51663,55.9937],[-2.51445,55.9931],[-2.51523,55.99257],[-2.51403,55.9915],[-2.51469,55.99091],[-2.51634,55.99053],[-2.51669,55.99098],[-2.5158,55.99178],[-2.51559,55.99275],[-2.51946,55.9923],[-2.51951,55.99088],[-2.52074,55.99063],[-2.52004,55.98953],[-2.51847,55.98926],[-2.51545,55.98944],[-2.5154,55.98888],[-2.51825,55.98888],[-2.51838,55.9884],[-2.51969,55.98889],[-2.52117,55.99019],[-2.52264,55.99016],[-2.52276,55.99306],[-2.52686,55.99267],[-2.5293,55.99292],[-2.5305,55.99418],[-2.52939,55.99449],[-2.52975,55.99495],[-2.52835,55.99511],[-2.52372,55.99449],[-2.52348,55.99609],[-2.52502,55.99644],[-2.52499,55.99528],[-2.52703,55.99546],[-2.52719,55.99658],[-2.5243,55.99711],[-2.52192,55.99661],[-2.52071,55.99519],[-2.51868,55.99531],[-2.51929,55.99426],[-2.5176,55.99399],[-2.51744,55.99433]],[[-2.52268,55.99514],[-2.52326,55.99494],[-2.52345,55.99449],[-2.5229,55.99455],[-2.52268,55.99514]]]},"properties":{"id":"scotland_osm_110","kind":"protected_area","kind_ru":"охраняемая зона","name":"Lochend Woods","osm_id":"relation/2827573","source":"© OpenStreetMap contributors (ODbL)"}},{"type":"Feature","geometry":{"type":"MultiPolygon","coordinates":[[[[-2.62157,56.04808],[-2.62151,56.04831],[-2.62079,56.04784],[-2.62095,56.04777],[-2.62157,56.04808]]],[[[-2.62166,56.04839],[-2.6222,56.04855],[-2.62235,56.04865],[-2.62166,56.04839]]],[[[-2.62438,56.04945],[-2.62343,56.04922],[-2.62358,56.04882],[-2.62414,56.04908],[-2.62438,56.04945]]],[[[-2.62607,56.0505],[-2.62507,56.05028],[-2.62419,56.04978],[-2.62445,56.04972],[-2.62607,56.0505]]],[[[-2.62679,56.05065],[-2.62754,56.05088],[-2.62645,56.0506],[-2.62679,56.05065]]],[[[-2.63746,56.05297],[-2.63633,56.05378],[-2.63453,56.05351],[-2.63465,56.05268],[-2.63369,56.05254],[-2.63282,56.05297],[-2.63282,56.0535],[-2.63101,56.05391],[-2.62917,56.05486],[-2.62771,56.05455],[-2.62838,56.05346],[-2.62997,56.05299],[-2.62938,56.05219],[-2.62766,56.05123],[-2.62784,56.05096],[-2.62937,56.05202],[-2.63361,56.05162],[-2.63694,56.05193],[-2.6382,56.05236],[-2.63977,56.05379],[-2.63746,56.05297]]]]},"properties":{"id":"scotland_osm_111","kind":"beach","kind_ru":"пляж","name":"Seacliff Beach","osm_id":"relation/7208792","source":"© OpenStreetMap contributors (ODbL)"}},{"type":"Feature","geometry":{"type":"Polygon","coordinates":[[[-2.616,56.04168],[-2.61699,56.0425],[-2.61571,56.04181],[-2.61452,56.04182],[-2.6141,56.04101],[-2.61337,56.04053],[-2.61398,56.03994],[-2.6114,56.03862],[-2.61066,56.03745],[-2.60667,56.03808],[-2.6068,56.03732],[-2.6059,56.03622],[-2.602,56.03262],[-2.60007,56.0313],[-2.60455,56.03008],[-2.60628,56.03058],[-2.60578,56.03091],[-2.60783,56.03263],[-2.6123,56.03341],[-2.61236,56.03382],[-2.6113,56.03417],[-2.61084,56.03479],[-2.61087,56.03579],[-2.61145,56.03704],[-2.61128,56.03788],[-2.61212,56.03866],[-2.61487,56.03995],[-2.61589,56.04088],[-2.616,56.04168]]]},"properties":{"id":"scotland_osm_112","kind":"beach","kind_ru":"пляж","name":"Peffer Sands","osm_id":"relation/7208788","source":"© OpenStreetMap contributors (ODbL)"}},{"type":"Feature","geometry":{"type":"Polygon","coordinates":[[[-2.6205,56.04613],[-2.61897,56.0434],[-2.61667,56.04224],[-2.61938,56.04353],[-2.62034,56.04509],[-2.6205,56.04613]]]},"properties":{"id":"scotland_osm_113","kind":"beach","kind_ru":"пляж","name":null,"osm_id":"relation/7208787","source":"© OpenStreetMap contributors (ODbL)"}},{"type":"Feature","geometry":{"type":"Polygon","coordinates":[[[-2.56578,56.19347],[-2.5626,56.19313],[-2.56234,56.19275],[-2.56274,56.19256],[-2.56204,56.19232],[-2.56179,56.19186],[-2.56064,56.19155],[-2.56011,56.19068],[-2.55917,56.19028],[-2.5593,56.18985],[-2.55784,56.18993],[-2.55833,56.18981],[-2.55718,56.18953],[-2.55742,56.18911],[-2.5591,56.18925],[-2.55885,56.1889],[-2.55931,56.1888],[-2.55734,56.18799],[-2.55736,56.18828],[-2.55597,56.18793],[-2.55531,56.1882],[-2.55497,56.18804],[-2.5554,56.1877],[-2.55288,56.18751],[-2.55257,56.18711],[-2.55301,56.187],[-2.55268,56.18645],[-2.55166,56.18622],[-2.55129,56.18552],[-2.54864,56.18507],[-2.54902,56.18459],[-2.54876,56.1844],[-2.54884,56.18374],[-2.54814,56.18364],[-2.54817,56.18322],[-2.54692,56.18316],[-2.54587,56.18238],[-2.54926,56.18298],[-2.54611,56.18217],[-2.54599,56.182],[-2.54634,56.18196],[-2.54604,56.18179],[-2.54455,56.18154],[-2.54426,56.18095],[-2.54686,56.18077],[-2.54833,56.18028],[-2.54721,56.17981],[-2.54737,56.17958],[-2.54953,56.17953],[-2.55227,56.18146],[-2.55752,56.18313],[-2.5591,56.1845],[-2.55891,56.1848],[-2.55811,56.18469],[-2.55829,56.18487],[-2.55983,56.18547],[-2.56041,56.1854],[-2.56079,56.18585],[-2.56167,56.18599],[-2.56129,56.18638],[-2.56269,56.18663],[-2.56252,56.1869],[-2.56291,56.18691],[-2.56341,56.18763],[-2.56293,56.18881],[-2.56377,56.18916],[-2.56384,56.1898],[-2.56749,56.19139],[-2.56743,56.19168],[-2.56666,56.19175],[-2.56815,56.19223],[-2.56814,56.19279],[-2.56578,56.19347]]]},"properties":{"id":"scotland_osm_114","kind":"protected_area","kind_ru":"охраняемая зона","name":"Isle of May National Nature Reserve","osm_id":"relation/9921512","source":"© OpenStreetMap contributors (ODbL)"}},{"type":"Feature","geometry":{"type":"Polygon","coordinates":[[[-2.82441,56.38183],[-2.82287,56.38396],[-2.80134,56.38396],[-2.79948,56.38244],[-2.80033,56.37969],[-2.80006,56.37945],[-2.8008,56.37917],[-2.8026,56.37584],[-2.80405,56.3774],[-2.80484,56.37726],[-2.80442,56.37848],[-2.80531,56.3775],[-2.80518,56.37684],[-2.80551,56.37657],[-2.80497,56.37612],[-2.80475,56.37507],[-2.80541,56.37457],[-2.80585,56.37356],[-2.8058,56.37093],[-2.80661,56.37162],[-2.80699,56.37297],[-2.80795,56.37465],[-2.80799,56.37768],[-2.80818,56.37807],[-2.80868,56.37812],[-2.80912,56.37771],[-2.80926,56.37682],[-2.80891,56.37455],[-2.80799,56.37321],[-2.808,56.37097],[-2.80726,56.3699],[-2.80846,56.36915],[-2.80678,56.36628],[-2.81995,56.36659],[-2.82013,56.36629],[-2.82079,56.36633],[-2.82143,56.36511],[-2.82441,56.36311],[-2.82441,56.38183]]]},"properties":{"id":"scotland_osm_115","kind":"protected_area","kind_ru":"охраняемая зона","name":"Eden Estuary Local Nature Reserve","osm_id":"relation/21017767","source":"© OpenStreetMap contributors (ODbL)"}},{"type":"Feature","geometry":{"type":"Polygon","coordinates":[[[-2.65284,56.2725],[-2.65514,56.27091],[-2.65588,56.27115],[-2.65362,56.27277],[-2.65284,56.2725]]]},"properties":{"id":"scotland_osm_116","kind":"protected_area","kind_ru":"охраняемая зона","name":"West Quarry Braes","osm_id":"relation/12816276","source":"© OpenStreetMap contributors (ODbL)"}},{"type":"Feature","geometry":{"type":"Polygon","coordinates":[[[-2.59682,56.26877],[-2.59708,56.2691],[-2.5968,56.26991],[-2.59612,56.27032],[-2.59486,56.27192],[-2.59501,56.27206],[-2.59362,56.2729],[-2.59245,56.27277],[-2.59175,56.27305],[-2.59201,56.27338],[-2.59108,56.27393],[-2.59145,56.27435],[-2.59031,56.27611],[-2.58928,56.27604],[-2.58911,56.27571],[-2.58765,56.27518],[-2.58838,56.27493],[-2.5877,56.27459],[-2.58842,56.27435],[-2.58744,56.27354],[-2.58782,56.27343],[-2.58756,56.27307],[-2.58781,56.27295],[-2.58794,56.27339],[-2.58895,56.2736],[-2.58947,56.27253],[-2.59047,56.2722],[-2.59008,56.27201],[-2.59155,56.27134],[-2.59191,56.27031],[-2.59335,56.26969],[-2.59217,56.26959],[-2.59152,56.26915],[-2.59421,56.26898],[-2.59453,56.26879],[-2.59398,56.26841],[-2.59417,56.2682],[-2.5964,56.26787],[-2.59694,56.26741],[-2.59545,56.26768],[-2.59708,56.26728],[-2.59794,56.26865],[-2.59682,56.26877]]]},"properties":{"id":"scotland_osm_117","kind":"protected_area","kind_ru":"охраняемая зона","name":"Kilminning Coast Wildlife Reserve","osm_id":"relation/8832185","source":"© OpenStreetMap contributors (ODbL)"}},{"type":"Feature","geometry":{"type":"Point","coordinates":[-2.57368,56.02085]},"properties":{"id":"scotland_osm_118","kind":"river_mouth","kind_ru":"устье реки / канала","name":"River Tyne","osm_id":"way/440065384","source":"© OpenStreetMap contributors (ODbL)","waterway":"river","coast_dist_m":769}},{"type":"Feature","geometry":{"type":"Point","coordinates":[-2.54598,56.00516]},"properties":{"id":"scotland_osm_119","kind":"river_mouth","kind_ru":"устье реки / канала","name":"Biel Water","osm_id":"way/36820665","source":"© OpenStreetMap contributors (ODbL)","waterway":"river","coast_dist_m":158}},{"type":"Feature","geometry":{"type":"Point","coordinates":[-2.7839,56.33894]},"properties":{"id":"scotland_osm_120","kind":"river_mouth","kind_ru":"устье реки / канала","name":"Kinness Burn","osm_id":"way/151283907","source":"© OpenStreetMap contributors (ODbL)","waterway":"river","coast_dist_m":0}},{"type":"Feature","geometry":{"type":"Point","coordinates":[-2.67682,56.32046]},"properties":{"id":"scotland_osm_121","kind":"river_mouth","kind_ru":"устье реки / канала","name":"Kenly Water","osm_id":"way/573728106","source":"© OpenStreetMap contributors (ODbL)","waterway":"river","coast_dist_m":68}},{"type":"Feature","geometry":{"type":"Point","coordinates":[-2.48855,55.9954]},"properties":{"id":"scotland_osm_122","kind":"river_mouth","kind_ru":"устье реки / канала","name":"Brox Burn","osm_id":"way/1018314224","source":"© OpenStreetMap contributors (ODbL)","waterway":"river","coast_dist_m":0}}]}