{"type":"FeatureCollection","features":[{"type":"Feature","geometry":{"type":"Polygon","coordinates":[[[-2.653167,56.234559],[-2.653167,56.234469],[-2.653329,56.23447],[-2.653329,56.23438],[-2.653007,56.234379],[-2.653005,56.234559],[-2.653167,56.234559]]]},"properties":{"id":"scotland_2018-03-26_lgbm_0","region":"scotland","date":"2018-03-26","area_m2":300.0,"mean_prob":0.8902,"max_prob":0.9843,"model":"lgbm","n_px":3,"px_area_m2":100.0,"confirmed":false,"confirmed_by":null,"lon":-2.653141,"lat":56.234454}},{"type":"Feature","geometry":{"type":"Polygon","coordinates":[[[-2.655773,56.231781],[-2.655774,56.231602],[-2.655613,56.231601],[-2.655611,56.231781],[-2.655773,56.231781]]]},"properties":{"id":"scotland_2018-03-26_lgbm_1","region":"scotland","date":"2018-03-26","area_m2":200.0,"mean_prob":0.9902,"max_prob":0.9922,"model":"lgbm","n_px":2,"px_area_m2":100.0,"confirmed":false,"confirmed_by":null,"lon":-2.655693,"lat":56.231691}},{"type":"Feature","geometry":{"type":"Polygon","coordinates":[[[-2.546188,56.222982],[-2.54619,56.222803],[-2.546028,56.222802],[-2.546026,56.222982],[-2.546188,56.222982]]]},"properties":{"id":"scotland_2018-03-26_lgbm_2","region":"scotland","date":"2018-03-26","area_m2":200.0,"mean_prob":0.9059,"max_prob":0.9137,"model":"lgbm","n_px":2,"px_area_m2":100.0,"confirmed":false,"confirmed_by":null,"lon":-2.546108,"lat":56.222892}},{"type":"Feature","geometry":{"type":"Polygon","coordinates":[[[-2.611854,56.204158],[-2.611855,56.204068],[-2.611532,56.204067],[-2.611531,56.204157],[-2.611854,56.204158]]]},"properties":{"id":"scotland_2018-03-26_lgbm_3","region":"scotland","date":"2018-03-26","area_m2":200.0,"mean_prob":0.8922,"max_prob":0.9451,"model":"lgbm","n_px":2,"px_area_m2":100.0,"confirmed":false,"confirmed_by":null,"lon":-2.611693,"lat":56.204113}},{"type":"Feature","geometry":{"type":"Polygon","coordinates":[[[-2.500524,56.187586],[-2.500527,56.187406],[-2.500366,56.187406],[-2.500363,56.187585],[-2.500524,56.187586]]]},"properties":{"id":"scotland_2018-03-26_lgbm_4","region":"scotland","date":"2018-03-26","area_m2":200.0,"mean_prob":0.9294,"max_prob":0.9608,"model":"lgbm","n_px":2,"px_area_m2":100.0,"confirmed":false,"confirmed_by":null,"lon":-2.500445,"lat":56.187496}},{"type":"Feature","geometry":{"type":"Polygon","coordinates":[[[-2.567482,56.150731],[-2.567483,56.150641],[-2.567644,56.150642],[-2.567645,56.150552],[-2.567484,56.150552],[-2.567485,56.150462],[-2.567324,56.150461],[-2.567323,56.150551],[-2.567162,56.15055],[-2.567161,56.15064],[-2.567322,56.150641],[-2.567321,56.150731],[-2.567482,56.150731]]]},"properties":{"id":"scotland_2018-03-26_lgbm_5","region":"scotland","date":"2018-03-26","area_m2":500.0,"mean_prob":0.9224,"max_prob":1.0,"model":"lgbm","n_px":5,"px_area_m2":100.0,"confirmed":false,"confirmed_by":null,"lon":-2.567403,"lat":56.150596}},{"type":"Feature","geometry":{"type":"Polygon","coordinates":[[[-2.353615,56.127964],[-2.353618,56.127785],[-2.353457,56.127784],[-2.353454,56.127963],[-2.353615,56.127964]]]},"properties":{"id":"scotland_2018-03-26_lgbm_6","region":"scotland","date":"2018-03-26","area_m2":200.0,"mean_prob":0.998,"max_prob":1.0,"model":"lgbm","n_px":2,"px_area_m2":100.0,"confirmed":false,"confirmed_by":null,"lon":-2.353536,"lat":56.127874}},{"type":"Feature","geometry":{"type":"Polygon","coordinates":[[[-2.415428,56.114885],[-2.415431,56.114705],[-2.415109,56.114703],[-2.415107,56.114883],[-2.415428,56.114885]]]},"properties":{"id":"scotland_2018-03-26_lgbm_7","region":"scotland","date":"2018-03-26","area_m2":400.0,"mean_prob":0.9853,"max_prob":1.0,"model":"lgbm","n_px":4,"px_area_m2":100.0,"confirmed":false,"confirmed_by":null,"lon":-2.415269,"lat":56.114794}},{"type":"Feature","geometry":{"type":"Polygon","coordinates":[[[-2.404284,56.107554],[-2.404285,56.107464],[-2.403964,56.107462],[-2.403963,56.107552],[-2.404284,56.107554]]]},"properties":{"id":"scotland_2018-03-26_lgbm_8","region":"scotland","date":"2018-03-26","area_m2":200.0,"mean_prob":0.9902,"max_prob":0.9961,"model":"lgbm","n_px":2,"px_area_m2":100.0,"confirmed":false,"confirmed_by":null,"lon":-2.404124,"lat":56.107508}},{"type":"Feature","geometry":{"type":"Polygon","coordinates":[[[-2.389157,56.088072],[-2.38916,56.087892],[-2.388838,56.087891],[-2.388835,56.088071],[-2.389157,56.088072]]]},"properties":{"id":"scotland_2018-03-26_lgbm_9","region":"scotland","date":"2018-03-26","area_m2":400.0,"mean_prob":0.9765,"max_prob":1.0,"model":"lgbm","n_px":4,"px_area_m2":100.0,"confirmed":false,"confirmed_by":null,"lon":-2.388998,"lat":56.087981}},{"type":"Feature","geometry":{"type":"Polygon","coordinates":[[[-2.408253,56.07945],[-2.408254,56.07936],[-2.408415,56.079361],[-2.408416,56.079271],[-2.408095,56.079269],[-2.408092,56.079449],[-2.408253,56.07945]]]},"properties":{"id":"scotland_2018-03-26_lgbm_10","region":"scotland","date":"2018-03-26","area_m2":300.0,"mean_prob":0.9477,"max_prob":0.9961,"model":"lgbm","n_px":3,"px_area_m2":100.0,"confirmed":false,"confirmed_by":null,"lon":-2.408227,"lat":56.079345}},{"type":"Feature","geometry":{"type":"Polygon","coordinates":[[[-2.356702,56.077934],[-2.356705,56.077754],[-2.356544,56.077753],[-2.356543,56.077843],[-2.356382,56.077842],[-2.356381,56.077932],[-2.356702,56.077934]]]},"properties":{"id":"scotland_2018-03-26_lgbm_11","region":"scotland","date":"2018-03-26","area_m2":300.0,"mean_prob":0.9804,"max_prob":0.9882,"model":"lgbm","n_px":3,"px_area_m2":100.0,"confirmed":false,"confirmed_by":null,"lon":-2.356569,"lat":56.077858}},{"type":"Feature","geometry":{"type":"Polygon","coordinates":[[[-2.453902,56.078133],[-2.453903,56.078043],[-2.453743,56.078042],[-2.453744,56.077952],[-2.453583,56.077951],[-2.453581,56.078131],[-2.453902,56.078133]]]},"properties":{"id":"scotland_2018-03-26_lgbm_12","region":"scotland","date":"2018-03-26","area_m2":300.0,"mean_prob":0.9948,"max_prob":1.0,"model":"lgbm","n_px":3,"px_area_m2":100.0,"confirmed":true,"confirmed_by":"mdd","lon":-2.453716,"lat":56.078057}},{"type":"Feature","geometry":{"type":"Polygon","coordinates":[[[-2.35206,56.076921],[-2.352061,56.076831],[-2.352222,56.076832],[-2.352223,56.076742],[-2.351902,56.076741],[-2.351899,56.07692],[-2.35206,56.076921]]]},"properties":{"id":"scotland_2018-03-26_lgbm_13","region":"scotland","date":"2018-03-26","area_m2":300.0,"mean_prob":0.9359,"max_prob":1.0,"model":"lgbm","n_px":3,"px_area_m2":100.0,"confirmed":false,"confirmed_by":null,"lon":-2.352035,"lat":56.076816}},{"type":"Feature","geometry":{"type":"Polygon","coordinates":[[[-2.383779,56.072591],[-2.383782,56.072411],[-2.383621,56.072411],[-2.38362,56.072501],[-2.383459,56.0725],[-2.383458,56.07259],[-2.383779,56.072591]]]},"properties":{"id":"scotland_2018-03-26_lgbm_14","region":"scotland","date":"2018-03-26","area_m2":300.0,"mean_prob":0.9974,"max_prob":1.0,"model":"lgbm","n_px":3,"px_area_m2":100.0,"confirmed":false,"confirmed_by":null,"lon":-2.383647,"lat":56.072516}},{"type":"Feature","geometry":{"type":"Polygon","coordinates":[[[-2.374172,56.070656],[-2.374175,56.070476],[-2.373854,56.070475],[-2.373851,56.070654],[-2.374172,56.070656]]]},"properties":{"id":"scotland_2018-03-26_lgbm_15","region":"scotland","date":"2018-03-26","area_m2":400.0,"mean_prob":0.9971,"max_prob":1.0,"model":"lgbm","n_px":4,"px_area_m2":100.0,"confirmed":false,"confirmed_by":null,"lon":-2.374013,"lat":56.070565}}]}