{"type": "FeatureCollection", "features": [{"type": "Feature", "id": "D-SZ-drift-nile-2025-11-13-001-6", "geometry": {"type": "Polygon", "coordinates": [[[30.4183726, 31.4810236], [30.4183751, 31.4809335], [30.4182699, 31.4809314], [30.4182724, 31.4808412], [30.4183776, 31.4808434], [30.4183751, 31.4809335], [30.4185854, 31.4809377], [30.4185879, 31.4808476], [30.4186931, 31.4808497], [30.4186881, 31.48103], [30.4183726, 31.4810236]]]}, "properties": {"kind": "detection", "det_id": "D-SZ-drift-nile-2025-11-13-001-6", "zone_id": "SZ-drift-nile-2025-11-13-001", "scene_id": "S2A_MSIL2A_20251113T084501_R064_T36RTV_20251113T110809", "datetime": "2025-11-13T08:45:01.024000Z", "n_pixels": 5, "area_m2": 500, "prob_max": 0.9529, "prob_mean": 0.8808, "threshold": 0.63, "in_strip": true, "artifact": "ship"}}, {"type": "Feature", "id": "D-SZ-drift-nile-2025-11-13-001-7", "geometry": {"type": "Polygon", "coordinates": [[[30.4171155, 31.4808179], [30.4171179, 31.4807278], [30.4172231, 31.4807299], [30.4172206, 31.48082], [30.4171155, 31.4808179]]]}, "properties": {"kind": "detection", "det_id": "D-SZ-drift-nile-2025-11-13-001-7", "zone_id": "SZ-drift-nile-2025-11-13-001", "scene_id": "S2A_MSIL2A_20251113T084501_R064_T36RTV_20251113T110809", "datetime": "2025-11-13T08:45:01.024000Z", "n_pixels": 1, "area_m2": 100, "prob_max": 0.6902, "prob_mean": 0.6902, "threshold": 0.63, "in_strip": true, "artifact": null}}, {"type": "Feature", "id": "D-SZ-drift-nile-2025-11-13-002-8", "geometry": {"type": "Polygon", "coordinates": [[[30.3967741, 31.4743634], [30.3967766, 31.4742732], [30.3969869, 31.4742775], [30.3969894, 31.4741874], [30.3970946, 31.4741895], [30.3970896, 31.4743698], [30.3967741, 31.4743634]]]}, "properties": {"kind": "detection", "det_id": "D-SZ-drift-nile-2025-11-13-002-8", "zone_id": "SZ-drift-nile-2025-11-13-002", "scene_id": "S2A_MSIL2A_20251113T084501_R064_T36RTV_20251113T110809", "datetime": "2025-11-13T08:45:01.024000Z", "n_pixels": 4, "area_m2": 400, "prob_max": 0.9216, "prob_mean": 0.8422, "threshold": 0.63, "in_strip": true, "artifact": "seam"}}, {"type": "Feature", "id": "D-SZ-drift-nile-2025-11-13-002-9", "geometry": {"type": "Polygon", "coordinates": [[[30.3973049, 31.4741938], [30.3973074, 31.4741037], [30.3974125, 31.4741058], [30.39741, 31.4741959], [30.3973049, 31.4741938]]]}, "properties": {"kind": "detection", "det_id": "D-SZ-drift-nile-2025-11-13-002-9", "zone_id": "SZ-drift-nile-2025-11-13-002", "scene_id": "S2A_MSIL2A_20251113T084501_R064_T36RTV_20251113T110809", "datetime": "2025-11-13T08:45:01.024000Z", "n_pixels": 1, "area_m2": 100, "prob_max": 0.8863, "prob_mean": 0.8863, "threshold": 0.63, "in_strip": true, "artifact": null}}]}