{"type": "FeatureCollection", "features": [{"type": "Feature", "id": "D-SZ-live-mumbai-2025-01-31-001-2", "geometry": {"type": "Polygon", "coordinates": [[[72.8820709, 19.3141607], [72.8820732, 19.3139801], [72.8821683, 19.3139812], [72.8821695, 19.3138909], [72.8822646, 19.313892], [72.8822635, 19.3139823], [72.8821683, 19.3139812], [72.882166, 19.3141618], [72.8820709, 19.3141607]]]}, "properties": {"kind": "detection", "det_id": "D-SZ-live-mumbai-2025-01-31-001-2", "zone_id": "SZ-live-mumbai-2025-01-31-001", "scene_id": "S2C_MSIL2A_20250131T054121_R005_T43QBB_20250131T124701", "datetime": "2025-01-31T05:41:21.025000Z", "n_pixels": 3, "area_m2": 300, "prob_max": 0.6824, "prob_mean": 0.6562, "threshold": 0.63, "in_strip": true, "artifact": null}}, {"type": "Feature", "id": "D-SZ-live-mumbai-2025-01-31-001-3", "geometry": {"type": "Polygon", "coordinates": [[[72.8822681, 19.3136211], [72.8822693, 19.3135307], [72.8823644, 19.3135318], [72.8823656, 19.3134415], [72.8825558, 19.3134437], [72.8825547, 19.3135341], [72.8824595, 19.3135329], [72.8824584, 19.3136233], [72.8822681, 19.3136211]]]}, "properties": {"kind": "detection", "det_id": "D-SZ-live-mumbai-2025-01-31-001-3", "zone_id": "SZ-live-mumbai-2025-01-31-001", "scene_id": "S2C_MSIL2A_20250131T054121_R005_T43QBB_20250131T124701", "datetime": "2025-01-31T05:41:21.025000Z", "n_pixels": 4, "area_m2": 400, "prob_max": 0.7059, "prob_mean": 0.6716, "threshold": 0.63, "in_strip": true, "artifact": null}}, {"type": "Feature", "id": "D-SZ-live-mumbai-2025-01-31-001-4", "geometry": {"type": "Polygon", "coordinates": [[[72.8825593, 19.3131728], [72.8825605, 19.3130825], [72.8826556, 19.3130836], [72.8826544, 19.3131739], [72.8825593, 19.3131728]]]}, "properties": {"kind": "detection", "det_id": "D-SZ-live-mumbai-2025-01-31-001-4", "zone_id": "SZ-live-mumbai-2025-01-31-001", "scene_id": "S2C_MSIL2A_20250131T054121_R005_T43QBB_20250131T124701", "datetime": "2025-01-31T05:41:21.025000Z", "n_pixels": 1, "area_m2": 100, "prob_max": 0.6431, "prob_mean": 0.6431, "threshold": 0.63, "in_strip": true, "artifact": null}}, {"type": "Feature", "id": "D-SZ-live-mumbai-2025-01-31-001-5", "geometry": {"type": "Polygon", "coordinates": [[[72.8827531, 19.3129041], [72.8827542, 19.3128138], [72.8828493, 19.3128149], [72.8828482, 19.3129052], [72.8827531, 19.3129041]]]}, "properties": {"kind": "detection", "det_id": "D-SZ-live-mumbai-2025-01-31-001-5", "zone_id": "SZ-live-mumbai-2025-01-31-001", "scene_id": "S2C_MSIL2A_20250131T054121_R005_T43QBB_20250131T124701", "datetime": "2025-01-31T05:41:21.025000Z", "n_pixels": 1, "area_m2": 100, "prob_max": 0.6314, "prob_mean": 0.6314, "threshold": 0.63, "in_strip": true, "artifact": null}}, {"type": "Feature", "id": "D-SZ-live-mumbai-2025-01-31-001-6", "geometry": {"type": "Polygon", "coordinates": [[[72.8830431, 19.3125461], [72.8830443, 19.3124558], [72.8831394, 19.3124569], [72.8831382, 19.3125472], [72.8830431, 19.3125461]]]}, "properties": {"kind": "detection", "det_id": "D-SZ-live-mumbai-2025-01-31-001-6", "zone_id": "SZ-live-mumbai-2025-01-31-001", "scene_id": "S2C_MSIL2A_20250131T054121_R005_T43QBB_20250131T124701", "datetime": "2025-01-31T05:41:21.025000Z", "n_pixels": 1, "area_m2": 100, "prob_max": 0.7098, "prob_mean": 0.7098, "threshold": 0.63, "in_strip": true, "artifact": null}}, {"type": "Feature", "id": "D-SZ-live-mumbai-2025-01-31-002-12", "geometry": {"type": "Polygon", "coordinates": [[[72.8895938, 19.2988022], [72.8895962, 19.2986216], [72.8896913, 19.2986227], [72.889689, 19.2988033], [72.8895938, 19.2988022]]]}, "properties": {"kind": "detection", "det_id": "D-SZ-live-mumbai-2025-01-31-002-12", "zone_id": "SZ-live-mumbai-2025-01-31-002", "scene_id": "S2C_MSIL2A_20250131T054121_R005_T43QBB_20250131T124701", "datetime": "2025-01-31T05:41:21.025000Z", "n_pixels": 2, "area_m2": 200, "prob_max": 0.702, "prob_mean": 0.6902, "threshold": 0.63, "in_strip": true, "artifact": null}}, {"type": "Feature", "id": "D-SZ-live-mumbai-2025-01-31-002-13", "geometry": {"type": "Polygon", "coordinates": [[[72.8905578, 19.2978198], [72.8905601, 19.2976392], [72.8906552, 19.2976403], [72.8906529, 19.2978209], [72.8905578, 19.2978198]]]}, "properties": {"kind": "detection", "det_id": "D-SZ-live-mumbai-2025-01-31-002-13", "zone_id": "SZ-live-mumbai-2025-01-31-002", "scene_id": "S2C_MSIL2A_20250131T054121_R005_T43QBB_20250131T124701", "datetime": "2025-01-31T05:41:21.025000Z", "n_pixels": 2, "area_m2": 200, "prob_max": 0.6941, "prob_mean": 0.6863, "threshold": 0.63, "in_strip": true, "artifact": null}}, {"type": "Feature", "id": "D-SZ-live-mumbai-2025-01-31-002-15", "geometry": {"type": "Polygon", "coordinates": [[[72.89143, 19.2965653], [72.8914312, 19.296475], [72.8915263, 19.2964761], [72.8915275, 19.2963858], [72.8916226, 19.2963869], [72.8916214, 19.2964772], [72.8915263, 19.2964761], [72.8915251, 19.2965664], [72.89143, 19.2965653]]]}, "properties": {"kind": "detection", "det_id": "D-SZ-live-mumbai-2025-01-31-002-15", "zone_id": "SZ-live-mumbai-2025-01-31-002", "scene_id": "S2C_MSIL2A_20250131T054121_R005_T43QBB_20250131T124701", "datetime": "2025-01-31T05:41:21.025000Z", "n_pixels": 2, "area_m2": 200, "prob_max": 0.8078, "prob_mean": 0.8, "threshold": 0.63, "in_strip": true, "artifact": null}}, {"type": "Feature", "id": "D-SZ-live-mumbai-2025-01-31-003-17", "geometry": {"type": "Polygon", "coordinates": [[[72.7771614, 19.2909644], [72.7771626, 19.2908741], [72.7772577, 19.2908753], [72.7772565, 19.2909656], [72.7771614, 19.2909644]]]}, "properties": {"kind": "detection", "det_id": "D-SZ-live-mumbai-2025-01-31-003-17", "zone_id": "SZ-live-mumbai-2025-01-31-003", "scene_id": "S2C_MSIL2A_20250131T054121_R005_T43QBB_20250131T124701", "datetime": "2025-01-31T05:41:21.025000Z", "n_pixels": 1, "area_m2": 100, "prob_max": 0.8157, "prob_mean": 0.8157, "threshold": 0.63, "in_strip": true, "artifact": null}}, {"type": "Feature", "id": "D-SZ-live-mumbai-2025-01-31-003-18", "geometry": {"type": "Polygon", "coordinates": [[[72.77831, 19.2904365], [72.7783112, 19.2903462], [72.7784063, 19.2903473], [72.7784051, 19.2904376], [72.77831, 19.2904365]]]}, "properties": {"kind": "detection", "det_id": "D-SZ-live-mumbai-2025-01-31-003-18", "zone_id": "SZ-live-mumbai-2025-01-31-003", "scene_id": "S2C_MSIL2A_20250131T054121_R005_T43QBB_20250131T124701", "datetime": "2025-01-31T05:41:21.025000Z", "n_pixels": 1, "area_m2": 100, "prob_max": 0.6706, "prob_mean": 0.6706, "threshold": 0.63, "in_strip": true, "artifact": null}}, {"type": "Feature", "id": "D-SZ-live-mumbai-2025-01-31-003-19", "geometry": {"type": "Polygon", "coordinates": [[[72.7775565, 19.2898854], [72.7775577, 19.2897951], [72.7776528, 19.2897962], [72.7776516, 19.2898865], [72.7775565, 19.2898854]]]}, "properties": {"kind": "detection", "det_id": "D-SZ-live-mumbai-2025-01-31-003-19", "zone_id": "SZ-live-mumbai-2025-01-31-003", "scene_id": "S2C_MSIL2A_20250131T054121_R005_T43QBB_20250131T124701", "datetime": "2025-01-31T05:41:21.025000Z", "n_pixels": 1, "area_m2": 100, "prob_max": 0.8902, "prob_mean": 0.8902, "threshold": 0.63, "in_strip": true, "artifact": null}}, {"type": "Feature", "id": "D-SZ-live-mumbai-2025-01-31-003-21", "geometry": {"type": "Polygon", "coordinates": [[[72.7796549, 19.2894593], [72.7796561, 19.289369], [72.7797512, 19.2893702], [72.77975, 19.2894605], [72.7796549, 19.2894593]]]}, "properties": {"kind": "detection", "det_id": "D-SZ-live-mumbai-2025-01-31-003-21", "zone_id": "SZ-live-mumbai-2025-01-31-003", "scene_id": "S2C_MSIL2A_20250131T054121_R005_T43QBB_20250131T124701", "datetime": "2025-01-31T05:41:21.025000Z", "n_pixels": 1, "area_m2": 100, "prob_max": 0.6902, "prob_mean": 0.6902, "threshold": 0.63, "in_strip": true, "artifact": null}}, {"type": "Feature", "id": "D-SZ-live-mumbai-2025-01-31-003-22", "geometry": {"type": "Polygon", "coordinates": [[[72.7748082, 19.2891293], [72.7748094, 19.289039], [72.7749045, 19.2890402], [72.7749033, 19.2891305], [72.7748082, 19.2891293]]]}, "properties": {"kind": "detection", "det_id": "D-SZ-live-mumbai-2025-01-31-003-22", "zone_id": "SZ-live-mumbai-2025-01-31-003", "scene_id": "S2C_MSIL2A_20250131T054121_R005_T43QBB_20250131T124701", "datetime": "2025-01-31T05:41:21.025000Z", "n_pixels": 1, "area_m2": 100, "prob_max": 0.6627, "prob_mean": 0.6627, "threshold": 0.63, "in_strip": true, "artifact": null}}, {"type": "Feature", "id": "D-SZ-live-mumbai-2025-01-31-003-23", "geometry": {"type": "Polygon", "coordinates": [[[72.7804218, 19.289017], [72.780423, 19.2889267], [72.7805181, 19.2889279], [72.7805169, 19.2890182], [72.7804218, 19.289017]]]}, "properties": {"kind": "detection", "det_id": "D-SZ-live-mumbai-2025-01-31-003-23", "zone_id": "SZ-live-mumbai-2025-01-31-003", "scene_id": "S2C_MSIL2A_20250131T054121_R005_T43QBB_20250131T124701", "datetime": "2025-01-31T05:41:21.025000Z", "n_pixels": 1, "area_m2": 100, "prob_max": 0.8549, "prob_mean": 0.8549, "threshold": 0.63, "in_strip": true, "artifact": null}}, {"type": "Feature", "id": "D-SZ-live-mumbai-2025-01-31-003-24", "geometry": {"type": "Polygon", "coordinates": [[[72.7805254, 19.2883861], [72.7805267, 19.2882957], [72.7806218, 19.2882969], [72.7806206, 19.2883872], [72.7805254, 19.2883861]]]}, "properties": {"kind": "detection", "det_id": "D-SZ-live-mumbai-2025-01-31-003-24", "zone_id": "SZ-live-mumbai-2025-01-31-003", "scene_id": "S2C_MSIL2A_20250131T054121_R005_T43QBB_20250131T124701", "datetime": "2025-01-31T05:41:21.025000Z", "n_pixels": 1, "area_m2": 100, "prob_max": 0.7176, "prob_mean": 0.7176, "threshold": 0.63, "in_strip": true, "artifact": null}}, {"type": "Feature", "id": "D-SZ-live-mumbai-2025-01-31-003-25", "geometry": {"type": "Polygon", "coordinates": [[[72.7811924, 19.2883038], [72.7811936, 19.2882135], [72.7812887, 19.2882147], [72.7812875, 19.288305], [72.7811924, 19.2883038]]]}, "properties": {"kind": "detection", "det_id": "D-SZ-live-mumbai-2025-01-31-003-25", "zone_id": "SZ-live-mumbai-2025-01-31-003", "scene_id": "S2C_MSIL2A_20250131T054121_R005_T43QBB_20250131T124701", "datetime": "2025-01-31T05:41:21.025000Z", "n_pixels": 1, "area_m2": 100, "prob_max": 0.6392, "prob_mean": 0.6392, "threshold": 0.63, "in_strip": true, "artifact": null}}, {"type": "Feature", "id": "D-SZ-live-mumbai-2025-01-31-003-26", "geometry": {"type": "Polygon", "coordinates": [[[72.7789123, 19.2880955], [72.7789135, 19.2880052], [72.7791037, 19.2880075], [72.7791025, 19.2880978], [72.7789123, 19.2880955]]]}, "properties": {"kind": "detection", "det_id": "D-SZ-live-mumbai-2025-01-31-003-26", "zone_id": "SZ-live-mumbai-2025-01-31-003", "scene_id": "S2C_MSIL2A_20250131T054121_R005_T43QBB_20250131T124701", "datetime": "2025-01-31T05:41:21.025000Z", "n_pixels": 2, "area_m2": 200, "prob_max": 0.8157, "prob_mean": 0.7588, "threshold": 0.63, "in_strip": true, "artifact": null}}, {"type": "Feature", "id": "D-SZ-live-mumbai-2025-01-31-003-27", "geometry": {"type": "Polygon", "coordinates": [[[72.7784417, 19.2877285], [72.7784429, 19.2876382], [72.778538, 19.2876393], [72.7785368, 19.2877296], [72.7784417, 19.2877285]]]}, "properties": {"kind": "detection", "det_id": "D-SZ-live-mumbai-2025-01-31-003-27", "zone_id": "SZ-live-mumbai-2025-01-31-003", "scene_id": "S2C_MSIL2A_20250131T054121_R005_T43QBB_20250131T124701", "datetime": "2025-01-31T05:41:21.025000Z", "n_pixels": 1, "area_m2": 100, "prob_max": 0.7294, "prob_mean": 0.7294, "threshold": 0.63, "in_strip": true, "artifact": null}}, {"type": "Feature", "id": "D-SZ-live-mumbai-2025-01-31-003-28", "geometry": {"type": "Polygon", "coordinates": [[[72.7751154, 19.2875073], [72.7751167, 19.287417], [72.7753069, 19.2874193], [72.7753056, 19.2875096], [72.7751154, 19.2875073]]]}, "properties": {"kind": "detection", "det_id": "D-SZ-live-mumbai-2025-01-31-003-28", "zone_id": "SZ-live-mumbai-2025-01-31-003", "scene_id": "S2C_MSIL2A_20250131T054121_R005_T43QBB_20250131T124701", "datetime": "2025-01-31T05:41:21.025000Z", "n_pixels": 2, "area_m2": 200, "prob_max": 0.7725, "prob_mean": 0.7451, "threshold": 0.63, "in_strip": true, "artifact": null}}, {"type": "Feature", "id": "D-SZ-live-mumbai-2025-01-31-003-29", "geometry": {"type": "Polygon", "coordinates": [[[72.7774955, 19.2873557], [72.7774967, 19.2872654], [72.7775918, 19.2872665], [72.7775906, 19.2873568], [72.7774955, 19.2873557]]]}, "properties": {"kind": "detection", "det_id": "D-SZ-live-mumbai-2025-01-31-003-29", "zone_id": "SZ-live-mumbai-2025-01-31-003", "scene_id": "S2C_MSIL2A_20250131T054121_R005_T43QBB_20250131T124701", "datetime": "2025-01-31T05:41:21.025000Z", "n_pixels": 1, "area_m2": 100, "prob_max": 0.651, "prob_mean": 0.651, "threshold": 0.63, "in_strip": true, "artifact": null}}, {"type": "Feature", "id": "D-SZ-live-mumbai-2025-01-31-003-30", "geometry": {"type": "Polygon", "coordinates": [[[72.7768541, 19.2855414], [72.7768554, 19.2854511], [72.7769505, 19.2854523], [72.7769493, 19.2855426], [72.7768541, 19.2855414]]]}, "properties": {"kind": "detection", "det_id": "D-SZ-live-mumbai-2025-01-31-003-30", "zone_id": "SZ-live-mumbai-2025-01-31-003", "scene_id": "S2C_MSIL2A_20250131T054121_R005_T43QBB_20250131T124701", "datetime": "2025-01-31T05:41:21.025000Z", "n_pixels": 1, "area_m2": 100, "prob_max": 0.8902, "prob_mean": 0.8902, "threshold": 0.63, "in_strip": true, "artifact": null}}, {"type": "Feature", "id": "D-SZ-live-mumbai-2025-01-31-003-31", "geometry": {"type": "Polygon", "coordinates": [[[72.7761043, 19.2847194], [72.7761067, 19.2845388], [72.7762018, 19.28454], [72.7761994, 19.2847206], [72.7761043, 19.2847194]]]}, "properties": {"kind": "detection", "det_id": "D-SZ-live-mumbai-2025-01-31-003-31", "zone_id": "SZ-live-mumbai-2025-01-31-003", "scene_id": "S2C_MSIL2A_20250131T054121_R005_T43QBB_20250131T124701", "datetime": "2025-01-31T05:41:21.025000Z", "n_pixels": 2, "area_m2": 200, "prob_max": 0.7843, "prob_mean": 0.7804, "threshold": 0.63, "in_strip": true, "artifact": null}}, {"type": "Feature", "id": "D-SZ-live-mumbai-2025-01-31-003-32", "geometry": {"type": "Polygon", "coordinates": [[[72.776514, 19.2825567], [72.7765152, 19.2824664], [72.7766103, 19.2824676], [72.7766091, 19.2825579], [72.776514, 19.2825567]]]}, "properties": {"kind": "detection", "det_id": "D-SZ-live-mumbai-2025-01-31-003-32", "zone_id": "SZ-live-mumbai-2025-01-31-003", "scene_id": "S2C_MSIL2A_20250131T054121_R005_T43QBB_20250131T124701", "datetime": "2025-01-31T05:41:21.025000Z", "n_pixels": 1, "area_m2": 100, "prob_max": 0.7608, "prob_mean": 0.7608, "threshold": 0.63, "in_strip": true, "artifact": null}}, {"type": "Feature", "id": "D-SZ-live-mumbai-2025-01-31-003-33", "geometry": {"type": "Polygon", "coordinates": [[[72.7779612, 19.2810389], [72.7779624, 19.2809486], [72.7780575, 19.2809497], [72.7780563, 19.2810401], [72.7779612, 19.2810389]]]}, "properties": {"kind": "detection", "det_id": "D-SZ-live-mumbai-2025-01-31-003-33", "zone_id": "SZ-live-mumbai-2025-01-31-003", "scene_id": "S2C_MSIL2A_20250131T054121_R005_T43QBB_20250131T124701", "datetime": "2025-01-31T05:41:21.025000Z", "n_pixels": 1, "area_m2": 100, "prob_max": 0.6667, "prob_mean": 0.6667, "threshold": 0.63, "in_strip": true, "artifact": null}}, {"type": "Feature", "id": "D-SZ-live-mumbai-2025-01-31-004-20", "geometry": {"type": "Polygon", "coordinates": [[[72.7650087, 19.2892806], [72.7650136, 19.2889194], [72.7652038, 19.2889217], [72.7652025, 19.289012], [72.7651074, 19.2890109], [72.7651038, 19.2892818], [72.7650087, 19.2892806]]]}, "properties": {"kind": "detection", "det_id": "D-SZ-live-mumbai-2025-01-31-004-20", "zone_id": "SZ-live-mumbai-2025-01-31-004", "scene_id": "S2C_MSIL2A_20250131T054121_R005_T43QBB_20250131T124701", "datetime": "2025-01-31T05:41:21.025000Z", "n_pixels": 5, "area_m2": 500, "prob_max": 0.8784, "prob_mean": 0.7663, "threshold": 0.63, "in_strip": true, "artifact": null}}, {"type": "Feature", "id": "D-SZ-live-mumbai-2025-01-31-005-44", "geometry": {"type": "Polygon", "coordinates": [[[72.779473, 19.2394194], [72.7794754, 19.2392388], [72.7796656, 19.2392411], [72.7796643, 19.2393314], [72.7798545, 19.2393337], [72.7798533, 19.239424], [72.779473, 19.2394194]]]}, "properties": {"kind": "detection", "det_id": "D-SZ-live-mumbai-2025-01-31-005-44", "zone_id": "SZ-live-mumbai-2025-01-31-005", "scene_id": "S2C_MSIL2A_20250131T054121_R005_T43QBB_20250131T124701", "datetime": "2025-01-31T05:41:21.025000Z", "n_pixels": 6, "area_m2": 600, "prob_max": 0.9294, "prob_mean": 0.7863, "threshold": 0.63, "in_strip": true, "artifact": null}}]}