{"type": "FeatureCollection", "features": [{"type": "Feature", "id": "SZ-live-mumbai-2025-01-31-001", "geometry": {"type": "Polygon", "coordinates": [[[72.880738, 19.314236], [72.880943, 19.313064], [72.882202, 19.311362], [72.883157, 19.311102], [72.884291, 19.311657], [72.884566, 19.312473], [72.884464, 19.313014], [72.883687, 19.31427], [72.880738, 19.314236]]]}, "properties": {"kind": "detection_zone", "layer_kind": "scene_zone", "zone_id": "SZ-live-mumbai-2025-01-31-001", "scene_key": "live-mumbai-2025-01-31", "scene_kind": "live", "scene_id": "S2C_MSIL2A_20250131T054121_R005_T43QBB_20250131T124701", "region": "mumbai", "title": "Мумбаи (устье Ульхаса, крики Васаи и Малад) · зона 1", "mission": "Sentinel-2", "datetime": "2025-01-31T05:41:21.025000Z", "detection_status": "insufficient_data", "status": "insufficient_data", "concentration_status": "unavailable", "verification": "false_alarm_signs", "training_scene": null, "flags": ["ship", "glint"], "n_cozar_filaments": 0, "crop_file": "crops/SZ-live-mumbai-2025-01-31-001.jpg", "measured": {"zone_area_km2": 0.1025, "suspicious_area_m2": 1000, "n_pixels": 10, "n_objects": 5, "water_km2": 0.1031, "lwd_m2_km2": 9699.3, "quality": {"valid_water_fraction": 1.0, "cloud_fraction": 0.0, "glint_fraction": 0.0}, "model": {"weights": "weights/lgbm", "file": "weights/lgbm/model.txt", "sha256": "0eeebf43fcccd8c7c07f053b7ec723229d1a3c9b92d12eec1bdb269258c51470", "sha256_short": "0eeebf43fccc", "trained_at": "2026-09-25T01:35:55Z", "threshold": 0.63, "harmonize": "none", "class": "MARIDA Marine Debris (любой плавающий мусор, не только пластик)"}}, "probable": {"prob_max": 0.71, "prob_mean": 0.664, "signs": {"foam": {"flag": false, "white_ratio_b2_b8": -0.007, "wind10m_ms": 2.3, "rule": "прирост B2 над водой ≥ 0.8 прироста B8 («белый» спектр) или ветер ≥ 7.0 м/с"}, "glint": {"flag": true, "b11_water_median": 0.0119, "glint_share": 0.0, "rule": "медиана B11 воды зоны > 0.01 или ≥ 20 % пикселей зоны — блик (маска качества)"}, "ship": {"flag": true, "share": 0, "bright_target_px_within_500m": 145, "rule": "≥ 30 % пикселей — у яркой цели или кильватера (reports/artifacts.md) или яркая цель с откликом в SWIR (судно, лодка: B11 ≥ 0,015) ближе 500 м"}, "coast": {"flag": false, "land_px_within_300m": 0, "rule": "суша (маска качества) ближе 300 м — прибой, кромка берега"}, "shallow": {"flag": false, "b3_water_zone": 0.0768, "b3_ratio_to_scene_water": 0.99, "rule": "медиана B3 воды зоны ≥ 2× медианы воды снимка и ≥ 0,03 — мелководье или мутная вода"}, "seam": {"flag": false, "share": 0, "rule": "≥ 30 % пикселей — прямая линия вдоль трека/границы яркости (шов)"}, "note": "эвристики, не классификатор; на размеченных данных не проверены"}, "n_cozar_filaments": 0}, "field_nearby": {"items": [{"source": "ADIS (4TU.ResearchData, судовая камера)", "segment_id": 300006, "ship": "Antsiva", "date": "2022-02-09", "days_from_scene": -1087, "distance_km": 4813.4, "lon": 55.23624, "lat": -21.01039, "n_items": 0, "area_km2": 0.0496, "size_class": "> 5 см", "c_items_km2": 0.0, "ci95_lo": 0.0, "ci95_hi": 74.33, "ci95_method": "точный интервал Пуассона для N, делённый на A"}, {"source": "ADIS (4TU.ResearchData, судовая камера)", "segment_id": 300002, "ship": "Antsiva", "date": "2022-02-09", "days_from_scene": -1087, "distance_km": 4816.3, "lon": 55.20634, "lat": -21.02717, "n_items": 0, "area_km2": 0.0925, "size_class": "> 5 см", "c_items_km2": 0.0, "ci95_lo": 0.0, "ci95_hi": 39.89, "ci95_method": "точный интервал Пуассона для N, делённый на A"}, {"source": "ADIS (4TU.ResearchData, судовая камера)", "segment_id": 300001, "ship": "Antsiva", "date": "2022-02-09", "days_from_scene": -1087, "distance_km": 4822.2, "lon": 55.21375, "lat": -21.08772, "n_items": 0, "area_km2": 0.2, "size_class": "> 5 см", "c_items_km2": 0.0, "ci95_lo": 0.0, "ci95_hi": 18.45, "ci95_method": "точный интервал Пуассона для N, делённый на A"}], "nearest_organizer_sample": {"sample_id": "MPL-0922", "source_id": "S4_BLACK_SEA_DOORS3", "distance_km": 4112.4}, "note": "Измерение ≠ оценка: это независимые полевые счёты C = N/A в другое время и в другом месте; со сценой они не связаны и не калибруют её. Ближайший отрезок ADIS — за 4813 км: только для порядка величин."}}}, {"type": "Feature", "id": "SZ-live-mumbai-2025-01-31-002", "geometry": {"type": "Polygon", "coordinates": [[[72.889576, 19.300157], [72.888724, 19.299876], [72.888256, 19.299238], [72.888169, 19.298605], [72.888465, 19.297796], [72.889232, 19.297353], [72.889718, 19.296546], [72.8901, 19.29646], [72.890105, 19.296008], [72.890685, 19.295292], [72.891545, 19.295031], [72.892493, 19.295313], [72.893049, 19.296403], [72.892752, 19.297303], [72.891985, 19.297836], [72.891784, 19.298647], [72.891017, 19.29909], [72.890531, 19.299897], [72.889576, 19.300157]]]}, "properties": {"kind": "detection_zone", "layer_kind": "scene_zone", "zone_id": "SZ-live-mumbai-2025-01-31-002", "scene_key": "live-mumbai-2025-01-31", "scene_kind": "live", "scene_id": "S2C_MSIL2A_20250131T054121_R005_T43QBB_20250131T124701", "region": "mumbai", "title": "Мумбаи (устье Ульхаса, крики Васаи и Малад) · зона 2", "mission": "Sentinel-2", "datetime": "2025-01-31T05:41:21.025000Z", "detection_status": "insufficient_data", "status": "insufficient_data", "concentration_status": "unavailable", "verification": "false_alarm_signs", "training_scene": null, "flags": ["ship", "coast", "glint"], "n_cozar_filaments": 0, "crop_file": "crops/SZ-live-mumbai-2025-01-31-002.jpg", "measured": {"zone_area_km2": 0.166, "suspicious_area_m2": 600, "n_pixels": 6, "n_objects": 3, "water_km2": 0.1639, "lwd_m2_km2": 3660.8, "quality": {"valid_water_fraction": 0.977, "cloud_fraction": 0.0, "glint_fraction": 0.0}, "model": {"weights": "weights/lgbm", "file": "weights/lgbm/model.txt", "sha256": "0eeebf43fcccd8c7c07f053b7ec723229d1a3c9b92d12eec1bdb269258c51470", "sha256_short": "0eeebf43fccc", "trained_at": "2026-09-25T01:35:55Z", "threshold": 0.63, "harmonize": "none", "class": "MARIDA Marine Debris (любой плавающий мусор, не только пластик)"}}, "probable": {"prob_max": 0.808, "prob_mean": 0.725, "signs": {"foam": {"flag": false, "white_ratio_b2_b8": -0.093, "wind10m_ms": 2.3, "rule": "прирост B2 над водой ≥ 0.8 прироста B8 («белый» спектр) или ветер ≥ 7.0 м/с"}, "glint": {"flag": true, "b11_water_median": 0.0107, "glint_share": 0.0, "rule": "медиана B11 воды зоны > 0.01 или ≥ 20 % пикселей зоны — блик (маска качества)"}, "ship": {"flag": true, "share": 0, "bright_target_px_within_500m": 911, "rule": "≥ 30 % пикселей — у яркой цели или кильватера (reports/artifacts.md) или яркая цель с откликом в SWIR (судно, лодка: B11 ≥ 0,015) ближе 500 м"}, "coast": {"flag": true, "land_px_within_300m": 480, "rule": "суша (маска качества) ближе 300 м — прибой, кромка берега"}, "shallow": {"flag": false, "b3_water_zone": 0.0704, "b3_ratio_to_scene_water": 0.91, "rule": "медиана B3 воды зоны ≥ 2× медианы воды снимка и ≥ 0,03 — мелководье или мутная вода"}, "seam": {"flag": false, "share": 0, "rule": "≥ 30 % пикселей — прямая линия вдоль трека/границы яркости (шов)"}, "note": "эвристики, не классификатор; на размеченных данных не проверены"}, "n_cozar_filaments": 0}, "field_nearby": {"items": [{"source": "ADIS (4TU.ResearchData, судовая камера)", "segment_id": 300006, "ship": "Antsiva", "date": "2022-02-09", "days_from_scene": -1087, "distance_km": 4813.4, "lon": 55.23624, "lat": -21.01039, "n_items": 0, "area_km2": 0.0496, "size_class": "> 5 см", "c_items_km2": 0.0, "ci95_lo": 0.0, "ci95_hi": 74.33, "ci95_method": "точный интервал Пуассона для N, делённый на A"}, {"source": "ADIS (4TU.ResearchData, судовая камера)", "segment_id": 300002, "ship": "Antsiva", "date": "2022-02-09", "days_from_scene": -1087, "distance_km": 4816.3, "lon": 55.20634, "lat": -21.02717, "n_items": 0, "area_km2": 0.0925, "size_class": "> 5 см", "c_items_km2": 0.0, "ci95_lo": 0.0, "ci95_hi": 39.89, "ci95_method": "точный интервал Пуассона для N, делённый на A"}, {"source": "ADIS (4TU.ResearchData, судовая камера)", "segment_id": 300001, "ship": "Antsiva", "date": "2022-02-09", "days_from_scene": -1087, "distance_km": 4822.2, "lon": 55.21375, "lat": -21.08772, "n_items": 0, "area_km2": 0.2, "size_class": "> 5 см", "c_items_km2": 0.0, "ci95_lo": 0.0, "ci95_hi": 18.45, "ci95_method": "точный интервал Пуассона для N, делённый на A"}], "nearest_organizer_sample": {"sample_id": "MPL-0922", "source_id": "S4_BLACK_SEA_DOORS3", "distance_km": 4112.4}, "note": "Измерение ≠ оценка: это независимые полевые счёты C = N/A в другое время и в другом месте; со сценой они не связаны и не калибруют её. Ближайший отрезок ADIS — за 4813 км: только для порядка величин."}}}, {"type": "Feature", "id": "SZ-live-mumbai-2025-01-31-003", "geometry": {"type": "Polygon", "coordinates": [[[72.777143, 19.292319], [72.776291, 19.292038], [72.775824, 19.2914], [72.775736, 19.290857], [72.776224, 19.289959], [72.776131, 19.289778], [72.775362, 19.290401], [72.774316, 19.290388], [72.773656, 19.289928], [72.773383, 19.289022], [72.773871, 19.288124], [72.77369, 19.2874], [72.773986, 19.28659], [72.774658, 19.286147], [72.775609, 19.286159], [72.774952, 19.285518], [72.774678, 19.284702], [72.774976, 19.283712], [72.775456, 19.283447], [72.775087, 19.282539], [72.77519, 19.281999], [72.775674, 19.281372], [72.776629, 19.281113], [72.776637, 19.280481], [72.777121, 19.279855], [72.778076, 19.279595], [72.778928, 19.279876], [72.779484, 19.280967], [72.779187, 19.281867], [72.778515, 19.28231], [72.778039, 19.282304], [72.777739, 19.283385], [72.77726, 19.28365], [72.777537, 19.284285], [72.778288, 19.285017], [72.778178, 19.286099], [72.779409, 19.286566], [72.779973, 19.287025], [72.781781, 19.286956], [72.782441, 19.287416], [72.782714, 19.288322], [72.782418, 19.289132], [72.781747, 19.289485], [72.781358, 19.290112], [72.780208, 19.290731], [72.779733, 19.290725], [72.779246, 19.291532], [72.778388, 19.291702], [72.778098, 19.29206], [72.777143, 19.292319]], [[72.776134, 19.289597], [72.776226, 19.289779], [72.776229, 19.289598], [72.776134, 19.289597]], [[72.776235, 19.289147], [72.776327, 19.289328], [72.77633, 19.289148], [72.776235, 19.289147]], [[72.77633, 19.289148], [72.777003, 19.288614], [72.776532, 19.288247], [72.776148, 19.288513], [72.77633, 19.289148]]]}, "properties": {"kind": "detection_zone", "layer_kind": "scene_zone", "zone_id": "SZ-live-mumbai-2025-01-31-003", "scene_key": "live-mumbai-2025-01-31", "scene_kind": "live", "scene_id": "S2C_MSIL2A_20250131T054121_R005_T43QBB_20250131T124701", "region": "mumbai", "title": "Мумбаи (устье Ульхаса, крики Васаи и Малад) · зона 3", "mission": "Sentinel-2", "datetime": "2025-01-31T05:41:21.025000Z", "detection_status": "insufficient_data", "status": "insufficient_data", "concentration_status": "unavailable", "verification": "false_alarm_signs", "training_scene": null, "flags": ["ship", "coast", "glint"], "n_cozar_filaments": 0, "crop_file": "crops/SZ-live-mumbai-2025-01-31-003.jpg", "measured": {"zone_area_km2": 0.6633, "suspicious_area_m2": 1900, "n_pixels": 19, "n_objects": 16, "water_km2": 0.6605, "lwd_m2_km2": 2876.6, "quality": {"valid_water_fraction": 0.991, "cloud_fraction": 0.0, "glint_fraction": 0.0}, "model": {"weights": "weights/lgbm", "file": "weights/lgbm/model.txt", "sha256": "0eeebf43fcccd8c7c07f053b7ec723229d1a3c9b92d12eec1bdb269258c51470", "sha256_short": "0eeebf43fccc", "trained_at": "2026-09-25T01:35:55Z", "threshold": 0.63, "harmonize": "none", "class": "MARIDA Marine Debris (любой плавающий мусор, не только пластик)"}}, "probable": {"prob_max": 0.89, "prob_mean": 0.748, "signs": {"foam": {"flag": false, "white_ratio_b2_b8": 0.136, "wind10m_ms": 2.3, "rule": "прирост B2 над водой ≥ 0.8 прироста B8 («белый» спектр) или ветер ≥ 7.0 м/с"}, "glint": {"flag": true, "b11_water_median": 0.0107, "glint_share": 0.0, "rule": "медиана B11 воды зоны > 0.01 или ≥ 20 % пикселей зоны — блик (маска качества)"}, "ship": {"flag": true, "share": 0, "bright_target_px_within_500m": 952, "rule": "≥ 30 % пикселей — у яркой цели или кильватера (reports/artifacts.md) или яркая цель с откликом в SWIR (судно, лодка: B11 ≥ 0,015) ближе 500 м"}, "coast": {"flag": true, "land_px_within_300m": 67, "rule": "суша (маска качества) ближе 300 м — прибой, кромка берега"}, "shallow": {"flag": false, "b3_water_zone": 0.0798, "b3_ratio_to_scene_water": 1.03, "rule": "медиана B3 воды зоны ≥ 2× медианы воды снимка и ≥ 0,03 — мелководье или мутная вода"}, "seam": {"flag": false, "share": 0, "rule": "≥ 30 % пикселей — прямая линия вдоль трека/границы яркости (шов)"}, "note": "эвристики, не классификатор; на размеченных данных не проверены"}, "n_cozar_filaments": 0}, "field_nearby": {"items": [{"source": "ADIS (4TU.ResearchData, судовая камера)", "segment_id": 300006, "ship": "Antsiva", "date": "2022-02-09", "days_from_scene": -1087, "distance_km": 4813.4, "lon": 55.23624, "lat": -21.01039, "n_items": 0, "area_km2": 0.0496, "size_class": "> 5 см", "c_items_km2": 0.0, "ci95_lo": 0.0, "ci95_hi": 74.33, "ci95_method": "точный интервал Пуассона для N, делённый на A"}, {"source": "ADIS (4TU.ResearchData, судовая камера)", "segment_id": 300002, "ship": "Antsiva", "date": "2022-02-09", "days_from_scene": -1087, "distance_km": 4816.3, "lon": 55.20634, "lat": -21.02717, "n_items": 0, "area_km2": 0.0925, "size_class": "> 5 см", "c_items_km2": 0.0, "ci95_lo": 0.0, "ci95_hi": 39.89, "ci95_method": "точный интервал Пуассона для N, делённый на A"}, {"source": "ADIS (4TU.ResearchData, судовая камера)", "segment_id": 300001, "ship": "Antsiva", "date": "2022-02-09", "days_from_scene": -1087, "distance_km": 4822.2, "lon": 55.21375, "lat": -21.08772, "n_items": 0, "area_km2": 0.2, "size_class": "> 5 см", "c_items_km2": 0.0, "ci95_lo": 0.0, "ci95_hi": 18.45, "ci95_method": "точный интервал Пуассона для N, делённый на A"}], "nearest_organizer_sample": {"sample_id": "MPL-0922", "source_id": "S4_BLACK_SEA_DOORS3", "distance_km": 4112.4}, "note": "Измерение ≠ оценка: это независимые полевые счёты C = N/A в другое время и в другом месте; со сценой они не связаны и не калибруют её. Ближайший отрезок ADIS — за 4813 км: только для порядка величин."}}}, {"type": "Feature", "id": "SZ-live-mumbai-2025-01-31-004", "geometry": {"type": "Polygon", "coordinates": [[[72.76499, 19.290635], [72.763856, 19.290079], [72.763587, 19.288902], [72.764172, 19.287825], [72.765222, 19.287567], [72.766356, 19.288123], [72.766629, 19.289029], [72.766234, 19.290108], [72.765562, 19.290552], [72.76499, 19.290635]]]}, "properties": {"kind": "detection_zone", "layer_kind": "scene_zone", "zone_id": "SZ-live-mumbai-2025-01-31-004", "scene_key": "live-mumbai-2025-01-31", "scene_kind": "live", "scene_id": "S2C_MSIL2A_20250131T054121_R005_T43QBB_20250131T124701", "region": "mumbai", "title": "Мумбаи (устье Ульхаса, крики Васаи и Малад) · зона 4", "mission": "Sentinel-2", "datetime": "2025-01-31T05:41:21.025000Z", "detection_status": "insufficient_data", "status": "insufficient_data", "concentration_status": "unavailable", "verification": "false_alarm_signs", "training_scene": null, "flags": ["ship"], "n_cozar_filaments": 0, "crop_file": "crops/SZ-live-mumbai-2025-01-31-004.jpg", "measured": {"zone_area_km2": 0.0799, "suspicious_area_m2": 500, "n_pixels": 5, "n_objects": 1, "water_km2": 0.082, "lwd_m2_km2": 6097.6, "quality": {"valid_water_fraction": 1.0, "cloud_fraction": 0.0, "glint_fraction": 0.0}, "model": {"weights": "weights/lgbm", "file": "weights/lgbm/model.txt", "sha256": "0eeebf43fcccd8c7c07f053b7ec723229d1a3c9b92d12eec1bdb269258c51470", "sha256_short": "0eeebf43fccc", "trained_at": "2026-09-25T01:35:55Z", "threshold": 0.63, "harmonize": "none", "class": "MARIDA Marine Debris (любой плавающий мусор, не только пластик)"}}, "probable": {"prob_max": 0.878, "prob_mean": 0.766, "signs": {"foam": {"flag": false, "white_ratio_b2_b8": 0.31, "wind10m_ms": 2.3, "rule": "прирост B2 над водой ≥ 0.8 прироста B8 («белый» спектр) или ветер ≥ 7.0 м/с"}, "glint": {"flag": false, "b11_water_median": 0.0084, "glint_share": 0.0, "rule": "медиана B11 воды зоны > 0.01 или ≥ 20 % пикселей зоны — блик (маска качества)"}, "ship": {"flag": true, "share": 0, "bright_target_px_within_500m": 55, "rule": "≥ 30 % пикселей — у яркой цели или кильватера (reports/artifacts.md) или яркая цель с откликом в SWIR (судно, лодка: B11 ≥ 0,015) ближе 500 м"}, "coast": {"flag": false, "land_px_within_300m": 0, "rule": "суша (маска качества) ближе 300 м — прибой, кромка берега"}, "shallow": {"flag": false, "b3_water_zone": 0.0795, "b3_ratio_to_scene_water": 1.03, "rule": "медиана B3 воды зоны ≥ 2× медианы воды снимка и ≥ 0,03 — мелководье или мутная вода"}, "seam": {"flag": false, "share": 0, "rule": "≥ 30 % пикселей — прямая линия вдоль трека/границы яркости (шов)"}, "note": "эвристики, не классификатор; на размеченных данных не проверены"}, "n_cozar_filaments": 0}, "field_nearby": {"items": [{"source": "ADIS (4TU.ResearchData, судовая камера)", "segment_id": 300006, "ship": "Antsiva", "date": "2022-02-09", "days_from_scene": -1087, "distance_km": 4813.4, "lon": 55.23624, "lat": -21.01039, "n_items": 0, "area_km2": 0.0496, "size_class": "> 5 см", "c_items_km2": 0.0, "ci95_lo": 0.0, "ci95_hi": 74.33, "ci95_method": "точный интервал Пуассона для N, делённый на A"}, {"source": "ADIS (4TU.ResearchData, судовая камера)", "segment_id": 300002, "ship": "Antsiva", "date": "2022-02-09", "days_from_scene": -1087, "distance_km": 4816.3, "lon": 55.20634, "lat": -21.02717, "n_items": 0, "area_km2": 0.0925, "size_class": "> 5 см", "c_items_km2": 0.0, "ci95_lo": 0.0, "ci95_hi": 39.89, "ci95_method": "точный интервал Пуассона для N, делённый на A"}, {"source": "ADIS (4TU.ResearchData, судовая камера)", "segment_id": 300001, "ship": "Antsiva", "date": "2022-02-09", "days_from_scene": -1087, "distance_km": 4822.2, "lon": 55.21375, "lat": -21.08772, "n_items": 0, "area_km2": 0.2, "size_class": "> 5 см", "c_items_km2": 0.0, "ci95_lo": 0.0, "ci95_hi": 18.45, "ci95_method": "точный интервал Пуассона для N, делённый на A"}], "nearest_organizer_sample": {"sample_id": "MPL-0922", "source_id": "S4_BLACK_SEA_DOORS3", "distance_km": 4112.4}, "note": "Измерение ≠ оценка: это независимые полевые счёты C = N/A в другое время и в другом месте; со сценой они не связаны и не калибруют её. Ближайший отрезок ADIS — за 4813 км: только для порядка величин."}}}, {"type": "Feature", "id": "SZ-live-mumbai-2025-01-31-005", "geometry": {"type": "Polygon", "coordinates": [[[72.779455, 19.240774], [72.778321, 19.240218], [72.778049, 19.239221], [72.778634, 19.238145], [72.779684, 19.237886], [72.780725, 19.23826], [72.781192, 19.238898], [72.781279, 19.239441], [72.780694, 19.240518], [72.779455, 19.240774]]]}, "properties": {"kind": "detection_zone", "layer_kind": "scene_zone", "zone_id": "SZ-live-mumbai-2025-01-31-005", "scene_key": "live-mumbai-2025-01-31", "scene_kind": "live", "scene_id": "S2C_MSIL2A_20250131T054121_R005_T43QBB_20250131T124701", "region": "mumbai", "title": "Мумбаи (устье Ульхаса, крики Васаи и Малад) · зона 5", "mission": "Sentinel-2", "datetime": "2025-01-31T05:41:21.025000Z", "detection_status": "insufficient_data", "status": "insufficient_data", "concentration_status": "unavailable", "verification": "false_alarm_signs", "training_scene": null, "flags": ["ship", "coast", "glint"], "n_cozar_filaments": 0, "crop_file": "crops/SZ-live-mumbai-2025-01-31-005.jpg", "measured": {"zone_area_km2": 0.08, "suspicious_area_m2": 600, "n_pixels": 6, "n_objects": 1, "water_km2": 0.0409, "lwd_m2_km2": 14669.9, "quality": {"valid_water_fraction": 0.498, "cloud_fraction": 0.0, "glint_fraction": 0.0}, "model": {"weights": "weights/lgbm", "file": "weights/lgbm/model.txt", "sha256": "0eeebf43fcccd8c7c07f053b7ec723229d1a3c9b92d12eec1bdb269258c51470", "sha256_short": "0eeebf43fccc", "trained_at": "2026-09-25T01:35:55Z", "threshold": 0.63, "harmonize": "none", "class": "MARIDA Marine Debris (любой плавающий мусор, не только пластик)"}}, "probable": {"prob_max": 0.929, "prob_mean": 0.786, "signs": {"foam": {"flag": false, "white_ratio_b2_b8": -0.29, "wind10m_ms": 2.3, "rule": "прирост B2 над водой ≥ 0.8 прироста B8 («белый» спектр) или ветер ≥ 7.0 м/с"}, "glint": {"flag": true, "b11_water_median": 0.0116, "glint_share": 0.0, "rule": "медиана B11 воды зоны > 0.01 или ≥ 20 % пикселей зоны — блик (маска качества)"}, "ship": {"flag": true, "share": 0, "bright_target_px_within_500m": 366, "rule": "≥ 30 % пикселей — у яркой цели или кильватера (reports/artifacts.md) или яркая цель с откликом в SWIR (судно, лодка: B11 ≥ 0,015) ближе 500 м"}, "coast": {"flag": true, "land_px_within_300m": 1414, "rule": "суша (маска качества) ближе 300 м — прибой, кромка берега"}, "shallow": {"flag": false, "b3_water_zone": 0.0732, "b3_ratio_to_scene_water": 0.95, "rule": "медиана B3 воды зоны ≥ 2× медианы воды снимка и ≥ 0,03 — мелководье или мутная вода"}, "seam": {"flag": false, "share": 0, "rule": "≥ 30 % пикселей — прямая линия вдоль трека/границы яркости (шов)"}, "note": "эвристики, не классификатор; на размеченных данных не проверены"}, "n_cozar_filaments": 0}, "field_nearby": {"items": [{"source": "ADIS (4TU.ResearchData, судовая камера)", "segment_id": 300006, "ship": "Antsiva", "date": "2022-02-09", "days_from_scene": -1087, "distance_km": 4813.4, "lon": 55.23624, "lat": -21.01039, "n_items": 0, "area_km2": 0.0496, "size_class": "> 5 см", "c_items_km2": 0.0, "ci95_lo": 0.0, "ci95_hi": 74.33, "ci95_method": "точный интервал Пуассона для N, делённый на A"}, {"source": "ADIS (4TU.ResearchData, судовая камера)", "segment_id": 300002, "ship": "Antsiva", "date": "2022-02-09", "days_from_scene": -1087, "distance_km": 4816.3, "lon": 55.20634, "lat": -21.02717, "n_items": 0, "area_km2": 0.0925, "size_class": "> 5 см", "c_items_km2": 0.0, "ci95_lo": 0.0, "ci95_hi": 39.89, "ci95_method": "точный интервал Пуассона для N, делённый на A"}, {"source": "ADIS (4TU.ResearchData, судовая камера)", "segment_id": 300001, "ship": "Antsiva", "date": "2022-02-09", "days_from_scene": -1087, "distance_km": 4822.2, "lon": 55.21375, "lat": -21.08772, "n_items": 0, "area_km2": 0.2, "size_class": "> 5 см", "c_items_km2": 0.0, "ci95_lo": 0.0, "ci95_hi": 18.45, "ci95_method": "точный интервал Пуассона для N, делённый на A"}], "nearest_organizer_sample": {"sample_id": "MPL-0922", "source_id": "S4_BLACK_SEA_DOORS3", "distance_km": 4112.4}, "note": "Измерение ≠ оценка: это независимые полевые счёты C = N/A в другое время и в другом месте; со сценой они не связаны и не калибруют её. Ближайший отрезок ADIS — за 4813 км: только для порядка величин."}}}]}