{"type": "FeatureCollection", "features": [{"type": "Feature", "id": "D-SZ-fresh-accra-2026-09-09-001-13", "geometry": {"type": "Polygon", "coordinates": [[[-0.1395627, 5.5180454], [-0.1395631, 5.517955], [-0.1393828, 5.5179542], [-0.1393823, 5.5180445], [-0.1395627, 5.5180454]]]}, "properties": {"kind": "detection", "det_id": "D-SZ-fresh-accra-2026-09-09-001-13", "zone_id": "SZ-fresh-accra-2026-09-09-001", "scene_id": "S2B_MSIL2A_20260909T101019_R022_T30NZM_20260909T153404", "datetime": "2026-09-09T10:10:19.024000Z", "n_pixels": 2, "area_m2": 200, "prob_max": 0.9804, "prob_mean": 0.8569, "threshold": 0.63, "in_strip": true, "artifact": null}}, {"type": "Feature", "id": "D-SZ-fresh-accra-2026-09-09-001-14", "geometry": {"type": "Polygon", "coordinates": [[[-0.1374068, 5.5163183], [-0.1374077, 5.5161376], [-0.1373175, 5.5161372], [-0.1373167, 5.5163179], [-0.1374068, 5.5163183]]]}, "properties": {"kind": "detection", "det_id": "D-SZ-fresh-accra-2026-09-09-001-14", "zone_id": "SZ-fresh-accra-2026-09-09-001", "scene_id": "S2B_MSIL2A_20260909T101019_R022_T30NZM_20260909T153404", "datetime": "2026-09-09T10:10:19.024000Z", "n_pixels": 2, "area_m2": 200, "prob_max": 0.9882, "prob_mean": 0.9294, "threshold": 0.63, "in_strip": true, "artifact": null}}, {"type": "Feature", "id": "D-SZ-fresh-accra-2026-09-09-001-15", "geometry": {"type": "Polygon", "coordinates": [[[-0.1363287, 5.5154999], [-0.1363291, 5.5154096], [-0.136239, 5.5154091], [-0.1362385, 5.5154995], [-0.1363287, 5.5154999]]]}, "properties": {"kind": "detection", "det_id": "D-SZ-fresh-accra-2026-09-09-001-15", "zone_id": "SZ-fresh-accra-2026-09-09-001", "scene_id": "S2B_MSIL2A_20260909T101019_R022_T30NZM_20260909T153404", "datetime": "2026-09-09T10:10:19.024000Z", "n_pixels": 1, "area_m2": 100, "prob_max": 0.9882, "prob_mean": 0.9882, "threshold": 0.63, "in_strip": true, "artifact": null}}, {"type": "Feature", "id": "D-SZ-fresh-accra-2026-09-09-001-16", "geometry": {"type": "Polygon", "coordinates": [[[-0.1361488, 5.5154087], [-0.1361492, 5.5153184], [-0.1360591, 5.5153179], [-0.1360586, 5.5154083], [-0.1361488, 5.5154087]]]}, "properties": {"kind": "detection", "det_id": "D-SZ-fresh-accra-2026-09-09-001-16", "zone_id": "SZ-fresh-accra-2026-09-09-001", "scene_id": "S2B_MSIL2A_20260909T101019_R022_T30NZM_20260909T153404", "datetime": "2026-09-09T10:10:19.024000Z", "n_pixels": 1, "area_m2": 100, "prob_max": 0.9176, "prob_mean": 0.9176, "threshold": 0.63, "in_strip": true, "artifact": null}}]}