{"type": "FeatureCollection", "features": [{"type": "Feature", "id": "SZ-live-lagos-2025-11-10-000", "geometry": {"type": "Polygon", "coordinates": [[[3.513633, 6.186788], [3.513633, 6.413292], [3.286717, 6.413292], [3.286717, 6.186788], [3.513633, 6.186788]]]}, "properties": {"kind": "detection_zone", "layer_kind": "scene_zone", "zone_id": "SZ-live-lagos-2025-11-10-000", "scene_key": "live-lagos-2025-11-10", "scene_kind": "live", "scene_id": "S2B_MSIL2A_20251110T100139_R122_T31NEG_20251110T134828", "region": "lagos", "title": "Лагос (вход в лагуну, порт Апапа) · вся вырезка", "mission": "Sentinel-2", "datetime": "2025-11-10T10:01:39.024000Z", "detection_status": "not_detected", "status": "not_detected", "concentration_status": "unavailable", "wind_high": false, "quantity": {"status": "not_confirmed", "label": "концентрация по снимку не подтверждена", "detail": "перевод площади в штуки не показываем: нет калибровочных пар (см. docs/QUANTITY.md)"}, "flags": [], "n_cozar_filaments": 0, "measured": {"zone_area_km2": 628.935, "suspicious_area_m2": 0, "n_pixels": 0, "n_objects": 0, "water_km2": 324.107, "lwd_m2_km2": 0.0, "lwd_note": null, "quality": {"valid_water_fraction": 0.517, "cloud_fraction": 0.118, "glint_fraction": 0.0}, "model": {"weights": "weights/lgbm", "file": "weights/lgbm/model.txt", "sha256": "0eeebf43fcccd8c7c07f053b7ec723229d1a3c9b92d12eec1bdb269258c51470", "sha256_short": "0eeebf43fccc", "trained_at": "2026-09-25T01:35:55Z", "threshold": 0.63, "harmonize": "none", "class": "MARIDA Marine Debris (любой плавающий мусор, не только пластик)"}}, "probable": {"prob_max": 0.349, "prob_mean": null, "signs": null, "n_cozar_filaments": 0}, "field_nearby": {"items": [{"source": "ADIS (4TU.ResearchData, судовая камера)", "segment_id": 337065, "ship": "Bark Europa", "date": "2022-10-07", "days_from_scene": -1130, "distance_km": 3027.6, "lon": -21.48811, "lat": 17.6784, "n_items": 0, "area_km2": 0.3604, "size_class": "> 5 см", "c_items_km2": 0.0, "ci95_lo": 0.0, "ci95_hi": 10.23, "ci95_method": "точный интервал Пуассона для N, делённый на A", "raw_10cm_items_km2": 0.0, "authors_cal_10cm_items_km2": 0.0, "authors_cal_10cm_lo95": null, "authors_cal_10cm_hi95": null}, {"source": "ADIS (4TU.ResearchData, судовая камера)", "segment_id": 337353, "ship": "Bark Europa", "date": "2022-10-07", "days_from_scene": -1130, "distance_km": 3027.9, "lon": -21.47132, "lat": 17.72132, "n_items": 0, "area_km2": 0.3605, "size_class": "> 5 см", "c_items_km2": 0.0, "ci95_lo": 0.0, "ci95_hi": 10.23, "ci95_method": "точный интервал Пуассона для N, делённый на A", "raw_10cm_items_km2": 0.0, "authors_cal_10cm_items_km2": 0.0, "authors_cal_10cm_lo95": null, "authors_cal_10cm_hi95": null}, {"source": "ADIS (4TU.ResearchData, судовая камера)", "segment_id": 337354, "ship": "Bark Europa", "date": "2022-10-07", "days_from_scene": -1130, "distance_km": 3028.0, "lon": -21.50922, "lat": 17.64136, "n_items": 0, "area_km2": 0.3604, "size_class": "> 5 см", "c_items_km2": 0.0, "ci95_lo": 0.0, "ci95_hi": 10.23, "ci95_method": "точный интервал Пуассона для N, делённый на A", "raw_10cm_items_km2": 0.0, "authors_cal_10cm_items_km2": 0.0, "authors_cal_10cm_lo95": null, "authors_cal_10cm_hi95": null}], "nearest_organizer_sample": {"sample_id": "MPL-0935", "source_id": "S4_BLACK_SEA_DOORS3", "distance_km": 4994.7}, "note": "Измерение ≠ оценка: это независимые полевые счёты C = N/A в другое время и в другом месте; со сценой они не связаны и не калибруют её. Ближайший отрезок ADIS — за 3028 км: только для порядка величин."}}}]}