{"type":"FeatureCollection","features":[{"type":"Feature","geometry":{"type":"Polygon","coordinates":[[[-43.146667,-22.709401],[-43.146665,-22.709582],[-43.146567,-22.709581],[-43.14657,-22.7094],[-43.146667,-22.709401]]]},"properties":{"id":"guanabara_2025-06-26_lgbm_0","region":"guanabara","date":"2025-06-26","area_m2":200.0,"mean_prob":0.998,"max_prob":1.0,"model":"lgbm","n_px":2,"px_area_m2":100.0,"confirmed":false,"confirmed_by":null,"lon":-43.146617,"lat":-22.709491}},{"type":"Feature","geometry":{"type":"Polygon","coordinates":[[[-43.165882,-22.713686],[-43.165881,-22.713777],[-43.165687,-22.713774],[-43.165688,-22.713684],[-43.165882,-22.713686]]]},"properties":{"id":"guanabara_2025-06-26_lgbm_1","region":"guanabara","date":"2025-06-26","area_m2":200.0,"mean_prob":0.9333,"max_prob":0.9882,"model":"lgbm","n_px":2,"px_area_m2":100.0,"confirmed":false,"confirmed_by":null,"lon":-43.165784,"lat":-22.71373}},{"type":"Feature","geometry":{"type":"Polygon","coordinates":[[[-43.173216,-22.718556],[-43.173213,-22.718737],[-43.173116,-22.718736],[-43.173118,-22.718555],[-43.173216,-22.718556]]]},"properties":{"id":"guanabara_2025-06-26_lgbm_2","region":"guanabara","date":"2025-06-26","area_m2":200.0,"mean_prob":0.998,"max_prob":1.0,"model":"lgbm","n_px":2,"px_area_m2":100.0,"confirmed":false,"confirmed_by":null,"lon":-43.173166,"lat":-22.718646}},{"type":"Feature","geometry":{"type":"Polygon","coordinates":[[[-43.173396,-22.719642],[-43.173393,-22.719823],[-43.173296,-22.719822],[-43.173298,-22.719641],[-43.173396,-22.719642]]]},"properties":{"id":"guanabara_2025-06-26_lgbm_3","region":"guanabara","date":"2025-06-26","area_m2":200.0,"mean_prob":0.8451,"max_prob":0.9882,"model":"lgbm","n_px":2,"px_area_m2":100.0,"confirmed":false,"confirmed_by":null,"lon":-43.173346,"lat":-22.719732}},{"type":"Feature","geometry":{"type":"Polygon","coordinates":[[[-43.173103,-22.719729],[-43.173101,-22.719819],[-43.172907,-22.719817],[-43.172908,-22.719727],[-43.173103,-22.719729]]]},"properties":{"id":"guanabara_2025-06-26_lgbm_4","region":"guanabara","date":"2025-06-26","area_m2":200.0,"mean_prob":0.9863,"max_prob":1.0,"model":"lgbm","n_px":2,"px_area_m2":100.0,"confirmed":false,"confirmed_by":null,"lon":-43.173005,"lat":-22.719773}},{"type":"Feature","geometry":{"type":"Polygon","coordinates":[[[-43.174365,-22.719924],[-43.174364,-22.720015],[-43.174267,-22.720013],[-43.174266,-22.720104],[-43.174168,-22.720103],[-43.174171,-22.719922],[-43.174365,-22.719924]]]},"properties":{"id":"guanabara_2025-06-26_lgbm_5","region":"guanabara","date":"2025-06-26","area_m2":300.0,"mean_prob":0.9608,"max_prob":0.9961,"model":"lgbm","n_px":3,"px_area_m2":100.0,"confirmed":false,"confirmed_by":null,"lon":-43.174251,"lat":-22.719998}},{"type":"Feature","geometry":{"type":"Polygon","coordinates":[[[-43.173488,-22.720004],[-43.173486,-22.720185],[-43.173291,-22.720183],[-43.173292,-22.720093],[-43.17339,-22.720094],[-43.173391,-22.720003],[-43.173488,-22.720004]]]},"properties":{"id":"guanabara_2025-06-26_lgbm_6","region":"guanabara","date":"2025-06-26","area_m2":300.0,"mean_prob":0.9673,"max_prob":0.9961,"model":"lgbm","n_px":3,"px_area_m2":100.0,"confirmed":false,"confirmed_by":null,"lon":-43.173406,"lat":-22.720109}},{"type":"Feature","geometry":{"type":"Polygon","coordinates":[[[-43.173778,-22.720188],[-43.173777,-22.720279],[-43.173582,-22.720276],[-43.173583,-22.720186],[-43.173778,-22.720188]]]},"properties":{"id":"guanabara_2025-06-26_lgbm_7","region":"guanabara","date":"2025-06-26","area_m2":200.0,"mean_prob":0.9804,"max_prob":1.0,"model":"lgbm","n_px":2,"px_area_m2":100.0,"confirmed":false,"confirmed_by":null,"lon":-43.17368,"lat":-22.720232}},{"type":"Feature","geometry":{"type":"Polygon","coordinates":[[[-43.184348,-22.723289],[-43.184345,-22.723469],[-43.184248,-22.723468],[-43.18425,-22.723288],[-43.184348,-22.723289]]]},"properties":{"id":"guanabara_2025-06-26_lgbm_8","region":"guanabara","date":"2025-06-26","area_m2":200.0,"mean_prob":0.998,"max_prob":1.0,"model":"lgbm","n_px":2,"px_area_m2":100.0,"confirmed":false,"confirmed_by":null,"lon":-43.184298,"lat":-22.723379}},{"type":"Feature","geometry":{"type":"Polygon","coordinates":[[[-43.177813,-22.724208],[-43.177811,-22.724388],[-43.177616,-22.724386],[-43.177618,-22.724206],[-43.177813,-22.724208]]]},"properties":{"id":"guanabara_2025-06-26_lgbm_9","region":"guanabara","date":"2025-06-26","area_m2":400.0,"mean_prob":0.8853,"max_prob":0.9961,"model":"lgbm","n_px":4,"px_area_m2":100.0,"confirmed":false,"confirmed_by":null,"lon":-43.177715,"lat":-22.724297}},{"type":"Feature","geometry":{"type":"Polygon","coordinates":[[[-43.178976,-22.724582],[-43.178975,-22.724673],[-43.17878,-22.72467],[-43.178782,-22.72458],[-43.178976,-22.724582]]]},"properties":{"id":"guanabara_2025-06-26_lgbm_10","region":"guanabara","date":"2025-06-26","area_m2":200.0,"mean_prob":0.9941,"max_prob":1.0,"model":"lgbm","n_px":2,"px_area_m2":100.0,"confirmed":false,"confirmed_by":null,"lon":-43.178878,"lat":-22.724626}},{"type":"Feature","geometry":{"type":"Polygon","coordinates":[[[-43.179067,-22.725125],[-43.179064,-22.725306],[-43.178869,-22.725304],[-43.178872,-22.725123],[-43.179067,-22.725125]]]},"properties":{"id":"guanabara_2025-06-26_lgbm_11","region":"guanabara","date":"2025-06-26","area_m2":400.0,"mean_prob":0.9922,"max_prob":0.9961,"model":"lgbm","n_px":4,"px_area_m2":100.0,"confirmed":false,"confirmed_by":null,"lon":-43.178968,"lat":-22.725214}},{"type":"Feature","geometry":{"type":"Polygon","coordinates":[[[-43.178671,-22.725572],[-43.17867,-22.725663],[-43.178767,-22.725664],[-43.178766,-22.725754],[-43.178669,-22.725753],[-43.17867,-22.725663],[-43.178475,-22.72566],[-43.178477,-22.72557],[-43.178671,-22.725572]]]},"properties":{"id":"guanabara_2025-06-26_lgbm_12","region":"guanabara","date":"2025-06-26","area_m2":300.0,"mean_prob":0.9908,"max_prob":1.0,"model":"lgbm","n_px":3,"px_area_m2":100.0,"confirmed":false,"confirmed_by":null,"lon":-43.178622,"lat":-22.725647}},{"type":"Feature","geometry":{"type":"Polygon","coordinates":[[[-43.179059,-22.725667],[-43.179057,-22.725848],[-43.17896,-22.725846],[-43.178962,-22.725666],[-43.179059,-22.725667]]]},"properties":{"id":"guanabara_2025-06-26_lgbm_13","region":"guanabara","date":"2025-06-26","area_m2":200.0,"mean_prob":0.9882,"max_prob":0.9922,"model":"lgbm","n_px":2,"px_area_m2":100.0,"confirmed":false,"confirmed_by":null,"lon":-43.179009,"lat":-22.725757}},{"type":"Feature","geometry":{"type":"Polygon","coordinates":[[[-43.200753,-22.726816],[-43.200752,-22.726906],[-43.200655,-22.726905],[-43.200653,-22.726995],[-43.200556,-22.726994],[-43.200555,-22.727084],[-43.200652,-22.727086],[-43.200651,-22.727176],[-43.200554,-22.727175],[-43.200555,-22.727084],[-43.200457,-22.727083],[-43.200461,-22.726812],[-43.200753,-22.726816]]]},"properties":{"id":"guanabara_2025-06-26_lgbm_14","region":"guanabara","date":"2025-06-26","area_m2":700.0,"mean_prob":0.7866,"max_prob":0.9608,"model":"lgbm","n_px":7,"px_area_m2":100.0,"artifact":"seam","confirmed":false,"confirmed_by":null,"lon":-43.200577,"lat":-22.726949}},{"type":"Feature","geometry":{"type":"Polygon","coordinates":[[[-43.197518,-22.728495],[-43.197517,-22.728585],[-43.197712,-22.728588],[-43.197711,-22.728678],[-43.197516,-22.728676],[-43.197515,-22.728766],[-43.197418,-22.728765],[-43.197416,-22.728855],[-43.197319,-22.728854],[-43.197318,-22.728944],[-43.197026,-22.728941],[-43.197031,-22.72858],[-43.197128,-22.728581],[-43.197129,-22.728491],[-43.197518,-22.728495]]]},"properties":{"id":"guanabara_2025-06-26_lgbm_15","region":"guanabara","date":"2025-06-26","area_m2":2300.0,"mean_prob":0.8953,"max_prob":1.0,"model":"lgbm","n_px":23,"px_area_m2":100.0,"confirmed":false,"confirmed_by":null,"lon":-43.197289,"lat":-22.728699}},{"type":"Feature","geometry":{"type":"Polygon","coordinates":[[[-43.094147,-22.727567],[-43.094143,-22.727838],[-43.094046,-22.727836],[-43.09405,-22.727566],[-43.094147,-22.727567]]]},"properties":{"id":"guanabara_2025-06-26_lgbm_16","region":"guanabara","date":"2025-06-26","area_m2":300.0,"mean_prob":0.9242,"max_prob":0.9961,"model":"lgbm","n_px":3,"px_area_m2":100.0,"confirmed":true,"confirmed_by":"mdd","lon":-43.094096,"lat":-22.727702}},{"type":"Feature","geometry":{"type":"Polygon","coordinates":[[[-43.197217,-22.729214],[-43.197216,-22.729304],[-43.197021,-22.729302],[-43.197022,-22.729212],[-43.197217,-22.729214]]]},"properties":{"id":"guanabara_2025-06-26_lgbm_17","region":"guanabara","date":"2025-06-26","area_m2":200.0,"mean_prob":0.8745,"max_prob":0.9804,"model":"lgbm","n_px":2,"px_area_m2":100.0,"artifact":"ship","confirmed":false,"confirmed_by":null,"lon":-43.197119,"lat":-22.729258}},{"type":"Feature","geometry":{"type":"Polygon","coordinates":[[[-43.200328,-22.72952],[-43.200327,-22.72961],[-43.200424,-22.729612],[-43.200423,-22.729702],[-43.200521,-22.729703],[-43.200519,-22.729793],[-43.200617,-22.729794],[-43.200616,-22.729885],[-43.200129,-22.729879],[-43.200131,-22.729699],[-43.200326,-22.729701],[-43.200327,-22.72961],[-43.20023,-22.729609],[-43.200231,-22.729519],[-43.200328,-22.72952]],[[-43.200423,-22.729702],[-43.200326,-22.729701],[-43.200325,-22.729791],[-43.200422,-22.729792],[-43.200423,-22.729702]]]},"properties":{"id":"guanabara_2025-06-26_lgbm_18","region":"guanabara","date":"2025-06-26","area_m2":1000.0,"mean_prob":0.6949,"max_prob":0.8,"model":"lgbm","n_px":10,"px_area_m2":100.0,"confirmed":false,"confirmed_by":null,"lon":-43.200345,"lat":-22.729764}},{"type":"Feature","geometry":{"type":"Polygon","coordinates":[[[-43.035483,-22.731913],[-43.035482,-22.732003],[-43.035579,-22.732005],[-43.035577,-22.732185],[-43.035771,-22.732188],[-43.03577,-22.732278],[-43.035867,-22.732279],[-43.035866,-22.732369],[-43.035963,-22.73237],[-43.035962,-22.732461],[-43.036059,-22.732462],[-43.036057,-22.732643],[-43.035862,-22.73264],[-43.035861,-22.73273],[-43.035763,-22.732729],[-43.035765,-22.732639],[-43.03557,-22.732637],[-43.035571,-22.732546],[-43.035377,-22.732544],[-43.035378,-22.732454],[-43.03567,-22.732457],[-43.035671,-22.732367],[-43.035379,-22.732363],[-43.035382,-22.732183],[-43.035479,-22.732184],[-43.035482,-22.732003],[-43.035384,-22.732002],[-43.035386,-22.731912],[-43.035483,-22.731913]]]},"properties":{"id":"guanabara_2025-06-26_lgbm_19","region":"guanabara","date":"2025-06-26","area_m2":2800.0,"mean_prob":0.8776,"max_prob":0.9961,"model":"lgbm","n_px":28,"px_area_m2":100.0,"confirmed":false,"confirmed_by":null,"lon":-43.035688,"lat":-22.732396}},{"type":"Feature","geometry":{"type":"Polygon","coordinates":[[[-43.110249,-22.745909],[-43.110246,-22.746089],[-43.110052,-22.746087],[-43.110053,-22.745997],[-43.109956,-22.745996],[-43.109957,-22.745905],[-43.110249,-22.745909]]]},"properties":{"id":"guanabara_2025-06-26_lgbm_20","region":"guanabara","date":"2025-06-26","area_m2":500.0,"mean_prob":0.9655,"max_prob":0.9961,"model":"lgbm","n_px":5,"px_area_m2":100.0,"confirmed":false,"confirmed_by":null,"lon":-43.110121,"lat":-22.745989}},{"type":"Feature","geometry":{"type":"Polygon","coordinates":[[[-43.090711,-22.750643],[-43.090709,-22.750824],[-43.090611,-22.750822],[-43.090614,-22.750642],[-43.090711,-22.750643]]]},"properties":{"id":"guanabara_2025-06-26_lgbm_21","region":"guanabara","date":"2025-06-26","area_m2":200.0,"mean_prob":0.8804,"max_prob":0.8902,"model":"lgbm","n_px":2,"px_area_m2":100.0,"confirmed":false,"confirmed_by":null,"lon":-43.090661,"lat":-22.750733}},{"type":"Feature","geometry":{"type":"Polygon","coordinates":[[[-43.046782,-22.752008],[-43.04678,-22.752098],[-43.04717,-22.752103],[-43.047167,-22.752284],[-43.046973,-22.752281],[-43.046974,-22.752191],[-43.046877,-22.75219],[-43.046875,-22.75228],[-43.046291,-22.752273],[-43.046292,-22.752183],[-43.04639,-22.752184],[-43.046392,-22.752003],[-43.046782,-22.752008]]]},"properties":{"id":"guanabara_2025-06-26_lgbm_22","region":"guanabara","date":"2025-06-26","area_m2":2000.0,"mean_prob":0.9078,"max_prob":0.9961,"model":"lgbm","n_px":20,"px_area_m2":100.0,"confirmed":false,"confirmed_by":null,"lon":-43.046711,"lat":-22.752161}},{"type":"Feature","geometry":{"type":"Polygon","coordinates":[[[-43.047365,-22.752105],[-43.047362,-22.752286],[-43.047265,-22.752285],[-43.047267,-22.752104],[-43.047365,-22.752105]]]},"properties":{"id":"guanabara_2025-06-26_lgbm_23","region":"guanabara","date":"2025-06-26","area_m2":200.0,"mean_prob":0.8255,"max_prob":0.8627,"model":"lgbm","n_px":2,"px_area_m2":100.0,"confirmed":false,"confirmed_by":null,"lon":-43.047315,"lat":-22.752195}},{"type":"Feature","geometry":{"type":"Polygon","coordinates":[[[-43.128407,-22.756598],[-43.128405,-22.756778],[-43.128307,-22.756777],[-43.12831,-22.756597],[-43.128407,-22.756598]]]},"properties":{"id":"guanabara_2025-06-26_lgbm_24","region":"guanabara","date":"2025-06-26","area_m2":200.0,"mean_prob":0.8667,"max_prob":0.9216,"model":"lgbm","n_px":2,"px_area_m2":100.0,"confirmed":false,"confirmed_by":null,"lon":-43.128357,"lat":-22.756687}},{"type":"Feature","geometry":{"type":"Polygon","coordinates":[[[-43.059413,-22.760741],[-43.059412,-22.760831],[-43.059217,-22.760828],[-43.059218,-22.760738],[-43.059413,-22.760741]]]},"properties":{"id":"guanabara_2025-06-26_lgbm_25","region":"guanabara","date":"2025-06-26","area_m2":200.0,"mean_prob":0.9961,"max_prob":1.0,"model":"lgbm","n_px":2,"px_area_m2":100.0,"confirmed":false,"confirmed_by":null,"lon":-43.059315,"lat":-22.760785}},{"type":"Feature","geometry":{"type":"Polygon","coordinates":[[[-43.114022,-22.761847],[-43.114021,-22.761937],[-43.114118,-22.761938],[-43.114117,-22.762028],[-43.113922,-22.762026],[-43.113924,-22.761845],[-43.114022,-22.761847]]]},"properties":{"id":"guanabara_2025-06-26_lgbm_26","region":"guanabara","date":"2025-06-26","area_m2":300.0,"mean_prob":0.9529,"max_prob":1.0,"model":"lgbm","n_px":3,"px_area_m2":100.0,"confirmed":false,"confirmed_by":null,"lon":-43.114004,"lat":-22.761952}},{"type":"Feature","geometry":{"type":"Polygon","coordinates":[[[-43.069432,-22.761404],[-43.06943,-22.761584],[-43.069333,-22.761583],[-43.069335,-22.761403],[-43.069432,-22.761404]]]},"properties":{"id":"guanabara_2025-06-26_lgbm_27","region":"guanabara","date":"2025-06-26","area_m2":200.0,"mean_prob":0.902,"max_prob":0.9647,"model":"lgbm","n_px":2,"px_area_m2":100.0,"confirmed":false,"confirmed_by":null,"lon":-43.069382,"lat":-22.761494}},{"type":"Feature","geometry":{"type":"Polygon","coordinates":[[[-43.069526,-22.761676],[-43.069523,-22.761856],[-43.069426,-22.761855],[-43.069429,-22.761675],[-43.069526,-22.761676]]]},"properties":{"id":"guanabara_2025-06-26_lgbm_28","region":"guanabara","date":"2025-06-26","area_m2":200.0,"mean_prob":0.9941,"max_prob":0.9961,"model":"lgbm","n_px":2,"px_area_m2":100.0,"confirmed":false,"confirmed_by":null,"lon":-43.069476,"lat":-22.761766}},{"type":"Feature","geometry":{"type":"Polygon","coordinates":[[[-43.099699,-22.769533],[-43.099698,-22.769623],[-43.099503,-22.769621],[-43.099505,-22.769531],[-43.099699,-22.769533]]]},"properties":{"id":"guanabara_2025-06-26_lgbm_29","region":"guanabara","date":"2025-06-26","area_m2":200.0,"mean_prob":0.9725,"max_prob":0.9765,"model":"lgbm","n_px":2,"px_area_m2":100.0,"confirmed":false,"confirmed_by":null,"lon":-43.099601,"lat":-22.769577}},{"type":"Feature","geometry":{"type":"Polygon","coordinates":[[[-43.174359,-22.771669],[-43.174357,-22.771849],[-43.174162,-22.771847],[-43.174165,-22.771667],[-43.174359,-22.771669]]]},"properties":{"id":"guanabara_2025-06-26_lgbm_30","region":"guanabara","date":"2025-06-26","area_m2":400.0,"mean_prob":0.9588,"max_prob":0.9804,"model":"lgbm","n_px":4,"px_area_m2":100.0,"confirmed":false,"confirmed_by":null,"lon":-43.174261,"lat":-22.771758}},{"type":"Feature","geometry":{"type":"Polygon","coordinates":[[[-43.175137,-22.771768],[-43.175136,-22.771858],[-43.175331,-22.771861],[-43.17533,-22.771951],[-43.175037,-22.771948],[-43.17504,-22.771767],[-43.175137,-22.771768]]]},"properties":{"id":"guanabara_2025-06-26_lgbm_31","region":"guanabara","date":"2025-06-26","area_m2":400.0,"mean_prob":0.8951,"max_prob":0.9686,"model":"lgbm","n_px":4,"px_area_m2":100.0,"confirmed":false,"confirmed_by":null,"lon":-43.17516,"lat":-22.771881}},{"type":"Feature","geometry":{"type":"Polygon","coordinates":[[[-43.077073,-22.772061],[-43.077071,-22.772152],[-43.076877,-22.772149],[-43.076878,-22.772059],[-43.077073,-22.772061]]]},"properties":{"id":"guanabara_2025-06-26_lgbm_32","region":"guanabara","date":"2025-06-26","area_m2":200.0,"mean_prob":0.9392,"max_prob":0.9882,"model":"lgbm","n_px":2,"px_area_m2":100.0,"confirmed":false,"confirmed_by":null,"lon":-43.076975,"lat":-22.772105}},{"type":"Feature","geometry":{"type":"Polygon","coordinates":[[[-43.107251,-22.772693],[-43.107249,-22.772874],[-43.107151,-22.772872],[-43.107154,-22.772692],[-43.107251,-22.772693]]]},"properties":{"id":"guanabara_2025-06-26_lgbm_33","region":"guanabara","date":"2025-06-26","area_m2":200.0,"mean_prob":0.9882,"max_prob":0.9922,"model":"lgbm","n_px":2,"px_area_m2":100.0,"confirmed":false,"confirmed_by":null,"lon":-43.107201,"lat":-22.772783}},{"type":"Feature","geometry":{"type":"Polygon","coordinates":[[[-43.153738,-22.777211],[-43.153736,-22.777301],[-43.153542,-22.777299],[-43.153543,-22.777209],[-43.153738,-22.777211]]]},"properties":{"id":"guanabara_2025-06-26_lgbm_34","region":"guanabara","date":"2025-06-26","area_m2":200.0,"mean_prob":0.9961,"max_prob":0.9961,"model":"lgbm","n_px":2,"px_area_m2":100.0,"confirmed":false,"confirmed_by":null,"lon":-43.15364,"lat":-22.777255}},{"type":"Feature","geometry":{"type":"Polygon","coordinates":[[[-43.109894,-22.778775],[-43.109891,-22.778955],[-43.109794,-22.778954],[-43.109796,-22.778773],[-43.109894,-22.778775]]]},"properties":{"id":"guanabara_2025-06-26_lgbm_35","region":"guanabara","date":"2025-06-26","area_m2":200.0,"mean_prob":0.9333,"max_prob":0.9412,"model":"lgbm","n_px":2,"px_area_m2":100.0,"confirmed":false,"confirmed_by":null,"lon":-43.109844,"lat":-22.778864}},{"type":"Feature","geometry":{"type":"Polygon","coordinates":[[[-43.089539,-22.778893],[-43.089538,-22.778984],[-43.089733,-22.778986],[-43.089731,-22.779076],[-43.089537,-22.779074],[-43.089538,-22.778984],[-43.089441,-22.778983],[-43.089442,-22.778892],[-43.089539,-22.778893]]]},"properties":{"id":"guanabara_2025-06-26_lgbm_36","region":"guanabara","date":"2025-06-26","area_m2":300.0,"mean_prob":0.8523,"max_prob":0.9176,"model":"lgbm","n_px":3,"px_area_m2":100.0,"confirmed":false,"confirmed_by":null,"lon":-43.089586,"lat":-22.778999}},{"type":"Feature","geometry":{"type":"Polygon","coordinates":[[[-43.125458,-22.780042],[-43.125457,-22.780132],[-43.125359,-22.780131],[-43.125358,-22.780221],[-43.125261,-22.78022],[-43.125263,-22.78004],[-43.125458,-22.780042]]]},"properties":{"id":"guanabara_2025-06-26_lgbm_37","region":"guanabara","date":"2025-06-26","area_m2":300.0,"mean_prob":0.9987,"max_prob":1.0,"model":"lgbm","n_px":3,"px_area_m2":100.0,"confirmed":false,"confirmed_by":null,"lon":-43.125343,"lat":-22.780116}},{"type":"Feature","geometry":{"type":"Polygon","coordinates":[[[-43.12231,-22.789487],[-43.122307,-22.789667],[-43.12221,-22.789666],[-43.122209,-22.789756],[-43.122111,-22.789755],[-43.122114,-22.789575],[-43.122211,-22.789576],[-43.122212,-22.789486],[-43.12231,-22.789487]]]},"properties":{"id":"guanabara_2025-06-26_lgbm_38","region":"guanabara","date":"2025-06-26","area_m2":400.0,"mean_prob":0.9686,"max_prob":1.0,"model":"lgbm","n_px":4,"px_area_m2":100.0,"confirmed":false,"confirmed_by":null,"lon":-43.12221,"lat":-22.789621}},{"type":"Feature","geometry":{"type":"Polygon","coordinates":[[[-43.19027,-22.790995],[-43.190267,-22.791175],[-43.19017,-22.791174],[-43.190171,-22.791084],[-43.190074,-22.791083],[-43.190075,-22.790993],[-43.19027,-22.790995]]]},"properties":{"id":"guanabara_2025-06-26_lgbm_39","region":"guanabara","date":"2025-06-26","area_m2":300.0,"mean_prob":0.9582,"max_prob":0.9922,"model":"lgbm","n_px":3,"px_area_m2":100.0,"confirmed":false,"confirmed_by":null,"lon":-43.190188,"lat":-22.791069}},{"type":"Feature","geometry":{"type":"Polygon","coordinates":[[[-43.190849,-22.791363],[-43.190847,-22.791543],[-43.19075,-22.791542],[-43.190752,-22.791362],[-43.190849,-22.791363]]]},"properties":{"id":"guanabara_2025-06-26_lgbm_40","region":"guanabara","date":"2025-06-26","area_m2":200.0,"mean_prob":0.8627,"max_prob":0.9961,"model":"lgbm","n_px":2,"px_area_m2":100.0,"confirmed":false,"confirmed_by":null,"lon":-43.190799,"lat":-22.791452}},{"type":"Feature","geometry":{"type":"Polygon","coordinates":[[[-43.190745,-22.791903],[-43.190744,-22.791994],[-43.190549,-22.791991],[-43.19055,-22.791901],[-43.190745,-22.791903]]]},"properties":{"id":"guanabara_2025-06-26_lgbm_41","region":"guanabara","date":"2025-06-26","area_m2":200.0,"mean_prob":0.9392,"max_prob":0.9686,"model":"lgbm","n_px":2,"px_area_m2":100.0,"confirmed":false,"confirmed_by":null,"lon":-43.190647,"lat":-22.791947}},{"type":"Feature","geometry":{"type":"Polygon","coordinates":[[[-43.14208,-22.796672],[-43.142078,-22.796852],[-43.14198,-22.796851],[-43.141983,-22.79667],[-43.14208,-22.796672]]]},"properties":{"id":"guanabara_2025-06-26_lgbm_42","region":"guanabara","date":"2025-06-26","area_m2":200.0,"mean_prob":0.902,"max_prob":0.9647,"model":"lgbm","n_px":2,"px_area_m2":100.0,"confirmed":false,"confirmed_by":null,"lon":-43.14203,"lat":-22.796761}},{"type":"Feature","geometry":{"type":"Polygon","coordinates":[[[-43.168543,-22.798874],[-43.168542,-22.798964],[-43.168347,-22.798962],[-43.168348,-22.798872],[-43.168543,-22.798874]]]},"properties":{"id":"guanabara_2025-06-26_lgbm_43","region":"guanabara","date":"2025-06-26","area_m2":200.0,"mean_prob":0.7667,"max_prob":0.8627,"model":"lgbm","n_px":2,"px_area_m2":100.0,"confirmed":false,"confirmed_by":null,"lon":-43.168445,"lat":-22.798918}},{"type":"Feature","geometry":{"type":"Polygon","coordinates":[[[-43.173742,-22.803449],[-43.173739,-22.80363],[-43.173642,-22.803628],[-43.173644,-22.803448],[-43.173742,-22.803449]]]},"properties":{"id":"guanabara_2025-06-26_lgbm_44","region":"guanabara","date":"2025-06-26","area_m2":200.0,"mean_prob":0.8255,"max_prob":1.0,"model":"lgbm","n_px":2,"px_area_m2":100.0,"confirmed":false,"confirmed_by":null,"lon":-43.173692,"lat":-22.803539}},{"type":"Feature","geometry":{"type":"Polygon","coordinates":[[[-43.122806,-22.803038],[-43.122803,-22.803218],[-43.122706,-22.803217],[-43.122708,-22.803037],[-43.122806,-22.803038]]]},"properties":{"id":"guanabara_2025-06-26_lgbm_45","region":"guanabara","date":"2025-06-26","area_m2":200.0,"mean_prob":0.9745,"max_prob":0.9804,"model":"lgbm","n_px":2,"px_area_m2":100.0,"confirmed":false,"confirmed_by":null,"lon":-43.122756,"lat":-22.803128}},{"type":"Feature","geometry":{"type":"Polygon","coordinates":[[[-43.127838,-22.805445],[-43.127835,-22.805626],[-43.127738,-22.805624],[-43.12774,-22.805444],[-43.127838,-22.805445]]]},"properties":{"id":"guanabara_2025-06-26_lgbm_46","region":"guanabara","date":"2025-06-26","area_m2":200.0,"mean_prob":0.9275,"max_prob":0.9804,"model":"lgbm","n_px":2,"px_area_m2":100.0,"confirmed":false,"confirmed_by":null,"lon":-43.127788,"lat":-22.805535}},{"type":"Feature","geometry":{"type":"Polygon","coordinates":[[[-43.136111,-22.805903],[-43.136108,-22.806084],[-43.136011,-22.806083],[-43.136013,-22.805902],[-43.136111,-22.805903]]]},"properties":{"id":"guanabara_2025-06-26_lgbm_47","region":"guanabara","date":"2025-06-26","area_m2":200.0,"mean_prob":0.9098,"max_prob":0.9765,"model":"lgbm","n_px":2,"px_area_m2":100.0,"confirmed":false,"confirmed_by":null,"lon":-43.136061,"lat":-22.805993}},{"type":"Feature","geometry":{"type":"Polygon","coordinates":[[[-43.175256,-22.814032],[-43.175254,-22.814213],[-43.175157,-22.814211],[-43.175159,-22.814031],[-43.175256,-22.814032]]]},"properties":{"id":"guanabara_2025-06-26_lgbm_48","region":"guanabara","date":"2025-06-26","area_m2":200.0,"mean_prob":0.9,"max_prob":0.9725,"model":"lgbm","n_px":2,"px_area_m2":100.0,"confirmed":false,"confirmed_by":null,"lon":-43.175206,"lat":-22.814122}},{"type":"Feature","geometry":{"type":"Polygon","coordinates":[[[-43.17544,-22.814847],[-43.175439,-22.814937],[-43.175244,-22.814935],[-43.175246,-22.814845],[-43.17544,-22.814847]]]},"properties":{"id":"guanabara_2025-06-26_lgbm_49","region":"guanabara","date":"2025-06-26","area_m2":200.0,"mean_prob":0.898,"max_prob":0.9294,"model":"lgbm","n_px":2,"px_area_m2":100.0,"confirmed":false,"confirmed_by":null,"lon":-43.175342,"lat":-22.814891}},{"type":"Feature","geometry":{"type":"Polygon","coordinates":[[[-43.144564,-22.814671],[-43.144562,-22.814761],[-43.14427,-22.814758],[-43.144271,-22.814667],[-43.144564,-22.814671]]]},"properties":{"id":"guanabara_2025-06-26_lgbm_50","region":"guanabara","date":"2025-06-26","area_m2":300.0,"mean_prob":0.9621,"max_prob":0.9922,"model":"lgbm","n_px":3,"px_area_m2":100.0,"confirmed":false,"confirmed_by":null,"lon":-43.144417,"lat":-22.814714}},{"type":"Feature","geometry":{"type":"Polygon","coordinates":[[[-43.166944,-22.816465],[-43.166941,-22.816646],[-43.166844,-22.816645],[-43.166847,-22.816464],[-43.166944,-22.816465]]]},"properties":{"id":"guanabara_2025-06-26_lgbm_51","region":"guanabara","date":"2025-06-26","area_m2":200.0,"mean_prob":0.9373,"max_prob":0.9725,"model":"lgbm","n_px":2,"px_area_m2":100.0,"confirmed":false,"confirmed_by":null,"lon":-43.166894,"lat":-22.816555}},{"type":"Feature","geometry":{"type":"Polygon","coordinates":[[[-43.168109,-22.816749],[-43.168108,-22.81684],[-43.167913,-22.816837],[-43.167914,-22.816747],[-43.168109,-22.816749]]]},"properties":{"id":"guanabara_2025-06-26_lgbm_52","region":"guanabara","date":"2025-06-26","area_m2":200.0,"mean_prob":0.8431,"max_prob":0.8745,"model":"lgbm","n_px":2,"px_area_m2":100.0,"confirmed":false,"confirmed_by":null,"lon":-43.168011,"lat":-22.816793}},{"type":"Feature","geometry":{"type":"Polygon","coordinates":[[[-43.164206,-22.817246],[-43.164203,-22.817427],[-43.164106,-22.817426],[-43.164108,-22.817245],[-43.164206,-22.817246]]]},"properties":{"id":"guanabara_2025-06-26_lgbm_53","region":"guanabara","date":"2025-06-26","area_m2":200.0,"mean_prob":0.8843,"max_prob":0.9608,"model":"lgbm","n_px":2,"px_area_m2":100.0,"confirmed":false,"confirmed_by":null,"lon":-43.164156,"lat":-22.817336}},{"type":"Feature","geometry":{"type":"Polygon","coordinates":[[[-43.174124,-22.818625],[-43.174122,-22.818715],[-43.173928,-22.818713],[-43.173929,-22.818622],[-43.174124,-22.818625]]]},"properties":{"id":"guanabara_2025-06-26_lgbm_54","region":"guanabara","date":"2025-06-26","area_m2":200.0,"mean_prob":0.8647,"max_prob":0.9804,"model":"lgbm","n_px":2,"px_area_m2":100.0,"confirmed":false,"confirmed_by":null,"lon":-43.174026,"lat":-22.818669}},{"type":"Feature","geometry":{"type":"Polygon","coordinates":[[[-43.171194,-22.819133],[-43.171193,-22.819223],[-43.170998,-22.819221],[-43.171,-22.819131],[-43.171194,-22.819133]]]},"properties":{"id":"guanabara_2025-06-26_lgbm_55","region":"guanabara","date":"2025-06-26","area_m2":200.0,"mean_prob":0.9725,"max_prob":0.9725,"model":"lgbm","n_px":2,"px_area_m2":100.0,"confirmed":false,"confirmed_by":null,"lon":-43.171096,"lat":-22.819177}},{"type":"Feature","geometry":{"type":"Polygon","coordinates":[[[-43.081784,-22.818081],[-43.081783,-22.818172],[-43.081881,-22.818173],[-43.081879,-22.818263],[-43.081685,-22.818261],[-43.081687,-22.81808],[-43.081784,-22.818081]]]},"properties":{"id":"guanabara_2025-06-26_lgbm_56","region":"guanabara","date":"2025-06-26","area_m2":300.0,"mean_prob":0.8379,"max_prob":0.9412,"model":"lgbm","n_px":3,"px_area_m2":100.0,"artifact":"seam","confirmed":false,"confirmed_by":null,"lon":-43.081767,"lat":-22.818186}},{"type":"Feature","geometry":{"type":"Polygon","coordinates":[[[-43.087513,-22.819414],[-43.087511,-22.819595],[-43.087413,-22.819594],[-43.087416,-22.819413],[-43.087513,-22.819414]]]},"properties":{"id":"guanabara_2025-06-26_lgbm_57","region":"guanabara","date":"2025-06-26","area_m2":200.0,"mean_prob":0.9,"max_prob":0.9451,"model":"lgbm","n_px":2,"px_area_m2":100.0,"confirmed":false,"confirmed_by":null,"lon":-43.087463,"lat":-22.819504}},{"type":"Feature","geometry":{"type":"Polygon","coordinates":[[[-43.08644,-22.819492],[-43.086438,-22.819672],[-43.086243,-22.81967],[-43.086246,-22.819489],[-43.08644,-22.819492]]]},"properties":{"id":"guanabara_2025-06-26_lgbm_58","region":"guanabara","date":"2025-06-26","area_m2":400.0,"mean_prob":0.749,"max_prob":0.7961,"model":"lgbm","n_px":4,"px_area_m2":100.0,"confirmed":false,"confirmed_by":null,"lon":-43.086342,"lat":-22.819581}},{"type":"Feature","geometry":{"type":"Polygon","coordinates":[[[-43.163075,-22.821658],[-43.163074,-22.821748],[-43.162879,-22.821746],[-43.16288,-22.821656],[-43.163075,-22.821658]]]},"properties":{"id":"guanabara_2025-06-26_lgbm_59","region":"guanabara","date":"2025-06-26","area_m2":200.0,"mean_prob":0.9882,"max_prob":0.9922,"model":"lgbm","n_px":2,"px_area_m2":100.0,"confirmed":false,"confirmed_by":null,"lon":-43.162977,"lat":-22.821702}},{"type":"Feature","geometry":{"type":"Polygon","coordinates":[[[-43.12957,-22.821268],[-43.129567,-22.821449],[-43.12947,-22.821448],[-43.129471,-22.821357],[-43.129374,-22.821356],[-43.129375,-22.821266],[-43.12957,-22.821268]]]},"properties":{"id":"guanabara_2025-06-26_lgbm_60","region":"guanabara","date":"2025-06-26","area_m2":300.0,"mean_prob":0.9137,"max_prob":1.0,"model":"lgbm","n_px":3,"px_area_m2":100.0,"confirmed":false,"confirmed_by":null,"lon":-43.129487,"lat":-22.821343}},{"type":"Feature","geometry":{"type":"Polygon","coordinates":[[[-43.117285,-22.822027],[-43.117283,-22.822207],[-43.117185,-22.822206],[-43.117188,-22.822025],[-43.117285,-22.822027]]]},"properties":{"id":"guanabara_2025-06-26_lgbm_61","region":"guanabara","date":"2025-06-26","area_m2":200.0,"mean_prob":0.9667,"max_prob":0.9961,"model":"lgbm","n_px":2,"px_area_m2":100.0,"confirmed":false,"confirmed_by":null,"lon":-43.117235,"lat":-22.822116}},{"type":"Feature","geometry":{"type":"Polygon","coordinates":[[[-43.147174,-22.82328],[-43.147173,-22.82337],[-43.147271,-22.823372],[-43.147269,-22.823462],[-43.147075,-22.82346],[-43.147077,-22.823279],[-43.147174,-22.82328]]]},"properties":{"id":"guanabara_2025-06-26_lgbm_62","region":"guanabara","date":"2025-06-26","area_m2":300.0,"mean_prob":0.8288,"max_prob":0.9922,"model":"lgbm","n_px":3,"px_area_m2":100.0,"confirmed":false,"confirmed_by":null,"lon":-43.147157,"lat":-22.823385}},{"type":"Feature","geometry":{"type":"Polygon","coordinates":[[[-43.104197,-22.831534],[-43.104196,-22.831624],[-43.104001,-22.831622],[-43.104003,-22.831531],[-43.104197,-22.831534]]]},"properties":{"id":"guanabara_2025-06-26_lgbm_63","region":"guanabara","date":"2025-06-26","area_m2":200.0,"mean_prob":0.8725,"max_prob":0.9961,"model":"lgbm","n_px":2,"px_area_m2":100.0,"confirmed":false,"confirmed_by":null,"lon":-43.104099,"lat":-22.831578}},{"type":"Feature","geometry":{"type":"Polygon","coordinates":[[[-43.124836,-22.832591],[-43.124834,-22.832771],[-43.124736,-22.83277],[-43.124735,-22.83286],[-43.124638,-22.832859],[-43.12464,-22.832679],[-43.124737,-22.83268],[-43.124739,-22.83259],[-43.124836,-22.832591]]]},"properties":{"id":"guanabara_2025-06-26_lgbm_64","region":"guanabara","date":"2025-06-26","area_m2":400.0,"mean_prob":0.9078,"max_prob":0.9961,"model":"lgbm","n_px":4,"px_area_m2":100.0,"artifact":"ship","confirmed":false,"confirmed_by":null,"lon":-43.124737,"lat":-22.832725}},{"type":"Feature","geometry":{"type":"Polygon","coordinates":[[[-43.103013,-22.832603],[-43.103012,-22.832693],[-43.102817,-22.832691],[-43.102819,-22.832601],[-43.103013,-22.832603]]]},"properties":{"id":"guanabara_2025-06-26_lgbm_65","region":"guanabara","date":"2025-06-26","area_m2":200.0,"mean_prob":0.998,"max_prob":1.0,"model":"lgbm","n_px":2,"px_area_m2":100.0,"confirmed":false,"confirmed_by":null,"lon":-43.102915,"lat":-22.832647}},{"type":"Feature","geometry":{"type":"Polygon","coordinates":[[[-43.123446,-22.834471],[-43.123444,-22.834651],[-43.123347,-22.83465],[-43.123349,-22.83447],[-43.123446,-22.834471]]]},"properties":{"id":"guanabara_2025-06-26_lgbm_66","region":"guanabara","date":"2025-06-26","area_m2":200.0,"mean_prob":0.998,"max_prob":1.0,"model":"lgbm","n_px":2,"px_area_m2":100.0,"confirmed":false,"confirmed_by":null,"lon":-43.123396,"lat":-22.83456}},{"type":"Feature","geometry":{"type":"Polygon","coordinates":[[[-43.123729,-22.835196],[-43.123726,-22.835377],[-43.123629,-22.835376],[-43.123631,-22.835195],[-43.123729,-22.835196]]]},"properties":{"id":"guanabara_2025-06-26_lgbm_67","region":"guanabara","date":"2025-06-26","area_m2":200.0,"mean_prob":0.8745,"max_prob":0.8824,"model":"lgbm","n_px":2,"px_area_m2":100.0,"confirmed":false,"confirmed_by":null,"lon":-43.123679,"lat":-22.835286}},{"type":"Feature","geometry":{"type":"Polygon","coordinates":[[[-43.237595,-22.83713],[-43.237593,-22.83731],[-43.237495,-22.837309],[-43.237497,-22.837129],[-43.237595,-22.83713]]]},"properties":{"id":"guanabara_2025-06-26_lgbm_68","region":"guanabara","date":"2025-06-26","area_m2":200.0,"mean_prob":0.8961,"max_prob":0.9647,"model":"lgbm","n_px":2,"px_area_m2":100.0,"confirmed":false,"confirmed_by":null,"lon":-43.237545,"lat":-22.837219}},{"type":"Feature","geometry":{"type":"Polygon","coordinates":[[[-43.160145,-22.836705],[-43.160144,-22.836795],[-43.160241,-22.836796],[-43.16024,-22.836887],[-43.160143,-22.836886],[-43.160144,-22.836795],[-43.160047,-22.836794],[-43.160048,-22.836704],[-43.160145,-22.836705]]]},"properties":{"id":"guanabara_2025-06-26_lgbm_69","region":"guanabara","date":"2025-06-26","area_m2":200.0,"mean_prob":0.9353,"max_prob":0.9804,"model":"lgbm","n_px":2,"px_area_m2":100.0,"confirmed":false,"confirmed_by":null,"lon":-43.160144,"lat":-22.836795}},{"type":"Feature","geometry":{"type":"Polygon","coordinates":[[[-43.147843,-22.838639],[-43.147841,-22.83882],[-43.147743,-22.838819],[-43.147742,-22.838909],[-43.147645,-22.838908],[-43.147647,-22.838727],[-43.147745,-22.838729],[-43.147746,-22.838638],[-43.147843,-22.838639]]]},"properties":{"id":"guanabara_2025-06-26_lgbm_70","region":"guanabara","date":"2025-06-26","area_m2":400.0,"mean_prob":0.9588,"max_prob":0.9882,"model":"lgbm","n_px":4,"px_area_m2":100.0,"artifact":"ship","confirmed":false,"confirmed_by":null,"lon":-43.147744,"lat":-22.838774}},{"type":"Feature","geometry":{"type":"Polygon","coordinates":[[[-43.15148,-22.843468],[-43.151479,-22.843558],[-43.151382,-22.843557],[-43.15138,-22.843647],[-43.151283,-22.843646],[-43.151285,-22.843465],[-43.15148,-22.843468]]]},"properties":{"id":"guanabara_2025-06-26_lgbm_71","region":"guanabara","date":"2025-06-26","area_m2":300.0,"mean_prob":0.8876,"max_prob":0.9961,"model":"lgbm","n_px":3,"px_area_m2":100.0,"confirmed":false,"confirmed_by":null,"lon":-43.151366,"lat":-22.843542}},{"type":"Feature","geometry":{"type":"Polygon","coordinates":[[[-43.189167,-22.844894],[-43.189165,-22.845075],[-43.189068,-22.845074],[-43.18907,-22.844893],[-43.189167,-22.844894]]]},"properties":{"id":"guanabara_2025-06-26_lgbm_72","region":"guanabara","date":"2025-06-26","area_m2":200.0,"mean_prob":0.9667,"max_prob":0.9961,"model":"lgbm","n_px":2,"px_area_m2":100.0,"confirmed":false,"confirmed_by":null,"lon":-43.189118,"lat":-22.844984}},{"type":"Feature","geometry":{"type":"Polygon","coordinates":[[[-43.148829,-22.844972],[-43.148827,-22.845153],[-43.148729,-22.845152],[-43.148731,-22.845061],[-43.148633,-22.84506],[-43.148634,-22.84497],[-43.148829,-22.844972]]]},"properties":{"id":"guanabara_2025-06-26_lgbm_73","region":"guanabara","date":"2025-06-26","area_m2":300.0,"mean_prob":0.9582,"max_prob":0.9765,"model":"lgbm","n_px":3,"px_area_m2":100.0,"confirmed":false,"confirmed_by":null,"lon":-43.148747,"lat":-22.845046}},{"type":"Feature","geometry":{"type":"Polygon","coordinates":[[[-43.133324,-22.845965],[-43.13332,-22.846236],[-43.133223,-22.846235],[-43.133224,-22.846144],[-43.133127,-22.846143],[-43.133128,-22.846053],[-43.133225,-22.846054],[-43.133227,-22.845964],[-43.133324,-22.845965]]]},"properties":{"id":"guanabara_2025-06-26_lgbm_74","region":"guanabara","date":"2025-06-26","area_m2":400.0,"mean_prob":0.9451,"max_prob":0.9961,"model":"lgbm","n_px":4,"px_area_m2":100.0,"confirmed":false,"confirmed_by":null,"lon":-43.133249,"lat":-22.8461}},{"type":"Feature","geometry":{"type":"Polygon","coordinates":[[[-43.107118,-22.845746],[-43.107117,-22.845836],[-43.106922,-22.845834],[-43.106923,-22.845743],[-43.107118,-22.845746]]]},"properties":{"id":"guanabara_2025-06-26_lgbm_75","region":"guanabara","date":"2025-06-26","area_m2":200.0,"mean_prob":0.9098,"max_prob":0.9882,"model":"lgbm","n_px":2,"px_area_m2":100.0,"confirmed":false,"confirmed_by":null,"lon":-43.10702,"lat":-22.84579}},{"type":"Feature","geometry":{"type":"Polygon","coordinates":[[[-43.124111,-22.84992],[-43.124109,-22.850101],[-43.124011,-22.8501],[-43.124014,-22.849919],[-43.124111,-22.84992]]]},"properties":{"id":"guanabara_2025-06-26_lgbm_76","region":"guanabara","date":"2025-06-26","area_m2":200.0,"mean_prob":0.9961,"max_prob":0.9961,"model":"lgbm","n_px":2,"px_area_m2":100.0,"confirmed":false,"confirmed_by":null,"lon":-43.124061,"lat":-22.85001}},{"type":"Feature","geometry":{"type":"Polygon","coordinates":[[[-43.12915,-22.851966],[-43.129146,-22.852237],[-43.129049,-22.852236],[-43.129052,-22.851965],[-43.12915,-22.851966]]]},"properties":{"id":"guanabara_2025-06-26_lgbm_77","region":"guanabara","date":"2025-06-26","area_m2":300.0,"mean_prob":0.8588,"max_prob":0.9529,"model":"lgbm","n_px":3,"px_area_m2":100.0,"confirmed":false,"confirmed_by":null,"lon":-43.129099,"lat":-22.852101}},{"type":"Feature","geometry":{"type":"Polygon","coordinates":[[[-43.152952,-22.857121],[-43.152951,-22.857211],[-43.152756,-22.857209],[-43.152757,-22.857118],[-43.152952,-22.857121]]]},"properties":{"id":"guanabara_2025-06-26_lgbm_78","region":"guanabara","date":"2025-06-26","area_m2":200.0,"mean_prob":0.7745,"max_prob":0.7882,"model":"lgbm","n_px":2,"px_area_m2":100.0,"artifact":"ship","confirmed":false,"confirmed_by":null,"lon":-43.152854,"lat":-22.857165}},{"type":"Feature","geometry":{"type":"Polygon","coordinates":[[[-43.117873,-22.857161],[-43.117871,-22.857342],[-43.117676,-22.857339],[-43.117677,-22.857249],[-43.117775,-22.85725],[-43.117776,-22.85716],[-43.117873,-22.857161]]]},"properties":{"id":"guanabara_2025-06-26_lgbm_79","region":"guanabara","date":"2025-06-26","area_m2":300.0,"mean_prob":0.8431,"max_prob":0.9647,"model":"lgbm","n_px":3,"px_area_m2":100.0,"artifact":"ship","confirmed":false,"confirmed_by":null,"lon":-43.117791,"lat":-22.857265}},{"type":"Feature","geometry":{"type":"Polygon","coordinates":[[[-43.113291,-22.857378],[-43.113289,-22.857468],[-43.113387,-22.857469],[-43.113386,-22.857559],[-43.113483,-22.857561],[-43.113482,-22.857651],[-43.113384,-22.85765],[-43.113386,-22.857559],[-43.113288,-22.857558],[-43.113289,-22.857468],[-43.113192,-22.857467],[-43.113193,-22.857376],[-43.113291,-22.857378]]]},"properties":{"id":"guanabara_2025-06-26_lgbm_80","region":"guanabara","date":"2025-06-26","area_m2":300.0,"mean_prob":0.8797,"max_prob":0.9922,"model":"lgbm","n_px":3,"px_area_m2":100.0,"confirmed":false,"confirmed_by":null,"lon":-43.113337,"lat":-22.857514}},{"type":"Feature","geometry":{"type":"Polygon","coordinates":[[[-43.113774,-22.857654],[-43.113773,-22.857745],[-43.113578,-22.857742],[-43.113579,-22.857652],[-43.113774,-22.857654]]]},"properties":{"id":"guanabara_2025-06-26_lgbm_81","region":"guanabara","date":"2025-06-26","area_m2":200.0,"mean_prob":0.8882,"max_prob":0.8941,"model":"lgbm","n_px":2,"px_area_m2":100.0,"confirmed":false,"confirmed_by":null,"lon":-43.113676,"lat":-22.857698}},{"type":"Feature","geometry":{"type":"Polygon","coordinates":[[[-43.214573,-22.861707],[-43.214572,-22.861797],[-43.214669,-22.861799],[-43.214668,-22.861889],[-43.214473,-22.861887],[-43.214475,-22.861706],[-43.214573,-22.861707]]]},"properties":{"id":"guanabara_2025-06-26_lgbm_82","region":"guanabara","date":"2025-06-26","area_m2":300.0,"mean_prob":0.8719,"max_prob":0.9686,"model":"lgbm","n_px":3,"px_area_m2":100.0,"confirmed":false,"confirmed_by":null,"lon":-43.214555,"lat":-22.861812}},{"type":"Feature","geometry":{"type":"Polygon","coordinates":[[[-43.215156,-22.861804],[-43.215154,-22.861985],[-43.214764,-22.86198],[-43.214765,-22.86189],[-43.215058,-22.861893],[-43.215059,-22.861803],[-43.215156,-22.861804]]]},"properties":{"id":"guanabara_2025-06-26_lgbm_83","region":"guanabara","date":"2025-06-26","area_m2":500.0,"mean_prob":0.9537,"max_prob":0.9961,"model":"lgbm","n_px":5,"px_area_m2":100.0,"confirmed":false,"confirmed_by":null,"lon":-43.214989,"lat":-22.86192}},{"type":"Feature","geometry":{"type":"Polygon","coordinates":[[[-43.109055,-22.860669],[-43.109054,-22.860759],[-43.108859,-22.860756],[-43.10886,-22.860666],[-43.109055,-22.860669]]]},"properties":{"id":"guanabara_2025-06-26_lgbm_84","region":"guanabara","date":"2025-06-26","area_m2":200.0,"mean_prob":0.9765,"max_prob":0.9961,"model":"lgbm","n_px":2,"px_area_m2":100.0,"confirmed":false,"confirmed_by":null,"lon":-43.108957,"lat":-22.860713}},{"type":"Feature","geometry":{"type":"Polygon","coordinates":[[[-43.151237,-22.861435],[-43.151236,-22.861526],[-43.151041,-22.861523],[-43.151042,-22.861433],[-43.151237,-22.861435]]]},"properties":{"id":"guanabara_2025-06-26_lgbm_85","region":"guanabara","date":"2025-06-26","area_m2":200.0,"mean_prob":0.9353,"max_prob":0.9922,"model":"lgbm","n_px":2,"px_area_m2":100.0,"confirmed":false,"confirmed_by":null,"lon":-43.151139,"lat":-22.861479}},{"type":"Feature","geometry":{"type":"Polygon","coordinates":[[[-43.154735,-22.862198],[-43.154733,-22.862379],[-43.15483,-22.86238],[-43.154829,-22.86247],[-43.154731,-22.862469],[-43.154733,-22.862379],[-43.154635,-22.862378],[-43.154638,-22.862197],[-43.154735,-22.862198]]]},"properties":{"id":"guanabara_2025-06-26_lgbm_86","region":"guanabara","date":"2025-06-26","area_m2":300.0,"mean_prob":0.8444,"max_prob":0.9333,"model":"lgbm","n_px":3,"px_area_m2":100.0,"artifact":"ship","confirmed":false,"confirmed_by":null,"lon":-43.154717,"lat":-22.862334}},{"type":"Feature","geometry":{"type":"Polygon","coordinates":[[[-43.181327,-22.862956],[-43.181326,-22.863046],[-43.181131,-22.863044],[-43.181132,-22.862954],[-43.181327,-22.862956]]]},"properties":{"id":"guanabara_2025-06-26_lgbm_87","region":"guanabara","date":"2025-06-26","area_m2":200.0,"mean_prob":1.0,"max_prob":1.0,"model":"lgbm","n_px":2,"px_area_m2":100.0,"confirmed":false,"confirmed_by":null,"lon":-43.181229,"lat":-22.863}},{"type":"Feature","geometry":{"type":"Polygon","coordinates":[[[-43.116332,-22.862922],[-43.116331,-22.863012],[-43.116136,-22.86301],[-43.116137,-22.86292],[-43.116332,-22.862922]]]},"properties":{"id":"guanabara_2025-06-26_lgbm_88","region":"guanabara","date":"2025-06-26","area_m2":200.0,"mean_prob":0.9941,"max_prob":0.9961,"model":"lgbm","n_px":2,"px_area_m2":100.0,"confirmed":false,"confirmed_by":null,"lon":-43.116234,"lat":-22.862966}},{"type":"Feature","geometry":{"type":"Polygon","coordinates":[[[-43.116225,-22.863643],[-43.116224,-22.863734],[-43.116321,-22.863735],[-43.11632,-22.863825],[-43.116125,-22.863823],[-43.116127,-22.863642],[-43.116225,-22.863643]]]},"properties":{"id":"guanabara_2025-06-26_lgbm_89","region":"guanabara","date":"2025-06-26","area_m2":300.0,"mean_prob":0.9477,"max_prob":0.9922,"model":"lgbm","n_px":3,"px_area_m2":100.0,"artifact":"seam","confirmed":false,"confirmed_by":null,"lon":-43.116207,"lat":-22.863748}},{"type":"Feature","geometry":{"type":"Polygon","coordinates":[[[-43.13207,-22.866449],[-43.132069,-22.866539],[-43.131874,-22.866537],[-43.131875,-22.866447],[-43.13207,-22.866449]]]},"properties":{"id":"guanabara_2025-06-26_lgbm_90","region":"guanabara","date":"2025-06-26","area_m2":200.0,"mean_prob":0.9157,"max_prob":0.9529,"model":"lgbm","n_px":2,"px_area_m2":100.0,"confirmed":false,"confirmed_by":null,"lon":-43.131972,"lat":-22.866493}},{"type":"Feature","geometry":{"type":"Polygon","coordinates":[[[-43.154565,-22.874748],[-43.154562,-22.875019],[-43.154659,-22.87502],[-43.154658,-22.875111],[-43.154463,-22.875108],[-43.154468,-22.874747],[-43.154565,-22.874748]]]},"properties":{"id":"guanabara_2025-06-26_lgbm_91","region":"guanabara","date":"2025-06-26","area_m2":500.0,"mean_prob":0.9192,"max_prob":1.0,"model":"lgbm","n_px":5,"px_area_m2":100.0,"confirmed":false,"confirmed_by":null,"lon":-43.154533,"lat":-22.874956}},{"type":"Feature","geometry":{"type":"Polygon","coordinates":[[[-43.126684,-22.875506],[-43.126682,-22.875596],[-43.126487,-22.875594],[-43.126489,-22.875504],[-43.126684,-22.875506]]]},"properties":{"id":"guanabara_2025-06-26_lgbm_92","region":"guanabara","date":"2025-06-26","area_m2":200.0,"mean_prob":0.9373,"max_prob":0.9882,"model":"lgbm","n_px":2,"px_area_m2":100.0,"confirmed":false,"confirmed_by":null,"lon":-43.126585,"lat":-22.87555}},{"type":"Feature","geometry":{"type":"Polygon","coordinates":[[[-43.131932,-22.876561],[-43.131929,-22.876742],[-43.131832,-22.876741],[-43.131834,-22.87656],[-43.131932,-22.876561]]]},"properties":{"id":"guanabara_2025-06-26_lgbm_93","region":"guanabara","date":"2025-06-26","area_m2":200.0,"mean_prob":0.998,"max_prob":1.0,"model":"lgbm","n_px":2,"px_area_m2":100.0,"confirmed":false,"confirmed_by":null,"lon":-43.131882,"lat":-22.876651}},{"type":"Feature","geometry":{"type":"Polygon","coordinates":[[[-43.167532,-22.881581],[-43.167531,-22.881671],[-43.167629,-22.881672],[-43.167627,-22.881763],[-43.16753,-22.881761],[-43.167529,-22.881852],[-43.167431,-22.881851],[-43.167435,-22.88158],[-43.167532,-22.881581]]]},"properties":{"id":"guanabara_2025-06-26_lgbm_94","region":"guanabara","date":"2025-06-26","area_m2":400.0,"mean_prob":0.9569,"max_prob":0.9961,"model":"lgbm","n_px":4,"px_area_m2":100.0,"confirmed":false,"confirmed_by":null,"lon":-43.167506,"lat":-22.881716}},{"type":"Feature","geometry":{"type":"Polygon","coordinates":[[[-43.160508,-22.882132],[-43.160507,-22.882222],[-43.160409,-22.882221],[-43.160408,-22.882311],[-43.160311,-22.88231],[-43.160313,-22.88213],[-43.160508,-22.882132]]]},"properties":{"id":"guanabara_2025-06-26_lgbm_95","region":"guanabara","date":"2025-06-26","area_m2":300.0,"mean_prob":0.9569,"max_prob":0.9882,"model":"lgbm","n_px":3,"px_area_m2":100.0,"confirmed":false,"confirmed_by":null,"lon":-43.160393,"lat":-22.882206}},{"type":"Feature","geometry":{"type":"Polygon","coordinates":[[[-43.203047,-22.88596],[-43.203046,-22.88605],[-43.203241,-22.886052],[-43.203239,-22.886233],[-43.203044,-22.886231],[-43.203046,-22.88605],[-43.202949,-22.886049],[-43.20295,-22.885959],[-43.203047,-22.88596]]]},"properties":{"id":"guanabara_2025-06-26_lgbm_96","region":"guanabara","date":"2025-06-26","area_m2":500.0,"mean_prob":0.8918,"max_prob":1.0,"model":"lgbm","n_px":5,"px_area_m2":100.0,"artifact":"seam","confirmed":true,"confirmed_by":"mdd","lon":-43.203114,"lat":-22.886114}},{"type":"Feature","geometry":{"type":"Polygon","coordinates":[[[-43.168161,-22.885561],[-43.168159,-22.885742],[-43.168061,-22.885741],[-43.168064,-22.88556],[-43.168161,-22.885561]]]},"properties":{"id":"guanabara_2025-06-26_lgbm_97","region":"guanabara","date":"2025-06-26","area_m2":200.0,"mean_prob":0.9961,"max_prob":1.0,"model":"lgbm","n_px":2,"px_area_m2":100.0,"confirmed":false,"confirmed_by":null,"lon":-43.168111,"lat":-22.885651}},{"type":"Feature","geometry":{"type":"Polygon","coordinates":[[[-43.177017,-22.886566],[-43.177016,-22.886657],[-43.176821,-22.886654],[-43.176822,-22.886564],[-43.177017,-22.886566]]]},"properties":{"id":"guanabara_2025-06-26_lgbm_98","region":"guanabara","date":"2025-06-26","area_m2":200.0,"mean_prob":0.902,"max_prob":0.9333,"model":"lgbm","n_px":2,"px_area_m2":100.0,"confirmed":false,"confirmed_by":null,"lon":-43.176919,"lat":-22.88661}},{"type":"Feature","geometry":{"type":"Polygon","coordinates":[[[-43.13725,-22.886737],[-43.137249,-22.886828],[-43.137346,-22.886829],[-43.137345,-22.886919],[-43.13715,-22.886917],[-43.137153,-22.886736],[-43.13725,-22.886737]]]},"properties":{"id":"guanabara_2025-06-26_lgbm_99","region":"guanabara","date":"2025-06-26","area_m2":300.0,"mean_prob":0.8941,"max_prob":0.9961,"model":"lgbm","n_px":3,"px_area_m2":100.0,"confirmed":false,"confirmed_by":null,"lon":-43.137232,"lat":-22.886842}},{"type":"Feature","geometry":{"type":"Polygon","coordinates":[[[-43.184502,-22.888007],[-43.1845,-22.888187],[-43.184305,-22.888185],[-43.184306,-22.888095],[-43.184209,-22.888093],[-43.18421,-22.888003],[-43.184502,-22.888007]]]},"properties":{"id":"guanabara_2025-06-26_lgbm_100","region":"guanabara","date":"2025-06-26","area_m2":500.0,"mean_prob":0.9522,"max_prob":0.9961,"model":"lgbm","n_px":5,"px_area_m2":100.0,"artifact":"ship","confirmed":false,"confirmed_by":null,"lon":-43.184375,"lat":-22.888086}},{"type":"Feature","geometry":{"type":"Polygon","coordinates":[[[-43.123534,-22.913215],[-43.123532,-22.913305],[-43.123337,-22.913303],[-43.123339,-22.913213],[-43.123534,-22.913215]]]},"properties":{"id":"guanabara_2025-06-26_lgbm_101","region":"guanabara","date":"2025-06-26","area_m2":200.0,"mean_prob":0.8235,"max_prob":0.8275,"model":"lgbm","n_px":2,"px_area_m2":100.0,"confirmed":false,"confirmed_by":null,"lon":-43.123436,"lat":-22.913259}},{"type":"Feature","geometry":{"type":"Polygon","coordinates":[[[-43.102535,-22.916126],[-43.102533,-22.916307],[-43.102435,-22.916305],[-43.102438,-22.916125],[-43.102535,-22.916126]]]},"properties":{"id":"guanabara_2025-06-26_lgbm_102","region":"guanabara","date":"2025-06-26","area_m2":200.0,"mean_prob":0.8255,"max_prob":0.8314,"model":"lgbm","n_px":2,"px_area_m2":100.0,"confirmed":false,"confirmed_by":null,"lon":-43.102485,"lat":-22.916216}},{"type":"Feature","geometry":{"type":"Polygon","coordinates":[[[-43.099514,-22.91609],[-43.099511,-22.91627],[-43.099414,-22.916269],[-43.099416,-22.916089],[-43.099514,-22.91609]]]},"properties":{"id":"guanabara_2025-06-26_lgbm_103","region":"guanabara","date":"2025-06-26","area_m2":200.0,"mean_prob":0.7686,"max_prob":0.8588,"model":"lgbm","n_px":2,"px_area_m2":100.0,"confirmed":false,"confirmed_by":null,"lon":-43.099464,"lat":-22.91618}},{"type":"Feature","geometry":{"type":"Polygon","coordinates":[[[-43.115789,-22.923418],[-43.115787,-22.923598],[-43.115689,-22.923597],[-43.115692,-22.923416],[-43.115789,-22.923418]]]},"properties":{"id":"guanabara_2025-06-26_lgbm_104","region":"guanabara","date":"2025-06-26","area_m2":200.0,"mean_prob":0.9863,"max_prob":0.9961,"model":"lgbm","n_px":2,"px_area_m2":100.0,"confirmed":false,"confirmed_by":null,"lon":-43.115739,"lat":-22.923507}},{"type":"Feature","geometry":{"type":"Polygon","coordinates":[[[-43.117902,-22.9257],[-43.117901,-22.92579],[-43.117998,-22.925792],[-43.117997,-22.925882],[-43.1179,-22.925881],[-43.117901,-22.92579],[-43.117804,-22.925789],[-43.117805,-22.925699],[-43.117902,-22.9257]]]},"properties":{"id":"guanabara_2025-06-26_lgbm_105","region":"guanabara","date":"2025-06-26","area_m2":200.0,"mean_prob":0.849,"max_prob":0.8706,"model":"lgbm","n_px":2,"px_area_m2":100.0,"confirmed":false,"confirmed_by":null,"lon":-43.117901,"lat":-22.92579}},{"type":"Feature","geometry":{"type":"Polygon","coordinates":[[[-43.116785,-22.928938],[-43.116783,-22.929118],[-43.116685,-22.929117],[-43.116688,-22.928937],[-43.116785,-22.928938]]]},"properties":{"id":"guanabara_2025-06-26_lgbm_106","region":"guanabara","date":"2025-06-26","area_m2":200.0,"mean_prob":0.902,"max_prob":0.949,"model":"lgbm","n_px":2,"px_area_m2":100.0,"artifact":"ship","confirmed":false,"confirmed_by":null,"lon":-43.116735,"lat":-22.929027}}]}