{"type": "FeatureCollection", "features": [{"type": "Feature", "id": "SZ-fresh-cozar_demo-2026-09-08-001", "geometry": {"type": "Polygon", "coordinates": [[[-1.646464, 35.467222], [-1.64746, 35.466963], [-1.648139, 35.465888], [-1.647825, 35.464893], [-1.646951, 35.464433], [-1.647072, 35.463803], [-1.646755, 35.462988], [-1.645442, 35.462432], [-1.644112, 35.462868], [-1.642804, 35.462042], [-1.641817, 35.46176], [-1.6406, 35.462017], [-1.639921, 35.463091], [-1.640236, 35.463996], [-1.642203, 35.46501], [-1.642863, 35.465108], [-1.644081, 35.464761], [-1.644844, 35.46522], [-1.644724, 35.46585], [-1.645041, 35.466665], [-1.645804, 35.467124], [-1.646464, 35.467222]]]}, "properties": {"kind": "detection_zone", "layer_kind": "scene_zone", "zone_id": "SZ-fresh-cozar_demo-2026-09-08-001", "scene_key": "fresh-cozar_demo-2026-09-08", "scene_kind": "fresh_s2", "scene_id": "S2A_MSIL2A_20260908T104651_R051_T30SXE_20260908T191911", "region": "cozar_demo", "title": "Альборанское море (акватория демо Cózar 2024) · зона 1", "mission": "Sentinel-2", "datetime": "2026-09-08T10:46:51.024000Z", "detection_status": "insufficient_data", "status": "insufficient_data", "concentration_status": "unavailable", "quantity": {"status": "not_confirmed", "label": "концентрация по снимку не подтверждена", "detail": "перевод площади в штуки не показываем: нет калибровочных пар (см. docs/QUANTITY.md)"}, "verification": "false_alarm_signs", "training_scene": null, "flags": ["foam"], "n_cozar_filaments": 0, "crop_file": "crops/SZ-fresh-cozar_demo-2026-09-08-001.jpg", "wind_high": false, "measured": {"zone_area_km2": 0.2349, "suspicious_area_m2": 700, "n_pixels": 7, "n_objects": 4, "water_km2": 0.2363, "lwd_m2_km2": 2962.3, "lwd_note": null, "quality": {"valid_water_fraction": 1.0, "cloud_fraction": 0.0, "glint_fraction": 0.0}, "model": {"weights": "weights/lgbm", "file": "weights/lgbm/model.txt", "sha256": "0eeebf43fcccd8c7c07f053b7ec723229d1a3c9b92d12eec1bdb269258c51470", "sha256_short": "0eeebf43fccc", "trained_at": "2026-09-25T01:36:30Z", "threshold": 0.63, "harmonize": "none", "class": "MARIDA Marine Debris (любой плавающий мусор, не только пластик)"}}, "probable": {"prob_max": 0.996, "prob_mean": 0.826, "signs": {"foam": {"flag": true, "white_ratio_b2_b8": 1.057, "wind10m_ms": 2.64, "rule": "прирост B2 над водой ≥ 0.8 прироста B8 («белый» спектр) или ветер ≥ 7.0 м/с"}, "glint": {"flag": false, "b11_water_median": 0.0071, "glint_share": 0.0, "rule": "медиана B11 воды зоны > 0.01 или ≥ 20 % пикселей зоны — блик (маска качества)"}, "ship": {"flag": false, "share": 0, "bright_target_px_within_500m": 0, "rule": "≥ 30 % пикселей — у яркой цели или кильватера (reports/artifacts.md) или яркая цель с откликом в SWIR (судно, лодка: B11 ≥ 0,015) ближе 500 м, или малый яркий объект (≤ 40 пикс.) с B11 ≥ 0,01 ближе 500 м (лодка с кильватером)"}, "coast": {"flag": false, "land_px_within_300m": 0, "rule": "суша (маска качества) ближе 300 м — прибой, кромка берега"}, "shallow": {"flag": false, "b3_water_zone": 0.0162, "b3_ratio_to_scene_water": 1.24, "rule": "медиана B3 воды зоны ≥ 2× медианы воды снимка и ≥ 0,03, или B4 воды зоны ≥ 0,02 и (≥ 2× воды снимка или B8 ≥ 0,013) — мелководье, яркое дно, илистая банка"}, "seam": {"flag": false, "share": 0, "rule": "≥ 30 % пикселей — прямая линия вдоль трека/границы яркости (шов)"}, "cloud": {"flag": false, "cloud_fraction": 0.0, "rule": "облака или тени облаков (маска качества) ≥ 20 % зоны"}, "diag": {"dist_land_m": null, "dist_bright_m": 1137, "n_bright_px_500m": 0, "b11_bright_max_500m": null, "b4_water_zone": 0.0111, "b8_water_zone": 0.0088, "b11_det_median": 0.0162, "b8_det_median": 0.0309, "water_scene_b3": 0.0131, "water_scene_b4": 0.0082, "n_det_px": 7, "n_obj": 4}, "note": "эвристики, не классификатор; на размеченных данных не проверены"}, "n_cozar_filaments": 0}, "field_nearby": {"items": [{"source": "ADIS (4TU.ResearchData, судовая камера)", "segment_id": 437373, "ship": "R/V SOCIB", "date": "2023-05-09", "days_from_scene": -1218, "distance_km": 521.2, "lon": 1.45866, "lat": 39.48127, "n_items": 0, "area_km2": 0.2799, "size_class": "> 5 см", "c_items_km2": 0.0, "ci95_lo": 0.0, "ci95_hi": 13.18, "ci95_method": "точный интервал Пуассона для N, делённый на A", "raw_10cm_items_km2": 0.0, "authors_cal_10cm_items_km2": 0.0, "authors_cal_10cm_lo95": null, "authors_cal_10cm_hi95": null}, {"source": "ADIS (4TU.ResearchData, судовая камера)", "segment_id": 437372, "ship": "R/V SOCIB", "date": "2023-05-09", "days_from_scene": -1218, "distance_km": 524.6, "lon": 1.52399, "lat": 39.48282, "n_items": 0, "area_km2": 0.1103, "size_class": "> 5 см", "c_items_km2": 0.0, "ci95_lo": 0.0, "ci95_hi": 33.44, "ci95_method": "точный интервал Пуассона для N, делённый на A", "raw_10cm_items_km2": 0.0, "authors_cal_10cm_items_km2": 0.0, "authors_cal_10cm_lo95": null, "authors_cal_10cm_hi95": null}, {"source": "ADIS (4TU.ResearchData, судовая камера)", "segment_id": 437314, "ship": "R/V SOCIB", "date": "2023-04-26", "days_from_scene": -1231, "distance_km": 525.6, "lon": 1.38936, "lat": 39.56288, "n_items": 0, "area_km2": 0.105, "size_class": "> 5 см", "c_items_km2": 0.0, "ci95_lo": 0.0, "ci95_hi": 35.15, "ci95_method": "точный интервал Пуассона для N, делённый на A", "raw_10cm_items_km2": 0.0, "authors_cal_10cm_items_km2": 0.0, "authors_cal_10cm_lo95": null, "authors_cal_10cm_hi95": null}], "nearest_organizer_sample": {"sample_id": "MPL-0175", "source_id": "S3_SE_NORTH_SEA", "distance_km": 2140.3}, "note": "Измерение ≠ оценка: это независимые полевые счёты C = N/A в другое время и в другом месте; со сценой они не связаны и не калибруют её. Ближайший отрезок ADIS — за 521 км: только для порядка величин."}, "acquired_at": "2026-09-08T10:46:51.024000Z", "acquisition_date": "2026-09-08", "processed_at": "2026-09-26T19:20:54Z", "human_checked": false, "auto_label": "автоматически, не проверено человеком"}}, {"type": "Feature", "id": "SZ-fresh-cozar_demo-2026-09-08-002", "geometry": {"type": "Polygon", "coordinates": [[[-1.657808, 35.461038], [-1.659139, 35.460511], [-1.659486, 35.459523], [-1.658843, 35.458434], [-1.657635, 35.458151], [-1.656639, 35.45841], [-1.656193, 35.458766], [-1.655847, 35.459663], [-1.65649, 35.460752], [-1.657808, 35.461038]]]}, "properties": {"kind": "detection_zone", "layer_kind": "scene_zone", "zone_id": "SZ-fresh-cozar_demo-2026-09-08-002", "scene_key": "fresh-cozar_demo-2026-09-08", "scene_kind": "fresh_s2", "scene_id": "S2A_MSIL2A_20260908T104651_R051_T30SXE_20260908T191911", "region": "cozar_demo", "title": "Альборанское море (акватория демо Cózar 2024) · зона 2", "mission": "Sentinel-2", "datetime": "2026-09-08T10:46:51.024000Z", "detection_status": "insufficient_data", "status": "insufficient_data", "concentration_status": "unavailable", "quantity": {"status": "not_confirmed", "label": "концентрация по снимку не подтверждена", "detail": "перевод площади в штуки не показываем: нет калибровочных пар (см. docs/QUANTITY.md)"}, "verification": "false_alarm_signs", "training_scene": null, "flags": ["ship", "seam", "foam"], "n_cozar_filaments": 0, "crop_file": "crops/SZ-fresh-cozar_demo-2026-09-08-002.jpg", "wind_high": false, "measured": {"zone_area_km2": 0.0774, "suspicious_area_m2": 500, "n_pixels": 5, "n_objects": 1, "water_km2": 0.0794, "lwd_m2_km2": 6297.2, "lwd_note": null, "quality": {"valid_water_fraction": 1.0, "cloud_fraction": 0.0, "glint_fraction": 0.0}, "model": {"weights": "weights/lgbm", "file": "weights/lgbm/model.txt", "sha256": "0eeebf43fcccd8c7c07f053b7ec723229d1a3c9b92d12eec1bdb269258c51470", "sha256_short": "0eeebf43fccc", "trained_at": "2026-09-25T01:36:30Z", "threshold": 0.63, "harmonize": "none", "class": "MARIDA Marine Debris (любой плавающий мусор, не только пластик)"}}, "probable": {"prob_max": 0.996, "prob_mean": 0.838, "signs": {"foam": {"flag": true, "white_ratio_b2_b8": 1.034, "wind10m_ms": 2.64, "rule": "прирост B2 над водой ≥ 0.8 прироста B8 («белый» спектр) или ветер ≥ 7.0 м/с"}, "glint": {"flag": false, "b11_water_median": 0.0084, "glint_share": 0.0, "rule": "медиана B11 воды зоны > 0.01 или ≥ 20 % пикселей зоны — блик (маска качества)"}, "ship": {"flag": true, "share": 0, "bright_target_px_within_500m": 0, "rule": "≥ 30 % пикселей — у яркой цели или кильватера (reports/artifacts.md) или яркая цель с откликом в SWIR (судно, лодка: B11 ≥ 0,015) ближе 500 м, или малый яркий объект (≤ 40 пикс.) с B11 ≥ 0,01 ближе 500 м (лодка с кильватером)"}, "coast": {"flag": false, "land_px_within_300m": 0, "rule": "суша (маска качества) ближе 300 м — прибой, кромка берега"}, "shallow": {"flag": false, "b3_water_zone": 0.0181, "b3_ratio_to_scene_water": 1.39, "rule": "медиана B3 воды зоны ≥ 2× медианы воды снимка и ≥ 0,03, или B4 воды зоны ≥ 0,02 и (≥ 2× воды снимка или B8 ≥ 0,013) — мелководье, яркое дно, илистая банка"}, "seam": {"flag": true, "share": 1.0, "rule": "≥ 30 % пикселей — прямая линия вдоль трека/границы яркости (шов)"}, "cloud": {"flag": false, "cloud_fraction": 0.0, "rule": "облака или тени облаков (маска качества) ≥ 20 % зоны"}, "diag": {"dist_land_m": null, "dist_bright_m": 32, "n_bright_px_500m": 4, "b11_bright_max_500m": 0.0282, "b4_water_zone": 0.013, "b8_water_zone": 0.0104, "b11_det_median": 0.0211, "b8_det_median": 0.0362, "water_scene_b3": 0.0131, "water_scene_b4": 0.0082, "n_det_px": 5, "n_obj": 1}, "note": "эвристики, не классификатор; на размеченных данных не проверены"}, "n_cozar_filaments": 0}, "field_nearby": {"items": [{"source": "ADIS (4TU.ResearchData, судовая камера)", "segment_id": 437373, "ship": "R/V SOCIB", "date": "2023-05-09", "days_from_scene": -1218, "distance_km": 521.2, "lon": 1.45866, "lat": 39.48127, "n_items": 0, "area_km2": 0.2799, "size_class": "> 5 см", "c_items_km2": 0.0, "ci95_lo": 0.0, "ci95_hi": 13.18, "ci95_method": "точный интервал Пуассона для N, делённый на A", "raw_10cm_items_km2": 0.0, "authors_cal_10cm_items_km2": 0.0, "authors_cal_10cm_lo95": null, "authors_cal_10cm_hi95": null}, {"source": "ADIS (4TU.ResearchData, судовая камера)", "segment_id": 437372, "ship": "R/V SOCIB", "date": "2023-05-09", "days_from_scene": -1218, "distance_km": 524.6, "lon": 1.52399, "lat": 39.48282, "n_items": 0, "area_km2": 0.1103, "size_class": "> 5 см", "c_items_km2": 0.0, "ci95_lo": 0.0, "ci95_hi": 33.44, "ci95_method": "точный интервал Пуассона для N, делённый на A", "raw_10cm_items_km2": 0.0, "authors_cal_10cm_items_km2": 0.0, "authors_cal_10cm_lo95": null, "authors_cal_10cm_hi95": null}, {"source": "ADIS (4TU.ResearchData, судовая камера)", "segment_id": 437314, "ship": "R/V SOCIB", "date": "2023-04-26", "days_from_scene": -1231, "distance_km": 525.6, "lon": 1.38936, "lat": 39.56288, "n_items": 0, "area_km2": 0.105, "size_class": "> 5 см", "c_items_km2": 0.0, "ci95_lo": 0.0, "ci95_hi": 35.15, "ci95_method": "точный интервал Пуассона для N, делённый на A", "raw_10cm_items_km2": 0.0, "authors_cal_10cm_items_km2": 0.0, "authors_cal_10cm_lo95": null, "authors_cal_10cm_hi95": null}], "nearest_organizer_sample": {"sample_id": "MPL-0175", "source_id": "S3_SE_NORTH_SEA", "distance_km": 2140.3}, "note": "Измерение ≠ оценка: это независимые полевые счёты C = N/A в другое время и в другом месте; со сценой они не связаны и не калибруют её. Ближайший отрезок ADIS — за 521 км: только для порядка величин."}, "acquired_at": "2026-09-08T10:46:51.024000Z", "acquisition_date": "2026-09-08", "processed_at": "2026-09-26T19:20:54Z", "human_checked": false, "auto_label": "автоматически, не проверено человеком"}}, {"type": "Feature", "id": "SZ-fresh-cozar_demo-2026-09-08-003", "geometry": {"type": "Polygon", "coordinates": [[[-1.671968, 35.457678], [-1.672964, 35.457418], [-1.673526, 35.456794], [-1.673645, 35.456254], [-1.673328, 35.455439], [-1.672564, 35.45498], [-1.671575, 35.454789], [-1.671589, 35.453977], [-1.671048, 35.45334], [-1.670061, 35.453059], [-1.668955, 35.453317], [-1.668394, 35.453942], [-1.668275, 35.454482], [-1.668592, 35.455297], [-1.669138, 35.455573], [-1.669022, 35.455932], [-1.669339, 35.456747], [-1.671089, 35.457578], [-1.671968, 35.457678]]]}, "properties": {"kind": "detection_zone", "layer_kind": "scene_zone", "zone_id": "SZ-fresh-cozar_demo-2026-09-08-003", "scene_key": "fresh-cozar_demo-2026-09-08", "scene_kind": "fresh_s2", "scene_id": "S2A_MSIL2A_20260908T104651_R051_T30SXE_20260908T191911", "region": "cozar_demo", "title": "Альборанское море (акватория демо Cózar 2024) · зона 3", "mission": "Sentinel-2", "datetime": "2026-09-08T10:46:51.024000Z", "detection_status": "insufficient_data", "status": "insufficient_data", "concentration_status": "unavailable", "quantity": {"status": "not_confirmed", "label": "концентрация по снимку не подтверждена", "detail": "перевод площади в штуки не показываем: нет калибровочных пар (см. docs/QUANTITY.md)"}, "verification": "false_alarm_signs", "training_scene": null, "flags": ["ship", "foam"], "n_cozar_filaments": 0, "crop_file": "crops/SZ-fresh-cozar_demo-2026-09-08-003.jpg", "wind_high": false, "measured": {"zone_area_km2": 0.157, "suspicious_area_m2": 500, "n_pixels": 5, "n_objects": 3, "water_km2": 0.1554, "lwd_m2_km2": 3217.5, "lwd_note": null, "quality": {"valid_water_fraction": 1.0, "cloud_fraction": 0.0, "glint_fraction": 0.0}, "model": {"weights": "weights/lgbm", "file": "weights/lgbm/model.txt", "sha256": "0eeebf43fcccd8c7c07f053b7ec723229d1a3c9b92d12eec1bdb269258c51470", "sha256_short": "0eeebf43fccc", "trained_at": "2026-09-25T01:36:30Z", "threshold": 0.63, "harmonize": "none", "class": "MARIDA Marine Debris (любой плавающий мусор, не только пластик)"}}, "probable": {"prob_max": 0.98, "prob_mean": 0.822, "signs": {"foam": {"flag": true, "white_ratio_b2_b8": 1.129, "wind10m_ms": 2.64, "rule": "прирост B2 над водой ≥ 0.8 прироста B8 («белый» спектр) или ветер ≥ 7.0 м/с"}, "glint": {"flag": false, "b11_water_median": 0.0074, "glint_share": 0.0, "rule": "медиана B11 воды зоны > 0.01 или ≥ 20 % пикселей зоны — блик (маска качества)"}, "ship": {"flag": true, "share": 0, "bright_target_px_within_500m": 0, "rule": "≥ 30 % пикселей — у яркой цели или кильватера (reports/artifacts.md) или яркая цель с откликом в SWIR (судно, лодка: B11 ≥ 0,015) ближе 500 м, или малый яркий объект (≤ 40 пикс.) с B11 ≥ 0,01 ближе 500 м (лодка с кильватером)"}, "coast": {"flag": false, "land_px_within_300m": 0, "rule": "суша (маска качества) ближе 300 м — прибой, кромка берега"}, "shallow": {"flag": false, "b3_water_zone": 0.0165, "b3_ratio_to_scene_water": 1.26, "rule": "медиана B3 воды зоны ≥ 2× медианы воды снимка и ≥ 0,03, или B4 воды зоны ≥ 0,02 и (≥ 2× воды снимка или B8 ≥ 0,013) — мелководье, яркое дно, илистая банка"}, "seam": {"flag": false, "share": 0, "rule": "≥ 30 % пикселей — прямая линия вдоль трека/границы яркости (шов)"}, "cloud": {"flag": false, "cloud_fraction": 0.0, "rule": "облака или тени облаков (маска качества) ≥ 20 % зоны"}, "diag": {"dist_land_m": null, "dist_bright_m": 20, "n_bright_px_500m": 9, "b11_bright_max_500m": 0.032, "b4_water_zone": 0.0113, "b8_water_zone": 0.0089, "b11_det_median": 0.0168, "b8_det_median": 0.0305, "water_scene_b3": 0.0131, "water_scene_b4": 0.0082, "n_det_px": 5, "n_obj": 3}, "note": "эвристики, не классификатор; на размеченных данных не проверены"}, "n_cozar_filaments": 0}, "field_nearby": {"items": [{"source": "ADIS (4TU.ResearchData, судовая камера)", "segment_id": 437373, "ship": "R/V SOCIB", "date": "2023-05-09", "days_from_scene": -1218, "distance_km": 521.2, "lon": 1.45866, "lat": 39.48127, "n_items": 0, "area_km2": 0.2799, "size_class": "> 5 см", "c_items_km2": 0.0, "ci95_lo": 0.0, "ci95_hi": 13.18, "ci95_method": "точный интервал Пуассона для N, делённый на A", "raw_10cm_items_km2": 0.0, "authors_cal_10cm_items_km2": 0.0, "authors_cal_10cm_lo95": null, "authors_cal_10cm_hi95": null}, {"source": "ADIS (4TU.ResearchData, судовая камера)", "segment_id": 437372, "ship": "R/V SOCIB", "date": "2023-05-09", "days_from_scene": -1218, "distance_km": 524.6, "lon": 1.52399, "lat": 39.48282, "n_items": 0, "area_km2": 0.1103, "size_class": "> 5 см", "c_items_km2": 0.0, "ci95_lo": 0.0, "ci95_hi": 33.44, "ci95_method": "точный интервал Пуассона для N, делённый на A", "raw_10cm_items_km2": 0.0, "authors_cal_10cm_items_km2": 0.0, "authors_cal_10cm_lo95": null, "authors_cal_10cm_hi95": null}, {"source": "ADIS (4TU.ResearchData, судовая камера)", "segment_id": 437314, "ship": "R/V SOCIB", "date": "2023-04-26", "days_from_scene": -1231, "distance_km": 525.6, "lon": 1.38936, "lat": 39.56288, "n_items": 0, "area_km2": 0.105, "size_class": "> 5 см", "c_items_km2": 0.0, "ci95_lo": 0.0, "ci95_hi": 35.15, "ci95_method": "точный интервал Пуассона для N, делённый на A", "raw_10cm_items_km2": 0.0, "authors_cal_10cm_items_km2": 0.0, "authors_cal_10cm_lo95": null, "authors_cal_10cm_hi95": null}], "nearest_organizer_sample": {"sample_id": "MPL-0175", "source_id": "S3_SE_NORTH_SEA", "distance_km": 2140.3}, "note": "Измерение ≠ оценка: это независимые полевые счёты C = N/A в другое время и в другом месте; со сценой они не связаны и не калибруют её. Ближайший отрезок ADIS — за 521 км: только для порядка величин."}, "acquired_at": "2026-09-08T10:46:51.024000Z", "acquisition_date": "2026-09-08", "processed_at": "2026-09-26T19:20:54Z", "human_checked": false, "auto_label": "автоматически, не проверено человеком"}}, {"type": "Feature", "id": "SZ-fresh-cozar_demo-2026-09-08-004", "geometry": {"type": "Polygon", "coordinates": [[[-1.655987, 35.45128], [-1.657317, 35.450754], [-1.657661, 35.449946], [-1.65756, 35.449404], [-1.656474, 35.448491], [-1.654821, 35.448472], [-1.653816, 35.449272], [-1.6538, 35.450264], [-1.65434, 35.450901], [-1.655987, 35.45128]]]}, "properties": {"kind": "detection_zone", "layer_kind": "scene_zone", "zone_id": "SZ-fresh-cozar_demo-2026-09-08-004", "scene_key": "fresh-cozar_demo-2026-09-08", "scene_kind": "fresh_s2", "scene_id": "S2A_MSIL2A_20260908T104651_R051_T30SXE_20260908T191911", "region": "cozar_demo", "title": "Альборанское море (акватория демо Cózar 2024) · зона 4", "mission": "Sentinel-2", "datetime": "2026-09-08T10:46:51.024000Z", "detection_status": "insufficient_data", "status": "insufficient_data", "concentration_status": "unavailable", "quantity": {"status": "not_confirmed", "label": "концентрация по снимку не подтверждена", "detail": "перевод площади в штуки не показываем: нет калибровочных пар (см. docs/QUANTITY.md)"}, "verification": "false_alarm_signs", "training_scene": null, "flags": ["ship", "seam", "foam"], "n_cozar_filaments": 0, "crop_file": "crops/SZ-fresh-cozar_demo-2026-09-08-004.jpg", "wind_high": false, "measured": {"zone_area_km2": 0.0847, "suspicious_area_m2": 500, "n_pixels": 5, "n_objects": 2, "water_km2": 0.0869, "lwd_m2_km2": 5753.7, "lwd_note": null, "quality": {"valid_water_fraction": 1.0, "cloud_fraction": 0.0, "glint_fraction": 0.0}, "model": {"weights": "weights/lgbm", "file": "weights/lgbm/model.txt", "sha256": "0eeebf43fcccd8c7c07f053b7ec723229d1a3c9b92d12eec1bdb269258c51470", "sha256_short": "0eeebf43fccc", "trained_at": "2026-09-25T01:36:30Z", "threshold": 0.63, "harmonize": "none", "class": "MARIDA Marine Debris (любой плавающий мусор, не только пластик)"}}, "probable": {"prob_max": 0.996, "prob_mean": 0.952, "signs": {"foam": {"flag": true, "white_ratio_b2_b8": 1.101, "wind10m_ms": 2.64, "rule": "прирост B2 над водой ≥ 0.8 прироста B8 («белый» спектр) или ветер ≥ 7.0 м/с"}, "glint": {"flag": false, "b11_water_median": 0.0066, "glint_share": 0.0, "rule": "медиана B11 воды зоны > 0.01 или ≥ 20 % пикселей зоны — блик (маска качества)"}, "ship": {"flag": true, "share": 0, "bright_target_px_within_500m": 0, "rule": "≥ 30 % пикселей — у яркой цели или кильватера (reports/artifacts.md) или яркая цель с откликом в SWIR (судно, лодка: B11 ≥ 0,015) ближе 500 м, или малый яркий объект (≤ 40 пикс.) с B11 ≥ 0,01 ближе 500 м (лодка с кильватером)"}, "coast": {"flag": false, "land_px_within_300m": 0, "rule": "суша (маска качества) ближе 300 м — прибой, кромка берега"}, "shallow": {"flag": false, "b3_water_zone": 0.015, "b3_ratio_to_scene_water": 1.15, "rule": "медиана B3 воды зоны ≥ 2× медианы воды снимка и ≥ 0,03, или B4 воды зоны ≥ 0,02 и (≥ 2× воды снимка или B8 ≥ 0,013) — мелководье, яркое дно, илистая банка"}, "seam": {"flag": true, "share": 1.0, "rule": "≥ 30 % пикселей — прямая линия вдоль трека/границы яркости (шов)"}, "cloud": {"flag": false, "cloud_fraction": 0.0, "rule": "облака или тени облаков (маска качества) ≥ 20 % зоны"}, "diag": {"dist_land_m": null, "dist_bright_m": 10, "n_bright_px_500m": 4, "b11_bright_max_500m": 0.029, "b4_water_zone": 0.0099, "b8_water_zone": 0.0076, "b11_det_median": 0.0171, "b8_det_median": 0.0343, "water_scene_b3": 0.0131, "water_scene_b4": 0.0082, "n_det_px": 5, "n_obj": 2}, "note": "эвристики, не классификатор; на размеченных данных не проверены"}, "n_cozar_filaments": 0}, "field_nearby": {"items": [{"source": "ADIS (4TU.ResearchData, судовая камера)", "segment_id": 437373, "ship": "R/V SOCIB", "date": "2023-05-09", "days_from_scene": -1218, "distance_km": 521.2, "lon": 1.45866, "lat": 39.48127, "n_items": 0, "area_km2": 0.2799, "size_class": "> 5 см", "c_items_km2": 0.0, "ci95_lo": 0.0, "ci95_hi": 13.18, "ci95_method": "точный интервал Пуассона для N, делённый на A", "raw_10cm_items_km2": 0.0, "authors_cal_10cm_items_km2": 0.0, "authors_cal_10cm_lo95": null, "authors_cal_10cm_hi95": null}, {"source": "ADIS (4TU.ResearchData, судовая камера)", "segment_id": 437372, "ship": "R/V SOCIB", "date": "2023-05-09", "days_from_scene": -1218, "distance_km": 524.6, "lon": 1.52399, "lat": 39.48282, "n_items": 0, "area_km2": 0.1103, "size_class": "> 5 см", "c_items_km2": 0.0, "ci95_lo": 0.0, "ci95_hi": 33.44, "ci95_method": "точный интервал Пуассона для N, делённый на A", "raw_10cm_items_km2": 0.0, "authors_cal_10cm_items_km2": 0.0, "authors_cal_10cm_lo95": null, "authors_cal_10cm_hi95": null}, {"source": "ADIS (4TU.ResearchData, судовая камера)", "segment_id": 437314, "ship": "R/V SOCIB", "date": "2023-04-26", "days_from_scene": -1231, "distance_km": 525.6, "lon": 1.38936, "lat": 39.56288, "n_items": 0, "area_km2": 0.105, "size_class": "> 5 см", "c_items_km2": 0.0, "ci95_lo": 0.0, "ci95_hi": 35.15, "ci95_method": "точный интервал Пуассона для N, делённый на A", "raw_10cm_items_km2": 0.0, "authors_cal_10cm_items_km2": 0.0, "authors_cal_10cm_lo95": null, "authors_cal_10cm_hi95": null}], "nearest_organizer_sample": {"sample_id": "MPL-0175", "source_id": "S3_SE_NORTH_SEA", "distance_km": 2140.3}, "note": "Измерение ≠ оценка: это независимые полевые счёты C = N/A в другое время и в другом месте; со сценой они не связаны и не калибруют её. Ближайший отрезок ADIS — за 521 км: только для порядка величин."}, "acquired_at": "2026-09-08T10:46:51.024000Z", "acquisition_date": "2026-09-08", "processed_at": "2026-09-26T19:20:54Z", "human_checked": false, "auto_label": "автоматически, не проверено человеком"}}, {"type": "Feature", "id": "SZ-fresh-cozar_demo-2026-09-08-005", "geometry": {"type": "Polygon", "coordinates": [[[-1.687019, 35.440171], [-1.68835, 35.439645], [-1.688693, 35.438837], [-1.688592, 35.438295], [-1.687722, 35.437564], [-1.687953, 35.436936], [-1.687636, 35.436121], [-1.686872, 35.435662], [-1.68555, 35.435647], [-1.684772, 35.43609], [-1.684209, 35.436805], [-1.684192, 35.437887], [-1.684732, 35.438524], [-1.685389, 35.438801], [-1.685381, 35.439252], [-1.685922, 35.439889], [-1.687019, 35.440171]]]}, "properties": {"kind": "detection_zone", "layer_kind": "scene_zone", "zone_id": "SZ-fresh-cozar_demo-2026-09-08-005", "scene_key": "fresh-cozar_demo-2026-09-08", "scene_kind": "fresh_s2", "scene_id": "S2A_MSIL2A_20260908T104651_R051_T30SXE_20260908T191911", "region": "cozar_demo", "title": "Альборанское море (акватория демо Cózar 2024) · зона 5", "mission": "Sentinel-2", "datetime": "2026-09-08T10:46:51.024000Z", "detection_status": "insufficient_data", "status": "insufficient_data", "concentration_status": "unavailable", "quantity": {"status": "not_confirmed", "label": "концентрация по снимку не подтверждена", "detail": "перевод площади в штуки не показываем: нет калибровочных пар (см. docs/QUANTITY.md)"}, "verification": "false_alarm_signs", "training_scene": null, "flags": ["ship", "foam"], "n_cozar_filaments": 0, "crop_file": "crops/SZ-fresh-cozar_demo-2026-09-08-005.jpg", "wind_high": false, "measured": {"zone_area_km2": 0.1424, "suspicious_area_m2": 600, "n_pixels": 6, "n_objects": 3, "water_km2": 0.1428, "lwd_m2_km2": 4201.7, "lwd_note": null, "quality": {"valid_water_fraction": 1.0, "cloud_fraction": 0.0, "glint_fraction": 0.0}, "model": {"weights": "weights/lgbm", "file": "weights/lgbm/model.txt", "sha256": "0eeebf43fcccd8c7c07f053b7ec723229d1a3c9b92d12eec1bdb269258c51470", "sha256_short": "0eeebf43fccc", "trained_at": "2026-09-25T01:36:30Z", "threshold": 0.63, "harmonize": "none", "class": "MARIDA Marine Debris (любой плавающий мусор, не только пластик)"}}, "probable": {"prob_max": 0.984, "prob_mean": 0.861, "signs": {"foam": {"flag": true, "white_ratio_b2_b8": 1.056, "wind10m_ms": 2.64, "rule": "прирост B2 над водой ≥ 0.8 прироста B8 («белый» спектр) или ветер ≥ 7.0 м/с"}, "glint": {"flag": false, "b11_water_median": 0.0088, "glint_share": 0.0, "rule": "медиана B11 воды зоны > 0.01 или ≥ 20 % пикселей зоны — блик (маска качества)"}, "ship": {"flag": true, "share": 0, "bright_target_px_within_500m": 193, "rule": "≥ 30 % пикселей — у яркой цели или кильватера (reports/artifacts.md) или яркая цель с откликом в SWIR (судно, лодка: B11 ≥ 0,015) ближе 500 м, или малый яркий объект (≤ 40 пикс.) с B11 ≥ 0,01 ближе 500 м (лодка с кильватером)"}, "coast": {"flag": false, "land_px_within_300m": 0, "rule": "суша (маска качества) ближе 300 м — прибой, кромка берега"}, "shallow": {"flag": false, "b3_water_zone": 0.0187, "b3_ratio_to_scene_water": 1.43, "rule": "медиана B3 воды зоны ≥ 2× медианы воды снимка и ≥ 0,03, или B4 воды зоны ≥ 0,02 и (≥ 2× воды снимка или B8 ≥ 0,013) — мелководье, яркое дно, илистая банка"}, "seam": {"flag": false, "share": 0, "rule": "≥ 30 % пикселей — прямая линия вдоль трека/границы яркости (шов)"}, "cloud": {"flag": false, "cloud_fraction": 0.0, "rule": "облака или тени облаков (маска качества) ≥ 20 % зоны"}, "diag": {"dist_land_m": null, "dist_bright_m": 10, "n_bright_px_500m": 26, "b11_bright_max_500m": 0.0365, "b4_water_zone": 0.013, "b8_water_zone": 0.0107, "b11_det_median": 0.0225, "b8_det_median": 0.0387, "water_scene_b3": 0.0131, "water_scene_b4": 0.0082, "n_det_px": 6, "n_obj": 3}, "note": "эвристики, не классификатор; на размеченных данных не проверены"}, "n_cozar_filaments": 0}, "field_nearby": {"items": [{"source": "ADIS (4TU.ResearchData, судовая камера)", "segment_id": 437373, "ship": "R/V SOCIB", "date": "2023-05-09", "days_from_scene": -1218, "distance_km": 521.2, "lon": 1.45866, "lat": 39.48127, "n_items": 0, "area_km2": 0.2799, "size_class": "> 5 см", "c_items_km2": 0.0, "ci95_lo": 0.0, "ci95_hi": 13.18, "ci95_method": "точный интервал Пуассона для N, делённый на A", "raw_10cm_items_km2": 0.0, "authors_cal_10cm_items_km2": 0.0, "authors_cal_10cm_lo95": null, "authors_cal_10cm_hi95": null}, {"source": "ADIS (4TU.ResearchData, судовая камера)", "segment_id": 437372, "ship": "R/V SOCIB", "date": "2023-05-09", "days_from_scene": -1218, "distance_km": 524.6, "lon": 1.52399, "lat": 39.48282, "n_items": 0, "area_km2": 0.1103, "size_class": "> 5 см", "c_items_km2": 0.0, "ci95_lo": 0.0, "ci95_hi": 33.44, "ci95_method": "точный интервал Пуассона для N, делённый на A", "raw_10cm_items_km2": 0.0, "authors_cal_10cm_items_km2": 0.0, "authors_cal_10cm_lo95": null, "authors_cal_10cm_hi95": null}, {"source": "ADIS (4TU.ResearchData, судовая камера)", "segment_id": 437314, "ship": "R/V SOCIB", "date": "2023-04-26", "days_from_scene": -1231, "distance_km": 525.6, "lon": 1.38936, "lat": 39.56288, "n_items": 0, "area_km2": 0.105, "size_class": "> 5 см", "c_items_km2": 0.0, "ci95_lo": 0.0, "ci95_hi": 35.15, "ci95_method": "точный интервал Пуассона для N, делённый на A", "raw_10cm_items_km2": 0.0, "authors_cal_10cm_items_km2": 0.0, "authors_cal_10cm_lo95": null, "authors_cal_10cm_hi95": null}], "nearest_organizer_sample": {"sample_id": "MPL-0175", "source_id": "S3_SE_NORTH_SEA", "distance_km": 2140.3}, "note": "Измерение ≠ оценка: это независимые полевые счёты C = N/A в другое время и в другом месте; со сценой они не связаны и не калибруют её. Ближайший отрезок ADIS — за 521 км: только для порядка величин."}, "acquired_at": "2026-09-08T10:46:51.024000Z", "acquisition_date": "2026-09-08", "processed_at": "2026-09-26T19:20:54Z", "human_checked": false, "auto_label": "автоматически, не проверено человеком"}}, {"type": "Feature", "id": "SZ-fresh-cozar_demo-2026-09-08-006", "geometry": {"type": "Polygon", "coordinates": [[[-1.738325, 35.421154], [-1.739655, 35.420626], [-1.740227, 35.41928], [-1.739912, 35.418285], [-1.738599, 35.41773], [-1.737826, 35.417812], [-1.737048, 35.418255], [-1.736585, 35.419693], [-1.736902, 35.420598], [-1.737666, 35.421056], [-1.738325, 35.421154]]]}, "properties": {"kind": "detection_zone", "layer_kind": "scene_zone", "zone_id": "SZ-fresh-cozar_demo-2026-09-08-006", "scene_key": "fresh-cozar_demo-2026-09-08", "scene_kind": "fresh_s2", "scene_id": "S2A_MSIL2A_20260908T104651_R051_T30SXE_20260908T191911", "region": "cozar_demo", "title": "Альборанское море (акватория демо Cózar 2024) · зона 6", "mission": "Sentinel-2", "datetime": "2026-09-08T10:46:51.024000Z", "detection_status": "insufficient_data", "status": "insufficient_data", "concentration_status": "unavailable", "quantity": {"status": "not_confirmed", "label": "концентрация по снимку не подтверждена", "detail": "перевод площади в штуки не показываем: нет калибровочных пар (см. docs/QUANTITY.md)"}, "verification": "false_alarm_signs", "training_scene": null, "flags": ["ship", "foam"], "n_cozar_filaments": 0, "crop_file": "crops/SZ-fresh-cozar_demo-2026-09-08-006.jpg", "wind_high": false, "measured": {"zone_area_km2": 0.0936, "suspicious_area_m2": 500, "n_pixels": 5, "n_objects": 2, "water_km2": 0.0944, "lwd_m2_km2": 5296.6, "lwd_note": null, "quality": {"valid_water_fraction": 1.0, "cloud_fraction": 0.0, "glint_fraction": 0.0}, "model": {"weights": "weights/lgbm", "file": "weights/lgbm/model.txt", "sha256": "0eeebf43fcccd8c7c07f053b7ec723229d1a3c9b92d12eec1bdb269258c51470", "sha256_short": "0eeebf43fccc", "trained_at": "2026-09-25T01:36:30Z", "threshold": 0.63, "harmonize": "none", "class": "MARIDA Marine Debris (любой плавающий мусор, не только пластик)"}}, "probable": {"prob_max": 0.961, "prob_mean": 0.861, "signs": {"foam": {"flag": true, "white_ratio_b2_b8": 1.048, "wind10m_ms": 2.64, "rule": "прирост B2 над водой ≥ 0.8 прироста B8 («белый» спектр) или ветер ≥ 7.0 м/с"}, "glint": {"flag": false, "b11_water_median": 0.0062, "glint_share": 0.0, "rule": "медиана B11 воды зоны > 0.01 или ≥ 20 % пикселей зоны — блик (маска качества)"}, "ship": {"flag": true, "share": 0, "bright_target_px_within_500m": 0, "rule": "≥ 30 % пикселей — у яркой цели или кильватера (reports/artifacts.md) или яркая цель с откликом в SWIR (судно, лодка: B11 ≥ 0,015) ближе 500 м, или малый яркий объект (≤ 40 пикс.) с B11 ≥ 0,01 ближе 500 м (лодка с кильватером)"}, "coast": {"flag": false, "land_px_within_300m": 0, "rule": "суша (маска качества) ближе 300 м — прибой, кромка берега"}, "shallow": {"flag": false, "b3_water_zone": 0.0135, "b3_ratio_to_scene_water": 1.03, "rule": "медиана B3 воды зоны ≥ 2× медианы воды снимка и ≥ 0,03, или B4 воды зоны ≥ 0,02 и (≥ 2× воды снимка или B8 ≥ 0,013) — мелководье, яркое дно, илистая банка"}, "seam": {"flag": false, "share": 0, "rule": "≥ 30 % пикселей — прямая линия вдоль трека/границы яркости (шов)"}, "cloud": {"flag": false, "cloud_fraction": 0.0, "rule": "облака или тени облаков (маска качества) ≥ 20 % зоны"}, "diag": {"dist_land_m": null, "dist_bright_m": 380, "n_bright_px_500m": 43, "b11_bright_max_500m": 0.043, "b4_water_zone": 0.0085, "b8_water_zone": 0.0068, "b11_det_median": 0.0156, "b8_det_median": 0.0313, "water_scene_b3": 0.0131, "water_scene_b4": 0.0082, "n_det_px": 5, "n_obj": 2}, "note": "эвристики, не классификатор; на размеченных данных не проверены"}, "n_cozar_filaments": 0}, "field_nearby": {"items": [{"source": "ADIS (4TU.ResearchData, судовая камера)", "segment_id": 437373, "ship": "R/V SOCIB", "date": "2023-05-09", "days_from_scene": -1218, "distance_km": 521.2, "lon": 1.45866, "lat": 39.48127, "n_items": 0, "area_km2": 0.2799, "size_class": "> 5 см", "c_items_km2": 0.0, "ci95_lo": 0.0, "ci95_hi": 13.18, "ci95_method": "точный интервал Пуассона для N, делённый на A", "raw_10cm_items_km2": 0.0, "authors_cal_10cm_items_km2": 0.0, "authors_cal_10cm_lo95": null, "authors_cal_10cm_hi95": null}, {"source": "ADIS (4TU.ResearchData, судовая камера)", "segment_id": 437372, "ship": "R/V SOCIB", "date": "2023-05-09", "days_from_scene": -1218, "distance_km": 524.6, "lon": 1.52399, "lat": 39.48282, "n_items": 0, "area_km2": 0.1103, "size_class": "> 5 см", "c_items_km2": 0.0, "ci95_lo": 0.0, "ci95_hi": 33.44, "ci95_method": "точный интервал Пуассона для N, делённый на A", "raw_10cm_items_km2": 0.0, "authors_cal_10cm_items_km2": 0.0, "authors_cal_10cm_lo95": null, "authors_cal_10cm_hi95": null}, {"source": "ADIS (4TU.ResearchData, судовая камера)", "segment_id": 437314, "ship": "R/V SOCIB", "date": "2023-04-26", "days_from_scene": -1231, "distance_km": 525.6, "lon": 1.38936, "lat": 39.56288, "n_items": 0, "area_km2": 0.105, "size_class": "> 5 см", "c_items_km2": 0.0, "ci95_lo": 0.0, "ci95_hi": 35.15, "ci95_method": "точный интервал Пуассона для N, делённый на A", "raw_10cm_items_km2": 0.0, "authors_cal_10cm_items_km2": 0.0, "authors_cal_10cm_lo95": null, "authors_cal_10cm_hi95": null}], "nearest_organizer_sample": {"sample_id": "MPL-0175", "source_id": "S3_SE_NORTH_SEA", "distance_km": 2140.3}, "note": "Измерение ≠ оценка: это независимые полевые счёты C = N/A в другое время и в другом месте; со сценой они не связаны и не калибруют её. Ближайший отрезок ADIS — за 521 км: только для порядка величин."}, "acquired_at": "2026-09-08T10:46:51.024000Z", "acquisition_date": "2026-09-08", "processed_at": "2026-09-26T19:20:54Z", "human_checked": false, "auto_label": "автоматически, не проверено человеком"}}, {"type": "Feature", "id": "SZ-fresh-cozar_demo-2026-09-08-007", "geometry": {"type": "Polygon", "coordinates": [[[-1.736325, 35.415182], [-1.737321, 35.414922], [-1.737881, 35.414297], [-1.738001, 35.413667], [-1.737683, 35.412852], [-1.738137, 35.412045], [-1.738036, 35.411413], [-1.737058, 35.410591], [-1.735847, 35.410579], [-1.734977, 35.409848], [-1.733656, 35.409835], [-1.732652, 35.410635], [-1.732636, 35.411627], [-1.733177, 35.412264], [-1.734055, 35.412453], [-1.733714, 35.413171], [-1.73403, 35.414076], [-1.735228, 35.4149], [-1.736325, 35.415182]]]}, "properties": {"kind": "detection_zone", "layer_kind": "scene_zone", "zone_id": "SZ-fresh-cozar_demo-2026-09-08-007", "scene_key": "fresh-cozar_demo-2026-09-08", "scene_kind": "fresh_s2", "scene_id": "S2A_MSIL2A_20260908T104651_R051_T30SXE_20260908T191911", "region": "cozar_demo", "title": "Альборанское море (акватория демо Cózar 2024) · зона 7", "mission": "Sentinel-2", "datetime": "2026-09-08T10:46:51.024000Z", "detection_status": "insufficient_data", "status": "insufficient_data", "concentration_status": "unavailable", "quantity": {"status": "not_confirmed", "label": "концентрация по снимку не подтверждена", "detail": "перевод площади в штуки не показываем: нет калибровочных пар (см. docs/QUANTITY.md)"}, "verification": "false_alarm_signs", "training_scene": null, "flags": ["ship", "foam"], "n_cozar_filaments": 0, "crop_file": "crops/SZ-fresh-cozar_demo-2026-09-08-007.jpg", "wind_high": false, "measured": {"zone_area_km2": 0.2044, "suspicious_area_m2": 700, "n_pixels": 7, "n_objects": 4, "water_km2": 0.2059, "lwd_m2_km2": 3399.7, "lwd_note": null, "quality": {"valid_water_fraction": 1.0, "cloud_fraction": 0.0, "glint_fraction": 0.0}, "model": {"weights": "weights/lgbm", "file": "weights/lgbm/model.txt", "sha256": "0eeebf43fcccd8c7c07f053b7ec723229d1a3c9b92d12eec1bdb269258c51470", "sha256_short": "0eeebf43fccc", "trained_at": "2026-09-25T01:36:30Z", "threshold": 0.63, "harmonize": "none", "class": "MARIDA Marine Debris (любой плавающий мусор, не только пластик)"}}, "probable": {"prob_max": 0.996, "prob_mean": 0.82, "signs": {"foam": {"flag": true, "white_ratio_b2_b8": 1.297, "wind10m_ms": 2.64, "rule": "прирост B2 над водой ≥ 0.8 прироста B8 («белый» спектр) или ветер ≥ 7.0 м/с"}, "glint": {"flag": false, "b11_water_median": 0.0065, "glint_share": 0.0, "rule": "медиана B11 воды зоны > 0.01 или ≥ 20 % пикселей зоны — блик (маска качества)"}, "ship": {"flag": true, "share": 0, "bright_target_px_within_500m": 0, "rule": "≥ 30 % пикселей — у яркой цели или кильватера (reports/artifacts.md) или яркая цель с откликом в SWIR (судно, лодка: B11 ≥ 0,015) ближе 500 м, или малый яркий объект (≤ 40 пикс.) с B11 ≥ 0,01 ближе 500 м (лодка с кильватером)"}, "coast": {"flag": false, "land_px_within_300m": 0, "rule": "суша (маска качества) ближе 300 м — прибой, кромка берега"}, "shallow": {"flag": false, "b3_water_zone": 0.014, "b3_ratio_to_scene_water": 1.07, "rule": "медиана B3 воды зоны ≥ 2× медианы воды снимка и ≥ 0,03, или B4 воды зоны ≥ 0,02 и (≥ 2× воды снимка или B8 ≥ 0,013) — мелководье, яркое дно, илистая банка"}, "seam": {"flag": false, "share": 0, "rule": "≥ 30 % пикселей — прямая линия вдоль трека/границы яркости (шов)"}, "cloud": {"flag": false, "cloud_fraction": 0.0, "rule": "облака или тени облаков (маска качества) ≥ 20 % зоны"}, "diag": {"dist_land_m": null, "dist_bright_m": 228, "n_bright_px_500m": 55, "b11_bright_max_500m": 0.043, "b4_water_zone": 0.0091, "b8_water_zone": 0.0073, "b11_det_median": 0.0118, "b8_det_median": 0.0213, "water_scene_b3": 0.0131, "water_scene_b4": 0.0082, "n_det_px": 7, "n_obj": 4}, "note": "эвристики, не классификатор; на размеченных данных не проверены"}, "n_cozar_filaments": 0}, "field_nearby": {"items": [{"source": "ADIS (4TU.ResearchData, судовая камера)", "segment_id": 437373, "ship": "R/V SOCIB", "date": "2023-05-09", "days_from_scene": -1218, "distance_km": 521.2, "lon": 1.45866, "lat": 39.48127, "n_items": 0, "area_km2": 0.2799, "size_class": "> 5 см", "c_items_km2": 0.0, "ci95_lo": 0.0, "ci95_hi": 13.18, "ci95_method": "точный интервал Пуассона для N, делённый на A", "raw_10cm_items_km2": 0.0, "authors_cal_10cm_items_km2": 0.0, "authors_cal_10cm_lo95": null, "authors_cal_10cm_hi95": null}, {"source": "ADIS (4TU.ResearchData, судовая камера)", "segment_id": 437372, "ship": "R/V SOCIB", "date": "2023-05-09", "days_from_scene": -1218, "distance_km": 524.6, "lon": 1.52399, "lat": 39.48282, "n_items": 0, "area_km2": 0.1103, "size_class": "> 5 см", "c_items_km2": 0.0, "ci95_lo": 0.0, "ci95_hi": 33.44, "ci95_method": "точный интервал Пуассона для N, делённый на A", "raw_10cm_items_km2": 0.0, "authors_cal_10cm_items_km2": 0.0, "authors_cal_10cm_lo95": null, "authors_cal_10cm_hi95": null}, {"source": "ADIS (4TU.ResearchData, судовая камера)", "segment_id": 437314, "ship": "R/V SOCIB", "date": "2023-04-26", "days_from_scene": -1231, "distance_km": 525.6, "lon": 1.38936, "lat": 39.56288, "n_items": 0, "area_km2": 0.105, "size_class": "> 5 см", "c_items_km2": 0.0, "ci95_lo": 0.0, "ci95_hi": 35.15, "ci95_method": "точный интервал Пуассона для N, делённый на A", "raw_10cm_items_km2": 0.0, "authors_cal_10cm_items_km2": 0.0, "authors_cal_10cm_lo95": null, "authors_cal_10cm_hi95": null}], "nearest_organizer_sample": {"sample_id": "MPL-0175", "source_id": "S3_SE_NORTH_SEA", "distance_km": 2140.3}, "note": "Измерение ≠ оценка: это независимые полевые счёты C = N/A в другое время и в другом месте; со сценой они не связаны и не калибруют её. Ближайший отрезок ADIS — за 521 км: только для порядка величин."}, "acquired_at": "2026-09-08T10:46:51.024000Z", "acquisition_date": "2026-09-08", "processed_at": "2026-09-26T19:20:54Z", "human_checked": false, "auto_label": "автоматически, не проверено человеком"}}, {"type": "Feature", "id": "SZ-fresh-cozar_demo-2026-09-08-008", "geometry": {"type": "Polygon", "coordinates": [[[-1.678459, 35.411136], [-1.67979, 35.41061], [-1.680136, 35.409622], [-1.679493, 35.408533], [-1.678176, 35.408248], [-1.676846, 35.408775], [-1.676501, 35.409672], [-1.676818, 35.410487], [-1.677253, 35.410853], [-1.678459, 35.411136]]]}, "properties": {"kind": "detection_zone", "layer_kind": "scene_zone", "zone_id": "SZ-fresh-cozar_demo-2026-09-08-008", "scene_key": "fresh-cozar_demo-2026-09-08", "scene_kind": "fresh_s2", "scene_id": "S2A_MSIL2A_20260908T104651_R051_T30SXE_20260908T191911", "region": "cozar_demo", "title": "Альборанское море (акватория демо Cózar 2024) · зона 8", "mission": "Sentinel-2", "datetime": "2026-09-08T10:46:51.024000Z", "detection_status": "insufficient_data", "status": "insufficient_data", "concentration_status": "unavailable", "quantity": {"status": "not_confirmed", "label": "концентрация по снимку не подтверждена", "detail": "перевод площади в штуки не показываем: нет калибровочных пар (см. docs/QUANTITY.md)"}, "verification": "false_alarm_signs", "training_scene": null, "flags": ["foam"], "n_cozar_filaments": 0, "crop_file": "crops/SZ-fresh-cozar_demo-2026-09-08-008.jpg", "wind_high": false, "measured": {"zone_area_km2": 0.0774, "suspicious_area_m2": 500, "n_pixels": 5, "n_objects": 1, "water_km2": 0.0794, "lwd_m2_km2": 6297.2, "lwd_note": null, "quality": {"valid_water_fraction": 1.0, "cloud_fraction": 0.0, "glint_fraction": 0.0}, "model": {"weights": "weights/lgbm", "file": "weights/lgbm/model.txt", "sha256": "0eeebf43fcccd8c7c07f053b7ec723229d1a3c9b92d12eec1bdb269258c51470", "sha256_short": "0eeebf43fccc", "trained_at": "2026-09-25T01:36:30Z", "threshold": 0.63, "harmonize": "none", "class": "MARIDA Marine Debris (любой плавающий мусор, не только пластик)"}}, "probable": {"prob_max": 0.925, "prob_mean": 0.764, "signs": {"foam": {"flag": true, "white_ratio_b2_b8": 1.283, "wind10m_ms": 2.64, "rule": "прирост B2 над водой ≥ 0.8 прироста B8 («белый» спектр) или ветер ≥ 7.0 м/с"}, "glint": {"flag": false, "b11_water_median": 0.0062, "glint_share": 0.0, "rule": "медиана B11 воды зоны > 0.01 или ≥ 20 % пикселей зоны — блик (маска качества)"}, "ship": {"flag": false, "share": 0, "bright_target_px_within_500m": 0, "rule": "≥ 30 % пикселей — у яркой цели или кильватера (reports/artifacts.md) или яркая цель с откликом в SWIR (судно, лодка: B11 ≥ 0,015) ближе 500 м, или малый яркий объект (≤ 40 пикс.) с B11 ≥ 0,01 ближе 500 м (лодка с кильватером)"}, "coast": {"flag": false, "land_px_within_300m": 0, "rule": "суша (маска качества) ближе 300 м — прибой, кромка берега"}, "shallow": {"flag": false, "b3_water_zone": 0.0152, "b3_ratio_to_scene_water": 1.16, "rule": "медиана B3 воды зоны ≥ 2× медианы воды снимка и ≥ 0,03, или B4 воды зоны ≥ 0,02 и (≥ 2× воды снимка или B8 ≥ 0,013) — мелководье, яркое дно, илистая банка"}, "seam": {"flag": false, "share": 0, "rule": "≥ 30 % пикселей — прямая линия вдоль трека/границы яркости (шов)"}, "cloud": {"flag": false, "cloud_fraction": 0.0, "rule": "облака или тени облаков (маска качества) ≥ 20 % зоны"}, "diag": {"dist_land_m": null, "dist_bright_m": 1184, "n_bright_px_500m": 0, "b11_bright_max_500m": null, "b4_water_zone": 0.0101, "b8_water_zone": 0.0076, "b11_det_median": 0.0126, "b8_det_median": 0.0245, "water_scene_b3": 0.0131, "water_scene_b4": 0.0082, "n_det_px": 5, "n_obj": 1}, "note": "эвристики, не классификатор; на размеченных данных не проверены"}, "n_cozar_filaments": 0}, "field_nearby": {"items": [{"source": "ADIS (4TU.ResearchData, судовая камера)", "segment_id": 437373, "ship": "R/V SOCIB", "date": "2023-05-09", "days_from_scene": -1218, "distance_km": 521.2, "lon": 1.45866, "lat": 39.48127, "n_items": 0, "area_km2": 0.2799, "size_class": "> 5 см", "c_items_km2": 0.0, "ci95_lo": 0.0, "ci95_hi": 13.18, "ci95_method": "точный интервал Пуассона для N, делённый на A", "raw_10cm_items_km2": 0.0, "authors_cal_10cm_items_km2": 0.0, "authors_cal_10cm_lo95": null, "authors_cal_10cm_hi95": null}, {"source": "ADIS (4TU.ResearchData, судовая камера)", "segment_id": 437372, "ship": "R/V SOCIB", "date": "2023-05-09", "days_from_scene": -1218, "distance_km": 524.6, "lon": 1.52399, "lat": 39.48282, "n_items": 0, "area_km2": 0.1103, "size_class": "> 5 см", "c_items_km2": 0.0, "ci95_lo": 0.0, "ci95_hi": 33.44, "ci95_method": "точный интервал Пуассона для N, делённый на A", "raw_10cm_items_km2": 0.0, "authors_cal_10cm_items_km2": 0.0, "authors_cal_10cm_lo95": null, "authors_cal_10cm_hi95": null}, {"source": "ADIS (4TU.ResearchData, судовая камера)", "segment_id": 437314, "ship": "R/V SOCIB", "date": "2023-04-26", "days_from_scene": -1231, "distance_km": 525.6, "lon": 1.38936, "lat": 39.56288, "n_items": 0, "area_km2": 0.105, "size_class": "> 5 см", "c_items_km2": 0.0, "ci95_lo": 0.0, "ci95_hi": 35.15, "ci95_method": "точный интервал Пуассона для N, делённый на A", "raw_10cm_items_km2": 0.0, "authors_cal_10cm_items_km2": 0.0, "authors_cal_10cm_lo95": null, "authors_cal_10cm_hi95": null}], "nearest_organizer_sample": {"sample_id": "MPL-0175", "source_id": "S3_SE_NORTH_SEA", "distance_km": 2140.3}, "note": "Измерение ≠ оценка: это независимые полевые счёты C = N/A в другое время и в другом месте; со сценой они не связаны и не калибруют её. Ближайший отрезок ADIS — за 521 км: только для порядка величин."}, "acquired_at": "2026-09-08T10:46:51.024000Z", "acquisition_date": "2026-09-08", "processed_at": "2026-09-26T19:20:54Z", "human_checked": false, "auto_label": "автоматически, не проверено человеком"}}]}