{"type": "FeatureCollection", "features": [{"type": "Feature", "id": "SZ-fresh-karachi-2026-09-22-001", "geometry": {"type": "Polygon", "coordinates": [[[66.962428, 24.812558], [66.961542, 24.812275], [66.961058, 24.811636], [66.961074, 24.810643], [66.961582, 24.809838], [66.962977, 24.809225], [66.964454, 24.809606], [66.96503, 24.810697], [66.964717, 24.811686], [66.963518, 24.812392], [66.962428, 24.812558]]]}, "properties": {"kind": "detection_zone", "layer_kind": "scene_zone", "zone_id": "SZ-fresh-karachi-2026-09-22-001", "scene_key": "fresh-karachi-2026-09-22", "scene_kind": "fresh_s2", "scene_id": "S2C_MSIL2A_20260922T060631_R134_T42RTN_20260922T084907", "region": "karachi", "title": "Карачи (порт, устье Лиари) · зона 1", "mission": "Sentinel-2", "datetime": "2026-09-22T06:06:31.025000Z", "detection_status": "insufficient_data", "status": "insufficient_data", "concentration_status": "unavailable", "quantity": {"status": "not_confirmed", "label": "концентрация по снимку не подтверждена", "detail": "перевод площади в штуки не показываем: нет калибровочных пар (см. docs/QUANTITY.md)"}, "verification": "false_alarm_signs", "training_scene": null, "flags": ["ship", "coast", "shallow", "glint"], "n_cozar_filaments": 0, "crop_file": "crops/SZ-fresh-karachi-2026-09-22-001.jpg", "wind_high": false, "measured": {"zone_area_km2": 0.1108, "suspicious_area_m2": 3100, "n_pixels": 31, "n_objects": 2, "water_km2": 0.0777, "lwd_m2_km2": 39897.0, "lwd_note": null, "quality": {"valid_water_fraction": 0.696, "cloud_fraction": 0.0, "glint_fraction": 0.0}, "model": {"weights": "weights/lgbm", "file": "weights/lgbm/model.txt", "sha256": "0eeebf43fcccd8c7c07f053b7ec723229d1a3c9b92d12eec1bdb269258c51470", "sha256_short": "0eeebf43fccc", "trained_at": "2026-09-25T01:36:30Z", "threshold": 0.63, "harmonize": "none", "class": "MARIDA Marine Debris (любой плавающий мусор, не только пластик)"}}, "probable": {"prob_max": 0.961, "prob_mean": 0.827, "signs": {"foam": {"flag": false, "white_ratio_b2_b8": 0.109, "wind10m_ms": 2.26, "rule": "прирост B2 над водой ≥ 0.8 прироста B8 («белый» спектр) или ветер ≥ 7.0 м/с"}, "glint": {"flag": true, "b11_water_median": 0.0273, "glint_share": 0.0, "rule": "медиана B11 воды зоны > 0.01 или ≥ 20 % пикселей зоны — блик (маска качества)"}, "ship": {"flag": true, "share": 0, "bright_target_px_within_500m": 303, "rule": "≥ 30 % пикселей — у яркой цели или кильватера (reports/artifacts.md) или яркая цель с откликом в SWIR (судно, лодка: B11 ≥ 0,015) ближе 500 м, или малый яркий объект (≤ 40 пикс.) с B11 ≥ 0,01 ближе 500 м (лодка с кильватером)"}, "coast": {"flag": true, "land_px_within_300m": 1335, "rule": "суша (маска качества) ближе 300 м — прибой, кромка берега"}, "shallow": {"flag": true, "b3_water_zone": 0.0436, "b3_ratio_to_scene_water": 0.79, "rule": "медиана B3 воды зоны ≥ 2× медианы воды снимка и ≥ 0,03, или B4 воды зоны ≥ 0,02 и (≥ 2× воды снимка или B8 ≥ 0,013) — мелководье, яркое дно, илистая банка"}, "seam": {"flag": false, "share": 0, "rule": "≥ 30 % пикселей — прямая линия вдоль трека/границы яркости (шов)"}, "cloud": {"flag": false, "cloud_fraction": 0.0, "rule": "облака или тени облаков (маска качества) ≥ 20 % зоны"}, "diag": {"dist_land_m": 86, "dist_bright_m": 85, "n_bright_px_500m": 83, "b11_bright_max_500m": 0.3258, "b4_water_zone": 0.0382, "b8_water_zone": 0.0372, "b11_det_median": 0.0314, "b8_det_median": 0.0735, "water_scene_b3": 0.0554, "water_scene_b4": 0.045, "n_det_px": 31, "n_obj": 2}, "note": "эвристики, не классификатор; на размеченных данных не проверены"}, "n_cozar_filaments": 0}, "field_nearby": {"items": [{"source": "ADIS (4TU.ResearchData, судовая камера)", "segment_id": 335769, "ship": "Dallaporta", "date": "2023-04-09", "days_from_scene": -1262, "distance_km": 5172.1, "lon": 18.55051, "lat": 40.01099, "n_items": 1, "area_km2": 0.1613, "size_class": "> 5 см", "c_items_km2": 6.2, "ci95_lo": 0.16, "ci95_hi": 34.53, "ci95_method": "точный интервал Пуассона для N, делённый на A", "raw_10cm_items_km2": 6.2, "authors_cal_10cm_items_km2": 22.44, "authors_cal_10cm_lo95": null, "authors_cal_10cm_hi95": null}, {"source": "ADIS (4TU.ResearchData, судовая камера)", "segment_id": 335770, "ship": "Dallaporta", "date": "2023-04-09", "days_from_scene": -1262, "distance_km": 5172.6, "lon": 18.56195, "lat": 40.05698, "n_items": 0, "area_km2": 0.2555, "size_class": "> 5 см", "c_items_km2": 0.0, "ci95_lo": 0.0, "ci95_hi": 14.44, "ci95_method": "точный интервал Пуассона для N, делённый на A", "raw_10cm_items_km2": 0.0, "authors_cal_10cm_items_km2": 0.0, "authors_cal_10cm_lo95": null, "authors_cal_10cm_hi95": null}, {"source": "ADIS (4TU.ResearchData, судовая камера)", "segment_id": 335768, "ship": "Dallaporta", "date": "2023-04-09", "days_from_scene": -1262, "distance_km": 5172.7, "lon": 18.52174, "lat": 39.95216, "n_items": 4, "area_km2": 0.3999, "size_class": "> 5 см", "c_items_km2": 10.0, "ci95_lo": 2.73, "ci95_hi": 25.61, "ci95_method": "точный интервал Пуассона для N, делённый на A", "raw_10cm_items_km2": 10.0, "authors_cal_10cm_items_km2": 35.18, "authors_cal_10cm_lo95": null, "authors_cal_10cm_hi95": null}], "nearest_organizer_sample": {"sample_id": "MPL-0922", "source_id": "S4_BLACK_SEA_DOORS3", "distance_km": 3168.2}, "note": "Измерение ≠ оценка: это независимые полевые счёты C = N/A в другое время и в другом месте; со сценой они не связаны и не калибруют её. Ближайший отрезок ADIS — за 5172 км: только для порядка величин."}, "acquired_at": "2026-09-22T06:06:31.025000Z", "acquisition_date": "2026-09-22", "processed_at": "2026-09-26T18:56:10Z", "human_checked": false, "auto_label": "автоматически, не проверено человеком"}}]}